{"type":"FeatureCollection","metadata":{"note":"Seed records; normalized live NESO and ENTSO-E connectors supplement these during refresh."},"features":[{"type":"Feature","id":"neso-b6","geometry":{"type":"Point","coordinates":[-2,55]},"properties":{"id":"neso-b6","sourceOperator":"NESO","sourceRecordId":"B6","recordType":"congestion","market":"GB","capacityValue":6200,"capacityUnit":"MW","evidenceClass":"reported","confidence":90,"licence":"NESO Open Licence","observedAt":"2026-07-12T00:00:00Z","qualityFlags":[],"native":{"boundary":"Scotland–England"}}}]}
