{"features":[{"geometry":{"coordinates":[69.294854,34.561557],"type":"Point"},"id":"wattlas-plant-gemplant-l100000408996","properties":{"aliases":["1.0","Tarakhil power station"],"canonicalAnchor":"gemplant:L100000408996","canonicalCountryKey":"AF","capacityMw":105.0,"country":"AF","externalIds":{"gemPlant":"L100000408996","gemUnit":"G100000413490"},"geographyId":"AF-12653393B60423242182357","id":"wattlas-plant-gemplant-l100000408996","lifecycleCounts":{"operational":1},"locationPrecision":"exact","name":"Tarakhil power station","operatingCapacityCoverage":{"coveragePercent":100.0,"knownUnitCount":1,"method":"complete_unit_sum","provenance":{"evidenceCount":0,"recordIds":["wattlas-record-gemunit-g100000413490"],"sourceIds":["gem-global-integrated-power-tracker"],"sourceTypes":["research_verified"],"valueKind":"reported"},"totalUnitCount":1},"operatingCapacityMw":105.0,"operatingCapacityMwByTechnology":{"gas":105.0},"plannedCapacityCoverage":{"coveragePercent":0.0,"knownUnitCount":0,"method":"unavailable","totalUnitCount":0},"plannedCapacityMw":0.0,"plannedCapacityMwByTechnology":{},"recordCount":1,"recordIds":["wattlas-record-gemunit-g100000413490"],"sourceIds":["gem-global-integrated-power-tracker"],"technologies":["gas"],"technologyMixMw":{"gas":105.0},"unitCount":1,"unitIds":["gem-unit-G100000413490"]},"type":"Feature"},{"geometry":{"coordinates":[65.985089,36.692494],"type":"Point"},"id":"wattlas-plant-gemplant-l100000408997","properties":{"aliases":["Bayat IPP power station","Phase 1","Phase 2","Phase 3"],"canonicalAnchor":"gemplant:L100000408997","canonicalCountryKey":"AF","capacityMw":200.0,"country":"AF","externalIdAliases":{"gemUnit":["G100000413491","G100001019966","G100001019967"]},"externalIds":{"gemPlant":"L100000408997","gemUnit":"G100001019967"},"geographyId":"AF-12653393B68515507308334","id":"wattlas-plant-gemplant-l100000408997","lifecycleCounts":{"announced":2,"operational":1},"locationPrecision":"exact","name":"Bayat IPP power station","operatingCapacityCoverage":{"coveragePercent":100.0,"knownUnitCount":1,"method":"complete_unit_sum","provenance":{"evidenceCount":0,"recordIds":["wattlas-record-gemunit-g100000413491"],"sourceIds":["gem-global-integrated-power-tracker"],"sourceTypes":["research_verified"],"valueKind":"reported"},"totalUnitCount":1},"operatingCapacityMw":40.0,"operatingCapacityMwByTechnology":{"gas":40.0},"plannedCapacityCoverage":{"coveragePercent":100.0,"knownUnitCount":2,"method":"complete_unit_sum","provenance":{"evidenceCount":0,"recordIds":["wattlas-record-gemunit-g100001019966","wattlas-record-gemunit-g100001019967"],"sourceIds":["gem-global-integrated-power-tracker"],"sourceTypes":["research_verified"],"valueKind":"reported"},"totalUnitCount":2},"plannedCapacityMw":160.0,"plannedCapacityMwByTechnology":{"gas":160.0},"recordCount":3,"recordIds":["wattlas-record-gemunit-g100000413491","wattlas-record-gemunit-g100001019966","wattlas-record-gemunit-g100001019967"],"sourceIds":["gem-global-integrated-power-tracker"],"technologies":["gas"],"technologyMixMw":{"gas":200.0},"unitCount":3,"unitIds":["gem-unit-G100000413491","gem-unit-G100001019966","gem-unit-G100001019967"]},"type":"Feature"},{"geometry":{"coordinates":[69.7171,34.6414],"type":"Point"},"id":"wattlas-plant-gemplant-l100000600002","properties":{"aliases":["Naghlu hydroelectric plant"],"canonicalAnchor":"gemplant:L100000600002","canonicalCountryKey":"AF","capacityMw":94.0,"country":"AF","externalIds":{"gemPlant":"L100000600002","gemUnit":"G100000600002"},"geographyId":"AF-12653393B60423242182357","id":"wattlas-plant-gemplant-l100000600002","lifecycleCounts":{"operational":1},"locationPrecision":"exact","name":"Naghlu hydroelectric plant","operatingCapacityCoverage":{"coveragePercent":100.0,"knownUnitCount":1,"method":"complete_unit_sum","provenance":{"evidenceCount":0,"recordIds":["wattlas-record-gemunit-g100000600002"],"sourceIds":["gem-global-integrated-power-tracker"],"sourceTypes":["research_verified"],"valueKind":"reported"},"totalUnitCount":1},"operatingCapacityMw":94.0,"operatingCapacityMwByTechnology":{"hydro":94.0},"plannedCapacityCoverage":{"coveragePercent":0.0,"knownUnitCount":0,"method":"unavailable","totalUnitCount":0},"plannedCapacityMw":0.0,"plannedCapacityMwByTechnology":{},"recordCount":1,"recordIds":["wattlas-record-gemunit-g100000600002"],"sourceIds":["gem-global-integrated-power-tracker"],"technologies":["hydro"],"technologyMixMw":{"hydro":94.0},"unitCount":1,"unitIds":["gem-unit-G100000600002"]},"type":"Feature"},{"geometry":{"coordinates":[65.1184,32.3226],"type":"Point"},"id":"wattlas-plant-gemplant-l100000604252","properties":{"aliases":["Kajaki 2 hydroelectric plant"],"canonicalAnchor":"gemplant:L100000604252","canonicalCountryKey":"AF","capacityMw":100.0,"country":"AF","externalIds":{"gemPlant":"L100000604252","gemUnit":"G100000604480"},"geographyId":"AF-12653393B44617690613931","id":"wattlas-plant-gemplant-l100000604252","lifecycleCounts":{"operational":1},"locationPrecision":"exact","name":"Kajaki 2 hydroelectric plant","operatingCapacityCoverage":{"coveragePercent":100.0,"knownUnitCount":1,"method":"complete_unit_sum","provenance":{"evidenceCount":0,"recordIds":["wattlas-record-gemunit-g100000604480"],"sourceIds":["gem-global-integrated-power-tracker"],"sourceTypes":["research_verified"],"valueKind":"reported"},"totalUnitCount":1},"operatingCapacityMw":100.0,"operatingCapacityMwByTechnology":{"hydro":100.0},"plannedCapacityCoverage":{"coveragePercent":0.0,"knownUnitCount":0,"method":"unavailable","totalUnitCount":0},"plannedCapacityMw":0.0,"plannedCapacityMwByTechnology":{},"recordCount":1,"recordIds":["wattlas-record-gemunit-g100000604480"],"sourceIds":["gem-global-integrated-power-tracker"],"technologies":["hydro"],"technologyMixMw":{"hydro":100.0},"unitCount":1,"unitIds":["gem-unit-G100000604480"]},"type":"Feature"},{"geometry":{"coordinates":[69.7152,34.609],"type":"Point"},"id":"wattlas-plant-gemplant-l100000801180","properties":{"aliases":["--","Naghlu solar farm"],"canonicalAnchor":"gemplant:L100000801180","canonicalCountryKey":"AF","capacityMw":22.8,"country":"AF","externalIds":{"gemPlant":"L100000801180","gemUnit":"G100000801360"},"geographyId":"AF-12653393B60423242182357","id":"wattlas-plant-gemplant-l100000801180","lifecycleCounts":{"operational":1},"locationPrecision":"exact","name":"Naghlu solar farm","operatingCapacityCoverage":{"coveragePercent":100.0,"knownUnitCount":1,"method":"complete_unit_sum","provenance":{"evidenceCount":0,"recordIds":["wattlas-record-gemunit-g100000801360"],"sourceIds":["gem-global-integrated-power-tracker"],"sourceTypes":["research_verified"],"valueKind":"reported"},"totalUnitCount":1},"operatingCapacityMw":22.8,"operatingCapacityMwByTechnology":{"solar":22.8},"plannedCapacityCoverage":{"coveragePercent":0.0,"knownUnitCount":0,"method":"unavailable","totalUnitCount":0},"plannedCapacityMw":0.0,"plannedCapacityMwByTechnology":{},"recordCount":1,"recordIds":["wattlas-record-gemunit-g100000801360"],"sourceIds":["gem-global-integrated-power-tracker"],"technologies":["solar"],"technologyMixMw":{"solar":22.8},"unitCount":1,"unitIds":["gem-unit-G100000801360"]},"type":"Feature"},{"geometry":{"coordinates":[65.7139,31.6536],"type":"Point"},"id":"wattlas-plant-gemplant-l100000808559","properties":{"aliases":["--","Ayno Mena solar farm"],"canonicalAnchor":"gemplant:L100000808559","canonicalCountryKey":"AF","capacityMw":0.0,"country":"AF","externalIds":{"gemPlant":"L100000808559","gemUnit":"G100000810804"},"geographyId":"AF-12653393B40111500734429","id":"wattlas-plant-gemplant-l100000808559","lifecycleCounts":{"cancelled":1},"locationPrecision":"exact","name":"Ayno Mena solar farm","operatingCapacityCoverage":{"coveragePercent":0.0,"knownUnitCount":0,"method":"unavailable","totalUnitCount":0},"operatingCapacityMw":0.0,"operatingCapacityMwByTechnology":{},"plannedCapacityCoverage":{"coveragePercent":0.0,"knownUnitCount":0,"method":"unavailable","totalUnitCount":0},"plannedCapacityMw":0.0,"plannedCapacityMwByTechnology":{},"recordCount":1,"recordIds":["wattlas-record-gemunit-g100000810804"],"sourceIds":["gem-global-integrated-power-tracker"],"technologies":["solar"],"technologyMixMw":{"solar":0.0},"unitCount":1,"unitIds":["gem-unit-G100000810804"]},"type":"Feature"},{"geometry":{"coordinates":[62.8735,35.0779],"type":"Point"},"id":"wattlas-plant-gemplant-l100000808560","properties":{"aliases":["--","Badghis Solar Power Plant"],"canonicalAnchor":"gemplant:L100000808560","canonicalCountryKey":"AF","capacityMw":0.0,"country":"AF","externalIds":{"gemPlant":"L100000808560","gemUnit":"G100000810805"},"geographyId":"AF-12653393B49464330763444","id":"wattlas-plant-gemplant-l100000808560","lifecycleCounts":{"cancelled":1},"locationPrecision":"exact","name":"Badghis Solar Power Plant","operatingCapacityCoverage":{"coveragePercent":0.0,"knownUnitCount":0,"method":"unavailable","totalUnitCount":0},"operatingCapacityMw":0.0,"operatingCapacityMwByTechnology":{},"plannedCapacityCoverage":{"coveragePercent":0.0,"knownUnitCount":0,"method":"unavailable","totalUnitCount":0},"plannedCapacityMw":0.0,"plannedCapacityMwByTechnology":{},"recordCount":1,"recordIds":["wattlas-record-gemunit-g100000810805"],"sourceIds":["gem-global-integrated-power-tracker"],"technologies":["solar"],"technologyMixMw":{"solar":0.0},"unitCount":1,"unitIds":["gem-unit-G100000810805"]},"type":"Feature"},{"geometry":{"coordinates":[68.7401,36.1301],"type":"Point"},"id":"wattlas-plant-gemplant-l100000808561","properties":{"aliases":["--","Baghlan Markazi District Solar PV Project"],"canonicalAnchor":"gemplant:L100000808561","canonicalCountryKey":"AF","capacityMw":0.0,"country":"AF","externalIds":{"gemPlant":"L100000808561","gemUnit":"G100000810806"},"geographyId":"AF-12653393B95407416206470","id":"wattlas-plant-gemplant-l100000808561","lifecycleCounts":{"cancelled":1},"locationPrecision":"exact","name":"Baghlan Markazi District Solar PV Project","operatingCapacityCoverage":{"coveragePercent":0.0,"knownUnitCount":0,"method":"unavailable","totalUnitCount":0},"operatingCapacityMw":0.0,"operatingCapacityMwByTechnology":{},"plannedCapacityCoverage":{"coveragePercent":0.0,"knownUnitCount":0,"method":"unavailable","totalUnitCount":0},"plannedCapacityMw":0.0,"plannedCapacityMwByTechnology":{},"recordCount":1,"recordIds":["wattlas-record-gemunit-g100000810806"],"sourceIds":["gem-global-integrated-power-tracker"],"technologies":["solar"],"technologyMixMw":{"solar":0.0},"unitCount":1,"unitIds":["gem-unit-G100000810806"]},"type":"Feature"},{"geometry":{"coordinates":[70.4127,34.4067],"type":"Point"},"id":"wattlas-plant-gemplant-l100000808562","properties":{"aliases":["--","Behsood solar farm"],"canonicalAnchor":"gemplant:L100000808562","canonicalCountryKey":"AF","capacityMw":0.0,"country":"AF","externalIds":{"gemPlant":"L100000808562","gemUnit":"G100000810807"},"geographyId":"AF-12653393B37348667052817","id":"wattlas-plant-gemplant-l100000808562","lifecycleCounts":{"cancelled":1},"locationPrecision":"exact","name":"Behsood solar farm","operatingCapacityCoverage":{"coveragePercent":0.0,"knownUnitCount":0,"method":"unavailable","totalUnitCount":0},"operatingCapacityMw":0.0,"operatingCapacityMwByTechnology":{},"plannedCapacityCoverage":{"coveragePercent":0.0,"knownUnitCount":0,"method":"unavailable","totalUnitCount":0},"plannedCapacityMw":0.0,"plannedCapacityMwByTechnology":{},"recordCount":1,"recordIds":["wattlas-record-gemunit-g100000810807"],"sourceIds":["gem-global-integrated-power-tracker"],"technologies":["solar"],"technologyMixMw":{"solar":0.0},"unitCount":1,"unitIds":["gem-unit-G100000810807"]},"type":"Feature"},{"geometry":{"coordinates":[65.7139,31.6536],"type":"Point"},"id":"wattlas-plant-gemplant-l100000808563","properties":{"aliases":["--","Daman solar farm"],"canonicalAnchor":"gemplant:L100000808563","canonicalCountryKey":"AF","capacityMw":0.0,"country":"AF","externalIds":{"gemPlant":"L100000808563","gemUnit":"G100000810808"},"geographyId":"AF-12653393B40111500734429","id":"wattlas-plant-gemplant-l100000808563","lifecycleCounts":{"cancelled":1},"locationPrecision":"exact","name":"Daman solar farm","operatingCapacityCoverage":{"coveragePercent":0.0,"knownUnitCount":0,"method":"unavailable","totalUnitCount":0},"operatingCapacityMw":0.0,"operatingCapacityMwByTechnology":{},"plannedCapacityCoverage":{"coveragePercent":0.0,"knownUnitCount":0,"method":"unavailable","totalUnitCount":0},"plannedCapacityMw":0.0,"plannedCapacityMwByTechnology":{},"recordCount":1,"recordIds":["wattlas-record-gemunit-g100000810808"],"sourceIds":["gem-global-integrated-power-tracker"],"technologies":["solar"],"technologyMixMw":{"solar":0.0},"unitCount":1,"unitIds":["gem-unit-G100000810808"]},"type":"Feature"},{"geometry":{"coordinates":[65.7139,31.6536],"type":"Point"},"id":"wattlas-plant-gemplant-l100000808564","properties":{"aliases":["--","Dand solar farm"],"canonicalAnchor":"gemplant:L100000808564","canonicalCountryKey":"AF","capacityMw":0.0,"country":"AF","externalIds":{"gemPlant":"L100000808564","gemUnit":"G100000810809"},"geographyId":"AF-12653393B40111500734429","id":"wattlas-plant-gemplant-l100000808564","lifecycleCounts":{"cancelled":1},"locationPrecision":"exact","name":"Dand solar farm","operatingCapacityCoverage":{"coveragePercent":0.0,"knownUnitCount":0,"method":"unavailable","totalUnitCount":0},"operatingCapacityMw":0.0,"operatingCapacityMwByTechnology":{},"plannedCapacityCoverage":{"coveragePercent":0.0,"knownUnitCount":0,"method":"unavailable","totalUnitCount":0},"plannedCapacityMw":0.0,"plannedCapacityMwByTechnology":{},"recordCount":1,"recordIds":["wattlas-record-gemunit-g100000810809"],"sourceIds":["gem-global-integrated-power-tracker"],"technologies":["solar"],"technologyMixMw":{"solar":0.0},"unitCount":1,"unitIds":["gem-unit-G100000810809"]},"type":"Feature"},{"geometry":{"coordinates":[66.2129,33.429],"type":"Point"},"id":"wattlas-plant-gemplant-l100000808565","properties":{"aliases":["--","Daykundi solar power plant"],"canonicalAnchor":"gemplant:L100000808565","canonicalCountryKey":"AF","capacityMw":0.0,"country":"AF","externalIds":{"gemPlant":"L100000808565","gemUnit":"G100000810810"},"geographyId":"AF-12653393B78791504725813","id":"wattlas-plant-gemplant-l100000808565","lifecycleCounts":{"cancelled":1},"locationPrecision":"exact","name":"Daykundi solar power plant","operatingCapacityCoverage":{"coveragePercent":0.0,"knownUnitCount":0,"method":"unavailable","totalUnitCount":0},"operatingCapacityMw":0.0,"operatingCapacityMwByTechnology":{},"plannedCapacityCoverage":{"coveragePercent":0.0,"knownUnitCount":0,"method":"unavailable","totalUnitCount":0},"plannedCapacityMw":0.0,"plannedCapacityMwByTechnology":{},"recordCount":1,"recordIds":["wattlas-record-gemunit-g100000810810"],"sourceIds":["gem-global-integrated-power-tracker"],"technologies":["solar"],"technologyMixMw":{"solar":0.0},"unitCount":1,"unitIds":["gem-unit-G100000810810"]},"type":"Feature"},{"geometry":{"coordinates":[66.9805,36.6583],"type":"Point"},"id":"wattlas-plant-gemplant-l100000808566","properties":{"aliases":["--","Dehdadi solar project"],"canonicalAnchor":"gemplant:L100000808566","canonicalCountryKey":"AF","capacityMw":0.0,"country":"AF","externalIds":{"gemPlant":"L100000808566","gemUnit":"G100000810811"},"geographyId":"AF-12653393B32704257785092","id":"wattlas-plant-gemplant-l100000808566","lifecycleCounts":{"cancelled":1},"locationPrecision":"exact","name":"Dehdadi solar project","operatingCapacityCoverage":{"coveragePercent":0.0,"knownUnitCount":0,"method":"unavailable","totalUnitCount":0},"operatingCapacityMw":0.0,"operatingCapacityMwByTechnology":{},"plannedCapacityCoverage":{"coveragePercent":0.0,"knownUnitCount":0,"method":"unavailable","totalUnitCount":0},"plannedCapacityMw":0.0,"plannedCapacityMwByTechnology":{},"recordCount":1,"recordIds":["wattlas-record-gemunit-g100000810811"],"sourceIds":["gem-global-integrated-power-tracker"],"technologies":["solar"],"technologyMixMw":{"solar":0.0},"unitCount":1,"unitIds":["gem-unit-G100000810811"]},"type":"Feature"},{"geometry":{"coordinates":[62.2301,34.373],"type":"Point"},"id":"wattlas-plant-gemplant-l100000808569","properties":{"aliases":["--","Enjil solar farm"],"canonicalAnchor":"gemplant:L100000808569","canonicalCountryKey":"AF","capacityMw":0.0,"country":"AF","externalIds":{"gemPlant":"L100000808569","gemUnit":"G100000810814"},"geographyId":"AF-12653393B41529784753429","id":"wattlas-plant-gemplant-l100000808569","lifecycleCounts":{"cancelled":1},"locationPrecision":"exact","name":"Enjil solar farm","operatingCapacityCoverage":{"coveragePercent":0.0,"knownUnitCount":0,"method":"unavailable","totalUnitCount":0},"operatingCapacityMw":0.0,"operatingCapacityMwByTechnology":{},"plannedCapacityCoverage":{"coveragePercent":0.0,"knownUnitCount":0,"method":"unavailable","totalUnitCount":0},"plannedCapacityMw":0.0,"plannedCapacityMwByTechnology":{},"recordCount":1,"recordIds":["wattlas-record-gemunit-g100000810814"],"sourceIds":["gem-global-integrated-power-tracker"],"technologies":["solar"],"technologyMixMw":{"solar":0.0},"unitCount":1,"unitIds":["gem-unit-G100000810814"]},"type":"Feature"},{"geometry":{"coordinates":[61.6567,32.7779],"type":"Point"},"id":"wattlas-plant-gemplant-l100000808570","properties":{"aliases":["--","Farah Solar Power Plant"],"canonicalAnchor":"gemplant:L100000808570","canonicalCountryKey":"AF","capacityMw":0.0,"country":"AF","externalIds":{"gemPlant":"L100000808570","gemUnit":"G100000810815"},"geographyId":"AF-12653393B38600812522696","id":"wattlas-plant-gemplant-l100000808570","lifecycleCounts":{"cancelled":1},"locationPrecision":"exact","name":"Farah Solar Power Plant","operatingCapacityCoverage":{"coveragePercent":0.0,"knownUnitCount":0,"method":"unavailable","totalUnitCount":0},"operatingCapacityMw":0.0,"operatingCapacityMwByTechnology":{},"plannedCapacityCoverage":{"coveragePercent":0.0,"knownUnitCount":0,"method":"unavailable","totalUnitCount":0},"plannedCapacityMw":0.0,"plannedCapacityMwByTechnology":{},"recordCount":1,"recordIds":["wattlas-record-gemunit-g100000810815"],"sourceIds":["gem-global-integrated-power-tracker"],"technologies":["solar"],"technologyMixMw":{"solar":0.0},"unitCount":1,"unitIds":["gem-unit-G100000810815"]},"type":"Feature"},{"geometry":{"coordinates":[64.5505,35.8555],"type":"Point"},"id":"wattlas-plant-gemplant-l100000808572","properties":{"aliases":["--","Faryab Solar Power Plant"],"canonicalAnchor":"gemplant:L100000808572","canonicalCountryKey":"AF","capacityMw":0.0,"country":"AF","externalIds":{"gemPlant":"L100000808572","gemUnit":"G100000810817"},"geographyId":"AF-12653393B15327610512620","id":"wattlas-plant-gemplant-l100000808572","lifecycleCounts":{"cancelled":1},"locationPrecision":"exact","name":"Faryab Solar Power Plant","operatingCapacityCoverage":{"coveragePercent":0.0,"knownUnitCount":0,"method":"unavailable","totalUnitCount":0},"operatingCapacityMw":0.0,"operatingCapacityMwByTechnology":{},"plannedCapacityCoverage":{"coveragePercent":0.0,"knownUnitCount":0,"method":"unavailable","totalUnitCount":0},"plannedCapacityMw":0.0,"plannedCapacityMwByTechnology":{},"recordCount":1,"recordIds":["wattlas-record-gemunit-g100000810817"],"sourceIds":["gem-global-integrated-power-tracker"],"technologies":["solar"],"technologyMixMw":{"solar":0.0},"unitCount":1,"unitIds":["gem-unit-G100000810817"]},"type":"Feature"},{"geometry":{"coordinates":[67.2163,33.5297],"type":"Point"},"id":"wattlas-plant-gemplant-l100000808573","properties":{"aliases":["--","Ghazni Solar Power Plant"],"canonicalAnchor":"gemplant:L100000808573","canonicalCountryKey":"AF","capacityMw":0.0,"country":"AF","externalIds":{"gemPlant":"L100000808573","gemUnit":"G100000810818"},"geographyId":"AF-12653393B29313712249365","id":"wattlas-plant-gemplant-l100000808573","lifecycleCounts":{"cancelled":1},"locationPrecision":"exact","name":"Ghazni Solar Power Plant","operatingCapacityCoverage":{"coveragePercent":0.0,"knownUnitCount":0,"method":"unavailable","totalUnitCount":0},"operatingCapacityMw":0.0,"operatingCapacityMwByTechnology":{},"plannedCapacityCoverage":{"coveragePercent":0.0,"knownUnitCount":0,"method":"unavailable","totalUnitCount":0},"plannedCapacityMw":0.0,"plannedCapacityMwByTechnology":{},"recordCount":1,"recordIds":["wattlas-record-gemunit-g100000810818"],"sourceIds":["gem-global-integrated-power-tracker"],"technologies":["solar"],"technologyMixMw":{"solar":0.0},"unitCount":1,"unitIds":["gem-unit-G100000810818"]},"type":"Feature"},{"geometry":{"coordinates":[68.4777,33.6036],"type":"Point"},"id":"wattlas-plant-gemplant-l100000808574","properties":{"aliases":["--","Ghazni Solar Project"],"canonicalAnchor":"gemplant:L100000808574","canonicalCountryKey":"AF","capacityMw":0.0,"country":"AF","externalIds":{"gemPlant":"L100000808574","gemUnit":"G100000810819"},"geographyId":"AF-12653393B29313712249365","id":"wattlas-plant-gemplant-l100000808574","lifecycleCounts":{"cancelled":1},"locationPrecision":"exact","name":"Ghazni Solar Project","operatingCapacityCoverage":{"coveragePercent":0.0,"knownUnitCount":0,"method":"unavailable","totalUnitCount":0},"operatingCapacityMw":0.0,"operatingCapacityMwByTechnology":{},"plannedCapacityCoverage":{"coveragePercent":0.0,"knownUnitCount":0,"method":"unavailable","totalUnitCount":0},"plannedCapacityMw":0.0,"plannedCapacityMwByTechnology":{},"recordCount":1,"recordIds":["wattlas-record-gemunit-g100000810819"],"sourceIds":["gem-global-integrated-power-tracker"],"technologies":["solar"],"technologyMixMw":{"solar":0.0},"unitCount":1,"unitIds":["gem-unit-G100000810819"]},"type":"Feature"},{"geometry":{"coordinates":[65.2909,34.9198],"type":"Point"},"id":"wattlas-plant-gemplant-l100000808575","properties":{"aliases":["--","Ghor Solar Power Plant"],"canonicalAnchor":"gemplant:L100000808575","canonicalCountryKey":"AF","capacityMw":0.0,"country":"AF","externalIds":{"gemPlant":"L100000808575","gemUnit":"G100000810820"},"geographyId":"AF-12653393B10656178064549","id":"wattlas-plant-gemplant-l100000808575","lifecycleCounts":{"cancelled":1},"locationPrecision":"exact","name":"Ghor Solar Power Plant","operatingCapacityCoverage":{"coveragePercent":0.0,"knownUnitCount":0,"method":"unavailable","totalUnitCount":0},"operatingCapacityMw":0.0,"operatingCapacityMwByTechnology":{},"plannedCapacityCoverage":{"coveragePercent":0.0,"knownUnitCount":0,"method":"unavailable","totalUnitCount":0},"plannedCapacityMw":0.0,"plannedCapacityMwByTechnology":{},"recordCount":1,"recordIds":["wattlas-record-gemunit-g100000810820"],"sourceIds":["gem-global-integrated-power-tracker"],"technologies":["solar"],"technologyMixMw":{"solar":0.0},"unitCount":1,"unitIds":["gem-unit-G100000810820"]},"type":"Feature"},{"geometry":{"coordinates":[62.2179,34.1846],"type":"Point"},"id":"wattlas-plant-gemplant-l100000808576","properties":{"aliases":["--","Guzara solar farm"],"canonicalAnchor":"gemplant:L100000808576","canonicalCountryKey":"AF","capacityMw":0.0,"country":"AF","externalIds":{"gemPlant":"L100000808576","gemUnit":"G100000810821"},"geographyId":"AF-12653393B41529784753429","id":"wattlas-plant-gemplant-l100000808576","lifecycleCounts":{"cancelled":1},"locationPrecision":"exact","name":"Guzara solar farm","operatingCapacityCoverage":{"coveragePercent":0.0,"knownUnitCount":0,"method":"unavailable","totalUnitCount":0},"operatingCapacityMw":0.0,"operatingCapacityMwByTechnology":{},"plannedCapacityCoverage":{"coveragePercent":0.0,"knownUnitCount":0,"method":"unavailable","totalUnitCount":0},"plannedCapacityMw":0.0,"plannedCapacityMwByTechnology":{},"recordCount":1,"recordIds":["wattlas-record-gemunit-g100000810821"],"sourceIds":["gem-global-integrated-power-tracker"],"technologies":["solar"],"technologyMixMw":{"solar":0.0},"unitCount":1,"unitIds":["gem-unit-G100000810821"]},"type":"Feature"},{"geometry":{"coordinates":[64.3268,31.6375],"type":"Point"},"id":"wattlas-plant-gemplant-l100000808577","properties":{"aliases":["--","Helmand Solar Project"],"canonicalAnchor":"gemplant:L100000808577","canonicalCountryKey":"AF","capacityMw":0.0,"country":"AF","externalIds":{"gemPlant":"L100000808577","gemUnit":"G100000810822"},"geographyId":"AF-12653393B44617690613931","id":"wattlas-plant-gemplant-l100000808577","lifecycleCounts":{"cancelled":1},"locationPrecision":"exact","name":"Helmand Solar Project","operatingCapacityCoverage":{"coveragePercent":0.0,"knownUnitCount":0,"method":"unavailable","totalUnitCount":0},"operatingCapacityMw":0.0,"operatingCapacityMwByTechnology":{},"plannedCapacityCoverage":{"coveragePercent":0.0,"knownUnitCount":0,"method":"unavailable","totalUnitCount":0},"plannedCapacityMw":0.0,"plannedCapacityMwByTechnology":{},"recordCount":1,"recordIds":["wattlas-record-gemunit-g100000810822"],"sourceIds":["gem-global-integrated-power-tracker"],"technologies":["solar"],"technologyMixMw":{"solar":0.0},"unitCount":1,"unitIds":["gem-unit-G100000810822"]},"type":"Feature"},{"geometry":{"coordinates":[69.2622,34.5392],"type":"Point"},"id":"wattlas-plant-gemplant-l100000808579","properties":{"aliases":["--","Kabul East Solar PV Project"],"canonicalAnchor":"gemplant:L100000808579","canonicalCountryKey":"AF","capacityMw":0.0,"country":"AF","externalIds":{"gemPlant":"L100000808579","gemUnit":"G100000810824"},"geographyId":"AF-12653393B60423242182357","id":"wattlas-plant-gemplant-l100000808579","lifecycleCounts":{"cancelled":1},"locationPrecision":"exact","name":"Kabul East Solar PV Project","operatingCapacityCoverage":{"coveragePercent":0.0,"knownUnitCount":0,"method":"unavailable","totalUnitCount":0},"operatingCapacityMw":0.0,"operatingCapacityMwByTechnology":{},"plannedCapacityCoverage":{"coveragePercent":0.0,"knownUnitCount":0,"method":"unavailable","totalUnitCount":0},"plannedCapacityMw":0.0,"plannedCapacityMwByTechnology":{},"recordCount":1,"recordIds":["wattlas-record-gemunit-g100000810824"],"sourceIds":["gem-global-integrated-power-tracker"],"technologies":["solar"],"technologyMixMw":{"solar":0.0},"unitCount":1,"unitIds":["gem-unit-G100000810824"]},"type":"Feature"},{"geometry":{"coordinates":[70.4561,34.4029],"type":"Point"},"id":"wattlas-plant-gemplant-l100000808581","properties":{"aliases":["--","Kama (20MW) solar farm"],"canonicalAnchor":"gemplant:L100000808581","canonicalCountryKey":"AF","capacityMw":0.0,"country":"AF","externalIds":{"gemPlant":"L100000808581","gemUnit":"G100000810826"},"geographyId":"AF-12653393B37348667052817","id":"wattlas-plant-gemplant-l100000808581","lifecycleCounts":{"cancelled":1},"locationPrecision":"exact","name":"Kama (20MW) solar farm","operatingCapacityCoverage":{"coveragePercent":0.0,"knownUnitCount":0,"method":"unavailable","totalUnitCount":0},"operatingCapacityMw":0.0,"operatingCapacityMwByTechnology":{},"plannedCapacityCoverage":{"coveragePercent":0.0,"knownUnitCount":0,"method":"unavailable","totalUnitCount":0},"plannedCapacityMw":0.0,"plannedCapacityMwByTechnology":{},"recordCount":1,"recordIds":["wattlas-record-gemunit-g100000810826"],"sourceIds":["gem-global-integrated-power-tracker"],"technologies":["solar"],"technologyMixMw":{"solar":0.0},"unitCount":1,"unitIds":["gem-unit-G100000810826"]},"type":"Feature"},{"geometry":{"coordinates":[70.4561,34.4029],"type":"Point"},"id":"wattlas-plant-gemplant-l100000808582","properties":{"aliases":["--","Kama (40MW) solar farm"],"canonicalAnchor":"gemplant:L100000808582","canonicalCountryKey":"AF","capacityMw":0.0,"country":"AF","externalIds":{"gemPlant":"L100000808582","gemUnit":"G100000810827"},"geographyId":"AF-12653393B37348667052817","id":"wattlas-plant-gemplant-l100000808582","lifecycleCounts":{"cancelled":1},"locationPrecision":"exact","name":"Kama (40MW) solar farm","operatingCapacityCoverage":{"coveragePercent":0.0,"knownUnitCount":0,"method":"unavailable","totalUnitCount":0},"operatingCapacityMw":0.0,"operatingCapacityMwByTechnology":{},"plannedCapacityCoverage":{"coveragePercent":0.0,"knownUnitCount":0,"method":"unavailable","totalUnitCount":0},"plannedCapacityMw":0.0,"plannedCapacityMwByTechnology":{},"recordCount":1,"recordIds":["wattlas-record-gemunit-g100000810827"],"sourceIds":["gem-global-integrated-power-tracker"],"technologies":["solar"],"technologyMixMw":{"solar":0.0},"unitCount":1,"unitIds":["gem-unit-G100000810827"]},"type":"Feature"},{"geometry":{"coordinates":[69.693,35.0146],"type":"Point"},"id":"wattlas-plant-gemplant-l100000808583","properties":{"aliases":["--","Kapisa Solar Power Plant"],"canonicalAnchor":"gemplant:L100000808583","canonicalCountryKey":"AF","capacityMw":0.0,"country":"AF","externalIds":{"gemPlant":"L100000808583","gemUnit":"G100000810829"},"geographyId":"AF-12653393B3541911159736","id":"wattlas-plant-gemplant-l100000808583","lifecycleCounts":{"cancelled":1},"locationPrecision":"exact","name":"Kapisa Solar Power Plant","operatingCapacityCoverage":{"coveragePercent":0.0,"knownUnitCount":0,"method":"unavailable","totalUnitCount":0},"operatingCapacityMw":0.0,"operatingCapacityMwByTechnology":{},"plannedCapacityCoverage":{"coveragePercent":0.0,"knownUnitCount":0,"method":"unavailable","totalUnitCount":0},"plannedCapacityMw":0.0,"plannedCapacityMwByTechnology":{},"recordCount":1,"recordIds":["wattlas-record-gemunit-g100000810829"],"sourceIds":["gem-global-integrated-power-tracker"],"technologies":["solar"],"technologyMixMw":{"solar":0.0},"unitCount":1,"unitIds":["gem-unit-G100000810829"]},"type":"Feature"},{"geometry":{"coordinates":[62.658,34.557],"type":"Point"},"id":"wattlas-plant-gemplant-l100000808584","properties":{"aliases":["--","Karokh solar farm"],"canonicalAnchor":"gemplant:L100000808584","canonicalCountryKey":"AF","capacityMw":0.0,"country":"AF","externalIds":{"gemPlant":"L100000808584","gemUnit":"G100000810830"},"geographyId":"AF-12653393B41529784753429","id":"wattlas-plant-gemplant-l100000808584","lifecycleCounts":{"cancelled":1},"locationPrecision":"exact","name":"Karokh solar farm","operatingCapacityCoverage":{"coveragePercent":0.0,"knownUnitCount":0,"method":"unavailable","totalUnitCount":0},"operatingCapacityMw":0.0,"operatingCapacityMwByTechnology":{},"plannedCapacityCoverage":{"coveragePercent":0.0,"knownUnitCount":0,"method":"unavailable","totalUnitCount":0},"plannedCapacityMw":0.0,"plannedCapacityMwByTechnology":{},"recordCount":1,"recordIds":["wattlas-record-gemunit-g100000810830"],"sourceIds":["gem-global-integrated-power-tracker"],"technologies":["solar"],"technologyMixMw":{"solar":0.0},"unitCount":1,"unitIds":["gem-unit-G100000810830"]},"type":"Feature"},{"geometry":{"coordinates":[70.4016,34.418],"type":"Point"},"id":"wattlas-plant-gemplant-l100000808585","properties":{"aliases":["1.0","2.0","Khogyani solar farm"],"canonicalAnchor":"gemplant:L100000808585","canonicalCountryKey":"AF","capacityMw":0.0,"country":"AF","externalIdAliases":{"gemUnit":["G100000810831","G100000810832"]},"externalIds":{"gemPlant":"L100000808585","gemUnit":"G100000810832"},"geographyId":"AF-12653393B37348667052817","id":"wattlas-plant-gemplant-l100000808585","lifecycleCounts":{"cancelled":2},"locationPrecision":"exact","name":"Khogyani solar farm","operatingCapacityCoverage":{"coveragePercent":0.0,"knownUnitCount":0,"method":"unavailable","totalUnitCount":0},"operatingCapacityMw":0.0,"operatingCapacityMwByTechnology":{},"plannedCapacityCoverage":{"coveragePercent":0.0,"knownUnitCount":0,"method":"unavailable","totalUnitCount":0},"plannedCapacityMw":0.0,"plannedCapacityMwByTechnology":{},"recordCount":2,"recordIds":["wattlas-record-gemunit-g100000810831","wattlas-record-gemunit-g100000810832"],"sourceIds":["gem-global-integrated-power-tracker"],"technologies":["solar"],"technologyMixMw":{"solar":0.0},"unitCount":2,"unitIds":["gem-unit-G100000810831","gem-unit-G100000810832"]},"type":"Feature"},{"geometry":{"coordinates":[69.4932,33.2134],"type":"Point"},"id":"wattlas-plant-gemplant-l100000808586","properties":{"aliases":["--","Khost Solar Project"],"canonicalAnchor":"gemplant:L100000808586","canonicalCountryKey":"AF","capacityMw":0.0,"country":"AF","externalIds":{"gemPlant":"L100000808586","gemUnit":"G100000810833"},"geographyId":"AF-12653393B66876919073955","id":"wattlas-plant-gemplant-l100000808586","lifecycleCounts":{"cancelled":1},"locationPrecision":"exact","name":"Khost Solar Project","operatingCapacityCoverage":{"coveragePercent":0.0,"knownUnitCount":0,"method":"unavailable","totalUnitCount":0},"operatingCapacityMw":0.0,"operatingCapacityMwByTechnology":{},"plannedCapacityCoverage":{"coveragePercent":0.0,"knownUnitCount":0,"method":"unavailable","totalUnitCount":0},"plannedCapacityMw":0.0,"plannedCapacityMwByTechnology":{},"recordCount":1,"recordIds":["wattlas-record-gemunit-g100000810833"],"sourceIds":["gem-global-integrated-power-tracker"],"technologies":["solar"],"technologyMixMw":{"solar":0.0},"unitCount":1,"unitIds":["gem-unit-G100000810833"]},"type":"Feature"},{"geometry":{"coordinates":[67.6709,36.6994],"type":"Point"},"id":"wattlas-plant-gemplant-l100000808587","properties":{"aliases":["--","Khulm Solar Project"],"canonicalAnchor":"gemplant:L100000808587","canonicalCountryKey":"AF","capacityMw":0.0,"country":"AF","externalIds":{"gemPlant":"L100000808587","gemUnit":"G100000810834"},"geographyId":"AF-12653393B32704257785092","id":"wattlas-plant-gemplant-l100000808587","lifecycleCounts":{"cancelled":1},"locationPrecision":"exact","name":"Khulm Solar Project","operatingCapacityCoverage":{"coveragePercent":0.0,"knownUnitCount":0,"method":"unavailable","totalUnitCount":0},"operatingCapacityMw":0.0,"operatingCapacityMwByTechnology":{},"plannedCapacityCoverage":{"coveragePercent":0.0,"knownUnitCount":0,"method":"unavailable","totalUnitCount":0},"plannedCapacityMw":0.0,"plannedCapacityMwByTechnology":{},"recordCount":1,"recordIds":["wattlas-record-gemunit-g100000810834"],"sourceIds":["gem-global-integrated-power-tracker"],"technologies":["solar"],"technologyMixMw":{"solar":0.0},"unitCount":1,"unitIds":["gem-unit-G100000810834"]},"type":"Feature"},{"geometry":{"coordinates":[71.1101,34.8101],"type":"Point"},"id":"wattlas-plant-gemplant-l100000808588","properties":{"aliases":["--","Kunar Solar Project"],"canonicalAnchor":"gemplant:L100000808588","canonicalCountryKey":"AF","capacityMw":0.0,"country":"AF","externalIds":{"gemPlant":"L100000808588","gemUnit":"G100000810835"},"geographyId":"AF-12653393B2374338391952","id":"wattlas-plant-gemplant-l100000808588","lifecycleCounts":{"cancelled":1},"locationPrecision":"exact","name":"Kunar Solar Project","operatingCapacityCoverage":{"coveragePercent":0.0,"knownUnitCount":0,"method":"unavailable","totalUnitCount":0},"operatingCapacityMw":0.0,"operatingCapacityMwByTechnology":{},"plannedCapacityCoverage":{"coveragePercent":0.0,"knownUnitCount":0,"method":"unavailable","totalUnitCount":0},"plannedCapacityMw":0.0,"plannedCapacityMwByTechnology":{},"recordCount":1,"recordIds":["wattlas-record-gemunit-g100000810835"],"sourceIds":["gem-global-integrated-power-tracker"],"technologies":["solar"],"technologyMixMw":{"solar":0.0},"unitCount":1,"unitIds":["gem-unit-G100000810835"]},"type":"Feature"},{"geometry":{"coordinates":[67.1109,36.6861],"type":"Point"},"id":"wattlas-plant-gemplant-l100000808592","properties":{"aliases":["--","Marmul Solar project"],"canonicalAnchor":"gemplant:L100000808592","canonicalCountryKey":"AF","capacityMw":0.0,"country":"AF","externalIds":{"gemPlant":"L100000808592","gemUnit":"G100000810839"},"geographyId":"AF-12653393B32704257785092","id":"wattlas-plant-gemplant-l100000808592","lifecycleCounts":{"cancelled":1},"locationPrecision":"exact","name":"Marmul Solar project","operatingCapacityCoverage":{"coveragePercent":0.0,"knownUnitCount":0,"method":"unavailable","totalUnitCount":0},"operatingCapacityMw":0.0,"operatingCapacityMwByTechnology":{},"plannedCapacityCoverage":{"coveragePercent":0.0,"knownUnitCount":0,"method":"unavailable","totalUnitCount":0},"plannedCapacityMw":0.0,"plannedCapacityMwByTechnology":{},"recordCount":1,"recordIds":["wattlas-record-gemunit-g100000810839"],"sourceIds":["gem-global-integrated-power-tracker"],"technologies":["solar"],"technologyMixMw":{"solar":0.0},"unitCount":1,"unitIds":["gem-unit-G100000810839"]},"type":"Feature"},{"geometry":{"coordinates":[70.4561,34.4029],"type":"Point"},"id":"wattlas-plant-gemplant-l100000808595","properties":{"aliases":["1.0","2.0","Mohmandara solar farm"],"canonicalAnchor":"gemplant:L100000808595","canonicalCountryKey":"AF","capacityMw":0.0,"country":"AF","externalIdAliases":{"gemUnit":["G100000810842","G100000810843"]},"externalIds":{"gemPlant":"L100000808595","gemUnit":"G100000810843"},"geographyId":"AF-12653393B37348667052817","id":"wattlas-plant-gemplant-l100000808595","lifecycleCounts":{"cancelled":2},"locationPrecision":"exact","name":"Mohmandara solar farm","operatingCapacityCoverage":{"coveragePercent":0.0,"knownUnitCount":0,"method":"unavailable","totalUnitCount":0},"operatingCapacityMw":0.0,"operatingCapacityMwByTechnology":{},"plannedCapacityCoverage":{"coveragePercent":0.0,"knownUnitCount":0,"method":"unavailable","totalUnitCount":0},"plannedCapacityMw":0.0,"plannedCapacityMwByTechnology":{},"recordCount":2,"recordIds":["wattlas-record-gemunit-g100000810842","wattlas-record-gemunit-g100000810843"],"sourceIds":["gem-global-integrated-power-tracker"],"technologies":["solar"],"technologyMixMw":{"solar":0.0},"unitCount":2,"unitIds":["gem-unit-G100000810842","gem-unit-G100000810843"]},"type":"Feature"},{"geometry":{"coordinates":[65.7139,31.6536],"type":"Point"},"id":"wattlas-plant-gemplant-l100000808596","properties":{"aliases":["--","Mydan Haway solar farm"],"canonicalAnchor":"gemplant:L100000808596","canonicalCountryKey":"AF","capacityMw":0.0,"country":"AF","externalIds":{"gemPlant":"L100000808596","gemUnit":"G100000810844"},"geographyId":"AF-12653393B40111500734429","id":"wattlas-plant-gemplant-l100000808596","lifecycleCounts":{"cancelled":1},"locationPrecision":"exact","name":"Mydan Haway solar farm","operatingCapacityCoverage":{"coveragePercent":0.0,"knownUnitCount":0,"method":"unavailable","totalUnitCount":0},"operatingCapacityMw":0.0,"operatingCapacityMwByTechnology":{},"plannedCapacityCoverage":{"coveragePercent":0.0,"knownUnitCount":0,"method":"unavailable","totalUnitCount":0},"plannedCapacityMw":0.0,"plannedCapacityMwByTechnology":{},"recordCount":1,"recordIds":["wattlas-record-gemunit-g100000810844"],"sourceIds":["gem-global-integrated-power-tracker"],"technologies":["solar"],"technologyMixMw":{"solar":0.0},"unitCount":1,"unitIds":["gem-unit-G100000810844"]},"type":"Feature"},{"geometry":{"coordinates":[69.7001,34.6201],"type":"Point"},"id":"wattlas-plant-gemplant-l100000808597","properties":{"aliases":["--","Naghlo Solar PV Project"],"canonicalAnchor":"gemplant:L100000808597","canonicalCountryKey":"AF","capacityMw":0.0,"country":"AF","externalIds":{"gemPlant":"L100000808597","gemUnit":"G100000810845"},"geographyId":"AF-12653393B60423242182357","id":"wattlas-plant-gemplant-l100000808597","lifecycleCounts":{"cancelled":1},"locationPrecision":"exact","name":"Naghlo Solar PV Project","operatingCapacityCoverage":{"coveragePercent":0.0,"knownUnitCount":0,"method":"unavailable","totalUnitCount":0},"operatingCapacityMw":0.0,"operatingCapacityMwByTechnology":{},"plannedCapacityCoverage":{"coveragePercent":0.0,"knownUnitCount":0,"method":"unavailable","totalUnitCount":0},"plannedCapacityMw":0.0,"plannedCapacityMwByTechnology":{},"recordCount":1,"recordIds":["wattlas-record-gemunit-g100000810845"],"sourceIds":["gem-global-integrated-power-tracker"],"technologies":["solar"],"technologyMixMw":{"solar":0.0},"unitCount":1,"unitIds":["gem-unit-G100000810845"]},"type":"Feature"},{"geometry":{"coordinates":[67.3801,36.8176],"type":"Point"},"id":"wattlas-plant-gemplant-l100000808599","properties":{"aliases":["--","Nahr-ee Shahi solar project"],"canonicalAnchor":"gemplant:L100000808599","canonicalCountryKey":"AF","capacityMw":0.0,"country":"AF","externalIds":{"gemPlant":"L100000808599","gemUnit":"G100000810847"},"geographyId":"AF-12653393B32704257785092","id":"wattlas-plant-gemplant-l100000808599","lifecycleCounts":{"cancelled":1},"locationPrecision":"exact","name":"Nahr-ee Shahi solar project","operatingCapacityCoverage":{"coveragePercent":0.0,"knownUnitCount":0,"method":"unavailable","totalUnitCount":0},"operatingCapacityMw":0.0,"operatingCapacityMwByTechnology":{},"plannedCapacityCoverage":{"coveragePercent":0.0,"knownUnitCount":0,"method":"unavailable","totalUnitCount":0},"plannedCapacityMw":0.0,"plannedCapacityMwByTechnology":{},"recordCount":1,"recordIds":["wattlas-record-gemunit-g100000810847"],"sourceIds":["gem-global-integrated-power-tracker"],"technologies":["solar"],"technologyMixMw":{"solar":0.0},"unitCount":1,"unitIds":["gem-unit-G100000810847"]},"type":"Feature"},{"geometry":{"coordinates":[62.0898,31.1878],"type":"Point"},"id":"wattlas-plant-gemplant-l100000808600","properties":{"aliases":["--","Nimroz Solar Power Plant"],"canonicalAnchor":"gemplant:L100000808600","canonicalCountryKey":"AF","capacityMw":0.0,"country":"AF","externalIds":{"gemPlant":"L100000808600","gemUnit":"G100000810848"},"geographyId":"AF-12653393B2934199951965","id":"wattlas-plant-gemplant-l100000808600","lifecycleCounts":{"cancelled":1},"locationPrecision":"exact","name":"Nimroz Solar Power Plant","operatingCapacityCoverage":{"coveragePercent":0.0,"knownUnitCount":0,"method":"unavailable","totalUnitCount":0},"operatingCapacityMw":0.0,"operatingCapacityMwByTechnology":{},"plannedCapacityCoverage":{"coveragePercent":0.0,"knownUnitCount":0,"method":"unavailable","totalUnitCount":0},"plannedCapacityMw":0.0,"plannedCapacityMwByTechnology":{},"recordCount":1,"recordIds":["wattlas-record-gemunit-g100000810848"],"sourceIds":["gem-global-integrated-power-tracker"],"technologies":["solar"],"technologyMixMw":{"solar":0.0},"unitCount":1,"unitIds":["gem-unit-G100000810848"]},"type":"Feature"},{"geometry":{"coordinates":[70.5522,35.2035],"type":"Point"},"id":"wattlas-plant-gemplant-l100000808601","properties":{"aliases":["--","Noristan Solar Project"],"canonicalAnchor":"gemplant:L100000808601","canonicalCountryKey":"AF","capacityMw":0.0,"country":"AF","externalIds":{"gemPlant":"L100000808601","gemUnit":"G100000810849"},"geographyId":"AF-12653393B50755551382850","id":"wattlas-plant-gemplant-l100000808601","lifecycleCounts":{"cancelled":1},"locationPrecision":"exact","name":"Noristan Solar Project","operatingCapacityCoverage":{"coveragePercent":0.0,"knownUnitCount":0,"method":"unavailable","totalUnitCount":0},"operatingCapacityMw":0.0,"operatingCapacityMwByTechnology":{},"plannedCapacityCoverage":{"coveragePercent":0.0,"knownUnitCount":0,"method":"unavailable","totalUnitCount":0},"plannedCapacityMw":0.0,"plannedCapacityMwByTechnology":{},"recordCount":1,"recordIds":["wattlas-record-gemunit-g100000810849"],"sourceIds":["gem-global-integrated-power-tracker"],"technologies":["solar"],"technologyMixMw":{"solar":0.0},"unitCount":1,"unitIds":["gem-unit-G100000810849"]},"type":"Feature"},{"geometry":{"coordinates":[69.2786,33.5948],"type":"Point"},"id":"wattlas-plant-gemplant-l100000808602","properties":{"aliases":["--","Paktia Solar Project"],"canonicalAnchor":"gemplant:L100000808602","canonicalCountryKey":"AF","capacityMw":0.0,"country":"AF","externalIds":{"gemPlant":"L100000808602","gemUnit":"G100000810850"},"geographyId":"AF-12653393B16859990709200","id":"wattlas-plant-gemplant-l100000808602","lifecycleCounts":{"cancelled":1},"locationPrecision":"exact","name":"Paktia Solar Project","operatingCapacityCoverage":{"coveragePercent":0.0,"knownUnitCount":0,"method":"unavailable","totalUnitCount":0},"operatingCapacityMw":0.0,"operatingCapacityMwByTechnology":{},"plannedCapacityCoverage":{"coveragePercent":0.0,"knownUnitCount":0,"method":"unavailable","totalUnitCount":0},"plannedCapacityMw":0.0,"plannedCapacityMwByTechnology":{},"recordCount":1,"recordIds":["wattlas-record-gemunit-g100000810850"],"sourceIds":["gem-global-integrated-power-tracker"],"technologies":["solar"],"technologyMixMw":{"solar":0.0},"unitCount":1,"unitIds":["gem-unit-G100000810850"]},"type":"Feature"},{"geometry":{"coordinates":[65.4244,31.5812],"type":"Point"},"id":"wattlas-plant-gemplant-l100000808604","properties":{"aliases":["--","Panj Wahi solar farm"],"canonicalAnchor":"gemplant:L100000808604","canonicalCountryKey":"AF","capacityMw":0.0,"country":"AF","externalIds":{"gemPlant":"L100000808604","gemUnit":"G100000810852"},"geographyId":"AF-12653393B40111500734429","id":"wattlas-plant-gemplant-l100000808604","lifecycleCounts":{"cancelled":1},"locationPrecision":"exact","name":"Panj Wahi solar farm","operatingCapacityCoverage":{"coveragePercent":0.0,"knownUnitCount":0,"method":"unavailable","totalUnitCount":0},"operatingCapacityMw":0.0,"operatingCapacityMwByTechnology":{},"plannedCapacityCoverage":{"coveragePercent":0.0,"knownUnitCount":0,"method":"unavailable","totalUnitCount":0},"plannedCapacityMw":0.0,"plannedCapacityMwByTechnology":{},"recordCount":1,"recordIds":["wattlas-record-gemunit-g100000810852"],"sourceIds":["gem-global-integrated-power-tracker"],"technologies":["solar"],"technologyMixMw":{"solar":0.0},"unitCount":1,"unitIds":["gem-unit-G100000810852"]},"type":"Feature"},{"geometry":{"coordinates":[68.7401,35.9901],"type":"Point"},"id":"wattlas-plant-gemplant-l100000808605","properties":{"aliases":["--","Pulkhumri City Solar PV Project"],"canonicalAnchor":"gemplant:L100000808605","canonicalCountryKey":"AF","capacityMw":0.0,"country":"AF","externalIds":{"gemPlant":"L100000808605","gemUnit":"G100000810853"},"geographyId":"AF-12653393B95407416206470","id":"wattlas-plant-gemplant-l100000808605","lifecycleCounts":{"cancelled":1},"locationPrecision":"exact","name":"Pulkhumri City Solar PV Project","operatingCapacityCoverage":{"coveragePercent":0.0,"knownUnitCount":0,"method":"unavailable","totalUnitCount":0},"operatingCapacityMw":0.0,"operatingCapacityMwByTechnology":{},"plannedCapacityCoverage":{"coveragePercent":0.0,"knownUnitCount":0,"method":"unavailable","totalUnitCount":0},"plannedCapacityMw":0.0,"plannedCapacityMwByTechnology":{},"recordCount":1,"recordIds":["wattlas-record-gemunit-g100000810853"],"sourceIds":["gem-global-integrated-power-tracker"],"technologies":["solar"],"technologyMixMw":{"solar":0.0},"unitCount":1,"unitIds":["gem-unit-G100000810853"]},"type":"Feature"},{"geometry":{"coordinates":[66.7473,35.8945],"type":"Point"},"id":"wattlas-plant-gemplant-l100000808606","properties":{"aliases":["--","Sarepol Solar Power Plant"],"canonicalAnchor":"gemplant:L100000808606","canonicalCountryKey":"AF","capacityMw":0.0,"country":"AF","externalIds":{"gemPlant":"L100000808606","gemUnit":"G100000810854"},"geographyId":"AF-12653393B32704257785092","id":"wattlas-plant-gemplant-l100000808606","lifecycleCounts":{"cancelled":1},"locationPrecision":"exact","name":"Sarepol Solar Power Plant","operatingCapacityCoverage":{"coveragePercent":0.0,"knownUnitCount":0,"method":"unavailable","totalUnitCount":0},"operatingCapacityMw":0.0,"operatingCapacityMwByTechnology":{},"plannedCapacityCoverage":{"coveragePercent":0.0,"knownUnitCount":0,"method":"unavailable","totalUnitCount":0},"plannedCapacityMw":0.0,"plannedCapacityMwByTechnology":{},"recordCount":1,"recordIds":["wattlas-record-gemunit-g100000810854"],"sourceIds":["gem-global-integrated-power-tracker"],"technologies":["solar"],"technologyMixMw":{"solar":0.0},"unitCount":1,"unitIds":["gem-unit-G100000810854"]},"type":"Feature"},{"geometry":{"coordinates":[68.7211,33.1129],"type":"Point"},"id":"wattlas-plant-gemplant-l100000808607","properties":{"aliases":["--","Sharanah Solar PV Project"],"canonicalAnchor":"gemplant:L100000808607","canonicalCountryKey":"AF","capacityMw":0.0,"country":"AF","externalIds":{"gemPlant":"L100000808607","gemUnit":"G100000810855"},"geographyId":"AF-12653393B93572570471663","id":"wattlas-plant-gemplant-l100000808607","lifecycleCounts":{"cancelled":1},"locationPrecision":"exact","name":"Sharanah Solar PV Project","operatingCapacityCoverage":{"coveragePercent":0.0,"knownUnitCount":0,"method":"unavailable","totalUnitCount":0},"operatingCapacityMw":0.0,"operatingCapacityMwByTechnology":{},"plannedCapacityCoverage":{"coveragePercent":0.0,"knownUnitCount":0,"method":"unavailable","totalUnitCount":0},"plannedCapacityMw":0.0,"plannedCapacityMwByTechnology":{},"recordCount":1,"recordIds":["wattlas-record-gemunit-g100000810855"],"sourceIds":["gem-global-integrated-power-tracker"],"technologies":["solar"],"technologyMixMw":{"solar":0.0},"unitCount":1,"unitIds":["gem-unit-G100000810855"]},"type":"Feature"},{"geometry":{"coordinates":[70.3629,34.4828],"type":"Point"},"id":"wattlas-plant-gemplant-l100000808608","properties":{"aliases":["--","Shiwa solar farm"],"canonicalAnchor":"gemplant:L100000808608","canonicalCountryKey":"AF","capacityMw":0.0,"country":"AF","externalIds":{"gemPlant":"L100000808608","gemUnit":"G100000810856"},"geographyId":"AF-12653393B37348667052817","id":"wattlas-plant-gemplant-l100000808608","lifecycleCounts":{"cancelled":1},"locationPrecision":"exact","name":"Shiwa solar farm","operatingCapacityCoverage":{"coveragePercent":0.0,"knownUnitCount":0,"method":"unavailable","totalUnitCount":0},"operatingCapacityMw":0.0,"operatingCapacityMwByTechnology":{},"plannedCapacityCoverage":{"coveragePercent":0.0,"knownUnitCount":0,"method":"unavailable","totalUnitCount":0},"plannedCapacityMw":0.0,"plannedCapacityMwByTechnology":{},"recordCount":1,"recordIds":["wattlas-record-gemunit-g100000810856"],"sourceIds":["gem-global-integrated-power-tracker"],"technologies":["solar"],"technologyMixMw":{"solar":0.0},"unitCount":1,"unitIds":["gem-unit-G100000810856"]},"type":"Feature"},{"geometry":{"coordinates":[70.4127,34.4067],"type":"Point"},"id":"wattlas-plant-gemplant-l100000808610","properties":{"aliases":["--","Surkhrud solar farm"],"canonicalAnchor":"gemplant:L100000808610","canonicalCountryKey":"AF","capacityMw":0.0,"country":"AF","externalIds":{"gemPlant":"L100000808610","gemUnit":"G100000810858"},"geographyId":"AF-12653393B37348667052817","id":"wattlas-plant-gemplant-l100000808610","lifecycleCounts":{"cancelled":1},"locationPrecision":"exact","name":"Surkhrud solar farm","operatingCapacityCoverage":{"coveragePercent":0.0,"knownUnitCount":0,"method":"unavailable","totalUnitCount":0},"operatingCapacityMw":0.0,"operatingCapacityMwByTechnology":{},"plannedCapacityCoverage":{"coveragePercent":0.0,"knownUnitCount":0,"method":"unavailable","totalUnitCount":0},"plannedCapacityMw":0.0,"plannedCapacityMwByTechnology":{},"recordCount":1,"recordIds":["wattlas-record-gemunit-g100000810858"],"sourceIds":["gem-global-integrated-power-tracker"],"technologies":["solar"],"technologyMixMw":{"solar":0.0},"unitCount":1,"unitIds":["gem-unit-G100000810858"]},"type":"Feature"},{"geometry":{"coordinates":[69.2401,36.7301],"type":"Point"},"id":"wattlas-plant-gemplant-l100000808611","properties":{"aliases":["--","Taliqan City Solar PV Project"],"canonicalAnchor":"gemplant:L100000808611","canonicalCountryKey":"AF","capacityMw":0.0,"country":"AF","externalIds":{"gemPlant":"L100000808611","gemUnit":"G100000810859"},"geographyId":"AF-12653393B65816425001124","id":"wattlas-plant-gemplant-l100000808611","lifecycleCounts":{"cancelled":1},"locationPrecision":"exact","name":"Taliqan City Solar PV Project","operatingCapacityCoverage":{"coveragePercent":0.0,"knownUnitCount":0,"method":"unavailable","totalUnitCount":0},"operatingCapacityMw":0.0,"operatingCapacityMwByTechnology":{},"plannedCapacityCoverage":{"coveragePercent":0.0,"knownUnitCount":0,"method":"unavailable","totalUnitCount":0},"plannedCapacityMw":0.0,"plannedCapacityMwByTechnology":{},"recordCount":1,"recordIds":["wattlas-record-gemunit-g100000810859"],"sourceIds":["gem-global-integrated-power-tracker"],"technologies":["solar"],"technologyMixMw":{"solar":0.0},"unitCount":1,"unitIds":["gem-unit-G100000810859"]},"type":"Feature"},{"geometry":{"coordinates":[69.2953,34.5608],"type":"Point"},"id":"wattlas-plant-gemplant-l100000808612","properties":{"aliases":["--","Tarakhail Solar PV Project"],"canonicalAnchor":"gemplant:L100000808612","canonicalCountryKey":"AF","capacityMw":0.0,"country":"AF","externalIds":{"gemPlant":"L100000808612","gemUnit":"G100000810860"},"geographyId":"AF-12653393B60423242182357","id":"wattlas-plant-gemplant-l100000808612","lifecycleCounts":{"cancelled":1},"locationPrecision":"exact","name":"Tarakhail Solar PV Project","operatingCapacityCoverage":{"coveragePercent":0.0,"knownUnitCount":0,"method":"unavailable","totalUnitCount":0},"operatingCapacityMw":0.0,"operatingCapacityMwByTechnology":{},"plannedCapacityCoverage":{"coveragePercent":0.0,"knownUnitCount":0,"method":"unavailable","totalUnitCount":0},"plannedCapacityMw":0.0,"plannedCapacityMwByTechnology":{},"recordCount":1,"recordIds":["wattlas-record-gemunit-g100000810860"],"sourceIds":["gem-global-integrated-power-tracker"],"technologies":["solar"],"technologyMixMw":{"solar":0.0},"unitCount":1,"unitIds":["gem-unit-G100000810860"]},"type":"Feature"},{"geometry":{"coordinates":[65.9082,32.5749],"type":"Point"},"id":"wattlas-plant-gemplant-l100000808613","properties":{"aliases":["--","Urozgan Solar PV Project"],"canonicalAnchor":"gemplant:L100000808613","canonicalCountryKey":"AF","capacityMw":0.0,"country":"AF","externalIds":{"gemPlant":"L100000808613","gemUnit":"G100000810861"},"geographyId":"AF-12653393B46006342616872","id":"wattlas-plant-gemplant-l100000808613","lifecycleCounts":{"cancelled":1},"locationPrecision":"exact","name":"Urozgan Solar PV Project","operatingCapacityCoverage":{"coveragePercent":0.0,"knownUnitCount":0,"method":"unavailable","totalUnitCount":0},"operatingCapacityMw":0.0,"operatingCapacityMwByTechnology":{},"plannedCapacityCoverage":{"coveragePercent":0.0,"knownUnitCount":0,"method":"unavailable","totalUnitCount":0},"plannedCapacityMw":0.0,"plannedCapacityMwByTechnology":{},"recordCount":1,"recordIds":["wattlas-record-gemunit-g100000810861"],"sourceIds":["gem-global-integrated-power-tracker"],"technologies":["solar"],"technologyMixMw":{"solar":0.0},"unitCount":1,"unitIds":["gem-unit-G100000810861"]},"type":"Feature"},{"geometry":{"coordinates":[66.0107,32.8475],"type":"Point"},"id":"wattlas-plant-gemplant-l100000808614","properties":{"aliases":["--","Uruzgan Solar Power Plant"],"canonicalAnchor":"gemplant:L100000808614","canonicalCountryKey":"AF","capacityMw":0.0,"country":"AF","externalIds":{"gemPlant":"L100000808614","gemUnit":"G100000810862"},"geographyId":"AF-12653393B46006342616872","id":"wattlas-plant-gemplant-l100000808614","lifecycleCounts":{"cancelled":1},"locationPrecision":"exact","name":"Uruzgan Solar Power Plant","operatingCapacityCoverage":{"coveragePercent":0.0,"knownUnitCount":0,"method":"unavailable","totalUnitCount":0},"operatingCapacityMw":0.0,"operatingCapacityMwByTechnology":{},"plannedCapacityCoverage":{"coveragePercent":0.0,"knownUnitCount":0,"method":"unavailable","totalUnitCount":0},"plannedCapacityMw":0.0,"plannedCapacityMwByTechnology":{},"recordCount":1,"recordIds":["wattlas-record-gemunit-g100000810862"],"sourceIds":["gem-global-integrated-power-tracker"],"technologies":["solar"],"technologyMixMw":{"solar":0.0},"unitCount":1,"unitIds":["gem-unit-G100000810862"]},"type":"Feature"},{"geometry":{"coordinates":[66.8681,32.0786],"type":"Point"},"id":"wattlas-plant-gemplant-l100000808615","properties":{"aliases":["--","Zabul Solar Project"],"canonicalAnchor":"gemplant:L100000808615","canonicalCountryKey":"AF","capacityMw":0.0,"country":"AF","externalIds":{"gemPlant":"L100000808615","gemUnit":"G100000810863"},"geographyId":"AF-12653393B56617740339660","id":"wattlas-plant-gemplant-l100000808615","lifecycleCounts":{"cancelled":1},"locationPrecision":"exact","name":"Zabul Solar Project","operatingCapacityCoverage":{"coveragePercent":0.0,"knownUnitCount":0,"method":"unavailable","totalUnitCount":0},"operatingCapacityMw":0.0,"operatingCapacityMwByTechnology":{},"plannedCapacityCoverage":{"coveragePercent":0.0,"knownUnitCount":0,"method":"unavailable","totalUnitCount":0},"plannedCapacityMw":0.0,"plannedCapacityMwByTechnology":{},"recordCount":1,"recordIds":["wattlas-record-gemunit-g100000810863"],"sourceIds":["gem-global-integrated-power-tracker"],"technologies":["solar"],"technologyMixMw":{"solar":0.0},"unitCount":1,"unitIds":["gem-unit-G100000810863"]},"type":"Feature"},{"geometry":{"coordinates":[61.857,34.346],"type":"Point"},"id":"wattlas-plant-gemplant-l100000808616","properties":{"aliases":["--","Zindajan solar farm"],"canonicalAnchor":"gemplant:L100000808616","canonicalCountryKey":"AF","capacityMw":0.0,"country":"AF","externalIds":{"gemPlant":"L100000808616","gemUnit":"G100000810864"},"geographyId":"AF-12653393B41529784753429","id":"wattlas-plant-gemplant-l100000808616","lifecycleCounts":{"cancelled":1},"locationPrecision":"exact","name":"Zindajan solar farm","operatingCapacityCoverage":{"coveragePercent":0.0,"knownUnitCount":0,"method":"unavailable","totalUnitCount":0},"operatingCapacityMw":0.0,"operatingCapacityMwByTechnology":{},"plannedCapacityCoverage":{"coveragePercent":0.0,"knownUnitCount":0,"method":"unavailable","totalUnitCount":0},"plannedCapacityMw":0.0,"plannedCapacityMwByTechnology":{},"recordCount":1,"recordIds":["wattlas-record-gemunit-g100000810864"],"sourceIds":["gem-global-integrated-power-tracker"],"technologies":["solar"],"technologyMixMw":{"solar":0.0},"unitCount":1,"unitIds":["gem-unit-G100000810864"]},"type":"Feature"},{"geometry":{"coordinates":[65.8804,31.465],"type":"Point"},"id":"wattlas-plant-gemplant-l100000829381","properties":{"aliases":["--","Kandahar (77) solar farm"],"canonicalAnchor":"gemplant:L100000829381","canonicalCountryKey":"AF","capacityMw":12.0,"country":"AF","externalIds":{"gemPlant":"L100000829381","gemUnit":"G100000833170"},"geographyId":"AF-12653393B40111500734429","id":"wattlas-plant-gemplant-l100000829381","lifecycleCounts":{"operational":1},"locationPrecision":"exact","name":"Kandahar (77) solar farm","operatingCapacityCoverage":{"coveragePercent":100.0,"knownUnitCount":1,"method":"complete_unit_sum","provenance":{"evidenceCount":0,"recordIds":["wattlas-record-gemunit-g100000833170"],"sourceIds":["gem-global-integrated-power-tracker"],"sourceTypes":["research_verified"],"valueKind":"reported"},"totalUnitCount":1},"operatingCapacityMw":12.0,"operatingCapacityMwByTechnology":{"solar":12.0},"plannedCapacityCoverage":{"coveragePercent":0.0,"knownUnitCount":0,"method":"unavailable","totalUnitCount":0},"plannedCapacityMw":0.0,"plannedCapacityMwByTechnology":{},"recordCount":1,"recordIds":["wattlas-record-gemunit-g100000833170"],"sourceIds":["gem-global-integrated-power-tracker"],"technologies":["solar"],"technologyMixMw":{"solar":12.0},"unitCount":1,"unitIds":["gem-unit-G100000833170"]},"type":"Feature"},{"geometry":{"coordinates":[65.875,31.463],"type":"Point"},"id":"wattlas-plant-gemplant-l100000829382","properties":{"aliases":["--","Kandahar (Zularistan) solar farm"],"canonicalAnchor":"gemplant:L100000829382","canonicalCountryKey":"AF","capacityMw":12.0,"country":"AF","externalIds":{"gemPlant":"L100000829382","gemUnit":"G100000833171"},"geographyId":"AF-12653393B40111500734429","id":"wattlas-plant-gemplant-l100000829382","lifecycleCounts":{"operational":1},"locationPrecision":"exact","name":"Kandahar (Zularistan) solar farm","operatingCapacityCoverage":{"coveragePercent":100.0,"knownUnitCount":1,"method":"complete_unit_sum","provenance":{"evidenceCount":0,"recordIds":["wattlas-record-gemunit-g100000833171"],"sourceIds":["gem-global-integrated-power-tracker"],"sourceTypes":["research_verified"],"valueKind":"reported"},"totalUnitCount":1},"operatingCapacityMw":12.0,"operatingCapacityMwByTechnology":{"solar":12.0},"plannedCapacityCoverage":{"coveragePercent":0.0,"knownUnitCount":0,"method":"unavailable","totalUnitCount":0},"plannedCapacityMw":0.0,"plannedCapacityMwByTechnology":{},"recordCount":1,"recordIds":["wattlas-record-gemunit-g100000833171"],"sourceIds":["gem-global-integrated-power-tracker"],"technologies":["solar"],"technologyMixMw":{"solar":12.0},"unitCount":1,"unitIds":["gem-unit-G100000833171"]},"type":"Feature"},{"geometry":{"coordinates":[69.4787,34.556],"type":"Point"},"id":"wattlas-plant-gemplant-l100001022851","properties":{"aliases":["Mahipar hydroelectric plant"],"canonicalAnchor":"gemplant:L100001022851","canonicalCountryKey":"AF","capacityMw":66.0,"country":"AF","externalIds":{"gemPlant":"L100001022851","gemUnit":"G100001027056"},"geographyId":"AF-12653393B60423242182357","id":"wattlas-plant-gemplant-l100001022851","lifecycleCounts":{"operational":1},"locationPrecision":"exact","name":"Mahipar hydroelectric plant","operatingCapacityCoverage":{"coveragePercent":100.0,"knownUnitCount":1,"method":"complete_unit_sum","provenance":{"evidenceCount":0,"recordIds":["wattlas-record-gemunit-g100001027056"],"sourceIds":["gem-global-integrated-power-tracker"],"sourceTypes":["research_verified"],"valueKind":"reported"},"totalUnitCount":1},"operatingCapacityMw":66.0,"operatingCapacityMwByTechnology":{"hydro":66.0},"plannedCapacityCoverage":{"coveragePercent":0.0,"knownUnitCount":0,"method":"unavailable","totalUnitCount":0},"plannedCapacityMw":0.0,"plannedCapacityMwByTechnology":{},"recordCount":1,"recordIds":["wattlas-record-gemunit-g100001027056"],"sourceIds":["gem-global-integrated-power-tracker"],"technologies":["hydro"],"technologyMixMw":{"hydro":66.0},"unitCount":1,"unitIds":["gem-unit-G100001027056"]},"type":"Feature"},{"geometry":{"coordinates":[61.7572,31.6247],"type":"Point"},"id":"wattlas-plant-gemplant-l100001025012","properties":{"aliases":["--","Kang solar project"],"canonicalAnchor":"gemplant:L100001025012","canonicalCountryKey":"AF","capacityMw":9.1,"country":"AF","externalIds":{"gemPlant":"L100001025012","gemUnit":"G100001029693"},"geographyId":"AF-12653393B2934199951965","id":"wattlas-plant-gemplant-l100001025012","lifecycleCounts":{"operational":1},"locationPrecision":"exact","name":"Kang solar project","operatingCapacityCoverage":{"coveragePercent":100.0,"knownUnitCount":1,"method":"complete_unit_sum","provenance":{"evidenceCount":0,"recordIds":["wattlas-record-gemunit-g100001029693"],"sourceIds":["gem-global-integrated-power-tracker"],"sourceTypes":["research_verified"],"valueKind":"reported"},"totalUnitCount":1},"operatingCapacityMw":9.1,"operatingCapacityMwByTechnology":{"solar":9.1},"plannedCapacityCoverage":{"coveragePercent":0.0,"knownUnitCount":0,"method":"unavailable","totalUnitCount":0},"plannedCapacityMw":0.0,"plannedCapacityMwByTechnology":{},"recordCount":1,"recordIds":["wattlas-record-gemunit-g100001029693"],"sourceIds":["gem-global-integrated-power-tracker"],"technologies":["solar"],"technologyMixMw":{"solar":9.1},"unitCount":1,"unitIds":["gem-unit-G100001029693"]},"type":"Feature"},{"geometry":{"coordinates":[65.4369,32.9217],"type":"Point"},"id":"wattlas-plant-gemplant-l100001025013","properties":{"aliases":["--","Shahidi Hassas solar project"],"canonicalAnchor":"gemplant:L100001025013","canonicalCountryKey":"AF","capacityMw":1.0,"country":"AF","externalIds":{"gemPlant":"L100001025013","gemUnit":"G100001029694"},"geographyId":"AF-12653393B46006342616872","id":"wattlas-plant-gemplant-l100001025013","lifecycleCounts":{"operational":1},"locationPrecision":"exact","name":"Shahidi Hassas solar project","operatingCapacityCoverage":{"coveragePercent":100.0,"knownUnitCount":1,"method":"complete_unit_sum","provenance":{"evidenceCount":0,"recordIds":["wattlas-record-gemunit-g100001029694"],"sourceIds":["gem-global-integrated-power-tracker"],"sourceTypes":["research_verified"],"valueKind":"reported"},"totalUnitCount":1},"operatingCapacityMw":1.0,"operatingCapacityMwByTechnology":{"solar":1.0},"plannedCapacityCoverage":{"coveragePercent":0.0,"knownUnitCount":0,"method":"unavailable","totalUnitCount":0},"plannedCapacityMw":0.0,"plannedCapacityMwByTechnology":{},"recordCount":1,"recordIds":["wattlas-record-gemunit-g100001029694"],"sourceIds":["gem-global-integrated-power-tracker"],"technologies":["solar"],"technologyMixMw":{"solar":1.0},"unitCount":1,"unitIds":["gem-unit-G100001029694"]},"type":"Feature"},{"geometry":{"coordinates":[65.8542,31.6265],"type":"Point"},"id":"wattlas-plant-gemplant-l100001025015","properties":{"aliases":["--","Daman (Afghanistan) solar project"],"canonicalAnchor":"gemplant:L100001025015","canonicalCountryKey":"AF","capacityMw":13.9,"country":"AF","externalIds":{"gemPlant":"L100001025015","gemUnit":"G100001029696"},"geographyId":"AF-12653393B40111500734429","id":"wattlas-plant-gemplant-l100001025015","lifecycleCounts":{"operational":1},"locationPrecision":"exact","name":"Daman (Afghanistan) solar project","operatingCapacityCoverage":{"coveragePercent":100.0,"knownUnitCount":1,"method":"complete_unit_sum","provenance":{"evidenceCount":0,"recordIds":["wattlas-record-gemunit-g100001029696"],"sourceIds":["gem-global-integrated-power-tracker"],"sourceTypes":["research_verified"],"valueKind":"reported"},"totalUnitCount":1},"operatingCapacityMw":13.9,"operatingCapacityMwByTechnology":{"solar":13.9},"plannedCapacityCoverage":{"coveragePercent":0.0,"knownUnitCount":0,"method":"unavailable","totalUnitCount":0},"plannedCapacityMw":0.0,"plannedCapacityMwByTechnology":{},"recordCount":1,"recordIds":["wattlas-record-gemunit-g100001029696"],"sourceIds":["gem-global-integrated-power-tracker"],"technologies":["solar"],"technologyMixMw":{"solar":13.9},"unitCount":1,"unitIds":["gem-unit-G100001029696"]},"type":"Feature"},{"geometry":{"coordinates":[62.2165,34.1829],"type":"Point"},"id":"wattlas-plant-gemplant-l100001025016","properties":{"aliases":["--","Guzara solar project"],"canonicalAnchor":"gemplant:L100001025016","canonicalCountryKey":"AF","capacityMw":1.5,"country":"AF","externalIds":{"gemPlant":"L100001025016","gemUnit":"G100001029697"},"geographyId":"AF-12653393B41529784753429","id":"wattlas-plant-gemplant-l100001025016","lifecycleCounts":{"operational":1},"locationPrecision":"exact","name":"Guzara solar project","operatingCapacityCoverage":{"coveragePercent":100.0,"knownUnitCount":1,"method":"complete_unit_sum","provenance":{"evidenceCount":0,"recordIds":["wattlas-record-gemunit-g100001029697"],"sourceIds":["gem-global-integrated-power-tracker"],"sourceTypes":["research_verified"],"valueKind":"reported"},"totalUnitCount":1},"operatingCapacityMw":1.5,"operatingCapacityMwByTechnology":{"solar":1.5},"plannedCapacityCoverage":{"coveragePercent":0.0,"knownUnitCount":0,"method":"unavailable","totalUnitCount":0},"plannedCapacityMw":0.0,"plannedCapacityMwByTechnology":{},"recordCount":1,"recordIds":["wattlas-record-gemunit-g100001029697"],"sourceIds":["gem-global-integrated-power-tracker"],"technologies":["solar"],"technologyMixMw":{"solar":1.5},"unitCount":1,"unitIds":["gem-unit-G100001029697"]},"type":"Feature"},{"geometry":{"coordinates":[65.1197,32.3229],"type":"Point"},"id":"wattlas-plant-gemplant-l100001046054","properties":{"aliases":["Kajaki 1 hydroelectric plant"],"canonicalAnchor":"gemplant:L100001046054","canonicalCountryKey":"AF","capacityMw":52.0,"country":"AF","externalIds":{"gemPlant":"L100001046054","gemUnit":"G100001051942"},"geographyId":"AF-12653393B44617690613931","id":"wattlas-plant-gemplant-l100001046054","lifecycleCounts":{"operational":1},"locationPrecision":"exact","name":"Kajaki 1 hydroelectric plant","operatingCapacityCoverage":{"coveragePercent":100.0,"knownUnitCount":1,"method":"complete_unit_sum","provenance":{"evidenceCount":0,"recordIds":["wattlas-record-gemunit-g100001051942"],"sourceIds":["gem-global-integrated-power-tracker"],"sourceTypes":["research_verified"],"valueKind":"reported"},"totalUnitCount":1},"operatingCapacityMw":52.0,"operatingCapacityMwByTechnology":{"hydro":52.0},"plannedCapacityCoverage":{"coveragePercent":0.0,"knownUnitCount":0,"method":"unavailable","totalUnitCount":0},"plannedCapacityMw":0.0,"plannedCapacityMwByTechnology":{},"recordCount":1,"recordIds":["wattlas-record-gemunit-g100001051942"],"sourceIds":["gem-global-integrated-power-tracker"],"technologies":["hydro"],"technologyMixMw":{"hydro":52.0},"unitCount":1,"unitIds":["gem-unit-G100001051942"]},"type":"Feature"},{"geometry":{"coordinates":[63.8239,34.3325],"type":"Point"},"id":"wattlas-plant-gemplant-l100001063340","properties":{"aliases":["Salma hydroelectric plant"],"canonicalAnchor":"gemplant:L100001063340","canonicalCountryKey":"AF","capacityMw":42.0,"country":"AF","externalIds":{"gemPlant":"L100001063340","gemUnit":"G100001072766"},"geographyId":"AF-12653393B41529784753429","id":"wattlas-plant-gemplant-l100001063340","lifecycleCounts":{"operational":1},"locationPrecision":"exact","name":"Salma hydroelectric plant","operatingCapacityCoverage":{"coveragePercent":100.0,"knownUnitCount":1,"method":"complete_unit_sum","provenance":{"evidenceCount":0,"recordIds":["wattlas-record-gemunit-g100001072766"],"sourceIds":["gem-global-integrated-power-tracker"],"sourceTypes":["research_verified"],"valueKind":"reported"},"totalUnitCount":1},"operatingCapacityMw":42.0,"operatingCapacityMwByTechnology":{"hydro":42.0},"plannedCapacityCoverage":{"coveragePercent":0.0,"knownUnitCount":0,"method":"unavailable","totalUnitCount":0},"plannedCapacityMw":0.0,"plannedCapacityMwByTechnology":{},"recordCount":1,"recordIds":["wattlas-record-gemunit-g100001072766"],"sourceIds":["gem-global-integrated-power-tracker"],"technologies":["hydro"],"technologyMixMw":{"hydro":42.0},"unitCount":1,"unitIds":["gem-unit-G100001072766"]},"type":"Feature"},{"geometry":{"coordinates":[70.4034,34.4151],"type":"Point"},"id":"wattlas-plant-gemplant-l100001067489","properties":{"aliases":["--","Jalalabad solar project"],"canonicalAnchor":"gemplant:L100001067489","canonicalCountryKey":"AF","capacityMw":1.6,"country":"AF","externalIds":{"gemPlant":"L100001067489","gemUnit":"G100001077275"},"geographyId":"AF-12653393B37348667052817","id":"wattlas-plant-gemplant-l100001067489","lifecycleCounts":{"operational":1},"locationPrecision":"exact","name":"Jalalabad solar project","operatingCapacityCoverage":{"coveragePercent":100.0,"knownUnitCount":1,"method":"complete_unit_sum","provenance":{"evidenceCount":0,"recordIds":["wattlas-record-gemunit-g100001077275"],"sourceIds":["gem-global-integrated-power-tracker"],"sourceTypes":["research_verified"],"valueKind":"reported"},"totalUnitCount":1},"operatingCapacityMw":1.6,"operatingCapacityMwByTechnology":{"solar":1.6},"plannedCapacityCoverage":{"coveragePercent":0.0,"knownUnitCount":0,"method":"unavailable","totalUnitCount":0},"plannedCapacityMw":0.0,"plannedCapacityMwByTechnology":{},"recordCount":1,"recordIds":["wattlas-record-gemunit-g100001077275"],"sourceIds":["gem-global-integrated-power-tracker"],"technologies":["solar"],"technologyMixMw":{"solar":1.6},"unitCount":1,"unitIds":["gem-unit-G100001077275"]},"type":"Feature"},{"geometry":{"coordinates":[69.114726,34.56524],"type":"Point"},"id":"wattlas-plant-osm-way-1494767353","properties":{"aliases":["Northwest Kabul Power Plant"],"canonicalAnchor":"osm:way/1494767353","canonicalCountryKey":"AF","capacityMw":42.0,"country":"AF","externalIds":{"osm":"way/1494767353"},"geographyId":"AF-12653393B60423242182357","id":"wattlas-plant-osm-way-1494767353","lifecycleCounts":{"operational":1},"locationPrecision":"exact","name":"Northwest Kabul Power Plant","operatingCapacityCoverage":{"coveragePercent":100.0,"knownUnitCount":0,"method":"plant_aggregate","provenance":{"evidenceCount":0,"recordIds":["wattlas-record-osm-way-1494767353"],"sourceIds":["openstreetmap-power"],"sourceTypes":["community_mapped"],"valueKind":"reported"},"totalUnitCount":0},"operatingCapacityMw":42.0,"operatingCapacityMwByTechnology":{"gas":42.0},"plannedCapacityCoverage":{"coveragePercent":0.0,"knownUnitCount":0,"method":"unavailable","totalUnitCount":0},"plannedCapacityMw":0.0,"plannedCapacityMwByTechnology":{},"recordCount":1,"recordIds":["wattlas-record-osm-way-1494767353"],"sourceIds":["openstreetmap-power"],"technologies":["gas"],"technologyMixMw":{"gas":42.0},"unitCount":0,"unitIds":[]},"type":"Feature"},{"geometry":{"coordinates":[70.363096,34.483032],"type":"Point"},"id":"wattlas-plant-osm-way-384302642","properties":{"aliases":["درونټه برېښناکوټ"],"canonicalAnchor":"osm:way/384302642","canonicalCountryKey":"AF","capacityMw":11.5,"country":"AF","externalIds":{"osm":"way/384302642"},"geographyId":"AF-12653393B37348667052817","id":"wattlas-plant-osm-way-384302642","lifecycleCounts":{"operational":1},"locationPrecision":"exact","name":"درونټه برېښناکوټ","operatingCapacityCoverage":{"coveragePercent":100.0,"knownUnitCount":0,"method":"plant_aggregate","provenance":{"evidenceCount":0,"recordIds":["wattlas-record-osm-way-384302642"],"sourceIds":["openstreetmap-power"],"sourceTypes":["community_mapped"],"valueKind":"reported"},"totalUnitCount":0},"operatingCapacityMw":11.5,"operatingCapacityMwByTechnology":{"hydro":11.5},"plannedCapacityCoverage":{"coveragePercent":0.0,"knownUnitCount":0,"method":"unavailable","totalUnitCount":0},"plannedCapacityMw":0.0,"plannedCapacityMwByTechnology":{},"recordCount":1,"recordIds":["wattlas-record-osm-way-384302642"],"sourceIds":["openstreetmap-power"],"technologies":["hydro"],"technologyMixMw":{"hydro":11.5},"unitCount":0,"unitIds":[]},"type":"Feature"},{"geometry":{"coordinates":[69.479221,34.556086],"type":"Point"},"id":"wattlas-plant-osm-way-384312446","properties":{"aliases":["Band-i Mahipar Dam"],"canonicalAnchor":"osm:way/384312446","canonicalCountryKey":"AF","capacityMw":0.0,"country":"AF","externalIds":{"osm":"way/384312446"},"geographyId":"AF-12653393B60423242182357","id":"wattlas-plant-osm-way-384312446","lifecycleCounts":{"operational":1},"locationPrecision":"exact","name":"Band-i Mahipar Dam","operatingCapacityCoverage":{"coveragePercent":0.0,"knownUnitCount":0,"method":"unavailable","totalUnitCount":0},"operatingCapacityMw":0.0,"operatingCapacityMwByTechnology":{},"plannedCapacityCoverage":{"coveragePercent":0.0,"knownUnitCount":0,"method":"unavailable","totalUnitCount":0},"plannedCapacityMw":0.0,"plannedCapacityMwByTechnology":{},"recordCount":1,"recordIds":["wattlas-record-osm-way-384312446"],"sourceIds":["openstreetmap-power"],"technologies":["hydro"],"technologyMixMw":{"hydro":0.0},"unitCount":0,"unitIds":[]},"type":"Feature"},{"geometry":{"coordinates":[63.819926,34.333336],"type":"Point"},"id":"wattlas-plant-osm-way-612242336","properties":{"aliases":["Mapped power plant · OSM 612242336"],"canonicalAnchor":"osm:way/612242336","canonicalCountryKey":"AF","capacityMw":42.0,"country":"AF","externalIds":{"osm":"way/612242336"},"geographyId":"AF-12653393B41529784753429","id":"wattlas-plant-osm-way-612242336","lifecycleCounts":{"operational":1},"locationPrecision":"exact","name":"Mapped power plant · OSM 612242336","operatingCapacityCoverage":{"coveragePercent":100.0,"knownUnitCount":0,"method":"plant_aggregate","provenance":{"evidenceCount":0,"recordIds":["wattlas-record-osm-way-612242336"],"sourceIds":["openstreetmap-power"],"sourceTypes":["community_mapped"],"valueKind":"reported"},"totalUnitCount":0},"operatingCapacityMw":42.0,"operatingCapacityMwByTechnology":{"hydro":42.0},"plannedCapacityCoverage":{"coveragePercent":0.0,"knownUnitCount":0,"method":"unavailable","totalUnitCount":0},"plannedCapacityMw":0.0,"plannedCapacityMwByTechnology":{},"recordCount":1,"recordIds":["wattlas-record-osm-way-612242336"],"sourceIds":["openstreetmap-power"],"technologies":["hydro"],"technologyMixMw":{"hydro":42.0},"unitCount":0,"unitIds":[]},"type":"Feature"},{"geometry":{"coordinates":[69.294752,34.561671],"type":"Point"},"id":"wattlas-plant-osm-way-797883660","properties":{"aliases":["Mapped power plant · OSM 797883660"],"canonicalAnchor":"osm:way/797883660","canonicalCountryKey":"AF","capacityMw":105.0,"country":"AF","externalIds":{"osm":"way/797883660"},"geographyId":"AF-12653393B60423242182357","id":"wattlas-plant-osm-way-797883660","lifecycleCounts":{"operational":1},"locationPrecision":"exact","name":"Mapped power plant · OSM 797883660","operatingCapacityCoverage":{"coveragePercent":100.0,"knownUnitCount":0,"method":"plant_aggregate","provenance":{"evidenceCount":0,"recordIds":["wattlas-record-osm-way-797883660"],"sourceIds":["openstreetmap-power"],"sourceTypes":["community_mapped"],"valueKind":"reported"},"totalUnitCount":0},"operatingCapacityMw":105.0,"operatingCapacityMwByTechnology":{"other":105.0},"plannedCapacityCoverage":{"coveragePercent":0.0,"knownUnitCount":0,"method":"unavailable","totalUnitCount":0},"plannedCapacityMw":0.0,"plannedCapacityMwByTechnology":{},"recordCount":1,"recordIds":["wattlas-record-osm-way-797883660"],"sourceIds":["openstreetmap-power"],"technologies":["other"],"technologyMixMw":{"other":105.0},"unitCount":0,"unitIds":[]},"type":"Feature"},{"geometry":{"coordinates":[65.985304,36.692576],"type":"Point"},"id":"wattlas-plant-osm-way-797884840","properties":{"aliases":["Bayat Power Plant"],"canonicalAnchor":"osm:way/797884840","canonicalCountryKey":"AF","capacityMw":200.0,"country":"AF","externalIds":{"osm":"way/797884840"},"geographyId":"AF-12653393B68515507308334","id":"wattlas-plant-osm-way-797884840","lifecycleCounts":{"operational":1},"locationPrecision":"exact","name":"Bayat Power Plant","operatingCapacityCoverage":{"coveragePercent":100.0,"knownUnitCount":0,"method":"plant_aggregate","provenance":{"evidenceCount":0,"recordIds":["wattlas-record-osm-way-797884840"],"sourceIds":["openstreetmap-power"],"sourceTypes":["community_mapped"],"valueKind":"reported"},"totalUnitCount":0},"operatingCapacityMw":200.0,"operatingCapacityMwByTechnology":{"gas":200.0},"plannedCapacityCoverage":{"coveragePercent":0.0,"knownUnitCount":0,"method":"unavailable","totalUnitCount":0},"plannedCapacityMw":0.0,"plannedCapacityMwByTechnology":{},"recordCount":1,"recordIds":["wattlas-record-osm-way-797884840"],"sourceIds":["openstreetmap-power"],"technologies":["gas"],"technologyMixMw":{"gas":200.0},"unitCount":0,"unitIds":[]},"type":"Feature"},{"geometry":{"coordinates":[65.116636,32.323734],"type":"Point"},"id":"wattlas-plant-wikidata-q1721841","properties":{"aliases":["Kajaki Hydro Power Plant"],"canonicalAnchor":"wikidata:Q1721841","canonicalCountryKey":"AF","capacityMw":100.0,"country":"AF","externalIds":{"osm":"way/351936596","wikidata":"Q1721841"},"geographyId":"AF-12653393B44617690613931","id":"wattlas-plant-wikidata-q1721841","idAliases":["wattlas-plant-osm-way-351936596"],"lifecycleCounts":{"operational":1},"locationPrecision":"exact","name":"Kajaki Hydro Power Plant","operatingCapacityCoverage":{"coveragePercent":100.0,"knownUnitCount":0,"method":"plant_aggregate","provenance":{"evidenceCount":0,"recordIds":["wattlas-record-osm-way-351936596"],"sourceIds":["openstreetmap-power"],"sourceTypes":["community_mapped"],"valueKind":"reported"},"totalUnitCount":0},"operatingCapacityMw":100.0,"operatingCapacityMwByTechnology":{"hydro":100.0},"plannedCapacityCoverage":{"coveragePercent":0.0,"knownUnitCount":0,"method":"unavailable","totalUnitCount":0},"plannedCapacityMw":0.0,"plannedCapacityMwByTechnology":{},"recordCount":1,"recordIds":["wattlas-record-osm-way-351936596"],"sourceIds":["openstreetmap-power"],"technologies":["hydro"],"technologyMixMw":{"hydro":100.0},"unitCount":0,"unitIds":[]},"type":"Feature"},{"geometry":{"coordinates":[69.71689,34.641085],"type":"Point"},"id":"wattlas-plant-wikidata-q4755783","properties":{"aliases":["نغلو برېښناکوټ"],"canonicalAnchor":"wikidata:Q4755783","canonicalCountryKey":"AF","capacityMw":100.0,"country":"AF","externalIds":{"osm":"relation/19754263","wikidata":"Q4755783","wikipedia":"en:Naghlu Dam"},"geographyId":"AF-12653393B60423242182357","id":"wattlas-plant-wikidata-q4755783","idAliases":["wattlas-plant-osm-relation-19754263","wattlas-plant-wikipedia-en-naghlu-dam"],"lifecycleCounts":{"operational":1},"locationPrecision":"exact","name":"نغلو برېښناکوټ","operatingCapacityCoverage":{"coveragePercent":100.0,"knownUnitCount":0,"method":"plant_aggregate","provenance":{"evidenceCount":0,"recordIds":["wattlas-record-osm-relation-19754263"],"sourceIds":["openstreetmap-power"],"sourceTypes":["community_mapped"],"valueKind":"reported"},"totalUnitCount":0},"operatingCapacityMw":100.0,"operatingCapacityMwByTechnology":{"hydro":100.0},"plannedCapacityCoverage":{"coveragePercent":0.0,"knownUnitCount":0,"method":"unavailable","totalUnitCount":0},"plannedCapacityMw":0.0,"plannedCapacityMwByTechnology":{},"recordCount":1,"recordIds":["wattlas-record-osm-relation-19754263"],"sourceIds":["openstreetmap-power"],"technologies":["hydro"],"technologyMixMw":{"hydro":100.0},"unitCount":0,"unitIds":[]},"type":"Feature"}],"type":"FeatureCollection"}