{"features":[{"geometry":{"coordinates":[-1.575717,12.251145],"type":"Point"},"id":"wattlas-plant-gemplant-l100000409043","properties":{"aliases":["2-1","3-1","Komsilga power plant"],"canonicalAnchor":"gemplant:L100000409043","canonicalCountryKey":"BF","capacityMw":90.0,"country":"BF","externalIdAliases":{"gemUnit":["G100000413534","G100000413535"]},"externalIds":{"gemPlant":"L100000409043","gemUnit":"G100000413534"},"geographyId":"BF-92566538B14190085014946","id":"wattlas-plant-gemplant-l100000409043","lifecycleCounts":{"operational":2},"locationPrecision":"exact","name":"Komsilga power plant","operatingCapacityCoverage":{"coveragePercent":100.0,"knownUnitCount":2,"method":"complete_unit_sum","provenance":{"evidenceCount":0,"recordIds":["wattlas-record-gemunit-g100000413534","wattlas-record-gemunit-g100000413535"],"sourceIds":["gem-global-integrated-power-tracker"],"sourceTypes":["research_verified"],"valueKind":"reported"},"totalUnitCount":2},"operatingCapacityMw":90.0,"operatingCapacityMwByTechnology":{"oil":90.0},"plannedCapacityCoverage":{"coveragePercent":0.0,"knownUnitCount":0,"method":"unavailable","totalUnitCount":0},"plannedCapacityMw":0.0,"plannedCapacityMwByTechnology":{},"recordCount":2,"recordIds":["wattlas-record-gemunit-g100000413534","wattlas-record-gemunit-g100000413535"],"sourceIds":["gem-global-integrated-power-tracker"],"technologies":["oil"],"technologyMixMw":{"oil":90.0},"unitCount":2,"unitIds":["gem-unit-G100000413534","gem-unit-G100000413535"]},"type":"Feature"},{"geometry":{"coordinates":[-1.486981,12.433618],"type":"Point"},"id":"wattlas-plant-gemplant-l100000409057","properties":{"aliases":["2-1","Kossodo power plant"],"canonicalAnchor":"gemplant:L100000409057","canonicalCountryKey":"BF","capacityMw":54.9,"country":"BF","externalIds":{"gemPlant":"L100000409057","gemUnit":"G100000413533"},"geographyId":"BF-92566538B14190085014946","id":"wattlas-plant-gemplant-l100000409057","lifecycleCounts":{"operational":1},"locationPrecision":"exact","name":"Kossodo power plant","operatingCapacityCoverage":{"coveragePercent":100.0,"knownUnitCount":1,"method":"complete_unit_sum","provenance":{"evidenceCount":0,"recordIds":["wattlas-record-gemunit-g100000413533"],"sourceIds":["gem-global-integrated-power-tracker"],"sourceTypes":["research_verified"],"valueKind":"reported"},"totalUnitCount":1},"operatingCapacityMw":54.9,"operatingCapacityMwByTechnology":{"gas":54.9},"plannedCapacityCoverage":{"coveragePercent":0.0,"knownUnitCount":0,"method":"unavailable","totalUnitCount":0},"plannedCapacityMw":0.0,"plannedCapacityMwByTechnology":{},"recordCount":1,"recordIds":["wattlas-record-gemunit-g100000413533"],"sourceIds":["gem-global-integrated-power-tracker"],"technologies":["gas"],"technologyMixMw":{"gas":54.9},"unitCount":1,"unitIds":["gem-unit-G100000413533"]},"type":"Feature"},{"geometry":{"coordinates":[-4.359,11.1115],"type":"Point"},"id":"wattlas-plant-gemplant-l100000800176","properties":{"aliases":["--","Kodeni solar farm"],"canonicalAnchor":"gemplant:L100000800176","canonicalCountryKey":"BF","capacityMw":38.0,"country":"BF","externalIds":{"gemPlant":"L100000800176","gemUnit":"G100000800220"},"geographyId":"BF-92566538B19127906733451","id":"wattlas-plant-gemplant-l100000800176","lifecycleCounts":{"operational":1},"locationPrecision":"exact","name":"Kodeni solar farm","operatingCapacityCoverage":{"coveragePercent":100.0,"knownUnitCount":1,"method":"complete_unit_sum","provenance":{"evidenceCount":0,"recordIds":["wattlas-record-gemunit-g100000800220"],"sourceIds":["gem-global-integrated-power-tracker"],"sourceTypes":["research_verified"],"valueKind":"reported"},"totalUnitCount":1},"operatingCapacityMw":38.0,"operatingCapacityMwByTechnology":{"solar":38.0},"plannedCapacityCoverage":{"coveragePercent":0.0,"knownUnitCount":0,"method":"unavailable","totalUnitCount":0},"plannedCapacityMw":0.0,"plannedCapacityMwByTechnology":{},"recordCount":1,"recordIds":["wattlas-record-gemunit-g100000800220"],"sourceIds":["gem-global-integrated-power-tracker"],"technologies":["solar"],"technologyMixMw":{"solar":38.0},"unitCount":1,"unitIds":["gem-unit-G100000800220"]},"type":"Feature"},{"geometry":{"coordinates":[-1.2434,12.4508],"type":"Point"},"id":"wattlas-plant-gemplant-l100000800226","properties":{"aliases":["--","Nagréongo solar farm"],"canonicalAnchor":"gemplant:L100000800226","canonicalCountryKey":"BF","capacityMw":30.0,"country":"BF","externalIds":{"gemPlant":"L100000800226","gemUnit":"G100000800272"},"geographyId":"BF-92566538B74906977122081","id":"wattlas-plant-gemplant-l100000800226","lifecycleCounts":{"operational":1},"locationPrecision":"exact","name":"Nagréongo solar farm","operatingCapacityCoverage":{"coveragePercent":100.0,"knownUnitCount":1,"method":"complete_unit_sum","provenance":{"evidenceCount":0,"recordIds":["wattlas-record-gemunit-g100000800272"],"sourceIds":["gem-global-integrated-power-tracker"],"sourceTypes":["research_verified"],"valueKind":"reported"},"totalUnitCount":1},"operatingCapacityMw":30.0,"operatingCapacityMwByTechnology":{"solar":30.0},"plannedCapacityCoverage":{"coveragePercent":0.0,"knownUnitCount":0,"method":"unavailable","totalUnitCount":0},"plannedCapacityMw":0.0,"plannedCapacityMwByTechnology":{},"recordCount":1,"recordIds":["wattlas-record-gemunit-g100000800272"],"sourceIds":["gem-global-integrated-power-tracker"],"technologies":["solar"],"technologyMixMw":{"solar":30.0},"unitCount":1,"unitIds":["gem-unit-G100000800272"]},"type":"Feature"},{"geometry":{"coordinates":[-3.2542,11.5322],"type":"Point"},"id":"wattlas-plant-gemplant-l100000800260","properties":{"aliases":["--","Pâ Solar Mouhon solar farm"],"canonicalAnchor":"gemplant:L100000800260","canonicalCountryKey":"BF","capacityMw":30.0,"country":"BF","externalIds":{"gemPlant":"L100000800260","gemUnit":"G100000800312"},"geographyId":"BF-92566538B5930876876994","id":"wattlas-plant-gemplant-l100000800260","lifecycleCounts":{"operational":1},"locationPrecision":"exact","name":"Pâ Solar Mouhon solar farm","operatingCapacityCoverage":{"coveragePercent":100.0,"knownUnitCount":1,"method":"complete_unit_sum","provenance":{"evidenceCount":0,"recordIds":["wattlas-record-gemunit-g100000800312"],"sourceIds":["gem-global-integrated-power-tracker"],"sourceTypes":["research_verified"],"valueKind":"reported"},"totalUnitCount":1},"operatingCapacityMw":30.0,"operatingCapacityMwByTechnology":{"solar":30.0},"plannedCapacityCoverage":{"coveragePercent":0.0,"knownUnitCount":0,"method":"unavailable","totalUnitCount":0},"plannedCapacityMw":0.0,"plannedCapacityMwByTechnology":{},"recordCount":1,"recordIds":["wattlas-record-gemunit-g100000800312"],"sourceIds":["gem-global-integrated-power-tracker"],"technologies":["solar"],"technologyMixMw":{"solar":30.0},"unitCount":1,"unitIds":["gem-unit-G100000800312"]},"type":"Feature"},{"geometry":{"coordinates":[-1.6367,12.3079],"type":"Point"},"id":"wattlas-plant-gemplant-l100000800356","properties":{"aliases":["1.0","2.0","Zagtouli solar farm"],"canonicalAnchor":"gemplant:L100000800356","canonicalCountryKey":"BF","capacityMw":50.0,"country":"BF","externalIdAliases":{"gemUnit":["G100000800432","G100000814077"]},"externalIds":{"gemPlant":"L100000800356","gemUnit":"G100000814077"},"geographyId":"BF-92566538B14190085014946","id":"wattlas-plant-gemplant-l100000800356","lifecycleCounts":{"operational":2},"locationPrecision":"exact","name":"Zagtouli solar farm","operatingCapacityCoverage":{"coveragePercent":100.0,"knownUnitCount":2,"method":"complete_unit_sum","provenance":{"evidenceCount":0,"recordIds":["wattlas-record-gemunit-g100000800432","wattlas-record-gemunit-g100000814077"],"sourceIds":["gem-global-integrated-power-tracker"],"sourceTypes":["research_verified"],"valueKind":"reported"},"totalUnitCount":2},"operatingCapacityMw":50.0,"operatingCapacityMwByTechnology":{"solar":50.0},"plannedCapacityCoverage":{"coveragePercent":0.0,"knownUnitCount":0,"method":"unavailable","totalUnitCount":0},"plannedCapacityMw":0.0,"plannedCapacityMwByTechnology":{},"recordCount":2,"recordIds":["wattlas-record-gemunit-g100000800432","wattlas-record-gemunit-g100000814077"],"sourceIds":["gem-global-integrated-power-tracker"],"technologies":["solar"],"technologyMixMw":{"solar":50.0},"unitCount":2,"unitIds":["gem-unit-G100000800432","gem-unit-G100000814077"]},"type":"Feature"},{"geometry":{"coordinates":[-0.3702,11.7022],"type":"Point"},"id":"wattlas-plant-gemplant-l100000800357","properties":{"aliases":["--","Zano solar farm"],"canonicalAnchor":"gemplant:L100000800357","canonicalCountryKey":"BF","capacityMw":24.0,"country":"BF","externalIds":{"gemPlant":"L100000800357","gemUnit":"G100000800433"},"geographyId":"BF-92566538B37033565003987","id":"wattlas-plant-gemplant-l100000800357","lifecycleCounts":{"operational":1},"locationPrecision":"exact","name":"Zano solar farm","operatingCapacityCoverage":{"coveragePercent":100.0,"knownUnitCount":1,"method":"complete_unit_sum","provenance":{"evidenceCount":0,"recordIds":["wattlas-record-gemunit-g100000800433"],"sourceIds":["gem-global-integrated-power-tracker"],"sourceTypes":["research_verified"],"valueKind":"reported"},"totalUnitCount":1},"operatingCapacityMw":24.0,"operatingCapacityMwByTechnology":{"solar":24.0},"plannedCapacityCoverage":{"coveragePercent":0.0,"knownUnitCount":0,"method":"unavailable","totalUnitCount":0},"plannedCapacityMw":0.0,"plannedCapacityMwByTechnology":{},"recordCount":1,"recordIds":["wattlas-record-gemunit-g100000800433"],"sourceIds":["gem-global-integrated-power-tracker"],"technologies":["solar"],"technologyMixMw":{"solar":24.0},"unitCount":1,"unitIds":["gem-unit-G100000800433"]},"type":"Feature"},{"geometry":{"coordinates":[-3.4186,12.0371],"type":"Point"},"id":"wattlas-plant-gemplant-l100000800360","properties":{"aliases":["--","Zina solar farm"],"canonicalAnchor":"gemplant:L100000800360","canonicalCountryKey":"BF","capacityMw":26.6,"country":"BF","externalIds":{"gemPlant":"L100000800360","gemUnit":"G100000800436"},"geographyId":"BF-92566538B5930876876994","id":"wattlas-plant-gemplant-l100000800360","lifecycleCounts":{"operational":1},"locationPrecision":"exact","name":"Zina solar farm","operatingCapacityCoverage":{"coveragePercent":100.0,"knownUnitCount":1,"method":"complete_unit_sum","provenance":{"evidenceCount":0,"recordIds":["wattlas-record-gemunit-g100000800436"],"sourceIds":["gem-global-integrated-power-tracker"],"sourceTypes":["research_verified"],"valueKind":"reported"},"totalUnitCount":1},"operatingCapacityMw":26.6,"operatingCapacityMwByTechnology":{"solar":26.6},"plannedCapacityCoverage":{"coveragePercent":0.0,"knownUnitCount":0,"method":"unavailable","totalUnitCount":0},"plannedCapacityMw":0.0,"plannedCapacityMwByTechnology":{},"recordCount":1,"recordIds":["wattlas-record-gemunit-g100000800436"],"sourceIds":["gem-global-integrated-power-tracker"],"technologies":["solar"],"technologyMixMw":{"solar":26.6},"unitCount":1,"unitIds":["gem-unit-G100000800436"]},"type":"Feature"},{"geometry":{"coordinates":[0.0763,14.37],"type":"Point"},"id":"wattlas-plant-gemplant-l100000827609","properties":{"aliases":["--","Essakane solar project"],"canonicalAnchor":"gemplant:L100000827609","canonicalCountryKey":"BF","capacityMw":14.9,"country":"BF","externalIds":{"gemPlant":"L100000827609","gemUnit":"G100000831131"},"geographyId":"BF-92566538B81581720767285","id":"wattlas-plant-gemplant-l100000827609","lifecycleCounts":{"operational":1},"locationPrecision":"exact","name":"Essakane solar project","operatingCapacityCoverage":{"coveragePercent":100.0,"knownUnitCount":1,"method":"complete_unit_sum","provenance":{"evidenceCount":0,"recordIds":["wattlas-record-gemunit-g100000831131"],"sourceIds":["gem-global-integrated-power-tracker"],"sourceTypes":["research_verified"],"valueKind":"reported"},"totalUnitCount":1},"operatingCapacityMw":14.9,"operatingCapacityMwByTechnology":{"solar":14.9},"plannedCapacityCoverage":{"coveragePercent":0.0,"knownUnitCount":0,"method":"unavailable","totalUnitCount":0},"plannedCapacityMw":0.0,"plannedCapacityMwByTechnology":{},"recordCount":1,"recordIds":["wattlas-record-gemunit-g100000831131"],"sourceIds":["gem-global-integrated-power-tracker"],"technologies":["solar"],"technologyMixMw":{"solar":14.9},"unitCount":1,"unitIds":["gem-unit-G100000831131"]},"type":"Feature"},{"geometry":{"coordinates":[-1.7247,12.4357],"type":"Point"},"id":"wattlas-plant-gemplant-l100001018662","properties":{"aliases":["--","Donsin solar farm"],"canonicalAnchor":"gemplant:L100001018662","canonicalCountryKey":"BF","capacityMw":25.0,"country":"BF","externalIds":{"gemPlant":"L100001018662","gemUnit":"G100001020882"},"geographyId":"BF-92566538B14190085014946","id":"wattlas-plant-gemplant-l100001018662","lifecycleCounts":{"announced":1},"locationPrecision":"exact","name":"Donsin solar farm","operatingCapacityCoverage":{"coveragePercent":0.0,"knownUnitCount":0,"method":"unavailable","totalUnitCount":0},"operatingCapacityMw":0.0,"operatingCapacityMwByTechnology":{},"plannedCapacityCoverage":{"coveragePercent":100.0,"knownUnitCount":1,"method":"complete_unit_sum","provenance":{"evidenceCount":0,"recordIds":["wattlas-record-gemunit-g100001020882"],"sourceIds":["gem-global-integrated-power-tracker"],"sourceTypes":["research_verified"],"valueKind":"reported"},"totalUnitCount":1},"plannedCapacityMw":25.0,"plannedCapacityMwByTechnology":{"solar":25.0},"recordCount":1,"recordIds":["wattlas-record-gemunit-g100001020882"],"sourceIds":["gem-global-integrated-power-tracker"],"technologies":["solar"],"technologyMixMw":{"solar":25.0},"unitCount":1,"unitIds":["gem-unit-G100001020882"]},"type":"Feature"},{"geometry":{"coordinates":[-1.105,12.4909],"type":"Point"},"id":"wattlas-plant-gemplant-l100001064770","properties":{"aliases":["--","Burkina Faso solar project I"],"canonicalAnchor":"gemplant:L100001064770","canonicalCountryKey":"BF","capacityMw":4.0,"country":"BF","externalIds":{"gemPlant":"L100001064770","gemUnit":"G100001074556"},"geographyId":"BF-92566538B74906977122081","id":"wattlas-plant-gemplant-l100001064770","lifecycleCounts":{"operational":1},"locationPrecision":"exact","name":"Burkina Faso solar project I","operatingCapacityCoverage":{"coveragePercent":100.0,"knownUnitCount":1,"method":"complete_unit_sum","provenance":{"evidenceCount":0,"recordIds":["wattlas-record-gemunit-g100001074556"],"sourceIds":["gem-global-integrated-power-tracker"],"sourceTypes":["research_verified"],"valueKind":"reported"},"totalUnitCount":1},"operatingCapacityMw":4.0,"operatingCapacityMwByTechnology":{"solar":4.0},"plannedCapacityCoverage":{"coveragePercent":0.0,"knownUnitCount":0,"method":"unavailable","totalUnitCount":0},"plannedCapacityMw":0.0,"plannedCapacityMwByTechnology":{},"recordCount":1,"recordIds":["wattlas-record-gemunit-g100001074556"],"sourceIds":["gem-global-integrated-power-tracker"],"technologies":["solar"],"technologyMixMw":{"solar":4.0},"unitCount":1,"unitIds":["gem-unit-G100001074556"]},"type":"Feature"},{"geometry":{"coordinates":[-1.1192,12.4913],"type":"Point"},"id":"wattlas-plant-gemplant-l100001064771","properties":{"aliases":["--","Burkina Faso solar project III"],"canonicalAnchor":"gemplant:L100001064771","canonicalCountryKey":"BF","capacityMw":1.4,"country":"BF","externalIds":{"gemPlant":"L100001064771","gemUnit":"G100001074557"},"geographyId":"BF-92566538B74906977122081","id":"wattlas-plant-gemplant-l100001064771","lifecycleCounts":{"operational":1},"locationPrecision":"exact","name":"Burkina Faso solar project III","operatingCapacityCoverage":{"coveragePercent":100.0,"knownUnitCount":1,"method":"complete_unit_sum","provenance":{"evidenceCount":0,"recordIds":["wattlas-record-gemunit-g100001074557"],"sourceIds":["gem-global-integrated-power-tracker"],"sourceTypes":["research_verified"],"valueKind":"reported"},"totalUnitCount":1},"operatingCapacityMw":1.4,"operatingCapacityMwByTechnology":{"solar":1.4},"plannedCapacityCoverage":{"coveragePercent":0.0,"knownUnitCount":0,"method":"unavailable","totalUnitCount":0},"plannedCapacityMw":0.0,"plannedCapacityMwByTechnology":{},"recordCount":1,"recordIds":["wattlas-record-gemunit-g100001074557"],"sourceIds":["gem-global-integrated-power-tracker"],"technologies":["solar"],"technologyMixMw":{"solar":1.4},"unitCount":1,"unitIds":["gem-unit-G100001074557"]},"type":"Feature"},{"geometry":{"coordinates":[-1.104954,12.490928],"type":"Point"},"id":"wattlas-plant-osm-way-1081420787","properties":{"aliases":["Ziga Water Treatment Plant"],"canonicalAnchor":"osm:way/1081420787","canonicalCountryKey":"BF","capacityMw":3.0,"country":"BF","externalIds":{"osm":"way/1081420787"},"geographyId":"BF-92566538B74906977122081","id":"wattlas-plant-osm-way-1081420787","lifecycleCounts":{"operational":1},"locationPrecision":"exact","name":"Ziga Water Treatment Plant","operatingCapacityCoverage":{"coveragePercent":100.0,"knownUnitCount":0,"method":"plant_aggregate","provenance":{"evidenceCount":0,"recordIds":["wattlas-record-osm-way-1081420787"],"sourceIds":["openstreetmap-power"],"sourceTypes":["community_mapped"],"valueKind":"reported"},"totalUnitCount":0},"operatingCapacityMw":3.0,"operatingCapacityMwByTechnology":{"solar":3.0},"plannedCapacityCoverage":{"coveragePercent":0.0,"knownUnitCount":0,"method":"unavailable","totalUnitCount":0},"plannedCapacityMw":0.0,"plannedCapacityMwByTechnology":{},"recordCount":1,"recordIds":["wattlas-record-osm-way-1081420787"],"sourceIds":["openstreetmap-power"],"technologies":["solar"],"technologyMixMw":{"solar":3.0},"unitCount":0,"unitIds":[]},"type":"Feature"},{"geometry":{"coordinates":[-1.119237,12.491346],"type":"Point"},"id":"wattlas-plant-osm-way-1081487840","properties":{"aliases":["Ziga Solar plant"],"canonicalAnchor":"osm:way/1081487840","canonicalCountryKey":"BF","capacityMw":1.1,"country":"BF","externalIds":{"osm":"way/1081487840"},"geographyId":"BF-92566538B74906977122081","id":"wattlas-plant-osm-way-1081487840","lifecycleCounts":{"operational":1},"locationPrecision":"exact","name":"Ziga Solar plant","operatingCapacityCoverage":{"coveragePercent":100.0,"knownUnitCount":0,"method":"plant_aggregate","provenance":{"evidenceCount":0,"recordIds":["wattlas-record-osm-way-1081487840"],"sourceIds":["openstreetmap-power"],"sourceTypes":["community_mapped"],"valueKind":"reported"},"totalUnitCount":0},"operatingCapacityMw":1.1,"operatingCapacityMwByTechnology":{"solar":1.1},"plannedCapacityCoverage":{"coveragePercent":0.0,"knownUnitCount":0,"method":"unavailable","totalUnitCount":0},"plannedCapacityMw":0.0,"plannedCapacityMwByTechnology":{},"recordCount":1,"recordIds":["wattlas-record-osm-way-1081487840"],"sourceIds":["openstreetmap-power"],"technologies":["solar"],"technologyMixMw":{"solar":1.1},"unitCount":0,"unitIds":[]},"type":"Feature"},{"geometry":{"coordinates":[-1.243565,12.451389],"type":"Point"},"id":"wattlas-plant-osm-way-1083031708","properties":{"aliases":["Nagréongo"],"canonicalAnchor":"osm:way/1083031708","canonicalCountryKey":"BF","capacityMw":30.0,"country":"BF","externalIds":{"osm":"way/1083031708"},"geographyId":"BF-92566538B74906977122081","id":"wattlas-plant-osm-way-1083031708","lifecycleCounts":{"operational":1},"locationPrecision":"exact","name":"Nagréongo","operatingCapacityCoverage":{"coveragePercent":100.0,"knownUnitCount":0,"method":"plant_aggregate","provenance":{"evidenceCount":0,"recordIds":["wattlas-record-osm-way-1083031708"],"sourceIds":["openstreetmap-power"],"sourceTypes":["community_mapped"],"valueKind":"reported"},"totalUnitCount":0},"operatingCapacityMw":30.0,"operatingCapacityMwByTechnology":{"solar":30.0},"plannedCapacityCoverage":{"coveragePercent":0.0,"knownUnitCount":0,"method":"unavailable","totalUnitCount":0},"plannedCapacityMw":0.0,"plannedCapacityMwByTechnology":{},"recordCount":1,"recordIds":["wattlas-record-osm-way-1083031708"],"sourceIds":["openstreetmap-power"],"technologies":["solar"],"technologyMixMw":{"solar":30.0},"unitCount":0,"unitIds":[]},"type":"Feature"},{"geometry":{"coordinates":[0.078108,14.364331],"type":"Point"},"id":"wattlas-plant-osm-way-1086387441","properties":{"aliases":["Centrale Solaire d'Essakane"],"canonicalAnchor":"osm:way/1086387441","canonicalCountryKey":"BF","capacityMw":15.0,"country":"BF","externalIds":{"osm":"way/1086387441"},"geographyId":"BF-92566538B81581720767285","id":"wattlas-plant-osm-way-1086387441","lifecycleCounts":{"operational":1},"locationPrecision":"exact","name":"Centrale Solaire d'Essakane","operatingCapacityCoverage":{"coveragePercent":100.0,"knownUnitCount":0,"method":"plant_aggregate","provenance":{"evidenceCount":0,"recordIds":["wattlas-record-osm-way-1086387441"],"sourceIds":["openstreetmap-power"],"sourceTypes":["community_mapped"],"valueKind":"reported"},"totalUnitCount":0},"operatingCapacityMw":15.0,"operatingCapacityMwByTechnology":{"solar":15.0},"plannedCapacityCoverage":{"coveragePercent":0.0,"knownUnitCount":0,"method":"unavailable","totalUnitCount":0},"plannedCapacityMw":0.0,"plannedCapacityMwByTechnology":{},"recordCount":1,"recordIds":["wattlas-record-osm-way-1086387441"],"sourceIds":["openstreetmap-power"],"technologies":["solar"],"technologyMixMw":{"solar":15.0},"unitCount":0,"unitIds":[]},"type":"Feature"},{"geometry":{"coordinates":[-4.357578,11.111869],"type":"Point"},"id":"wattlas-plant-osm-way-1284484587","properties":{"aliases":["Kodeni"],"canonicalAnchor":"osm:way/1284484587","canonicalCountryKey":"BF","capacityMw":38.0,"country":"BF","externalIds":{"osm":"way/1284484587"},"geographyId":"BF-92566538B19127906733451","id":"wattlas-plant-osm-way-1284484587","lifecycleCounts":{"operational":1},"locationPrecision":"exact","name":"Kodeni","operatingCapacityCoverage":{"coveragePercent":100.0,"knownUnitCount":0,"method":"plant_aggregate","provenance":{"evidenceCount":0,"recordIds":["wattlas-record-osm-way-1284484587"],"sourceIds":["openstreetmap-power"],"sourceTypes":["community_mapped"],"valueKind":"reported"},"totalUnitCount":0},"operatingCapacityMw":38.0,"operatingCapacityMwByTechnology":{"solar":38.0},"plannedCapacityCoverage":{"coveragePercent":0.0,"knownUnitCount":0,"method":"unavailable","totalUnitCount":0},"plannedCapacityMw":0.0,"plannedCapacityMwByTechnology":{},"recordCount":1,"recordIds":["wattlas-record-osm-way-1284484587"],"sourceIds":["openstreetmap-power"],"technologies":["solar"],"technologyMixMw":{"solar":38.0},"unitCount":0,"unitIds":[]},"type":"Feature"},{"geometry":{"coordinates":[-3.25413,11.532403],"type":"Point"},"id":"wattlas-plant-osm-way-1284485641","properties":{"aliases":["Pa"],"canonicalAnchor":"osm:way/1284485641","canonicalCountryKey":"BF","capacityMw":30.0,"country":"BF","externalIds":{"osm":"way/1284485641"},"geographyId":"BF-92566538B5930876876994","id":"wattlas-plant-osm-way-1284485641","lifecycleCounts":{"operational":1},"locationPrecision":"exact","name":"Pa","operatingCapacityCoverage":{"coveragePercent":100.0,"knownUnitCount":0,"method":"plant_aggregate","provenance":{"evidenceCount":0,"recordIds":["wattlas-record-osm-way-1284485641"],"sourceIds":["openstreetmap-power"],"sourceTypes":["community_mapped"],"valueKind":"reported"},"totalUnitCount":0},"operatingCapacityMw":30.0,"operatingCapacityMwByTechnology":{"solar":30.0},"plannedCapacityCoverage":{"coveragePercent":0.0,"knownUnitCount":0,"method":"unavailable","totalUnitCount":0},"plannedCapacityMw":0.0,"plannedCapacityMwByTechnology":{},"recordCount":1,"recordIds":["wattlas-record-osm-way-1284485641"],"sourceIds":["openstreetmap-power"],"technologies":["solar"],"technologyMixMw":{"solar":30.0},"unitCount":0,"unitIds":[]},"type":"Feature"},{"geometry":{"coordinates":[1.411466,11.988878],"type":"Point"},"id":"wattlas-plant-osm-way-1292854531","properties":{"aliases":["Boungou Gold Mine Power Plant"],"canonicalAnchor":"osm:way/1292854531","canonicalCountryKey":"BF","capacityMw":0.0,"country":"BF","externalIds":{"osm":"way/1292854531"},"geographyId":"BF-92566538B57532963969301","id":"wattlas-plant-osm-way-1292854531","lifecycleCounts":{"operational":1},"locationPrecision":"exact","name":"Boungou Gold Mine Power Plant","operatingCapacityCoverage":{"coveragePercent":0.0,"knownUnitCount":0,"method":"unavailable","totalUnitCount":0},"operatingCapacityMw":0.0,"operatingCapacityMwByTechnology":{},"plannedCapacityCoverage":{"coveragePercent":0.0,"knownUnitCount":0,"method":"unavailable","totalUnitCount":0},"plannedCapacityMw":0.0,"plannedCapacityMwByTechnology":{},"recordCount":1,"recordIds":["wattlas-record-osm-way-1292854531"],"sourceIds":["openstreetmap-power"],"technologies":["oil"],"technologyMixMw":{"oil":0.0},"unitCount":0,"unitIds":[]},"type":"Feature"},{"geometry":{"coordinates":[-5.384977,10.375284],"type":"Point"},"id":"wattlas-plant-osm-way-1292854973","properties":{"aliases":["Wahgnion Gold Mine Power Plant"],"canonicalAnchor":"osm:way/1292854973","canonicalCountryKey":"BF","capacityMw":0.0,"country":"BF","externalIds":{"osm":"way/1292854973"},"geographyId":"BF-92566538B65696039363280","id":"wattlas-plant-osm-way-1292854973","lifecycleCounts":{"operational":1},"locationPrecision":"exact","name":"Wahgnion Gold Mine Power Plant","operatingCapacityCoverage":{"coveragePercent":0.0,"knownUnitCount":0,"method":"unavailable","totalUnitCount":0},"operatingCapacityMw":0.0,"operatingCapacityMwByTechnology":{},"plannedCapacityCoverage":{"coveragePercent":0.0,"knownUnitCount":0,"method":"unavailable","totalUnitCount":0},"plannedCapacityMw":0.0,"plannedCapacityMwByTechnology":{},"recordCount":1,"recordIds":["wattlas-record-osm-way-1292854973"],"sourceIds":["openstreetmap-power"],"technologies":["oil"],"technologyMixMw":{"oil":0.0},"unitCount":0,"unitIds":[]},"type":"Feature"},{"geometry":{"coordinates":[-3.409322,11.991807],"type":"Point"},"id":"wattlas-plant-osm-way-1292861468","properties":{"aliases":["Mana Gold Mine Power Plant"],"canonicalAnchor":"osm:way/1292861468","canonicalCountryKey":"BF","capacityMw":17.5,"country":"BF","externalIds":{"osm":"way/1292861468"},"geographyId":"BF-92566538B5930876876994","id":"wattlas-plant-osm-way-1292861468","lifecycleCounts":{"operational":1},"locationPrecision":"exact","name":"Mana Gold Mine Power Plant","operatingCapacityCoverage":{"coveragePercent":100.0,"knownUnitCount":0,"method":"plant_aggregate","provenance":{"evidenceCount":0,"recordIds":["wattlas-record-osm-way-1292861468"],"sourceIds":["openstreetmap-power"],"sourceTypes":["community_mapped"],"valueKind":"reported"},"totalUnitCount":0},"operatingCapacityMw":17.5,"operatingCapacityMwByTechnology":{"oil":17.5},"plannedCapacityCoverage":{"coveragePercent":0.0,"knownUnitCount":0,"method":"unavailable","totalUnitCount":0},"plannedCapacityMw":0.0,"plannedCapacityMwByTechnology":{},"recordCount":1,"recordIds":["wattlas-record-osm-way-1292861468"],"sourceIds":["openstreetmap-power"],"technologies":["oil"],"technologyMixMw":{"oil":17.5},"unitCount":0,"unitIds":[]},"type":"Feature"},{"geometry":{"coordinates":[-2.599008,12.376857],"type":"Point"},"id":"wattlas-plant-osm-way-1292862984","properties":{"aliases":["Mapped power plant · OSM 1292862984"],"canonicalAnchor":"osm:way/1292862984","canonicalCountryKey":"BF","capacityMw":7.0,"country":"BF","externalIds":{"osm":"way/1292862984"},"geographyId":"BF-92566538B57875752774417","id":"wattlas-plant-osm-way-1292862984","lifecycleCounts":{"operational":1},"locationPrecision":"exact","name":"Mapped power plant · OSM 1292862984","operatingCapacityCoverage":{"coveragePercent":100.0,"knownUnitCount":0,"method":"plant_aggregate","provenance":{"evidenceCount":0,"recordIds":["wattlas-record-osm-way-1292862984"],"sourceIds":["openstreetmap-power"],"sourceTypes":["community_mapped"],"valueKind":"reported"},"totalUnitCount":0},"operatingCapacityMw":7.0,"operatingCapacityMwByTechnology":{"oil":7.0},"plannedCapacityCoverage":{"coveragePercent":0.0,"knownUnitCount":0,"method":"unavailable","totalUnitCount":0},"plannedCapacityMw":0.0,"plannedCapacityMwByTechnology":{},"recordCount":1,"recordIds":["wattlas-record-osm-way-1292862984"],"sourceIds":["openstreetmap-power"],"technologies":["oil"],"technologyMixMw":{"oil":7.0},"unitCount":0,"unitIds":[]},"type":"Feature"},{"geometry":{"coordinates":[-0.367179,11.702949],"type":"Point"},"id":"wattlas-plant-osm-way-1348538880","properties":{"aliases":["Centrale solaire de Zano"],"canonicalAnchor":"osm:way/1348538880","canonicalCountryKey":"BF","capacityMw":24.0,"country":"BF","externalIds":{"osm":"way/1348538880"},"geographyId":"BF-92566538B37033565003987","id":"wattlas-plant-osm-way-1348538880","lifecycleCounts":{"operational":1},"locationPrecision":"exact","name":"Centrale solaire de Zano","operatingCapacityCoverage":{"coveragePercent":100.0,"knownUnitCount":0,"method":"plant_aggregate","provenance":{"evidenceCount":0,"recordIds":["wattlas-record-osm-way-1348538880"],"sourceIds":["openstreetmap-power"],"sourceTypes":["community_mapped"],"valueKind":"reported"},"totalUnitCount":0},"operatingCapacityMw":24.0,"operatingCapacityMwByTechnology":{"solar":24.0},"plannedCapacityCoverage":{"coveragePercent":0.0,"knownUnitCount":0,"method":"unavailable","totalUnitCount":0},"plannedCapacityMw":0.0,"plannedCapacityMwByTechnology":{},"recordCount":1,"recordIds":["wattlas-record-osm-way-1348538880"],"sourceIds":["openstreetmap-power"],"technologies":["solar"],"technologyMixMw":{"solar":24.0},"unitCount":0,"unitIds":[]},"type":"Feature"},{"geometry":{"coordinates":[-1.729447,12.433754],"type":"Point"},"id":"wattlas-plant-osm-way-1446958357","properties":{"aliases":["Mapped power plant · OSM 1446958357"],"canonicalAnchor":"osm:way/1446958357","canonicalCountryKey":"BF","capacityMw":10.0,"country":"BF","externalIds":{"osm":"way/1446958357"},"geographyId":"BF-92566538B14190085014946","id":"wattlas-plant-osm-way-1446958357","lifecycleCounts":{"operational":1},"locationPrecision":"exact","name":"Mapped power plant · OSM 1446958357","operatingCapacityCoverage":{"coveragePercent":100.0,"knownUnitCount":0,"method":"plant_aggregate","provenance":{"evidenceCount":0,"recordIds":["wattlas-record-osm-way-1446958357"],"sourceIds":["openstreetmap-power"],"sourceTypes":["community_mapped"],"valueKind":"reported"},"totalUnitCount":0},"operatingCapacityMw":10.0,"operatingCapacityMwByTechnology":{"other":10.0},"plannedCapacityCoverage":{"coveragePercent":0.0,"knownUnitCount":0,"method":"unavailable","totalUnitCount":0},"plannedCapacityMw":0.0,"plannedCapacityMwByTechnology":{},"recordCount":1,"recordIds":["wattlas-record-osm-way-1446958357"],"sourceIds":["openstreetmap-power"],"technologies":["other"],"technologyMixMw":{"other":10.0},"unitCount":0,"unitIds":[]},"type":"Feature"},{"geometry":{"coordinates":[-1.725313,12.435242],"type":"Point"},"id":"wattlas-plant-osm-way-1446958370","properties":{"aliases":["Centrale Photovoltaique Ouagadougou nord-ouest - Gonsin"],"canonicalAnchor":"osm:way/1446958370","canonicalCountryKey":"BF","capacityMw":43.0,"country":"BF","externalIds":{"osm":"way/1446958370"},"geographyId":"BF-92566538B14190085014946","id":"wattlas-plant-osm-way-1446958370","lifecycleCounts":{"operational":1},"locationPrecision":"exact","name":"Centrale Photovoltaique Ouagadougou nord-ouest - Gonsin","operatingCapacityCoverage":{"coveragePercent":100.0,"knownUnitCount":0,"method":"plant_aggregate","provenance":{"evidenceCount":0,"recordIds":["wattlas-record-osm-way-1446958370"],"sourceIds":["openstreetmap-power"],"sourceTypes":["community_mapped"],"valueKind":"reported"},"totalUnitCount":0},"operatingCapacityMw":43.0,"operatingCapacityMwByTechnology":{"solar":43.0},"plannedCapacityCoverage":{"coveragePercent":0.0,"knownUnitCount":0,"method":"unavailable","totalUnitCount":0},"plannedCapacityMw":0.0,"plannedCapacityMwByTechnology":{},"recordCount":1,"recordIds":["wattlas-record-osm-way-1446958370"],"sourceIds":["openstreetmap-power"],"technologies":["solar"],"technologyMixMw":{"solar":43.0},"unitCount":0,"unitIds":[]},"type":"Feature"},{"geometry":{"coordinates":[-1.549765,12.369334],"type":"Point"},"id":"wattlas-plant-osm-way-30745631","properties":{"aliases":["Centrale Thermique de Ouaga 2"],"canonicalAnchor":"osm:way/30745631","canonicalCountryKey":"BF","capacityMw":35.0,"country":"BF","externalIds":{"osm":"way/30745631"},"geographyId":"BF-92566538B14190085014946","id":"wattlas-plant-osm-way-30745631","lifecycleCounts":{"operational":1},"locationPrecision":"exact","name":"Centrale Thermique de Ouaga 2","operatingCapacityCoverage":{"coveragePercent":100.0,"knownUnitCount":0,"method":"plant_aggregate","provenance":{"evidenceCount":0,"recordIds":["wattlas-record-osm-way-30745631"],"sourceIds":["openstreetmap-power"],"sourceTypes":["community_mapped"],"valueKind":"reported"},"totalUnitCount":0},"operatingCapacityMw":35.0,"operatingCapacityMwByTechnology":{"oil":35.0},"plannedCapacityCoverage":{"coveragePercent":0.0,"knownUnitCount":0,"method":"unavailable","totalUnitCount":0},"plannedCapacityMw":0.0,"plannedCapacityMwByTechnology":{},"recordCount":1,"recordIds":["wattlas-record-osm-way-30745631"],"sourceIds":["openstreetmap-power"],"technologies":["oil"],"technologyMixMw":{"oil":35.0},"unitCount":0,"unitIds":[]},"type":"Feature"},{"geometry":{"coordinates":[-1.574928,12.25139],"type":"Point"},"id":"wattlas-plant-osm-way-421810645","properties":{"aliases":["Centrale SONABEL de Zinguedessé"],"canonicalAnchor":"osm:way/421810645","canonicalCountryKey":"BF","capacityMw":94.0,"country":"BF","externalIds":{"osm":"way/421810645"},"geographyId":"BF-92566538B14190085014946","id":"wattlas-plant-osm-way-421810645","lifecycleCounts":{"operational":1},"locationPrecision":"exact","name":"Centrale SONABEL de Zinguedessé","operatingCapacityCoverage":{"coveragePercent":100.0,"knownUnitCount":0,"method":"plant_aggregate","provenance":{"evidenceCount":0,"recordIds":["wattlas-record-osm-way-421810645"],"sourceIds":["openstreetmap-power"],"sourceTypes":["community_mapped"],"valueKind":"reported"},"totalUnitCount":0},"operatingCapacityMw":94.0,"operatingCapacityMwByTechnology":{"oil":94.0},"plannedCapacityCoverage":{"coveragePercent":0.0,"knownUnitCount":0,"method":"unavailable","totalUnitCount":0},"plannedCapacityMw":0.0,"plannedCapacityMwByTechnology":{},"recordCount":1,"recordIds":["wattlas-record-osm-way-421810645"],"sourceIds":["openstreetmap-power"],"technologies":["oil"],"technologyMixMw":{"oil":94.0},"unitCount":0,"unitIds":[]},"type":"Feature"},{"geometry":{"coordinates":[-1.485606,12.433575],"type":"Point"},"id":"wattlas-plant-osm-way-696527449","properties":{"aliases":["Centrale électrique de Kossodo"],"canonicalAnchor":"osm:way/696527449","canonicalCountryKey":"BF","capacityMw":64.0,"country":"BF","externalIds":{"osm":"way/696527449"},"geographyId":"BF-92566538B14190085014946","id":"wattlas-plant-osm-way-696527449","lifecycleCounts":{"operational":1},"locationPrecision":"exact","name":"Centrale électrique de Kossodo","operatingCapacityCoverage":{"coveragePercent":100.0,"knownUnitCount":0,"method":"plant_aggregate","provenance":{"evidenceCount":0,"recordIds":["wattlas-record-osm-way-696527449"],"sourceIds":["openstreetmap-power"],"sourceTypes":["community_mapped"],"valueKind":"reported"},"totalUnitCount":0},"operatingCapacityMw":64.0,"operatingCapacityMwByTechnology":{"oil":64.0},"plannedCapacityCoverage":{"coveragePercent":0.0,"knownUnitCount":0,"method":"unavailable","totalUnitCount":0},"plannedCapacityMw":0.0,"plannedCapacityMwByTechnology":{},"recordCount":1,"recordIds":["wattlas-record-osm-way-696527449"],"sourceIds":["openstreetmap-power"],"technologies":["oil"],"technologyMixMw":{"oil":64.0},"unitCount":0,"unitIds":[]},"type":"Feature"},{"geometry":{"coordinates":[-3.534625,11.428825],"type":"Point"},"id":"wattlas-plant-osm-way-963203688","properties":{"aliases":["Houndé Gold Mine Power Plant"],"canonicalAnchor":"osm:way/963203688","canonicalCountryKey":"BF","capacityMw":26.0,"country":"BF","externalIds":{"osm":"way/963203688"},"geographyId":"BF-92566538B19127906733451","id":"wattlas-plant-osm-way-963203688","lifecycleCounts":{"operational":1},"locationPrecision":"exact","name":"Houndé Gold Mine Power Plant","operatingCapacityCoverage":{"coveragePercent":100.0,"knownUnitCount":0,"method":"plant_aggregate","provenance":{"evidenceCount":0,"recordIds":["wattlas-record-osm-way-963203688"],"sourceIds":["openstreetmap-power"],"sourceTypes":["community_mapped"],"valueKind":"reported"},"totalUnitCount":0},"operatingCapacityMw":26.0,"operatingCapacityMwByTechnology":{"oil":26.0},"plannedCapacityCoverage":{"coveragePercent":0.0,"knownUnitCount":0,"method":"unavailable","totalUnitCount":0},"plannedCapacityMw":0.0,"plannedCapacityMwByTechnology":{},"recordCount":1,"recordIds":["wattlas-record-osm-way-963203688"],"sourceIds":["openstreetmap-power"],"technologies":["oil"],"technologyMixMw":{"oil":26.0},"unitCount":0,"unitIds":[]},"type":"Feature"},{"geometry":{"coordinates":[-0.546071,11.476903],"type":"Point"},"id":"wattlas-plant-wikidata-q20089011","properties":{"aliases":["Centrale hydroélectrique de Bagré"],"canonicalAnchor":"wikidata:Q20089011","canonicalCountryKey":"BF","capacityMw":16.0,"country":"BF","externalIds":{"osm":"way/241542794","wikidata":"Q20089011"},"geographyId":"BF-92566538B37033565003987","id":"wattlas-plant-wikidata-q20089011","idAliases":["wattlas-plant-osm-way-241542794"],"lifecycleCounts":{"operational":1},"locationPrecision":"exact","name":"Centrale hydroélectrique de Bagré","operatingCapacityCoverage":{"coveragePercent":100.0,"knownUnitCount":0,"method":"plant_aggregate","provenance":{"evidenceCount":0,"recordIds":["wattlas-record-osm-way-241542794"],"sourceIds":["openstreetmap-power"],"sourceTypes":["community_mapped"],"valueKind":"reported"},"totalUnitCount":0},"operatingCapacityMw":16.0,"operatingCapacityMwByTechnology":{"hydro":16.0},"plannedCapacityCoverage":{"coveragePercent":0.0,"knownUnitCount":0,"method":"unavailable","totalUnitCount":0},"plannedCapacityMw":0.0,"plannedCapacityMwByTechnology":{},"recordCount":1,"recordIds":["wattlas-record-osm-way-241542794"],"sourceIds":["openstreetmap-power"],"technologies":["hydro"],"technologyMixMw":{"hydro":16.0},"unitCount":0,"unitIds":[]},"type":"Feature"},{"geometry":{"coordinates":[-4.317148,11.149577],"type":"Point"},"id":"wattlas-plant-wikidata-q56373696","properties":{"aliases":["Centrale électrique Bobo II"],"canonicalAnchor":"wikidata:Q56373696","canonicalCountryKey":"BF","capacityMw":68.0,"country":"BF","externalIds":{"osm":"way/838386164","wikidata":"Q56373696"},"geographyId":"BF-92566538B19127906733451","id":"wattlas-plant-wikidata-q56373696","idAliases":["wattlas-plant-osm-way-838386164"],"lifecycleCounts":{"operational":1},"locationPrecision":"exact","name":"Centrale électrique Bobo II","operatingCapacityCoverage":{"coveragePercent":100.0,"knownUnitCount":0,"method":"plant_aggregate","provenance":{"evidenceCount":0,"recordIds":["wattlas-record-osm-way-838386164"],"sourceIds":["openstreetmap-power"],"sourceTypes":["community_mapped"],"valueKind":"reported"},"totalUnitCount":0},"operatingCapacityMw":68.0,"operatingCapacityMwByTechnology":{"oil":68.0},"plannedCapacityCoverage":{"coveragePercent":0.0,"knownUnitCount":0,"method":"unavailable","totalUnitCount":0},"plannedCapacityMw":0.0,"plannedCapacityMwByTechnology":{},"recordCount":1,"recordIds":["wattlas-record-osm-way-838386164"],"sourceIds":["openstreetmap-power"],"technologies":["oil"],"technologyMixMw":{"oil":68.0},"unitCount":0,"unitIds":[]},"type":"Feature"},{"geometry":{"coordinates":[0.700947,11.082426],"type":"Point"},"id":"wattlas-plant-wikidata-q6428603","properties":{"aliases":["Centrale hydroélectrique de Kompienga"],"canonicalAnchor":"wikidata:Q6428603","canonicalCountryKey":"BF","capacityMw":14.0,"country":"BF","externalIds":{"osm":"way/246418073","wikidata":"Q6428603"},"geographyId":"BF-92566538B57532963969301","id":"wattlas-plant-wikidata-q6428603","idAliases":["wattlas-plant-osm-way-246418073"],"lifecycleCounts":{"operational":1},"locationPrecision":"exact","name":"Centrale hydroélectrique de Kompienga","operatingCapacityCoverage":{"coveragePercent":100.0,"knownUnitCount":0,"method":"plant_aggregate","provenance":{"evidenceCount":0,"recordIds":["wattlas-record-osm-way-246418073"],"sourceIds":["openstreetmap-power"],"sourceTypes":["community_mapped"],"valueKind":"reported"},"totalUnitCount":0},"operatingCapacityMw":14.0,"operatingCapacityMwByTechnology":{"hydro":14.0},"plannedCapacityCoverage":{"coveragePercent":0.0,"knownUnitCount":0,"method":"unavailable","totalUnitCount":0},"plannedCapacityMw":0.0,"plannedCapacityMwByTechnology":{},"recordCount":1,"recordIds":["wattlas-record-osm-way-246418073"],"sourceIds":["openstreetmap-power"],"technologies":["hydro"],"technologyMixMw":{"hydro":14.0},"unitCount":0,"unitIds":[]},"type":"Feature"},{"geometry":{"coordinates":[-1.637435,12.306165],"type":"Point"},"id":"wattlas-plant-wikidata-q81840658","properties":{"aliases":["Centrale solaire de Zagtouli"],"canonicalAnchor":"wikidata:Q81840658","canonicalCountryKey":"BF","capacityMw":33.0,"country":"BF","externalIds":{"osm":"way/554263427","wikidata":"Q81840658"},"geographyId":"BF-92566538B14190085014946","id":"wattlas-plant-wikidata-q81840658","idAliases":["wattlas-plant-osm-way-554263427"],"lifecycleCounts":{"operational":1},"locationPrecision":"exact","name":"Centrale solaire de Zagtouli","operatingCapacityCoverage":{"coveragePercent":100.0,"knownUnitCount":0,"method":"plant_aggregate","provenance":{"evidenceCount":0,"recordIds":["wattlas-record-osm-way-554263427"],"sourceIds":["openstreetmap-power"],"sourceTypes":["community_mapped"],"valueKind":"reported"},"totalUnitCount":0},"operatingCapacityMw":33.0,"operatingCapacityMwByTechnology":{"solar":33.0},"plannedCapacityCoverage":{"coveragePercent":0.0,"knownUnitCount":0,"method":"unavailable","totalUnitCount":0},"plannedCapacityMw":0.0,"plannedCapacityMwByTechnology":{},"recordCount":1,"recordIds":["wattlas-record-osm-way-554263427"],"sourceIds":["openstreetmap-power"],"technologies":["solar"],"technologyMixMw":{"solar":33.0},"unitCount":0,"unitIds":[]},"type":"Feature"}],"type":"FeatureCollection"}