{"features":[{"geometry":{"coordinates":[2.306546,6.431224],"type":"Point"},"id":"wattlas-plant-gemplant-l100000408151","properties":{"aliases":["2-1","Maria Gleta power station II"],"canonicalAnchor":"gemplant:L100000408151","canonicalCountryKey":"BJ","capacityMw":0.0,"country":"BJ","externalIds":{"gemPlant":"L100000408151","gemUnit":"G100000411378"},"geographyId":"BJ-11314189B92184841279532","id":"wattlas-plant-gemplant-l100000408151","lifecycleCounts":{"paused":1},"locationPrecision":"exact","name":"Maria Gleta power station II","operatingCapacityCoverage":{"coveragePercent":0.0,"knownUnitCount":0,"method":"unavailable","totalUnitCount":0},"operatingCapacityMw":0.0,"operatingCapacityMwByTechnology":{},"plannedCapacityCoverage":{"coveragePercent":0.0,"knownUnitCount":0,"method":"unavailable","totalUnitCount":0},"plannedCapacityMw":0.0,"plannedCapacityMwByTechnology":{},"recordCount":1,"recordIds":["wattlas-record-gemunit-g100000411378"],"sourceIds":["gem-global-integrated-power-tracker"],"technologies":["gas"],"technologyMixMw":{"gas":0.0},"unitCount":1,"unitIds":["gem-unit-G100000411378"]},"type":"Feature"},{"geometry":{"coordinates":[2.5975,8.9917],"type":"Point"},"id":"wattlas-plant-gemplant-l100001064764","properties":{"aliases":["--","Borgou Department solar project"],"canonicalAnchor":"gemplant:L100001064764","canonicalCountryKey":"BJ","capacityMw":1.7,"country":"BJ","externalIds":{"gemPlant":"L100001064764","gemUnit":"G100001074550"},"geographyId":"BJ-11314189B6086502013331","id":"wattlas-plant-gemplant-l100001064764","lifecycleCounts":{"operational":1},"locationPrecision":"exact","name":"Borgou Department solar project","operatingCapacityCoverage":{"coveragePercent":100.0,"knownUnitCount":1,"method":"complete_unit_sum","provenance":{"evidenceCount":0,"recordIds":["wattlas-record-gemunit-g100001074550"],"sourceIds":["gem-global-integrated-power-tracker"],"sourceTypes":["research_verified"],"valueKind":"reported"},"totalUnitCount":1},"operatingCapacityMw":1.7,"operatingCapacityMwByTechnology":{"solar":1.7},"plannedCapacityCoverage":{"coveragePercent":0.0,"knownUnitCount":0,"method":"unavailable","totalUnitCount":0},"plannedCapacityMw":0.0,"plannedCapacityMwByTechnology":{},"recordCount":1,"recordIds":["wattlas-record-gemunit-g100001074550"],"sourceIds":["gem-global-integrated-power-tracker"],"technologies":["solar"],"technologyMixMw":{"solar":1.7},"unitCount":1,"unitIds":["gem-unit-G100001074550"]},"type":"Feature"},{"geometry":{"coordinates":[2.8165,10.7983],"type":"Point"},"id":"wattlas-plant-gemplant-l100001064765","properties":{"aliases":["--","Gogounou solar project"],"canonicalAnchor":"gemplant:L100001064765","canonicalCountryKey":"BJ","capacityMw":1.2,"country":"BJ","externalIds":{"gemPlant":"L100001064765","gemUnit":"G100001074551"},"geographyId":"BJ-11314189B84365908568321","id":"wattlas-plant-gemplant-l100001064765","lifecycleCounts":{"operational":1},"locationPrecision":"exact","name":"Gogounou solar project","operatingCapacityCoverage":{"coveragePercent":100.0,"knownUnitCount":1,"method":"complete_unit_sum","provenance":{"evidenceCount":0,"recordIds":["wattlas-record-gemunit-g100001074551"],"sourceIds":["gem-global-integrated-power-tracker"],"sourceTypes":["research_verified"],"valueKind":"reported"},"totalUnitCount":1},"operatingCapacityMw":1.2,"operatingCapacityMwByTechnology":{"solar":1.2},"plannedCapacityCoverage":{"coveragePercent":0.0,"knownUnitCount":0,"method":"unavailable","totalUnitCount":0},"plannedCapacityMw":0.0,"plannedCapacityMwByTechnology":{},"recordCount":1,"recordIds":["wattlas-record-gemunit-g100001074551"],"sourceIds":["gem-global-integrated-power-tracker"],"technologies":["solar"],"technologyMixMw":{"solar":1.2},"unitCount":1,"unitIds":["gem-unit-G100001074551"]},"type":"Feature"},{"geometry":{"coordinates":[2.67158,7.171683],"type":"Point"},"id":"wattlas-plant-osm-way-1284407235","properties":{"aliases":["Defissol"],"canonicalAnchor":"osm:way/1284407235","canonicalCountryKey":"BJ","capacityMw":25.0,"country":"BJ","externalIds":{"osm":"way/1284407235"},"geographyId":"BJ-11314189B63929627317717","id":"wattlas-plant-osm-way-1284407235","lifecycleCounts":{"operational":1},"locationPrecision":"exact","name":"Defissol","operatingCapacityCoverage":{"coveragePercent":100.0,"knownUnitCount":0,"method":"plant_aggregate","provenance":{"evidenceCount":0,"recordIds":["wattlas-record-osm-way-1284407235"],"sourceIds":["openstreetmap-power"],"sourceTypes":["community_mapped"],"valueKind":"reported"},"totalUnitCount":0},"operatingCapacityMw":25.0,"operatingCapacityMwByTechnology":{"solar":25.0},"plannedCapacityCoverage":{"coveragePercent":0.0,"knownUnitCount":0,"method":"unavailable","totalUnitCount":0},"plannedCapacityMw":0.0,"plannedCapacityMwByTechnology":{},"recordCount":1,"recordIds":["wattlas-record-osm-way-1284407235"],"sourceIds":["openstreetmap-power"],"technologies":["solar"],"technologyMixMw":{"solar":25.0},"unitCount":0,"unitIds":[]},"type":"Feature"},{"geometry":{"coordinates":[2.306208,6.425767],"type":"Point"},"id":"wattlas-plant-osm-way-838371849","properties":{"aliases":["Centrale thermique de Maria Gléta"],"canonicalAnchor":"osm:way/838371849","canonicalCountryKey":"BJ","capacityMw":0.0,"country":"BJ","externalIds":{"osm":"way/838371849"},"geographyId":"BJ-11314189B92184841279532","id":"wattlas-plant-osm-way-838371849","lifecycleCounts":{"operational":1},"locationPrecision":"exact","name":"Centrale thermique de Maria Gléta","operatingCapacityCoverage":{"coveragePercent":0.0,"knownUnitCount":0,"method":"unavailable","totalUnitCount":0},"operatingCapacityMw":0.0,"operatingCapacityMwByTechnology":{},"plannedCapacityCoverage":{"coveragePercent":0.0,"knownUnitCount":0,"method":"unavailable","totalUnitCount":0},"plannedCapacityMw":0.0,"plannedCapacityMwByTechnology":{},"recordCount":1,"recordIds":["wattlas-record-osm-way-838371849"],"sourceIds":["openstreetmap-power"],"technologies":["oil"],"technologyMixMw":{"oil":0.0},"unitCount":0,"unitIds":[]},"type":"Feature"},{"geometry":{"coordinates":[1.620185,9.667538],"type":"Point"},"id":"wattlas-plant-osm-way-990935828","properties":{"aliases":["Djougou"],"canonicalAnchor":"osm:way/990935828","canonicalCountryKey":"BJ","capacityMw":10.0,"country":"BJ","externalIds":{"osm":"way/990935828"},"geographyId":"BJ-11314189B13023113934095","id":"wattlas-plant-osm-way-990935828","lifecycleCounts":{"operational":1},"locationPrecision":"exact","name":"Djougou","operatingCapacityCoverage":{"coveragePercent":100.0,"knownUnitCount":0,"method":"plant_aggregate","provenance":{"evidenceCount":0,"recordIds":["wattlas-record-osm-way-990935828"],"sourceIds":["openstreetmap-power"],"sourceTypes":["community_mapped"],"valueKind":"reported"},"totalUnitCount":0},"operatingCapacityMw":10.0,"operatingCapacityMwByTechnology":{"solar":10.0},"plannedCapacityCoverage":{"coveragePercent":0.0,"knownUnitCount":0,"method":"unavailable","totalUnitCount":0},"plannedCapacityMw":0.0,"plannedCapacityMwByTechnology":{},"recordCount":1,"recordIds":["wattlas-record-osm-way-990935828"],"sourceIds":["openstreetmap-power"],"technologies":["solar"],"technologyMixMw":{"solar":10.0},"unitCount":0,"unitIds":[]},"type":"Feature"},{"geometry":{"coordinates":[2.3046,6.429567],"type":"Point"},"id":"wattlas-plant-wikidata-q56372001","properties":{"aliases":["Centrale thermique de Maria Gléta 2"],"canonicalAnchor":"wikidata:Q56372001","canonicalCountryKey":"BJ","capacityMw":127.0,"country":"BJ","externalIds":{"osm":"way/838371848","wikidata":"Q56372001"},"geographyId":"BJ-11314189B92184841279532","id":"wattlas-plant-wikidata-q56372001","idAliases":["wattlas-plant-osm-way-838371848"],"lifecycleCounts":{"operational":1},"locationPrecision":"exact","name":"Centrale thermique de Maria Gléta 2","operatingCapacityCoverage":{"coveragePercent":100.0,"knownUnitCount":0,"method":"plant_aggregate","provenance":{"evidenceCount":0,"recordIds":["wattlas-record-osm-way-838371848"],"sourceIds":["openstreetmap-power"],"sourceTypes":["community_mapped"],"valueKind":"reported"},"totalUnitCount":0},"operatingCapacityMw":127.0,"operatingCapacityMwByTechnology":{"gas":127.0},"plannedCapacityCoverage":{"coveragePercent":0.0,"knownUnitCount":0,"method":"unavailable","totalUnitCount":0},"plannedCapacityMw":0.0,"plannedCapacityMwByTechnology":{},"recordCount":1,"recordIds":["wattlas-record-osm-way-838371848"],"sourceIds":["openstreetmap-power"],"technologies":["gas"],"technologyMixMw":{"gas":127.0},"unitCount":0,"unitIds":[]},"type":"Feature"}],"type":"FeatureCollection"}