{"features":[{"geometry":{"coordinates":[-4.0763,5.30155],"type":"Point"},"id":"wattlas-plant-gemplant-l100000406739","properties":{"aliases":["Azito power plant","CC4","GT1-GT2-CC3"],"canonicalAnchor":"gemplant:L100000406739","canonicalCountryKey":"CI","capacityMw":713.0,"country":"CI","externalIdAliases":{"gemUnit":["G100000407068","G100000407069"]},"externalIds":{"gemPlant":"L100000406739","gemUnit":"G100000407069"},"geographyId":"CI-83157122B76853064397847","id":"wattlas-plant-gemplant-l100000406739","lifecycleCounts":{"operational":2},"locationPrecision":"exact","name":"Azito power plant","operatingCapacityCoverage":{"coveragePercent":100.0,"knownUnitCount":2,"method":"complete_unit_sum","provenance":{"evidenceCount":0,"recordIds":["wattlas-record-gemunit-g100000407068","wattlas-record-gemunit-g100000407069"],"sourceIds":["gem-global-integrated-power-tracker"],"sourceTypes":["research_verified"],"valueKind":"reported"},"totalUnitCount":2},"operatingCapacityMw":713.0,"operatingCapacityMwByTechnology":{"gas":713.0},"plannedCapacityCoverage":{"coveragePercent":0.0,"knownUnitCount":0,"method":"unavailable","totalUnitCount":0},"plannedCapacityMw":0.0,"plannedCapacityMwByTechnology":{},"recordCount":2,"recordIds":["wattlas-record-gemunit-g100000407068","wattlas-record-gemunit-g100000407069"],"sourceIds":["gem-global-integrated-power-tracker"],"technologies":["gas"],"technologyMixMw":{"gas":713.0},"unitCount":2,"unitIds":["gem-unit-G100000407068","gem-unit-G100000407069"]},"type":"Feature"},{"geometry":{"coordinates":[-4.019808,5.264294],"type":"Point"},"id":"wattlas-plant-gemplant-l100000406740","properties":{"aliases":["Ciprel power station","GT8","GT9-GT10-CC1"],"canonicalAnchor":"gemplant:L100000406740","canonicalCountryKey":"CI","capacityMw":366.0,"country":"CI","externalIdAliases":{"gemUnit":["G100000407070","G100000407071"]},"externalIds":{"gemPlant":"L100000406740","gemUnit":"G100000407071"},"geographyId":"CI-83157122B76853064397847","id":"wattlas-plant-gemplant-l100000406740","lifecycleCounts":{"operational":2},"locationPrecision":"exact","name":"Ciprel power station","operatingCapacityCoverage":{"coveragePercent":100.0,"knownUnitCount":2,"method":"complete_unit_sum","provenance":{"evidenceCount":0,"recordIds":["wattlas-record-gemunit-g100000407070","wattlas-record-gemunit-g100000407071"],"sourceIds":["gem-global-integrated-power-tracker"],"sourceTypes":["research_verified"],"valueKind":"reported"},"totalUnitCount":2},"operatingCapacityMw":366.0,"operatingCapacityMwByTechnology":{"gas":366.0},"plannedCapacityCoverage":{"coveragePercent":0.0,"knownUnitCount":0,"method":"unavailable","totalUnitCount":0},"plannedCapacityMw":0.0,"plannedCapacityMwByTechnology":{},"recordCount":2,"recordIds":["wattlas-record-gemunit-g100000407070","wattlas-record-gemunit-g100000407071"],"sourceIds":["gem-global-integrated-power-tracker"],"technologies":["gas"],"technologyMixMw":{"gas":366.0},"unitCount":2,"unitIds":["gem-unit-G100000407070","gem-unit-G100000407071"]},"type":"Feature"},{"geometry":{"coordinates":[-6.4379,5.5069],"type":"Point"},"id":"wattlas-plant-gemplant-l100000601449","properties":{"aliases":["Boutoubre hydroelectric plant"],"canonicalAnchor":"gemplant:L100000601449","canonicalCountryKey":"CI","capacityMw":156.0,"country":"CI","externalIds":{"gemPlant":"L100000601449","gemUnit":"G100000604269"},"geographyId":"CI-83157122B96959932745266","id":"wattlas-plant-gemplant-l100000601449","lifecycleCounts":{"announced":1},"locationPrecision":"exact","name":"Boutoubre hydroelectric plant","operatingCapacityCoverage":{"coveragePercent":0.0,"knownUnitCount":0,"method":"unavailable","totalUnitCount":0},"operatingCapacityMw":0.0,"operatingCapacityMwByTechnology":{},"plannedCapacityCoverage":{"coveragePercent":100.0,"knownUnitCount":1,"method":"complete_unit_sum","provenance":{"evidenceCount":0,"recordIds":["wattlas-record-gemunit-g100000604269"],"sourceIds":["gem-global-integrated-power-tracker"],"sourceTypes":["research_verified"],"valueKind":"reported"},"totalUnitCount":1},"plannedCapacityMw":156.0,"plannedCapacityMwByTechnology":{"hydro":156.0},"recordCount":1,"recordIds":["wattlas-record-gemunit-g100000604269"],"sourceIds":["gem-global-integrated-power-tracker"],"technologies":["hydro"],"technologyMixMw":{"hydro":156.0},"unitCount":1,"unitIds":["gem-unit-G100000604269"]},"type":"Feature"},{"geometry":{"coordinates":[-7.0449,6.2424],"type":"Point"},"id":"wattlas-plant-gemplant-l100000601450","properties":{"aliases":["Buyo hydroelectric plant"],"canonicalAnchor":"gemplant:L100000601450","canonicalCountryKey":"CI","capacityMw":165.0,"country":"CI","externalIds":{"gemPlant":"L100000601450","gemUnit":"G100000601468"},"geographyId":"CI-83157122B96959932745266","id":"wattlas-plant-gemplant-l100000601450","lifecycleCounts":{"operational":1},"locationPrecision":"exact","name":"Buyo hydroelectric plant","operatingCapacityCoverage":{"coveragePercent":100.0,"knownUnitCount":1,"method":"complete_unit_sum","provenance":{"evidenceCount":0,"recordIds":["wattlas-record-gemunit-g100000601468"],"sourceIds":["gem-global-integrated-power-tracker"],"sourceTypes":["research_verified"],"valueKind":"reported"},"totalUnitCount":1},"operatingCapacityMw":165.0,"operatingCapacityMwByTechnology":{"hydro":165.0},"plannedCapacityCoverage":{"coveragePercent":0.0,"knownUnitCount":0,"method":"unavailable","totalUnitCount":0},"plannedCapacityMw":0.0,"plannedCapacityMwByTechnology":{},"recordCount":1,"recordIds":["wattlas-record-gemunit-g100000601468"],"sourceIds":["gem-global-integrated-power-tracker"],"technologies":["hydro"],"technologyMixMw":{"hydro":165.0},"unitCount":1,"unitIds":["gem-unit-G100000601468"]},"type":"Feature"},{"geometry":{"coordinates":[-6.5714,5.698],"type":"Point"},"id":"wattlas-plant-gemplant-l100000601451","properties":{"aliases":["Gribo-Popoli hydroelectric plant"],"canonicalAnchor":"gemplant:L100000601451","canonicalCountryKey":"CI","capacityMw":112.0,"country":"CI","externalIds":{"gemPlant":"L100000601451","gemUnit":"G100000601469"},"geographyId":"CI-83157122B96959932745266","id":"wattlas-plant-gemplant-l100000601451","lifecycleCounts":{"operational":1},"locationPrecision":"exact","name":"Gribo-Popoli hydroelectric plant","operatingCapacityCoverage":{"coveragePercent":100.0,"knownUnitCount":1,"method":"complete_unit_sum","provenance":{"evidenceCount":0,"recordIds":["wattlas-record-gemunit-g100000601469"],"sourceIds":["gem-global-integrated-power-tracker"],"sourceTypes":["research_verified"],"valueKind":"reported"},"totalUnitCount":1},"operatingCapacityMw":112.0,"operatingCapacityMwByTechnology":{"hydro":112.0},"plannedCapacityCoverage":{"coveragePercent":0.0,"knownUnitCount":0,"method":"unavailable","totalUnitCount":0},"plannedCapacityMw":0.0,"plannedCapacityMwByTechnology":{},"recordCount":1,"recordIds":["wattlas-record-gemunit-g100000601469"],"sourceIds":["gem-global-integrated-power-tracker"],"technologies":["hydro"],"technologyMixMw":{"hydro":112.0},"unitCount":1,"unitIds":["gem-unit-G100000601469"]},"type":"Feature"},{"geometry":{"coordinates":[-6.212,5.0749],"type":"Point"},"id":"wattlas-plant-gemplant-l100000601453","properties":{"aliases":["Louga 1 hydroelectric plant"],"canonicalAnchor":"gemplant:L100000601453","canonicalCountryKey":"CI","capacityMw":126.0,"country":"CI","externalIds":{"gemPlant":"L100000601453","gemUnit":"G100000601471"},"geographyId":"CI-83157122B96959932745266","id":"wattlas-plant-gemplant-l100000601453","lifecycleCounts":{"announced":1},"locationPrecision":"exact","name":"Louga 1 hydroelectric plant","operatingCapacityCoverage":{"coveragePercent":0.0,"knownUnitCount":0,"method":"unavailable","totalUnitCount":0},"operatingCapacityMw":0.0,"operatingCapacityMwByTechnology":{},"plannedCapacityCoverage":{"coveragePercent":100.0,"knownUnitCount":1,"method":"complete_unit_sum","provenance":{"evidenceCount":0,"recordIds":["wattlas-record-gemunit-g100000601471"],"sourceIds":["gem-global-integrated-power-tracker"],"sourceTypes":["research_verified"],"valueKind":"reported"},"totalUnitCount":1},"plannedCapacityMw":126.0,"plannedCapacityMwByTechnology":{"hydro":126.0},"recordCount":1,"recordIds":["wattlas-record-gemunit-g100000601471"],"sourceIds":["gem-global-integrated-power-tracker"],"technologies":["hydro"],"technologyMixMw":{"hydro":126.0},"unitCount":1,"unitIds":["gem-unit-G100000601471"]},"type":"Feature"},{"geometry":{"coordinates":[-6.212,5.0749],"type":"Point"},"id":"wattlas-plant-gemplant-l100000601454","properties":{"aliases":["Louga 2 hydroelectric plant"],"canonicalAnchor":"gemplant:L100000601454","canonicalCountryKey":"CI","capacityMw":120.0,"country":"CI","externalIds":{"gemPlant":"L100000601454","gemUnit":"G100000601472"},"geographyId":"CI-83157122B96959932745266","id":"wattlas-plant-gemplant-l100000601454","lifecycleCounts":{"announced":1},"locationPrecision":"exact","name":"Louga 2 hydroelectric plant","operatingCapacityCoverage":{"coveragePercent":0.0,"knownUnitCount":0,"method":"unavailable","totalUnitCount":0},"operatingCapacityMw":0.0,"operatingCapacityMwByTechnology":{},"plannedCapacityCoverage":{"coveragePercent":100.0,"knownUnitCount":1,"method":"complete_unit_sum","provenance":{"evidenceCount":0,"recordIds":["wattlas-record-gemunit-g100000601472"],"sourceIds":["gem-global-integrated-power-tracker"],"sourceTypes":["research_verified"],"valueKind":"reported"},"totalUnitCount":1},"plannedCapacityMw":120.0,"plannedCapacityMwByTechnology":{"hydro":120.0},"recordCount":1,"recordIds":["wattlas-record-gemunit-g100000601472"],"sourceIds":["gem-global-integrated-power-tracker"],"technologies":["hydro"],"technologyMixMw":{"hydro":120.0},"unitCount":1,"unitIds":["gem-unit-G100000601472"]},"type":"Feature"},{"geometry":{"coordinates":[-6.6559,5.8025],"type":"Point"},"id":"wattlas-plant-gemplant-l100000601455","properties":{"aliases":["Soubre hydroelectric plant"],"canonicalAnchor":"gemplant:L100000601455","canonicalCountryKey":"CI","capacityMw":275.0,"country":"CI","externalIds":{"gemPlant":"L100000601455","gemUnit":"G100000601473"},"geographyId":"CI-83157122B96959932745266","id":"wattlas-plant-gemplant-l100000601455","lifecycleCounts":{"operational":1},"locationPrecision":"exact","name":"Soubre hydroelectric plant","operatingCapacityCoverage":{"coveragePercent":100.0,"knownUnitCount":1,"method":"complete_unit_sum","provenance":{"evidenceCount":0,"recordIds":["wattlas-record-gemunit-g100000601473"],"sourceIds":["gem-global-integrated-power-tracker"],"sourceTypes":["research_verified"],"valueKind":"reported"},"totalUnitCount":1},"operatingCapacityMw":275.0,"operatingCapacityMwByTechnology":{"hydro":275.0},"plannedCapacityCoverage":{"coveragePercent":0.0,"knownUnitCount":0,"method":"unavailable","totalUnitCount":0},"plannedCapacityMw":0.0,"plannedCapacityMwByTechnology":{},"recordCount":1,"recordIds":["wattlas-record-gemunit-g100000601473"],"sourceIds":["gem-global-integrated-power-tracker"],"technologies":["hydro"],"technologyMixMw":{"hydro":275.0},"unitCount":1,"unitIds":["gem-unit-G100000601473"]},"type":"Feature"},{"geometry":{"coordinates":[-5.0832,6.2104],"type":"Point"},"id":"wattlas-plant-gemplant-l100000601456","properties":{"aliases":["Taabo hydroelectric plant"],"canonicalAnchor":"gemplant:L100000601456","canonicalCountryKey":"CI","capacityMw":210.0,"country":"CI","externalIds":{"gemPlant":"L100000601456","gemUnit":"G100000601474"},"geographyId":"CI-83157122B73612976130091","id":"wattlas-plant-gemplant-l100000601456","lifecycleCounts":{"operational":1},"locationPrecision":"exact","name":"Taabo hydroelectric plant","operatingCapacityCoverage":{"coveragePercent":100.0,"knownUnitCount":1,"method":"complete_unit_sum","provenance":{"evidenceCount":0,"recordIds":["wattlas-record-gemunit-g100000601474"],"sourceIds":["gem-global-integrated-power-tracker"],"sourceTypes":["research_verified"],"valueKind":"reported"},"totalUnitCount":1},"operatingCapacityMw":210.0,"operatingCapacityMwByTechnology":{"hydro":210.0},"plannedCapacityCoverage":{"coveragePercent":0.0,"knownUnitCount":0,"method":"unavailable","totalUnitCount":0},"plannedCapacityMw":0.0,"plannedCapacityMwByTechnology":{},"recordCount":1,"recordIds":["wattlas-record-gemunit-g100000601474"],"sourceIds":["gem-global-integrated-power-tracker"],"technologies":["hydro"],"technologyMixMw":{"hydro":210.0},"unitCount":1,"unitIds":["gem-unit-G100000601474"]},"type":"Feature"},{"geometry":{"coordinates":[-6.4787,9.5182],"type":"Point"},"id":"wattlas-plant-gemplant-l100000800069","properties":{"aliases":["1.0","2.0","Boundiali solar farm"],"canonicalAnchor":"gemplant:L100000800069","canonicalCountryKey":"CI","capacityMw":80.0,"country":"CI","externalIdAliases":{"gemUnit":["G100000800087","G100001020303"]},"externalIds":{"gemPlant":"L100000800069","gemUnit":"G100001020303"},"geographyId":"CI-83157122B28791092437733","id":"wattlas-plant-gemplant-l100000800069","lifecycleCounts":{"announced":1,"operational":1},"locationPrecision":"exact","name":"Boundiali solar farm","operatingCapacityCoverage":{"coveragePercent":100.0,"knownUnitCount":1,"method":"complete_unit_sum","provenance":{"evidenceCount":0,"recordIds":["wattlas-record-gemunit-g100000800087"],"sourceIds":["gem-global-integrated-power-tracker"],"sourceTypes":["research_verified"],"valueKind":"reported"},"totalUnitCount":1},"operatingCapacityMw":38.0,"operatingCapacityMwByTechnology":{"solar":38.0},"plannedCapacityCoverage":{"coveragePercent":100.0,"knownUnitCount":1,"method":"complete_unit_sum","provenance":{"evidenceCount":0,"recordIds":["wattlas-record-gemunit-g100001020303"],"sourceIds":["gem-global-integrated-power-tracker"],"sourceTypes":["research_verified"],"valueKind":"reported"},"totalUnitCount":1},"plannedCapacityMw":42.0,"plannedCapacityMwByTechnology":{"solar":42.0},"recordCount":2,"recordIds":["wattlas-record-gemunit-g100000800087","wattlas-record-gemunit-g100001020303"],"sourceIds":["gem-global-integrated-power-tracker"],"technologies":["solar"],"technologyMixMw":{"solar":80.0},"unitCount":2,"unitIds":["gem-unit-G100000800087","gem-unit-G100001020303"]},"type":"Feature"},{"geometry":{"coordinates":[-5.8284,9.5346],"type":"Point"},"id":"wattlas-plant-gemplant-l100000800182","properties":{"aliases":["--","Nova Power solar farm"],"canonicalAnchor":"gemplant:L100000800182","canonicalCountryKey":"CI","capacityMw":0.0,"country":"CI","externalIds":{"gemPlant":"L100000800182","gemUnit":"G100000800227"},"geographyId":"CI-83157122B28791092437733","id":"wattlas-plant-gemplant-l100000800182","lifecycleCounts":{"cancelled":1},"locationPrecision":"exact","name":"Nova Power solar farm","operatingCapacityCoverage":{"coveragePercent":0.0,"knownUnitCount":0,"method":"unavailable","totalUnitCount":0},"operatingCapacityMw":0.0,"operatingCapacityMwByTechnology":{},"plannedCapacityCoverage":{"coveragePercent":0.0,"knownUnitCount":0,"method":"unavailable","totalUnitCount":0},"plannedCapacityMw":0.0,"plannedCapacityMwByTechnology":{},"recordCount":1,"recordIds":["wattlas-record-gemunit-g100000800227"],"sourceIds":["gem-global-integrated-power-tracker"],"technologies":["solar"],"technologyMixMw":{"solar":0.0},"unitCount":1,"unitIds":["gem-unit-G100000800227"]},"type":"Feature"},{"geometry":{"coordinates":[-3.1591,5.5819],"type":"Point"},"id":"wattlas-plant-gemplant-l100001054675","properties":{"aliases":["Ayame II hydroelectric plant"],"canonicalAnchor":"gemplant:L100001054675","canonicalCountryKey":"CI","capacityMw":30.0,"country":"CI","externalIds":{"gemPlant":"L100001054675","gemUnit":"G100001062567"},"geographyId":"CI-83157122B96325295181308","id":"wattlas-plant-gemplant-l100001054675","lifecycleCounts":{"operational":1},"locationPrecision":"exact","name":"Ayame II hydroelectric plant","operatingCapacityCoverage":{"coveragePercent":100.0,"knownUnitCount":1,"method":"complete_unit_sum","provenance":{"evidenceCount":0,"recordIds":["wattlas-record-gemunit-g100001062567"],"sourceIds":["gem-global-integrated-power-tracker"],"sourceTypes":["research_verified"],"valueKind":"reported"},"totalUnitCount":1},"operatingCapacityMw":30.0,"operatingCapacityMwByTechnology":{"hydro":30.0},"plannedCapacityCoverage":{"coveragePercent":0.0,"knownUnitCount":0,"method":"unavailable","totalUnitCount":0},"plannedCapacityMw":0.0,"plannedCapacityMwByTechnology":{},"recordCount":1,"recordIds":["wattlas-record-gemunit-g100001062567"],"sourceIds":["gem-global-integrated-power-tracker"],"technologies":["hydro"],"technologyMixMw":{"hydro":30.0},"unitCount":1,"unitIds":["gem-unit-G100001062567"]},"type":"Feature"},{"geometry":{"coordinates":[-4.9512,6.0889],"type":"Point"},"id":"wattlas-plant-gemplant-l100001080262","properties":{"aliases":["Singrobo-Ahouaty hydroelectric plant"],"canonicalAnchor":"gemplant:L100001080262","canonicalCountryKey":"CI","capacityMw":44.0,"country":"CI","externalIds":{"gemPlant":"L100001080262","gemUnit":"G100001090129"},"geographyId":"CI-83157122B73612976130091","id":"wattlas-plant-gemplant-l100001080262","lifecycleCounts":{"under_construction":1},"locationPrecision":"exact","name":"Singrobo-Ahouaty hydroelectric plant","operatingCapacityCoverage":{"coveragePercent":0.0,"knownUnitCount":0,"method":"unavailable","totalUnitCount":0},"operatingCapacityMw":0.0,"operatingCapacityMwByTechnology":{},"plannedCapacityCoverage":{"coveragePercent":100.0,"knownUnitCount":1,"method":"complete_unit_sum","provenance":{"evidenceCount":0,"recordIds":["wattlas-record-gemunit-g100001090129"],"sourceIds":["gem-global-integrated-power-tracker"],"sourceTypes":["research_verified"],"valueKind":"reported"},"totalUnitCount":1},"plannedCapacityMw":44.0,"plannedCapacityMwByTechnology":{"hydro":44.0},"recordCount":1,"recordIds":["wattlas-record-gemunit-g100001090129"],"sourceIds":["gem-global-integrated-power-tracker"],"technologies":["hydro"],"technologyMixMw":{"hydro":44.0},"unitCount":1,"unitIds":["gem-unit-G100001090129"]},"type":"Feature"},{"geometry":{"coordinates":[-4.00795,5.259036],"type":"Point"},"id":"wattlas-plant-osm-relation-11523395","properties":{"aliases":["Centrale Aggriko"],"canonicalAnchor":"osm:relation/11523395","canonicalCountryKey":"CI","capacityMw":210.0,"country":"CI","externalIds":{"osm":"relation/11523395"},"geographyId":"CI-83157122B76853064397847","id":"wattlas-plant-osm-relation-11523395","lifecycleCounts":{"operational":1},"locationPrecision":"exact","name":"Centrale Aggriko","operatingCapacityCoverage":{"coveragePercent":100.0,"knownUnitCount":0,"method":"plant_aggregate","provenance":{"evidenceCount":0,"recordIds":["wattlas-record-osm-relation-11523395"],"sourceIds":["openstreetmap-power"],"sourceTypes":["community_mapped"],"valueKind":"reported"},"totalUnitCount":0},"operatingCapacityMw":210.0,"operatingCapacityMwByTechnology":{"gas":210.0},"plannedCapacityCoverage":{"coveragePercent":0.0,"knownUnitCount":0,"method":"unavailable","totalUnitCount":0},"plannedCapacityMw":0.0,"plannedCapacityMwByTechnology":{},"recordCount":1,"recordIds":["wattlas-record-osm-relation-11523395"],"sourceIds":["openstreetmap-power"],"technologies":["gas"],"technologyMixMw":{"gas":210.0},"unitCount":0,"unitIds":[]},"type":"Feature"},{"geometry":{"coordinates":[-6.507673,9.55686],"type":"Point"},"id":"wattlas-plant-osm-way-1267348664","properties":{"aliases":["Centrale Solaire Photovoltaïque de Boundiali"],"canonicalAnchor":"osm:way/1267348664","canonicalCountryKey":"CI","capacityMw":37.5,"country":"CI","externalIds":{"osm":"way/1267348664"},"geographyId":"CI-83157122B28791092437733","id":"wattlas-plant-osm-way-1267348664","lifecycleCounts":{"operational":1},"locationPrecision":"exact","name":"Centrale Solaire Photovoltaïque de Boundiali","operatingCapacityCoverage":{"coveragePercent":100.0,"knownUnitCount":0,"method":"plant_aggregate","provenance":{"evidenceCount":0,"recordIds":["wattlas-record-osm-way-1267348664"],"sourceIds":["openstreetmap-power"],"sourceTypes":["community_mapped"],"valueKind":"reported"},"totalUnitCount":0},"operatingCapacityMw":37.5,"operatingCapacityMwByTechnology":{"solar":37.5},"plannedCapacityCoverage":{"coveragePercent":0.0,"knownUnitCount":0,"method":"unavailable","totalUnitCount":0},"plannedCapacityMw":0.0,"plannedCapacityMwByTechnology":{},"recordCount":1,"recordIds":["wattlas-record-osm-way-1267348664"],"sourceIds":["openstreetmap-power"],"technologies":["solar"],"technologyMixMw":{"solar":37.5},"unitCount":0,"unitIds":[]},"type":"Feature"},{"geometry":{"coordinates":[-5.23766,6.863095],"type":"Point"},"id":"wattlas-plant-osm-way-1449974503","properties":{"aliases":["Centrale PV du GEP MCI"],"canonicalAnchor":"osm:way/1449974503","canonicalCountryKey":"CI","capacityMw":0.0,"country":"CI","externalIds":{"osm":"way/1449974503"},"geographyId":"CI-83157122B30232425959699","id":"wattlas-plant-osm-way-1449974503","lifecycleCounts":{"operational":1},"locationPrecision":"exact","name":"Centrale PV du GEP MCI","operatingCapacityCoverage":{"coveragePercent":0.0,"knownUnitCount":0,"method":"unavailable","totalUnitCount":0},"operatingCapacityMw":0.0,"operatingCapacityMwByTechnology":{},"plannedCapacityCoverage":{"coveragePercent":0.0,"knownUnitCount":0,"method":"unavailable","totalUnitCount":0},"plannedCapacityMw":0.0,"plannedCapacityMwByTechnology":{},"recordCount":1,"recordIds":["wattlas-record-osm-way-1449974503"],"sourceIds":["openstreetmap-power"],"technologies":["solar"],"technologyMixMw":{"solar":0.0},"unitCount":0,"unitIds":[]},"type":"Feature"},{"geometry":{"coordinates":[-3.159159,5.581988],"type":"Point"},"id":"wattlas-plant-osm-way-839084341","properties":{"aliases":["Centrale hydroélectrique Ayamé 2"],"canonicalAnchor":"osm:way/839084341","canonicalCountryKey":"CI","capacityMw":30.0,"country":"CI","externalIds":{"osm":"way/839084341"},"geographyId":"CI-83157122B96325295181308","id":"wattlas-plant-osm-way-839084341","lifecycleCounts":{"operational":1},"locationPrecision":"exact","name":"Centrale hydroélectrique Ayamé 2","operatingCapacityCoverage":{"coveragePercent":100.0,"knownUnitCount":0,"method":"plant_aggregate","provenance":{"evidenceCount":0,"recordIds":["wattlas-record-osm-way-839084341"],"sourceIds":["openstreetmap-power"],"sourceTypes":["community_mapped"],"valueKind":"reported"},"totalUnitCount":0},"operatingCapacityMw":30.0,"operatingCapacityMwByTechnology":{"hydro":30.0},"plannedCapacityCoverage":{"coveragePercent":0.0,"knownUnitCount":0,"method":"unavailable","totalUnitCount":0},"plannedCapacityMw":0.0,"plannedCapacityMwByTechnology":{},"recordCount":1,"recordIds":["wattlas-record-osm-way-839084341"],"sourceIds":["openstreetmap-power"],"technologies":["hydro"],"technologyMixMw":{"hydro":30.0},"unitCount":0,"unitIds":[]},"type":"Feature"},{"geometry":{"coordinates":[-6.652443,4.972429],"type":"Point"},"id":"wattlas-plant-osm-way-839084363","properties":{"aliases":["Centrale hydroélectrique de Fayé"],"canonicalAnchor":"osm:way/839084363","canonicalCountryKey":"CI","capacityMw":5.0,"country":"CI","externalIds":{"osm":"way/839084363"},"geographyId":"CI-83157122B96959932745266","id":"wattlas-plant-osm-way-839084363","lifecycleCounts":{"operational":1},"locationPrecision":"exact","name":"Centrale hydroélectrique de Fayé","operatingCapacityCoverage":{"coveragePercent":100.0,"knownUnitCount":0,"method":"plant_aggregate","provenance":{"evidenceCount":0,"recordIds":["wattlas-record-osm-way-839084363"],"sourceIds":["openstreetmap-power"],"sourceTypes":["community_mapped"],"valueKind":"reported"},"totalUnitCount":0},"operatingCapacityMw":5.0,"operatingCapacityMwByTechnology":{"hydro":5.0},"plannedCapacityCoverage":{"coveragePercent":0.0,"knownUnitCount":0,"method":"unavailable","totalUnitCount":0},"plannedCapacityMw":0.0,"plannedCapacityMwByTechnology":{},"recordCount":1,"recordIds":["wattlas-record-osm-way-839084363"],"sourceIds":["openstreetmap-power"],"technologies":["hydro"],"technologyMixMw":{"hydro":5.0},"unitCount":0,"unitIds":[]},"type":"Feature"},{"geometry":{"coordinates":[-3.170047,5.606115],"type":"Point"},"id":"wattlas-plant-osm-way-839084395","properties":{"aliases":["Centrale hydroélectrique Ayamé 1"],"canonicalAnchor":"osm:way/839084395","canonicalCountryKey":"CI","capacityMw":20.0,"country":"CI","externalIds":{"osm":"way/839084395"},"geographyId":"CI-83157122B96325295181308","id":"wattlas-plant-osm-way-839084395","lifecycleCounts":{"operational":1},"locationPrecision":"exact","name":"Centrale hydroélectrique Ayamé 1","operatingCapacityCoverage":{"coveragePercent":100.0,"knownUnitCount":0,"method":"plant_aggregate","provenance":{"evidenceCount":0,"recordIds":["wattlas-record-osm-way-839084395"],"sourceIds":["openstreetmap-power"],"sourceTypes":["community_mapped"],"valueKind":"reported"},"totalUnitCount":0},"operatingCapacityMw":20.0,"operatingCapacityMwByTechnology":{"hydro":20.0},"plannedCapacityCoverage":{"coveragePercent":0.0,"knownUnitCount":0,"method":"unavailable","totalUnitCount":0},"plannedCapacityMw":0.0,"plannedCapacityMwByTechnology":{},"recordCount":1,"recordIds":["wattlas-record-osm-way-839084395"],"sourceIds":["openstreetmap-power"],"technologies":["hydro"],"technologyMixMw":{"hydro":20.0},"unitCount":0,"unitIds":[]},"type":"Feature"},{"geometry":{"coordinates":[-4.321608,5.246045],"type":"Point"},"id":"wattlas-plant-wikidata-q106936014","properties":{"aliases":["Atinkou"],"canonicalAnchor":"wikidata:Q106936014","canonicalCountryKey":"CI","capacityMw":390.0,"country":"CI","externalIds":{"osm":"way/975038736","wikidata":"Q106936014"},"geographyId":"CI-83157122B73612976130091","id":"wattlas-plant-wikidata-q106936014","idAliases":["wattlas-plant-osm-way-975038736"],"lifecycleCounts":{"under_construction":1},"locationPrecision":"exact","name":"Atinkou","operatingCapacityCoverage":{"coveragePercent":0.0,"knownUnitCount":0,"method":"unavailable","totalUnitCount":0},"operatingCapacityMw":0.0,"operatingCapacityMwByTechnology":{},"plannedCapacityCoverage":{"coveragePercent":100.0,"knownUnitCount":0,"method":"plant_aggregate","provenance":{"evidenceCount":0,"recordIds":["wattlas-record-osm-way-975038736"],"sourceIds":["openstreetmap-power"],"sourceTypes":["community_mapped"],"valueKind":"reported"},"totalUnitCount":0},"plannedCapacityMw":390.0,"plannedCapacityMwByTechnology":{"gas":390.0},"recordCount":1,"recordIds":["wattlas-record-osm-way-975038736"],"sourceIds":["openstreetmap-power"],"technologies":["gas"],"technologyMixMw":{"gas":390.0},"unitCount":0,"unitIds":[]},"type":"Feature"},{"geometry":{"coordinates":[-6.570861,5.697808],"type":"Point"},"id":"wattlas-plant-wikidata-q112061788","properties":{"aliases":["Centrale Électrique de Gribo-Popoli"],"canonicalAnchor":"wikidata:Q112061788","canonicalCountryKey":"CI","capacityMw":112.0,"country":"CI","externalIds":{"osm":"way/1043106265","wikidata":"Q112061788"},"geographyId":"CI-83157122B96959932745266","id":"wattlas-plant-wikidata-q112061788","idAliases":["wattlas-plant-osm-way-1043106265"],"lifecycleCounts":{"operational":1},"locationPrecision":"exact","name":"Centrale Électrique de Gribo-Popoli","operatingCapacityCoverage":{"coveragePercent":100.0,"knownUnitCount":0,"method":"plant_aggregate","provenance":{"evidenceCount":0,"recordIds":["wattlas-record-osm-way-1043106265"],"sourceIds":["openstreetmap-power"],"sourceTypes":["community_mapped"],"valueKind":"reported"},"totalUnitCount":0},"operatingCapacityMw":112.0,"operatingCapacityMwByTechnology":{"hydro":112.0},"plannedCapacityCoverage":{"coveragePercent":0.0,"knownUnitCount":0,"method":"unavailable","totalUnitCount":0},"plannedCapacityMw":0.0,"plannedCapacityMwByTechnology":{},"recordCount":1,"recordIds":["wattlas-record-osm-way-1043106265"],"sourceIds":["openstreetmap-power"],"technologies":["hydro"],"technologyMixMw":{"hydro":112.0},"unitCount":0,"unitIds":[]},"type":"Feature"},{"geometry":{"coordinates":[-4.075719,5.301703],"type":"Point"},"id":"wattlas-plant-wikidata-q18642451","properties":{"aliases":["Centrale thermique d’Azito"],"canonicalAnchor":"wikidata:Q18642451","canonicalCountryKey":"CI","capacityMw":435.0,"country":"CI","externalIds":{"osm":"way/91300729","wikidata":"Q18642451"},"geographyId":"CI-83157122B76853064397847","id":"wattlas-plant-wikidata-q18642451","idAliases":["wattlas-plant-osm-way-91300729"],"lifecycleCounts":{"operational":1},"locationPrecision":"exact","name":"Centrale thermique d’Azito","operatingCapacityCoverage":{"coveragePercent":100.0,"knownUnitCount":0,"method":"plant_aggregate","provenance":{"evidenceCount":0,"recordIds":["wattlas-record-osm-way-91300729"],"sourceIds":["openstreetmap-power"],"sourceTypes":["community_mapped"],"valueKind":"reported"},"totalUnitCount":0},"operatingCapacityMw":435.0,"operatingCapacityMwByTechnology":{"gas":435.0},"plannedCapacityCoverage":{"coveragePercent":0.0,"knownUnitCount":0,"method":"unavailable","totalUnitCount":0},"plannedCapacityMw":0.0,"plannedCapacityMwByTechnology":{},"recordCount":1,"recordIds":["wattlas-record-osm-way-91300729"],"sourceIds":["openstreetmap-power"],"technologies":["gas"],"technologyMixMw":{"gas":435.0},"unitCount":0,"unitIds":[]},"type":"Feature"},{"geometry":{"coordinates":[-4.008066,5.258035],"type":"Point"},"id":"wattlas-plant-wikidata-q19406854","properties":{"aliases":["Centrale de Vridi 1"],"canonicalAnchor":"wikidata:Q19406854","canonicalCountryKey":"CI","capacityMw":100.0,"country":"CI","externalIds":{"osm":"way/839098676","wikidata":"Q19406854"},"geographyId":"CI-83157122B76853064397847","id":"wattlas-plant-wikidata-q19406854","idAliases":["wattlas-plant-osm-way-839098676"],"lifecycleCounts":{"operational":1},"locationPrecision":"exact","name":"Centrale de Vridi 1","operatingCapacityCoverage":{"coveragePercent":100.0,"knownUnitCount":0,"method":"plant_aggregate","provenance":{"evidenceCount":0,"recordIds":["wattlas-record-osm-way-839098676"],"sourceIds":["openstreetmap-power"],"sourceTypes":["community_mapped"],"valueKind":"reported"},"totalUnitCount":0},"operatingCapacityMw":100.0,"operatingCapacityMwByTechnology":{"gas":100.0},"plannedCapacityCoverage":{"coveragePercent":0.0,"knownUnitCount":0,"method":"unavailable","totalUnitCount":0},"plannedCapacityMw":0.0,"plannedCapacityMwByTechnology":{},"recordCount":1,"recordIds":["wattlas-record-osm-way-839098676"],"sourceIds":["openstreetmap-power"],"technologies":["gas"],"technologyMixMw":{"gas":100.0},"unitCount":0,"unitIds":[]},"type":"Feature"},{"geometry":{"coordinates":[-7.027279,6.245358],"type":"Point"},"id":"wattlas-plant-wikidata-q3444380","properties":{"aliases":["Centrale hydroélectrique de Buyo"],"canonicalAnchor":"wikidata:Q3444380","canonicalCountryKey":"CI","capacityMw":165.0,"country":"CI","externalIds":{"osm":"way/533150339","wikidata":"Q3444380"},"geographyId":"CI-83157122B96959932745266","id":"wattlas-plant-wikidata-q3444380","idAliases":["wattlas-plant-osm-way-533150339"],"lifecycleCounts":{"operational":1},"locationPrecision":"exact","name":"Centrale hydroélectrique de Buyo","operatingCapacityCoverage":{"coveragePercent":100.0,"knownUnitCount":0,"method":"plant_aggregate","provenance":{"evidenceCount":0,"recordIds":["wattlas-record-osm-way-533150339"],"sourceIds":["openstreetmap-power"],"sourceTypes":["community_mapped"],"valueKind":"reported"},"totalUnitCount":0},"operatingCapacityMw":165.0,"operatingCapacityMwByTechnology":{"hydro":165.0},"plannedCapacityCoverage":{"coveragePercent":0.0,"knownUnitCount":0,"method":"unavailable","totalUnitCount":0},"plannedCapacityMw":0.0,"plannedCapacityMwByTechnology":{},"recordCount":1,"recordIds":["wattlas-record-osm-way-533150339"],"sourceIds":["openstreetmap-power"],"technologies":["hydro"],"technologyMixMw":{"hydro":165.0},"unitCount":0,"unitIds":[]},"type":"Feature"},{"geometry":{"coordinates":[-6.633279,5.785357],"type":"Point"},"id":"wattlas-plant-wikidata-q36698303","properties":{"aliases":["Centrale hydroélectrique de Soubré"],"canonicalAnchor":"wikidata:Q36698303","canonicalCountryKey":"CI","capacityMw":275.0,"country":"CI","externalIds":{"osm":"way/839085660","wikidata":"Q36698303"},"geographyId":"CI-83157122B96959932745266","id":"wattlas-plant-wikidata-q36698303","idAliases":["wattlas-plant-osm-way-839085660"],"lifecycleCounts":{"operational":1},"locationPrecision":"exact","name":"Centrale hydroélectrique de Soubré","operatingCapacityCoverage":{"coveragePercent":100.0,"knownUnitCount":0,"method":"plant_aggregate","provenance":{"evidenceCount":0,"recordIds":["wattlas-record-osm-way-839085660"],"sourceIds":["openstreetmap-power"],"sourceTypes":["community_mapped"],"valueKind":"reported"},"totalUnitCount":0},"operatingCapacityMw":275.0,"operatingCapacityMwByTechnology":{"hydro":275.0},"plannedCapacityCoverage":{"coveragePercent":0.0,"knownUnitCount":0,"method":"unavailable","totalUnitCount":0},"plannedCapacityMw":0.0,"plannedCapacityMwByTechnology":{},"recordCount":1,"recordIds":["wattlas-record-osm-way-839085660"],"sourceIds":["openstreetmap-power"],"technologies":["hydro"],"technologyMixMw":{"hydro":275.0},"unitCount":0,"unitIds":[]},"type":"Feature"},{"geometry":{"coordinates":[-4.010749,5.262269],"type":"Point"},"id":"wattlas-plant-wikidata-q56373411","properties":{"aliases":["Centrale CIPREL de Vridi"],"canonicalAnchor":"wikidata:Q56373411","canonicalCountryKey":"CI","capacityMw":556.0,"country":"CI","externalIds":{"osm":"way/839098677","wikidata":"Q56373411","wikipedia":"fr:Centrale thermique de Vridi"},"geographyId":"CI-83157122B76853064397847","id":"wattlas-plant-wikidata-q56373411","idAliases":["wattlas-plant-osm-way-839098677","wattlas-plant-wikipedia-fr-centrale-thermique-de-vridi"],"lifecycleCounts":{"operational":1},"locationPrecision":"exact","name":"Centrale CIPREL de Vridi","operatingCapacityCoverage":{"coveragePercent":100.0,"knownUnitCount":0,"method":"plant_aggregate","provenance":{"evidenceCount":0,"recordIds":["wattlas-record-osm-way-839098677"],"sourceIds":["openstreetmap-power"],"sourceTypes":["community_mapped"],"valueKind":"reported"},"totalUnitCount":0},"operatingCapacityMw":556.0,"operatingCapacityMwByTechnology":{"gas":556.0},"plannedCapacityCoverage":{"coveragePercent":0.0,"knownUnitCount":0,"method":"unavailable","totalUnitCount":0},"plannedCapacityMw":0.0,"plannedCapacityMwByTechnology":{},"recordCount":1,"recordIds":["wattlas-record-osm-way-839098677"],"sourceIds":["openstreetmap-power"],"technologies":["gas"],"technologyMixMw":{"gas":556.0},"unitCount":0,"unitIds":[]},"type":"Feature"},{"geometry":{"coordinates":[-5.083011,6.210457],"type":"Point"},"id":"wattlas-plant-wikidata-q7672797","properties":{"aliases":["Centrale hydroélectrique de Taabo"],"canonicalAnchor":"wikidata:Q7672797","canonicalCountryKey":"CI","capacityMw":210.0,"country":"CI","externalIds":{"osm":"way/266415631","wikidata":"Q7672797"},"geographyId":"CI-83157122B73612976130091","id":"wattlas-plant-wikidata-q7672797","idAliases":["wattlas-plant-osm-way-266415631"],"lifecycleCounts":{"operational":1},"locationPrecision":"exact","name":"Centrale hydroélectrique de Taabo","operatingCapacityCoverage":{"coveragePercent":100.0,"knownUnitCount":0,"method":"plant_aggregate","provenance":{"evidenceCount":0,"recordIds":["wattlas-record-osm-way-266415631"],"sourceIds":["openstreetmap-power"],"sourceTypes":["community_mapped"],"valueKind":"reported"},"totalUnitCount":0},"operatingCapacityMw":210.0,"operatingCapacityMwByTechnology":{"hydro":210.0},"plannedCapacityCoverage":{"coveragePercent":0.0,"knownUnitCount":0,"method":"unavailable","totalUnitCount":0},"plannedCapacityMw":0.0,"plannedCapacityMwByTechnology":{},"recordCount":1,"recordIds":["wattlas-record-osm-way-266415631"],"sourceIds":["openstreetmap-power"],"technologies":["hydro"],"technologyMixMw":{"hydro":210.0},"unitCount":0,"unitIds":[]},"type":"Feature"}],"type":"FeatureCollection"}