{"features":[{"geometry":{"coordinates":[-13.69705,9.5199],"type":"Point"},"id":"wattlas-plant-gemplant-l100000409148","properties":{"aliases":["1-1","Kaloum 5 power plant"],"canonicalAnchor":"gemplant:L100000409148","canonicalCountryKey":"GN","capacityMw":30.0,"country":"GN","externalIds":{"gemPlant":"L100000409148","gemUnit":"G100000413973"},"geographyId":"GN-385441B29247776226513","id":"wattlas-plant-gemplant-l100000409148","lifecycleCounts":{"operational":1},"locationPrecision":"exact","name":"Kaloum 5 power plant","operatingCapacityCoverage":{"coveragePercent":100.0,"knownUnitCount":1,"method":"complete_unit_sum","provenance":{"evidenceCount":0,"recordIds":["wattlas-record-gemunit-g100000413973"],"sourceIds":["gem-global-integrated-power-tracker"],"sourceTypes":["research_verified"],"valueKind":"reported"},"totalUnitCount":1},"operatingCapacityMw":30.0,"operatingCapacityMwByTechnology":{"oil":30.0},"plannedCapacityCoverage":{"coveragePercent":0.0,"knownUnitCount":0,"method":"unavailable","totalUnitCount":0},"plannedCapacityMw":0.0,"plannedCapacityMwByTechnology":{},"recordCount":1,"recordIds":["wattlas-record-gemunit-g100000413973"],"sourceIds":["gem-global-integrated-power-tracker"],"technologies":["oil"],"technologyMixMw":{"oil":30.0},"unitCount":1,"unitIds":["gem-unit-G100000413973"]},"type":"Feature"},{"geometry":{"coordinates":[-13.69705,9.5199],"type":"Point"},"id":"wattlas-plant-gemplant-l100000409149","properties":{"aliases":["1-1","Kaloum 3 power plant"],"canonicalAnchor":"gemplant:L100000409149","canonicalCountryKey":"GN","capacityMw":44.0,"country":"GN","externalIds":{"gemPlant":"L100000409149","gemUnit":"G100000413974"},"geographyId":"GN-385441B29247776226513","id":"wattlas-plant-gemplant-l100000409149","lifecycleCounts":{"operational":1},"locationPrecision":"exact","name":"Kaloum 3 power plant","operatingCapacityCoverage":{"coveragePercent":100.0,"knownUnitCount":1,"method":"complete_unit_sum","provenance":{"evidenceCount":0,"recordIds":["wattlas-record-gemunit-g100000413974"],"sourceIds":["gem-global-integrated-power-tracker"],"sourceTypes":["research_verified"],"valueKind":"reported"},"totalUnitCount":1},"operatingCapacityMw":44.0,"operatingCapacityMwByTechnology":{"oil":44.0},"plannedCapacityCoverage":{"coveragePercent":0.0,"knownUnitCount":0,"method":"unavailable","totalUnitCount":0},"plannedCapacityMw":0.0,"plannedCapacityMwByTechnology":{},"recordCount":1,"recordIds":["wattlas-record-gemunit-g100000413974"],"sourceIds":["gem-global-integrated-power-tracker"],"technologies":["oil"],"technologyMixMw":{"oil":44.0},"unitCount":1,"unitIds":["gem-unit-G100000413974"]},"type":"Feature"},{"geometry":{"coordinates":[-13.69705,9.5199],"type":"Point"},"id":"wattlas-plant-gemplant-l100000409150","properties":{"aliases":["1-1","Kaloum 2 power plant"],"canonicalAnchor":"gemplant:L100000409150","canonicalCountryKey":"GN","capacityMw":26.0,"country":"GN","externalIds":{"gemPlant":"L100000409150","gemUnit":"G100000413975"},"geographyId":"GN-385441B29247776226513","id":"wattlas-plant-gemplant-l100000409150","lifecycleCounts":{"operational":1},"locationPrecision":"exact","name":"Kaloum 2 power plant","operatingCapacityCoverage":{"coveragePercent":100.0,"knownUnitCount":1,"method":"complete_unit_sum","provenance":{"evidenceCount":0,"recordIds":["wattlas-record-gemunit-g100000413975"],"sourceIds":["gem-global-integrated-power-tracker"],"sourceTypes":["research_verified"],"valueKind":"reported"},"totalUnitCount":1},"operatingCapacityMw":26.0,"operatingCapacityMwByTechnology":{"oil":26.0},"plannedCapacityCoverage":{"coveragePercent":0.0,"knownUnitCount":0,"method":"unavailable","totalUnitCount":0},"plannedCapacityMw":0.0,"plannedCapacityMwByTechnology":{},"recordCount":1,"recordIds":["wattlas-record-gemunit-g100000413975"],"sourceIds":["gem-global-integrated-power-tracker"],"technologies":["oil"],"technologyMixMw":{"oil":26.0},"unitCount":1,"unitIds":["gem-unit-G100000413975"]},"type":"Feature"},{"geometry":{"coordinates":[-13.69705,9.5199],"type":"Point"},"id":"wattlas-plant-gemplant-l100000409151","properties":{"aliases":["1-1","Kaloum 1 power plant"],"canonicalAnchor":"gemplant:L100000409151","canonicalCountryKey":"GN","capacityMw":24.0,"country":"GN","externalIds":{"gemPlant":"L100000409151","gemUnit":"G100000413976"},"geographyId":"GN-385441B29247776226513","id":"wattlas-plant-gemplant-l100000409151","lifecycleCounts":{"operational":1},"locationPrecision":"exact","name":"Kaloum 1 power plant","operatingCapacityCoverage":{"coveragePercent":100.0,"knownUnitCount":1,"method":"complete_unit_sum","provenance":{"evidenceCount":0,"recordIds":["wattlas-record-gemunit-g100000413976"],"sourceIds":["gem-global-integrated-power-tracker"],"sourceTypes":["research_verified"],"valueKind":"reported"},"totalUnitCount":1},"operatingCapacityMw":24.0,"operatingCapacityMwByTechnology":{"oil":24.0},"plannedCapacityCoverage":{"coveragePercent":0.0,"knownUnitCount":0,"method":"unavailable","totalUnitCount":0},"plannedCapacityMw":0.0,"plannedCapacityMwByTechnology":{},"recordCount":1,"recordIds":["wattlas-record-gemunit-g100000413976"],"sourceIds":["gem-global-integrated-power-tracker"],"technologies":["oil"],"technologyMixMw":{"oil":24.0},"unitCount":1,"unitIds":["gem-unit-G100000413976"]},"type":"Feature"},{"geometry":{"coordinates":[-13.705968,9.516564],"type":"Point"},"id":"wattlas-plant-gemplant-l100000409152","properties":{"aliases":["1-1","2-1","3-1","Conakry K-Energie power plant"],"canonicalAnchor":"gemplant:L100000409152","canonicalCountryKey":"GN","capacityMw":75.0,"country":"GN","externalIdAliases":{"gemUnit":["G100000413977","G100000413978","G100000413979"]},"externalIds":{"gemPlant":"L100000409152","gemUnit":"G100000413977"},"geographyId":"GN-385441B29247776226513","id":"wattlas-plant-gemplant-l100000409152","lifecycleCounts":{"operational":3},"locationPrecision":"exact","name":"Conakry K-Energie power plant","operatingCapacityCoverage":{"coveragePercent":100.0,"knownUnitCount":3,"method":"complete_unit_sum","provenance":{"evidenceCount":0,"recordIds":["wattlas-record-gemunit-g100000413977","wattlas-record-gemunit-g100000413978","wattlas-record-gemunit-g100000413979"],"sourceIds":["gem-global-integrated-power-tracker"],"sourceTypes":["research_verified"],"valueKind":"reported"},"totalUnitCount":3},"operatingCapacityMw":75.0,"operatingCapacityMwByTechnology":{"gas":75.0},"plannedCapacityCoverage":{"coveragePercent":0.0,"knownUnitCount":0,"method":"unavailable","totalUnitCount":0},"plannedCapacityMw":0.0,"plannedCapacityMwByTechnology":{},"recordCount":3,"recordIds":["wattlas-record-gemunit-g100000413977","wattlas-record-gemunit-g100000413978","wattlas-record-gemunit-g100000413979"],"sourceIds":["gem-global-integrated-power-tracker"],"technologies":["gas"],"technologyMixMw":{"gas":75.0},"unitCount":3,"unitIds":["gem-unit-G100000413977","gem-unit-G100000413978","gem-unit-G100000413979"]},"type":"Feature"},{"geometry":{"coordinates":[-13.661755,9.570217],"type":"Point"},"id":"wattlas-plant-gemplant-l100000409165","properties":{"aliases":["1-1","Tè-Power power plant"],"canonicalAnchor":"gemplant:L100000409165","canonicalCountryKey":"GN","capacityMw":50.0,"country":"GN","externalIds":{"gemPlant":"L100000409165","gemUnit":"G100000413968"},"geographyId":"GN-385441B29247776226513","id":"wattlas-plant-gemplant-l100000409165","lifecycleCounts":{"operational":1},"locationPrecision":"exact","name":"Tè-Power power plant","operatingCapacityCoverage":{"coveragePercent":100.0,"knownUnitCount":1,"method":"complete_unit_sum","provenance":{"evidenceCount":0,"recordIds":["wattlas-record-gemunit-g100000413968"],"sourceIds":["gem-global-integrated-power-tracker"],"sourceTypes":["research_verified"],"valueKind":"reported"},"totalUnitCount":1},"operatingCapacityMw":50.0,"operatingCapacityMwByTechnology":{"oil":50.0},"plannedCapacityCoverage":{"coveragePercent":0.0,"knownUnitCount":0,"method":"unavailable","totalUnitCount":0},"plannedCapacityMw":0.0,"plannedCapacityMwByTechnology":{},"recordCount":1,"recordIds":["wattlas-record-gemunit-g100000413968"],"sourceIds":["gem-global-integrated-power-tracker"],"technologies":["oil"],"technologyMixMw":{"oil":50.0},"unitCount":1,"unitIds":["gem-unit-G100000413968"]},"type":"Feature"},{"geometry":{"coordinates":[-13.63675,9.60254],"type":"Point"},"id":"wattlas-plant-gemplant-l100000409167","properties":{"aliases":["1-1","Kipé power plant"],"canonicalAnchor":"gemplant:L100000409167","canonicalCountryKey":"GN","capacityMw":54.0,"country":"GN","externalIds":{"gemPlant":"L100000409167","gemUnit":"G100000413970"},"geographyId":"GN-385441B29247776226513","id":"wattlas-plant-gemplant-l100000409167","lifecycleCounts":{"operational":1},"locationPrecision":"exact","name":"Kipé power plant","operatingCapacityCoverage":{"coveragePercent":100.0,"knownUnitCount":1,"method":"complete_unit_sum","provenance":{"evidenceCount":0,"recordIds":["wattlas-record-gemunit-g100000413970"],"sourceIds":["gem-global-integrated-power-tracker"],"sourceTypes":["research_verified"],"valueKind":"reported"},"totalUnitCount":1},"operatingCapacityMw":54.0,"operatingCapacityMwByTechnology":{"oil":54.0},"plannedCapacityCoverage":{"coveragePercent":0.0,"knownUnitCount":0,"method":"unavailable","totalUnitCount":0},"plannedCapacityMw":0.0,"plannedCapacityMwByTechnology":{},"recordCount":1,"recordIds":["wattlas-record-gemunit-g100000413970"],"sourceIds":["gem-global-integrated-power-tracker"],"technologies":["oil"],"technologyMixMw":{"oil":54.0},"unitCount":1,"unitIds":["gem-unit-G100000413970"]},"type":"Feature"},{"geometry":{"coordinates":[-13.5062,10.3863],"type":"Point"},"id":"wattlas-plant-gemplant-l100000601777","properties":{"aliases":["Amaria hydroelectric plant"],"canonicalAnchor":"gemplant:L100000601777","canonicalCountryKey":"GN","capacityMw":300.0,"country":"GN","externalIds":{"gemPlant":"L100000601777","gemUnit":"G100000601796"},"geographyId":"GN-385441B58689174477974","id":"wattlas-plant-gemplant-l100000601777","lifecycleCounts":{"under_construction":1},"locationPrecision":"exact","name":"Amaria hydroelectric plant","operatingCapacityCoverage":{"coveragePercent":0.0,"knownUnitCount":0,"method":"unavailable","totalUnitCount":0},"operatingCapacityMw":0.0,"operatingCapacityMwByTechnology":{},"plannedCapacityCoverage":{"coveragePercent":100.0,"knownUnitCount":1,"method":"complete_unit_sum","provenance":{"evidenceCount":0,"recordIds":["wattlas-record-gemunit-g100000601796"],"sourceIds":["gem-global-integrated-power-tracker"],"sourceTypes":["research_verified"],"valueKind":"reported"},"totalUnitCount":1},"plannedCapacityMw":300.0,"plannedCapacityMwByTechnology":{"hydro":300.0},"recordCount":1,"recordIds":["wattlas-record-gemunit-g100000601796"],"sourceIds":["gem-global-integrated-power-tracker"],"technologies":["hydro"],"technologyMixMw":{"hydro":300.0},"unitCount":1,"unitIds":["gem-unit-G100000601796"]},"type":"Feature"},{"geometry":{"coordinates":[-10.7501,11.7333],"type":"Point"},"id":"wattlas-plant-gemplant-l100000601778","properties":{"aliases":["Boureya hydroelectric plant"],"canonicalAnchor":"gemplant:L100000601778","canonicalCountryKey":"GN","capacityMw":0.0,"country":"GN","externalIds":{"gemPlant":"L100000601778","gemUnit":"G100000604268"},"geographyId":"GN-385441B61717407014046","id":"wattlas-plant-gemplant-l100000601778","lifecycleCounts":{"paused":1},"locationPrecision":"exact","name":"Boureya hydroelectric plant","operatingCapacityCoverage":{"coveragePercent":0.0,"knownUnitCount":0,"method":"unavailable","totalUnitCount":0},"operatingCapacityMw":0.0,"operatingCapacityMwByTechnology":{},"plannedCapacityCoverage":{"coveragePercent":0.0,"knownUnitCount":0,"method":"unavailable","totalUnitCount":0},"plannedCapacityMw":0.0,"plannedCapacityMwByTechnology":{},"recordCount":1,"recordIds":["wattlas-record-gemunit-g100000604268"],"sourceIds":["gem-global-integrated-power-tracker"],"technologies":["hydro"],"technologyMixMw":{"hydro":0.0},"unitCount":1,"unitIds":["gem-unit-G100000604268"]},"type":"Feature"},{"geometry":{"coordinates":[-13.2743,10.459],"type":"Point"},"id":"wattlas-plant-gemplant-l100000601781","properties":{"aliases":["Kaleta hydroelectric plant"],"canonicalAnchor":"gemplant:L100000601781","canonicalCountryKey":"GN","capacityMw":240.0,"country":"GN","externalIds":{"gemPlant":"L100000601781","gemUnit":"G100000601800"},"geographyId":"GN-385441B58689174477974","id":"wattlas-plant-gemplant-l100000601781","lifecycleCounts":{"operational":1},"locationPrecision":"exact","name":"Kaleta hydroelectric plant","operatingCapacityCoverage":{"coveragePercent":100.0,"knownUnitCount":1,"method":"complete_unit_sum","provenance":{"evidenceCount":0,"recordIds":["wattlas-record-gemunit-g100000601800"],"sourceIds":["gem-global-integrated-power-tracker"],"sourceTypes":["research_verified"],"valueKind":"reported"},"totalUnitCount":1},"operatingCapacityMw":240.0,"operatingCapacityMwByTechnology":{"hydro":240.0},"plannedCapacityCoverage":{"coveragePercent":0.0,"knownUnitCount":0,"method":"unavailable","totalUnitCount":0},"plannedCapacityMw":0.0,"plannedCapacityMwByTechnology":{},"recordCount":1,"recordIds":["wattlas-record-gemunit-g100000601800"],"sourceIds":["gem-global-integrated-power-tracker"],"technologies":["hydro"],"technologyMixMw":{"hydro":240.0},"unitCount":1,"unitIds":["gem-unit-G100000601800"]},"type":"Feature"},{"geometry":{"coordinates":[-8.6167,10.2334],"type":"Point"},"id":"wattlas-plant-gemplant-l100000601783","properties":{"aliases":["Morisanako hydroelectric plant"],"canonicalAnchor":"gemplant:L100000601783","canonicalCountryKey":"GN","capacityMw":100.0,"country":"GN","externalIds":{"gemPlant":"L100000601783","gemUnit":"G100000604634"},"geographyId":"GN-385441B85233176952124","id":"wattlas-plant-gemplant-l100000601783","lifecycleCounts":{"announced":1},"locationPrecision":"exact","name":"Morisanako hydroelectric plant","operatingCapacityCoverage":{"coveragePercent":0.0,"knownUnitCount":0,"method":"unavailable","totalUnitCount":0},"operatingCapacityMw":0.0,"operatingCapacityMwByTechnology":{},"plannedCapacityCoverage":{"coveragePercent":100.0,"knownUnitCount":1,"method":"complete_unit_sum","provenance":{"evidenceCount":0,"recordIds":["wattlas-record-gemunit-g100000604634"],"sourceIds":["gem-global-integrated-power-tracker"],"sourceTypes":["research_verified"],"valueKind":"reported"},"totalUnitCount":1},"plannedCapacityMw":100.0,"plannedCapacityMwByTechnology":{"hydro":100.0},"recordCount":1,"recordIds":["wattlas-record-gemunit-g100000604634"],"sourceIds":["gem-global-integrated-power-tracker"],"technologies":["hydro"],"technologyMixMw":{"hydro":100.0},"unitCount":1,"unitIds":["gem-unit-G100000604634"]},"type":"Feature"},{"geometry":{"coordinates":[-13.253,10.424],"type":"Point"},"id":"wattlas-plant-gemplant-l100000601784","properties":{"aliases":["Souapiti hydroelectric plant"],"canonicalAnchor":"gemplant:L100000601784","canonicalCountryKey":"GN","capacityMw":450.0,"country":"GN","externalIds":{"gemPlant":"L100000601784","gemUnit":"G100000601803"},"geographyId":"GN-385441B58689174477974","id":"wattlas-plant-gemplant-l100000601784","lifecycleCounts":{"operational":1},"locationPrecision":"exact","name":"Souapiti hydroelectric plant","operatingCapacityCoverage":{"coveragePercent":100.0,"knownUnitCount":1,"method":"complete_unit_sum","provenance":{"evidenceCount":0,"recordIds":["wattlas-record-gemunit-g100000601803"],"sourceIds":["gem-global-integrated-power-tracker"],"sourceTypes":["research_verified"],"valueKind":"reported"},"totalUnitCount":1},"operatingCapacityMw":450.0,"operatingCapacityMwByTechnology":{"hydro":450.0},"plannedCapacityCoverage":{"coveragePercent":0.0,"knownUnitCount":0,"method":"unavailable","totalUnitCount":0},"plannedCapacityMw":0.0,"plannedCapacityMwByTechnology":{},"recordCount":1,"recordIds":["wattlas-record-gemunit-g100000601803"],"sourceIds":["gem-global-integrated-power-tracker"],"technologies":["hydro"],"technologyMixMw":{"hydro":450.0},"unitCount":1,"unitIds":["gem-unit-G100000601803"]},"type":"Feature"},{"geometry":{"coordinates":[-13.9167,11.3501],"type":"Point"},"id":"wattlas-plant-gemplant-l100000601785","properties":{"aliases":["Tiopo hydroelectric plant"],"canonicalAnchor":"gemplant:L100000601785","canonicalCountryKey":"GN","capacityMw":0.0,"country":"GN","externalIds":{"gemPlant":"L100000601785","gemUnit":"G100000604881"},"geographyId":"GN-385441B97135885584055","id":"wattlas-plant-gemplant-l100000601785","lifecycleCounts":{"paused":1},"locationPrecision":"exact","name":"Tiopo hydroelectric plant","operatingCapacityCoverage":{"coveragePercent":0.0,"knownUnitCount":0,"method":"unavailable","totalUnitCount":0},"operatingCapacityMw":0.0,"operatingCapacityMwByTechnology":{},"plannedCapacityCoverage":{"coveragePercent":0.0,"knownUnitCount":0,"method":"unavailable","totalUnitCount":0},"plannedCapacityMw":0.0,"plannedCapacityMwByTechnology":{},"recordCount":1,"recordIds":["wattlas-record-gemunit-g100000604881"],"sourceIds":["gem-global-integrated-power-tracker"],"technologies":["hydro"],"technologyMixMw":{"hydro":0.0},"unitCount":1,"unitIds":["gem-unit-G100000604881"]},"type":"Feature"},{"geometry":{"coordinates":[-12.1901,12.3664],"type":"Point"},"id":"wattlas-plant-gemplant-l100000603299","properties":{"aliases":["Sambangalou hydroelectric plant"],"canonicalAnchor":"gemplant:L100000603299","canonicalCountryKey":"GN","capacityMw":128.0,"country":"GN","externalIds":{"gemPlant":"L100000603299","gemUnit":"G100000603334"},"geographyId":"GN-385441B21537995001042","id":"wattlas-plant-gemplant-l100000603299","lifecycleCounts":{"under_construction":1},"locationPrecision":"exact","name":"Sambangalou hydroelectric plant","operatingCapacityCoverage":{"coveragePercent":0.0,"knownUnitCount":0,"method":"unavailable","totalUnitCount":0},"operatingCapacityMw":0.0,"operatingCapacityMwByTechnology":{},"plannedCapacityCoverage":{"coveragePercent":100.0,"knownUnitCount":1,"method":"complete_unit_sum","provenance":{"evidenceCount":0,"recordIds":["wattlas-record-gemunit-g100000603334"],"sourceIds":["gem-global-integrated-power-tracker"],"sourceTypes":["research_verified"],"valueKind":"reported"},"totalUnitCount":1},"plannedCapacityMw":128.0,"plannedCapacityMwByTechnology":{"hydro":128.0},"recordCount":1,"recordIds":["wattlas-record-gemunit-g100000603334"],"sourceIds":["gem-global-integrated-power-tracker"],"technologies":["hydro"],"technologyMixMw":{"hydro":128.0},"unitCount":1,"unitIds":["gem-unit-G100000603334"]},"type":"Feature"},{"geometry":{"coordinates":[-14.3001,10.9333],"type":"Point"},"id":"wattlas-plant-gemplant-l100001023063","properties":{"aliases":["Boke hydroelectric plant"],"canonicalAnchor":"gemplant:L100001023063","canonicalCountryKey":"GN","capacityMw":45.0,"country":"GN","externalIds":{"gemPlant":"L100001023063","gemUnit":"G100001027268"},"geographyId":"GN-385441B97135885584055","id":"wattlas-plant-gemplant-l100001023063","lifecycleCounts":{"operational":1},"locationPrecision":"exact","name":"Boke hydroelectric plant","operatingCapacityCoverage":{"coveragePercent":100.0,"knownUnitCount":1,"method":"complete_unit_sum","provenance":{"evidenceCount":0,"recordIds":["wattlas-record-gemunit-g100001027268"],"sourceIds":["gem-global-integrated-power-tracker"],"sourceTypes":["research_verified"],"valueKind":"reported"},"totalUnitCount":1},"operatingCapacityMw":45.0,"operatingCapacityMwByTechnology":{"hydro":45.0},"plannedCapacityCoverage":{"coveragePercent":0.0,"knownUnitCount":0,"method":"unavailable","totalUnitCount":0},"plannedCapacityMw":0.0,"plannedCapacityMwByTechnology":{},"recordCount":1,"recordIds":["wattlas-record-gemunit-g100001027268"],"sourceIds":["gem-global-integrated-power-tracker"],"technologies":["hydro"],"technologyMixMw":{"hydro":45.0},"unitCount":1,"unitIds":["gem-unit-G100001027268"]},"type":"Feature"},{"geometry":{"coordinates":[-11.170386,10.72894],"type":"Point"},"id":"wattlas-plant-osm-way-1209239658","properties":{"aliases":["Tinkisso Hydropower Plant"],"canonicalAnchor":"osm:way/1209239658","canonicalCountryKey":"GN","capacityMw":0.0,"country":"GN","externalIds":{"osm":"way/1209239658"},"geographyId":"GN-385441B61717407014046","id":"wattlas-plant-osm-way-1209239658","lifecycleCounts":{"operational":1},"locationPrecision":"exact","name":"Tinkisso Hydropower Plant","operatingCapacityCoverage":{"coveragePercent":0.0,"knownUnitCount":0,"method":"unavailable","totalUnitCount":0},"operatingCapacityMw":0.0,"operatingCapacityMwByTechnology":{},"plannedCapacityCoverage":{"coveragePercent":0.0,"knownUnitCount":0,"method":"unavailable","totalUnitCount":0},"plannedCapacityMw":0.0,"plannedCapacityMwByTechnology":{},"recordCount":1,"recordIds":["wattlas-record-osm-way-1209239658"],"sourceIds":["openstreetmap-power"],"technologies":["hydro"],"technologyMixMw":{"hydro":0.0},"unitCount":0,"unitIds":[]},"type":"Feature"},{"geometry":{"coordinates":[-9.390842,11.568495],"type":"Point"},"id":"wattlas-plant-osm-way-1292846776","properties":{"aliases":["Wartsila Siguiri Power Plant"],"canonicalAnchor":"osm:way/1292846776","canonicalCountryKey":"GN","capacityMw":30.4,"country":"GN","externalIds":{"osm":"way/1292846776"},"geographyId":"GN-385441B85233176952124","id":"wattlas-plant-osm-way-1292846776","lifecycleCounts":{"operational":1},"locationPrecision":"exact","name":"Wartsila Siguiri Power Plant","operatingCapacityCoverage":{"coveragePercent":100.0,"knownUnitCount":0,"method":"plant_aggregate","provenance":{"evidenceCount":0,"recordIds":["wattlas-record-osm-way-1292846776"],"sourceIds":["openstreetmap-power"],"sourceTypes":["community_mapped"],"valueKind":"reported"},"totalUnitCount":0},"operatingCapacityMw":30.4,"operatingCapacityMwByTechnology":{"oil":30.4},"plannedCapacityCoverage":{"coveragePercent":0.0,"knownUnitCount":0,"method":"unavailable","totalUnitCount":0},"plannedCapacityMw":0.0,"plannedCapacityMwByTechnology":{},"recordCount":1,"recordIds":["wattlas-record-osm-way-1292846776"],"sourceIds":["openstreetmap-power"],"technologies":["oil"],"technologyMixMw":{"oil":30.4},"unitCount":0,"unitIds":[]},"type":"Feature"},{"geometry":{"coordinates":[-10.051395,11.747115],"type":"Point"},"id":"wattlas-plant-osm-way-1292852358","properties":{"aliases":["LEFA Gold New Power Plant"],"canonicalAnchor":"osm:way/1292852358","canonicalCountryKey":"GN","capacityMw":33.0,"country":"GN","externalIds":{"osm":"way/1292852358"},"geographyId":"GN-385441B85233176952124","id":"wattlas-plant-osm-way-1292852358","lifecycleCounts":{"operational":1},"locationPrecision":"exact","name":"LEFA Gold New Power Plant","operatingCapacityCoverage":{"coveragePercent":100.0,"knownUnitCount":0,"method":"plant_aggregate","provenance":{"evidenceCount":0,"recordIds":["wattlas-record-osm-way-1292852358"],"sourceIds":["openstreetmap-power"],"sourceTypes":["community_mapped"],"valueKind":"reported"},"totalUnitCount":0},"operatingCapacityMw":33.0,"operatingCapacityMwByTechnology":{"oil":33.0},"plannedCapacityCoverage":{"coveragePercent":0.0,"knownUnitCount":0,"method":"unavailable","totalUnitCount":0},"plannedCapacityMw":0.0,"plannedCapacityMwByTechnology":{},"recordCount":1,"recordIds":["wattlas-record-osm-way-1292852358"],"sourceIds":["openstreetmap-power"],"technologies":["oil"],"technologyMixMw":{"oil":33.0},"unitCount":0,"unitIds":[]},"type":"Feature"},{"geometry":{"coordinates":[-10.048151,11.749624],"type":"Point"},"id":"wattlas-plant-osm-way-1292852359","properties":{"aliases":["LEFA Gold - Old Power Plant"],"canonicalAnchor":"osm:way/1292852359","canonicalCountryKey":"GN","capacityMw":0.0,"country":"GN","externalIds":{"osm":"way/1292852359"},"geographyId":"GN-385441B85233176952124","id":"wattlas-plant-osm-way-1292852359","lifecycleCounts":{"operational":1},"locationPrecision":"exact","name":"LEFA Gold - Old Power Plant","operatingCapacityCoverage":{"coveragePercent":0.0,"knownUnitCount":0,"method":"unavailable","totalUnitCount":0},"operatingCapacityMw":0.0,"operatingCapacityMwByTechnology":{},"plannedCapacityCoverage":{"coveragePercent":0.0,"knownUnitCount":0,"method":"unavailable","totalUnitCount":0},"plannedCapacityMw":0.0,"plannedCapacityMwByTechnology":{},"recordCount":1,"recordIds":["wattlas-record-osm-way-1292852359"],"sourceIds":["openstreetmap-power"],"technologies":["oil"],"technologyMixMw":{"oil":0.0},"unitCount":0,"unitIds":[]},"type":"Feature"},{"geometry":{"coordinates":[-12.996104,10.006028],"type":"Point"},"id":"wattlas-plant-osm-way-178571264","properties":{"aliases":["Centrale hydroélectrique de Banéah"],"canonicalAnchor":"osm:way/178571264","canonicalCountryKey":"GN","capacityMw":5.0,"country":"GN","externalIds":{"osm":"way/178571264"},"geographyId":"GN-385441B58689174477974","id":"wattlas-plant-osm-way-178571264","lifecycleCounts":{"operational":1},"locationPrecision":"exact","name":"Centrale hydroélectrique de Banéah","operatingCapacityCoverage":{"coveragePercent":100.0,"knownUnitCount":0,"method":"plant_aggregate","provenance":{"evidenceCount":0,"recordIds":["wattlas-record-osm-way-178571264"],"sourceIds":["openstreetmap-power"],"sourceTypes":["community_mapped"],"valueKind":"reported"},"totalUnitCount":0},"operatingCapacityMw":5.0,"operatingCapacityMwByTechnology":{"hydro":5.0},"plannedCapacityCoverage":{"coveragePercent":0.0,"knownUnitCount":0,"method":"unavailable","totalUnitCount":0},"plannedCapacityMw":0.0,"plannedCapacityMwByTechnology":{},"recordCount":1,"recordIds":["wattlas-record-osm-way-178571264"],"sourceIds":["openstreetmap-power"],"technologies":["hydro"],"technologyMixMw":{"hydro":5.0},"unitCount":0,"unitIds":[]},"type":"Feature"},{"geometry":{"coordinates":[-13.007093,9.9556],"type":"Point"},"id":"wattlas-plant-osm-way-178571265","properties":{"aliases":["Centrale hydroélectrique de Donkéa"],"canonicalAnchor":"osm:way/178571265","canonicalCountryKey":"GN","capacityMw":15.0,"country":"GN","externalIds":{"osm":"way/178571265"},"geographyId":"GN-385441B58689174477974","id":"wattlas-plant-osm-way-178571265","lifecycleCounts":{"operational":1},"locationPrecision":"exact","name":"Centrale hydroélectrique de Donkéa","operatingCapacityCoverage":{"coveragePercent":100.0,"knownUnitCount":0,"method":"plant_aggregate","provenance":{"evidenceCount":0,"recordIds":["wattlas-record-osm-way-178571265"],"sourceIds":["openstreetmap-power"],"sourceTypes":["community_mapped"],"valueKind":"reported"},"totalUnitCount":0},"operatingCapacityMw":15.0,"operatingCapacityMwByTechnology":{"hydro":15.0},"plannedCapacityCoverage":{"coveragePercent":0.0,"knownUnitCount":0,"method":"unavailable","totalUnitCount":0},"plannedCapacityMw":0.0,"plannedCapacityMwByTechnology":{},"recordCount":1,"recordIds":["wattlas-record-osm-way-178571265"],"sourceIds":["openstreetmap-power"],"technologies":["hydro"],"technologyMixMw":{"hydro":15.0},"unitCount":0,"unitIds":[]},"type":"Feature"},{"geometry":{"coordinates":[-12.450399,11.048191],"type":"Point"},"id":"wattlas-plant-osm-way-180372395","properties":{"aliases":["Centrale hydroélectrique de Kinkon"],"canonicalAnchor":"osm:way/180372395","canonicalCountryKey":"GN","capacityMw":3.2,"country":"GN","externalIds":{"osm":"way/180372395"},"geographyId":"GN-385441B8345275251802","id":"wattlas-plant-osm-way-180372395","lifecycleCounts":{"operational":1},"locationPrecision":"exact","name":"Centrale hydroélectrique de Kinkon","operatingCapacityCoverage":{"coveragePercent":100.0,"knownUnitCount":0,"method":"plant_aggregate","provenance":{"evidenceCount":0,"recordIds":["wattlas-record-osm-way-180372395"],"sourceIds":["openstreetmap-power"],"sourceTypes":["community_mapped"],"valueKind":"reported"},"totalUnitCount":0},"operatingCapacityMw":3.2,"operatingCapacityMwByTechnology":{"hydro":3.2},"plannedCapacityCoverage":{"coveragePercent":0.0,"knownUnitCount":0,"method":"unavailable","totalUnitCount":0},"plannedCapacityMw":0.0,"plannedCapacityMwByTechnology":{},"recordCount":1,"recordIds":["wattlas-record-osm-way-180372395"],"sourceIds":["openstreetmap-power"],"technologies":["hydro"],"technologyMixMw":{"hydro":3.2},"unitCount":0,"unitIds":[]},"type":"Feature"},{"geometry":{"coordinates":[-13.113603,9.917979],"type":"Point"},"id":"wattlas-plant-osm-way-328013734","properties":{"aliases":["Centrale hydroélectrique de Grandes Chutes"],"canonicalAnchor":"osm:way/328013734","canonicalCountryKey":"GN","capacityMw":27.0,"country":"GN","externalIds":{"osm":"way/328013734"},"geographyId":"GN-385441B58689174477974","id":"wattlas-plant-osm-way-328013734","lifecycleCounts":{"operational":1},"locationPrecision":"exact","name":"Centrale hydroélectrique de Grandes Chutes","operatingCapacityCoverage":{"coveragePercent":100.0,"knownUnitCount":0,"method":"plant_aggregate","provenance":{"evidenceCount":0,"recordIds":["wattlas-record-osm-way-328013734"],"sourceIds":["openstreetmap-power"],"sourceTypes":["community_mapped"],"valueKind":"reported"},"totalUnitCount":0},"operatingCapacityMw":27.0,"operatingCapacityMwByTechnology":{"hydro":27.0},"plannedCapacityCoverage":{"coveragePercent":0.0,"knownUnitCount":0,"method":"unavailable","totalUnitCount":0},"plannedCapacityMw":0.0,"plannedCapacityMwByTechnology":{},"recordCount":1,"recordIds":["wattlas-record-osm-way-328013734"],"sourceIds":["openstreetmap-power"],"technologies":["hydro"],"technologyMixMw":{"hydro":27.0},"unitCount":0,"unitIds":[]},"type":"Feature"},{"geometry":{"coordinates":[-13.636748,9.60254],"type":"Point"},"id":"wattlas-plant-osm-way-558387640","properties":{"aliases":["Centrale thermique de Kipé"],"canonicalAnchor":"osm:way/558387640","canonicalCountryKey":"GN","capacityMw":50.0,"country":"GN","externalIds":{"osm":"way/558387640"},"geographyId":"GN-385441B29247776226513","id":"wattlas-plant-osm-way-558387640","lifecycleCounts":{"operational":1},"locationPrecision":"exact","name":"Centrale thermique de Kipé","operatingCapacityCoverage":{"coveragePercent":100.0,"knownUnitCount":0,"method":"plant_aggregate","provenance":{"evidenceCount":0,"recordIds":["wattlas-record-osm-way-558387640"],"sourceIds":["openstreetmap-power"],"sourceTypes":["community_mapped"],"valueKind":"reported"},"totalUnitCount":0},"operatingCapacityMw":50.0,"operatingCapacityMwByTechnology":{"oil":50.0},"plannedCapacityCoverage":{"coveragePercent":0.0,"knownUnitCount":0,"method":"unavailable","totalUnitCount":0},"plannedCapacityMw":0.0,"plannedCapacityMwByTechnology":{},"recordCount":1,"recordIds":["wattlas-record-osm-way-558387640"],"sourceIds":["openstreetmap-power"],"technologies":["oil"],"technologyMixMw":{"oil":50.0},"unitCount":0,"unitIds":[]},"type":"Feature"},{"geometry":{"coordinates":[-14.563838,10.651053],"type":"Point"},"id":"wattlas-plant-osm-way-636909284","properties":{"aliases":["Central de Kaléyiré"],"canonicalAnchor":"osm:way/636909284","canonicalCountryKey":"GN","capacityMw":0.0,"country":"GN","externalIds":{"osm":"way/636909284"},"geographyId":"GN-385441B97135885584055","id":"wattlas-plant-osm-way-636909284","lifecycleCounts":{"operational":1},"locationPrecision":"exact","name":"Central de Kaléyiré","operatingCapacityCoverage":{"coveragePercent":0.0,"knownUnitCount":0,"method":"unavailable","totalUnitCount":0},"operatingCapacityMw":0.0,"operatingCapacityMwByTechnology":{},"plannedCapacityCoverage":{"coveragePercent":0.0,"knownUnitCount":0,"method":"unavailable","totalUnitCount":0},"plannedCapacityMw":0.0,"plannedCapacityMwByTechnology":{},"recordCount":1,"recordIds":["wattlas-record-osm-way-636909284"],"sourceIds":["openstreetmap-power"],"technologies":["oil"],"technologyMixMw":{"oil":0.0},"unitCount":0,"unitIds":[]},"type":"Feature"},{"geometry":{"coordinates":[-12.663065,10.525315],"type":"Point"},"id":"wattlas-plant-wikidata-q17015499","properties":{"aliases":["Centrale hydroélectrique de Garafiri"],"canonicalAnchor":"wikidata:Q17015499","canonicalCountryKey":"GN","capacityMw":75.0,"country":"GN","externalIds":{"osm":"way/207825221","wikidata":"Q17015499"},"geographyId":"GN-385441B58689174477974","id":"wattlas-plant-wikidata-q17015499","idAliases":["wattlas-plant-osm-way-207825221"],"lifecycleCounts":{"operational":1},"locationPrecision":"exact","name":"Centrale hydroélectrique de Garafiri","operatingCapacityCoverage":{"coveragePercent":100.0,"knownUnitCount":0,"method":"plant_aggregate","provenance":{"evidenceCount":0,"recordIds":["wattlas-record-osm-way-207825221"],"sourceIds":["openstreetmap-power"],"sourceTypes":["community_mapped"],"valueKind":"reported"},"totalUnitCount":0},"operatingCapacityMw":75.0,"operatingCapacityMwByTechnology":{"hydro":75.0},"plannedCapacityCoverage":{"coveragePercent":0.0,"knownUnitCount":0,"method":"unavailable","totalUnitCount":0},"plannedCapacityMw":0.0,"plannedCapacityMwByTechnology":{},"recordCount":1,"recordIds":["wattlas-record-osm-way-207825221"],"sourceIds":["openstreetmap-power"],"technologies":["hydro"],"technologyMixMw":{"hydro":75.0},"unitCount":0,"unitIds":[]},"type":"Feature"},{"geometry":{"coordinates":[-13.282188,10.463335],"type":"Point"},"id":"wattlas-plant-wikidata-q30744033","properties":{"aliases":["Centrale hydroélectrique de Kaléta"],"canonicalAnchor":"wikidata:Q30744033","canonicalCountryKey":"GN","capacityMw":240.0,"country":"GN","externalIds":{"osm":"way/695789318","wikidata":"Q30744033"},"geographyId":"GN-385441B58689174477974","id":"wattlas-plant-wikidata-q30744033","idAliases":["wattlas-plant-osm-way-695789318"],"lifecycleCounts":{"operational":1},"locationPrecision":"exact","name":"Centrale hydroélectrique de Kaléta","operatingCapacityCoverage":{"coveragePercent":100.0,"knownUnitCount":0,"method":"plant_aggregate","provenance":{"evidenceCount":0,"recordIds":["wattlas-record-osm-way-695789318"],"sourceIds":["openstreetmap-power"],"sourceTypes":["community_mapped"],"valueKind":"reported"},"totalUnitCount":0},"operatingCapacityMw":240.0,"operatingCapacityMwByTechnology":{"hydro":240.0},"plannedCapacityCoverage":{"coveragePercent":0.0,"knownUnitCount":0,"method":"unavailable","totalUnitCount":0},"plannedCapacityMw":0.0,"plannedCapacityMwByTechnology":{},"recordCount":1,"recordIds":["wattlas-record-osm-way-695789318"],"sourceIds":["openstreetmap-power"],"technologies":["hydro"],"technologyMixMw":{"hydro":240.0},"unitCount":0,"unitIds":[]},"type":"Feature"},{"geometry":{"coordinates":[-13.247943,10.423933],"type":"Point"},"id":"wattlas-plant-wikidata-q46963910","properties":{"aliases":["Centrale hydroélectrique de Souapiti"],"canonicalAnchor":"wikidata:Q46963910","canonicalCountryKey":"GN","capacityMw":450.0,"country":"GN","externalIds":{"osm":"way/840517626","wikidata":"Q46963910"},"geographyId":"GN-385441B58689174477974","id":"wattlas-plant-wikidata-q46963910","idAliases":["wattlas-plant-osm-way-840517626"],"lifecycleCounts":{"operational":1},"locationPrecision":"exact","name":"Centrale hydroélectrique de Souapiti","operatingCapacityCoverage":{"coveragePercent":100.0,"knownUnitCount":0,"method":"plant_aggregate","provenance":{"evidenceCount":0,"recordIds":["wattlas-record-osm-way-840517626"],"sourceIds":["openstreetmap-power"],"sourceTypes":["community_mapped"],"valueKind":"reported"},"totalUnitCount":0},"operatingCapacityMw":450.0,"operatingCapacityMwByTechnology":{"hydro":450.0},"plannedCapacityCoverage":{"coveragePercent":0.0,"knownUnitCount":0,"method":"unavailable","totalUnitCount":0},"plannedCapacityMw":0.0,"plannedCapacityMwByTechnology":{},"recordCount":1,"recordIds":["wattlas-record-osm-way-840517626"],"sourceIds":["openstreetmap-power"],"technologies":["hydro"],"technologyMixMw":{"hydro":450.0},"unitCount":0,"unitIds":[]},"type":"Feature"},{"geometry":{"coordinates":[-13.697054,9.519896],"type":"Point"},"id":"wattlas-plant-wikidata-q56372824","properties":{"aliases":["Centrale thermique de Kaloum"],"canonicalAnchor":"wikidata:Q56372824","canonicalCountryKey":"GN","capacityMw":126.4,"country":"GN","externalIds":{"osm":"way/425100603","wikidata":"Q56372824"},"geographyId":"GN-385441B29247776226513","id":"wattlas-plant-wikidata-q56372824","idAliases":["wattlas-plant-osm-way-425100603"],"lifecycleCounts":{"operational":1},"locationPrecision":"exact","name":"Centrale thermique de Kaloum","operatingCapacityCoverage":{"coveragePercent":100.0,"knownUnitCount":0,"method":"plant_aggregate","provenance":{"evidenceCount":0,"recordIds":["wattlas-record-osm-way-425100603"],"sourceIds":["openstreetmap-power"],"sourceTypes":["community_mapped"],"valueKind":"reported"},"totalUnitCount":0},"operatingCapacityMw":126.4,"operatingCapacityMwByTechnology":{"oil":126.4},"plannedCapacityCoverage":{"coveragePercent":0.0,"knownUnitCount":0,"method":"unavailable","totalUnitCount":0},"plannedCapacityMw":0.0,"plannedCapacityMwByTechnology":{},"recordCount":1,"recordIds":["wattlas-record-osm-way-425100603"],"sourceIds":["openstreetmap-power"],"technologies":["oil"],"technologyMixMw":{"oil":126.4},"unitCount":0,"unitIds":[]},"type":"Feature"}],"type":"FeatureCollection"}