{"features":[{"geometry":{"coordinates":[-19.8199,65.4161],"type":"Point"},"id":"wattlas-plant-gemplant-l100000601796","properties":{"aliases":["Blanda hydroelectric plant"],"canonicalAnchor":"gemplant:L100000601796","canonicalCountryKey":"IS","capacityMw":150.0,"country":"IS","externalIds":{"gemPlant":"L100000601796","gemUnit":"G100000601815"},"geographyId":"IS-53860390B72464321703569","id":"wattlas-plant-gemplant-l100000601796","lifecycleCounts":{"operational":1},"locationPrecision":"exact","name":"Blanda hydroelectric plant","operatingCapacityCoverage":{"coveragePercent":100.0,"knownUnitCount":1,"method":"complete_unit_sum","provenance":{"evidenceCount":0,"recordIds":["wattlas-record-gemunit-g100000601815"],"sourceIds":["gem-global-integrated-power-tracker"],"sourceTypes":["research_verified"],"valueKind":"reported"},"totalUnitCount":1},"operatingCapacityMw":150.0,"operatingCapacityMwByTechnology":{"hydro":150.0},"plannedCapacityCoverage":{"coveragePercent":0.0,"knownUnitCount":0,"method":"unavailable","totalUnitCount":0},"plannedCapacityMw":0.0,"plannedCapacityMwByTechnology":{},"recordCount":1,"recordIds":["wattlas-record-gemunit-g100000601815"],"sourceIds":["gem-global-integrated-power-tracker"],"technologies":["hydro"],"technologyMixMw":{"hydro":150.0},"unitCount":1,"unitIds":["gem-unit-G100000601815"]},"type":"Feature"},{"geometry":{"coordinates":[-19.3686,64.2353],"type":"Point"},"id":"wattlas-plant-gemplant-l100000601797","properties":{"aliases":["Búðarháls hydroelectric plant"],"canonicalAnchor":"gemplant:L100000601797","canonicalCountryKey":"IS","capacityMw":95.0,"country":"IS","externalIds":{"gemPlant":"L100000601797","gemUnit":"G100000601816"},"geographyId":"IS-53860390B85658391135359","id":"wattlas-plant-gemplant-l100000601797","lifecycleCounts":{"operational":1},"locationPrecision":"exact","name":"Búðarháls hydroelectric plant","operatingCapacityCoverage":{"coveragePercent":100.0,"knownUnitCount":1,"method":"complete_unit_sum","provenance":{"evidenceCount":0,"recordIds":["wattlas-record-gemunit-g100000601816"],"sourceIds":["gem-global-integrated-power-tracker"],"sourceTypes":["research_verified"],"valueKind":"reported"},"totalUnitCount":1},"operatingCapacityMw":95.0,"operatingCapacityMwByTechnology":{"hydro":95.0},"plannedCapacityCoverage":{"coveragePercent":0.0,"knownUnitCount":0,"method":"unavailable","totalUnitCount":0},"plannedCapacityMw":0.0,"plannedCapacityMwByTechnology":{},"recordCount":1,"recordIds":["wattlas-record-gemunit-g100000601816"],"sourceIds":["gem-global-integrated-power-tracker"],"technologies":["hydro"],"technologyMixMw":{"hydro":95.0},"unitCount":1,"unitIds":["gem-unit-G100000601816"]},"type":"Feature"},{"geometry":{"coordinates":[-19.8363,64.1029],"type":"Point"},"id":"wattlas-plant-gemplant-l100000601798","properties":{"aliases":["Búrfell I hydroelectric plant"],"canonicalAnchor":"gemplant:L100000601798","canonicalCountryKey":"IS","capacityMw":270.0,"country":"IS","externalIds":{"gemPlant":"L100000601798","gemUnit":"G100000601817"},"geographyId":"IS-53860390B85658391135359","id":"wattlas-plant-gemplant-l100000601798","lifecycleCounts":{"operational":1},"locationPrecision":"exact","name":"Búrfell I hydroelectric plant","operatingCapacityCoverage":{"coveragePercent":100.0,"knownUnitCount":1,"method":"complete_unit_sum","provenance":{"evidenceCount":0,"recordIds":["wattlas-record-gemunit-g100000601817"],"sourceIds":["gem-global-integrated-power-tracker"],"sourceTypes":["research_verified"],"valueKind":"reported"},"totalUnitCount":1},"operatingCapacityMw":270.0,"operatingCapacityMwByTechnology":{"hydro":270.0},"plannedCapacityCoverage":{"coveragePercent":0.0,"knownUnitCount":0,"method":"unavailable","totalUnitCount":0},"plannedCapacityMw":0.0,"plannedCapacityMwByTechnology":{},"recordCount":1,"recordIds":["wattlas-record-gemunit-g100000601817"],"sourceIds":["gem-global-integrated-power-tracker"],"technologies":["hydro"],"technologyMixMw":{"hydro":270.0},"unitCount":1,"unitIds":["gem-unit-G100000601817"]},"type":"Feature"},{"geometry":{"coordinates":[-19.811,64.1006],"type":"Point"},"id":"wattlas-plant-gemplant-l100000601799","properties":{"aliases":["Búrfell II hydroelectric plant"],"canonicalAnchor":"gemplant:L100000601799","canonicalCountryKey":"IS","capacityMw":100.0,"country":"IS","externalIds":{"gemPlant":"L100000601799","gemUnit":"G100000601818"},"geographyId":"IS-53860390B85658391135359","id":"wattlas-plant-gemplant-l100000601799","lifecycleCounts":{"operational":1},"locationPrecision":"exact","name":"Búrfell II hydroelectric plant","operatingCapacityCoverage":{"coveragePercent":100.0,"knownUnitCount":1,"method":"complete_unit_sum","provenance":{"evidenceCount":0,"recordIds":["wattlas-record-gemunit-g100000601818"],"sourceIds":["gem-global-integrated-power-tracker"],"sourceTypes":["research_verified"],"valueKind":"reported"},"totalUnitCount":1},"operatingCapacityMw":100.0,"operatingCapacityMwByTechnology":{"hydro":100.0},"plannedCapacityCoverage":{"coveragePercent":0.0,"knownUnitCount":0,"method":"unavailable","totalUnitCount":0},"plannedCapacityMw":0.0,"plannedCapacityMwByTechnology":{},"recordCount":1,"recordIds":["wattlas-record-gemunit-g100000601818"],"sourceIds":["gem-global-integrated-power-tracker"],"technologies":["hydro"],"technologyMixMw":{"hydro":100.0},"unitCount":1,"unitIds":["gem-unit-G100000601818"]},"type":"Feature"},{"geometry":{"coordinates":[-15.7929,64.9473],"type":"Point"},"id":"wattlas-plant-gemplant-l100000601800","properties":{"aliases":["Fljótsdals hydroelectric plant"],"canonicalAnchor":"gemplant:L100000601800","canonicalCountryKey":"IS","capacityMw":690.0,"country":"IS","externalIds":{"gemPlant":"L100000601800","gemUnit":"G100000601819"},"geographyId":"IS-53860390B32173012790841","id":"wattlas-plant-gemplant-l100000601800","lifecycleCounts":{"operational":1},"locationPrecision":"exact","name":"Fljótsdals hydroelectric plant","operatingCapacityCoverage":{"coveragePercent":100.0,"knownUnitCount":1,"method":"complete_unit_sum","provenance":{"evidenceCount":0,"recordIds":["wattlas-record-gemunit-g100000601819"],"sourceIds":["gem-global-integrated-power-tracker"],"sourceTypes":["research_verified"],"valueKind":"reported"},"totalUnitCount":1},"operatingCapacityMw":690.0,"operatingCapacityMwByTechnology":{"hydro":690.0},"plannedCapacityCoverage":{"coveragePercent":0.0,"knownUnitCount":0,"method":"unavailable","totalUnitCount":0},"plannedCapacityMw":0.0,"plannedCapacityMwByTechnology":{},"recordCount":1,"recordIds":["wattlas-record-gemunit-g100000601819"],"sourceIds":["gem-global-integrated-power-tracker"],"technologies":["hydro"],"technologyMixMw":{"hydro":690.0},"unitCount":1,"unitIds":["gem-unit-G100000601819"]},"type":"Feature"},{"geometry":{"coordinates":[-19.2406,64.2008],"type":"Point"},"id":"wattlas-plant-gemplant-l100000601801","properties":{"aliases":["Hrauneyjafoss hydroelectric plant"],"canonicalAnchor":"gemplant:L100000601801","canonicalCountryKey":"IS","capacityMw":210.0,"country":"IS","externalIds":{"gemPlant":"L100000601801","gemUnit":"G100000601820"},"geographyId":"IS-53860390B85658391135359","id":"wattlas-plant-gemplant-l100000601801","lifecycleCounts":{"operational":1},"locationPrecision":"exact","name":"Hrauneyjafoss hydroelectric plant","operatingCapacityCoverage":{"coveragePercent":100.0,"knownUnitCount":1,"method":"complete_unit_sum","provenance":{"evidenceCount":0,"recordIds":["wattlas-record-gemunit-g100000601820"],"sourceIds":["gem-global-integrated-power-tracker"],"sourceTypes":["research_verified"],"valueKind":"reported"},"totalUnitCount":1},"operatingCapacityMw":210.0,"operatingCapacityMwByTechnology":{"hydro":210.0},"plannedCapacityCoverage":{"coveragePercent":0.0,"knownUnitCount":0,"method":"unavailable","totalUnitCount":0},"plannedCapacityMw":0.0,"plannedCapacityMwByTechnology":{},"recordCount":1,"recordIds":["wattlas-record-gemunit-g100000601820"],"sourceIds":["gem-global-integrated-power-tracker"],"technologies":["hydro"],"technologyMixMw":{"hydro":210.0},"unitCount":1,"unitIds":["gem-unit-G100000601820"]},"type":"Feature"},{"geometry":{"coordinates":[-20.143,64.046],"type":"Point"},"id":"wattlas-plant-gemplant-l100000601802","properties":{"aliases":["Hvammur hydroelectric plant"],"canonicalAnchor":"gemplant:L100000601802","canonicalCountryKey":"IS","capacityMw":93.0,"country":"IS","externalIds":{"gemPlant":"L100000601802","gemUnit":"G100000601821"},"geographyId":"IS-53860390B85658391135359","id":"wattlas-plant-gemplant-l100000601802","lifecycleCounts":{"under_construction":1},"locationPrecision":"exact","name":"Hvammur hydroelectric plant","operatingCapacityCoverage":{"coveragePercent":0.0,"knownUnitCount":0,"method":"unavailable","totalUnitCount":0},"operatingCapacityMw":0.0,"operatingCapacityMwByTechnology":{},"plannedCapacityCoverage":{"coveragePercent":100.0,"knownUnitCount":1,"method":"complete_unit_sum","provenance":{"evidenceCount":0,"recordIds":["wattlas-record-gemunit-g100000601821"],"sourceIds":["gem-global-integrated-power-tracker"],"sourceTypes":["research_verified"],"valueKind":"reported"},"totalUnitCount":1},"plannedCapacityMw":93.0,"plannedCapacityMwByTechnology":{"hydro":93.0},"recordCount":1,"recordIds":["wattlas-record-gemunit-g100000601821"],"sourceIds":["gem-global-integrated-power-tracker"],"technologies":["hydro"],"technologyMixMw":{"hydro":93.0},"unitCount":1,"unitIds":["gem-unit-G100000601821"]},"type":"Feature"},{"geometry":{"coordinates":[-19.1269,64.1732],"type":"Point"},"id":"wattlas-plant-gemplant-l100000601803","properties":{"aliases":["Sigalda hydroelectric plant"],"canonicalAnchor":"gemplant:L100000601803","canonicalCountryKey":"IS","capacityMw":150.0,"country":"IS","externalIds":{"gemPlant":"L100000601803","gemUnit":"G100000601822"},"geographyId":"IS-53860390B85658391135359","id":"wattlas-plant-gemplant-l100000601803","lifecycleCounts":{"operational":1},"locationPrecision":"exact","name":"Sigalda hydroelectric plant","operatingCapacityCoverage":{"coveragePercent":100.0,"knownUnitCount":1,"method":"complete_unit_sum","provenance":{"evidenceCount":0,"recordIds":["wattlas-record-gemunit-g100000601822"],"sourceIds":["gem-global-integrated-power-tracker"],"sourceTypes":["research_verified"],"valueKind":"reported"},"totalUnitCount":1},"operatingCapacityMw":150.0,"operatingCapacityMwByTechnology":{"hydro":150.0},"plannedCapacityCoverage":{"coveragePercent":0.0,"knownUnitCount":0,"method":"unavailable","totalUnitCount":0},"plannedCapacityMw":0.0,"plannedCapacityMwByTechnology":{},"recordCount":1,"recordIds":["wattlas-record-gemunit-g100000601822"],"sourceIds":["gem-global-integrated-power-tracker"],"technologies":["hydro"],"technologyMixMw":{"hydro":150.0},"unitCount":1,"unitIds":["gem-unit-G100000601822"]},"type":"Feature"},{"geometry":{"coordinates":[-19.6206,64.1673],"type":"Point"},"id":"wattlas-plant-gemplant-l100000601804","properties":{"aliases":["Sultartangi hydroelectric plant"],"canonicalAnchor":"gemplant:L100000601804","canonicalCountryKey":"IS","capacityMw":125.0,"country":"IS","externalIds":{"gemPlant":"L100000601804","gemUnit":"G100000601823"},"geographyId":"IS-53860390B85658391135359","id":"wattlas-plant-gemplant-l100000601804","lifecycleCounts":{"operational":1},"locationPrecision":"exact","name":"Sultartangi hydroelectric plant","operatingCapacityCoverage":{"coveragePercent":100.0,"knownUnitCount":1,"method":"complete_unit_sum","provenance":{"evidenceCount":0,"recordIds":["wattlas-record-gemunit-g100000601823"],"sourceIds":["gem-global-integrated-power-tracker"],"sourceTypes":["research_verified"],"valueKind":"reported"},"totalUnitCount":1},"operatingCapacityMw":125.0,"operatingCapacityMwByTechnology":{"hydro":125.0},"plannedCapacityCoverage":{"coveragePercent":0.0,"knownUnitCount":0,"method":"unavailable","totalUnitCount":0},"plannedCapacityMw":0.0,"plannedCapacityMwByTechnology":{},"recordCount":1,"recordIds":["wattlas-record-gemunit-g100000601823"],"sourceIds":["gem-global-integrated-power-tracker"],"technologies":["hydro"],"technologyMixMw":{"hydro":125.0},"unitCount":1,"unitIds":["gem-unit-G100000601823"]},"type":"Feature"},{"geometry":{"coordinates":[-19.0325,64.1965],"type":"Point"},"id":"wattlas-plant-gemplant-l100000601805","properties":{"aliases":["Vatnsfell hydroelectric plant"],"canonicalAnchor":"gemplant:L100000601805","canonicalCountryKey":"IS","capacityMw":90.0,"country":"IS","externalIds":{"gemPlant":"L100000601805","gemUnit":"G100000601824"},"geographyId":"IS-53860390B85658391135359","id":"wattlas-plant-gemplant-l100000601805","lifecycleCounts":{"operational":1},"locationPrecision":"exact","name":"Vatnsfell hydroelectric plant","operatingCapacityCoverage":{"coveragePercent":100.0,"knownUnitCount":1,"method":"complete_unit_sum","provenance":{"evidenceCount":0,"recordIds":["wattlas-record-gemunit-g100000601824"],"sourceIds":["gem-global-integrated-power-tracker"],"sourceTypes":["research_verified"],"valueKind":"reported"},"totalUnitCount":1},"operatingCapacityMw":90.0,"operatingCapacityMwByTechnology":{"hydro":90.0},"plannedCapacityCoverage":{"coveragePercent":0.0,"knownUnitCount":0,"method":"unavailable","totalUnitCount":0},"plannedCapacityMw":0.0,"plannedCapacityMwByTechnology":{},"recordCount":1,"recordIds":["wattlas-record-gemunit-g100000601824"],"sourceIds":["gem-global-integrated-power-tracker"],"technologies":["hydro"],"technologyMixMw":{"hydro":90.0},"unitCount":1,"unitIds":["gem-unit-G100000601824"]},"type":"Feature"},{"geometry":{"coordinates":[-16.8462,65.6432],"type":"Point"},"id":"wattlas-plant-gemplant-l100000700013","properties":{"aliases":["1.0","2.0","Bjarnarflag geothermal power plant"],"canonicalAnchor":"gemplant:L100000700013","canonicalCountryKey":"IS","capacityMw":5.0,"country":"IS","externalIdAliases":{"gemUnit":["G100000700020","G100000700021"]},"externalIds":{"gemPlant":"L100000700013","gemUnit":"G100000700021"},"geographyId":"IS-53860390B58519509441334","id":"wattlas-plant-gemplant-l100000700013","lifecycleCounts":{"cancelled":1,"operational":1},"locationPrecision":"exact","name":"Bjarnarflag geothermal power plant","operatingCapacityCoverage":{"coveragePercent":100.0,"knownUnitCount":1,"method":"complete_unit_sum","provenance":{"evidenceCount":0,"recordIds":["wattlas-record-gemunit-g100000700020"],"sourceIds":["gem-global-integrated-power-tracker"],"sourceTypes":["research_verified"],"valueKind":"reported"},"totalUnitCount":1},"operatingCapacityMw":5.0,"operatingCapacityMwByTechnology":{"geothermal":5.0},"plannedCapacityCoverage":{"coveragePercent":0.0,"knownUnitCount":0,"method":"unavailable","totalUnitCount":0},"plannedCapacityMw":0.0,"plannedCapacityMwByTechnology":{},"recordCount":2,"recordIds":["wattlas-record-gemunit-g100000700020","wattlas-record-gemunit-g100000700021"],"sourceIds":["gem-global-integrated-power-tracker"],"technologies":["geothermal"],"technologyMixMw":{"geothermal":5.0},"unitCount":2,"unitIds":["gem-unit-G100000700020","gem-unit-G100000700021"]},"type":"Feature"},{"geometry":{"coordinates":[-21.4007,64.0373],"type":"Point"},"id":"wattlas-plant-gemplant-l100000700065","properties":{"aliases":["1.0","2.0","3.0","4.0","5.0","6.0","Hellisheiðarvirkjun geothermal power plant","Low-pressure turbine"],"canonicalAnchor":"gemplant:L100000700065","canonicalCountryKey":"IS","capacityMw":303.0,"country":"IS","externalIdAliases":{"gemUnit":["G100000700101","G100000700102","G100000700103","G100000700104","G100000700105","G100000700106","G100000700107"]},"externalIds":{"gemPlant":"L100000700065","gemUnit":"G100000700107"},"geographyId":"IS-53860390B85658391135359","id":"wattlas-plant-gemplant-l100000700065","lifecycleCounts":{"operational":7},"locationPrecision":"exact","name":"Hellisheiðarvirkjun geothermal power plant","operatingCapacityCoverage":{"coveragePercent":100.0,"knownUnitCount":7,"method":"complete_unit_sum","provenance":{"evidenceCount":0,"recordIds":["wattlas-record-gemunit-g100000700101","wattlas-record-gemunit-g100000700102","wattlas-record-gemunit-g100000700103","wattlas-record-gemunit-g100000700104","wattlas-record-gemunit-g100000700105","wattlas-record-gemunit-g100000700106","wattlas-record-gemunit-g100000700107"],"sourceIds":["gem-global-integrated-power-tracker"],"sourceTypes":["research_verified"],"valueKind":"reported"},"totalUnitCount":7},"operatingCapacityMw":303.0,"operatingCapacityMwByTechnology":{"geothermal":303.0},"plannedCapacityCoverage":{"coveragePercent":0.0,"knownUnitCount":0,"method":"unavailable","totalUnitCount":0},"plannedCapacityMw":0.0,"plannedCapacityMwByTechnology":{},"recordCount":7,"recordIds":["wattlas-record-gemunit-g100000700101","wattlas-record-gemunit-g100000700102","wattlas-record-gemunit-g100000700103","wattlas-record-gemunit-g100000700104","wattlas-record-gemunit-g100000700105","wattlas-record-gemunit-g100000700106","wattlas-record-gemunit-g100000700107"],"sourceIds":["gem-global-integrated-power-tracker"],"technologies":["geothermal"],"technologyMixMw":{"geothermal":303.0},"unitCount":7,"unitIds":["gem-unit-G100000700101","gem-unit-G100000700102","gem-unit-G100000700103","gem-unit-G100000700104","gem-unit-G100000700105","gem-unit-G100000700106","gem-unit-G100000700107"]},"type":"Feature"},{"geometry":{"coordinates":[-16.7735,65.7035],"type":"Point"},"id":"wattlas-plant-gemplant-l100000700082","properties":{"aliases":["1.0","2.0","Krafla geothermal power plant"],"canonicalAnchor":"gemplant:L100000700082","canonicalCountryKey":"IS","capacityMw":60.0,"country":"IS","externalIdAliases":{"gemUnit":["G100000700134","G100000700135"]},"externalIds":{"gemPlant":"L100000700082","gemUnit":"G100000700135"},"geographyId":"IS-53860390B58519509441334","id":"wattlas-plant-gemplant-l100000700082","lifecycleCounts":{"operational":2},"locationPrecision":"exact","name":"Krafla geothermal power plant","operatingCapacityCoverage":{"coveragePercent":100.0,"knownUnitCount":2,"method":"complete_unit_sum","provenance":{"evidenceCount":0,"recordIds":["wattlas-record-gemunit-g100000700134","wattlas-record-gemunit-g100000700135"],"sourceIds":["gem-global-integrated-power-tracker"],"sourceTypes":["research_verified"],"valueKind":"reported"},"totalUnitCount":2},"operatingCapacityMw":60.0,"operatingCapacityMwByTechnology":{"geothermal":60.0},"plannedCapacityCoverage":{"coveragePercent":0.0,"knownUnitCount":0,"method":"unavailable","totalUnitCount":0},"plannedCapacityMw":0.0,"plannedCapacityMwByTechnology":{},"recordCount":2,"recordIds":["wattlas-record-gemunit-g100000700134","wattlas-record-gemunit-g100000700135"],"sourceIds":["gem-global-integrated-power-tracker"],"technologies":["geothermal"],"technologyMixMw":{"geothermal":60.0},"unitCount":2,"unitIds":["gem-unit-G100000700134","gem-unit-G100000700135"]},"type":"Feature"},{"geometry":{"coordinates":[-21.2567,64.1081],"type":"Point"},"id":"wattlas-plant-gemplant-l100000700119","properties":{"aliases":["1.0","2.0","3.0","4.0","Nesjavellir geothermal power station"],"canonicalAnchor":"gemplant:L100000700119","canonicalCountryKey":"IS","capacityMw":120.0,"country":"IS","externalIdAliases":{"gemUnit":["G100000700196","G100000700197","G100000700198","G100000700199"]},"externalIds":{"gemPlant":"L100000700119","gemUnit":"G100000700199"},"geographyId":"IS-53860390B85658391135359","id":"wattlas-plant-gemplant-l100000700119","lifecycleCounts":{"operational":4},"locationPrecision":"exact","name":"Nesjavellir geothermal power station","operatingCapacityCoverage":{"coveragePercent":100.0,"knownUnitCount":4,"method":"complete_unit_sum","provenance":{"evidenceCount":0,"recordIds":["wattlas-record-gemunit-g100000700196","wattlas-record-gemunit-g100000700197","wattlas-record-gemunit-g100000700198","wattlas-record-gemunit-g100000700199"],"sourceIds":["gem-global-integrated-power-tracker"],"sourceTypes":["research_verified"],"valueKind":"reported"},"totalUnitCount":4},"operatingCapacityMw":120.0,"operatingCapacityMwByTechnology":{"geothermal":120.0},"plannedCapacityCoverage":{"coveragePercent":0.0,"knownUnitCount":0,"method":"unavailable","totalUnitCount":0},"plannedCapacityMw":0.0,"plannedCapacityMwByTechnology":{},"recordCount":4,"recordIds":["wattlas-record-gemunit-g100000700196","wattlas-record-gemunit-g100000700197","wattlas-record-gemunit-g100000700198","wattlas-record-gemunit-g100000700199"],"sourceIds":["gem-global-integrated-power-tracker"],"technologies":["geothermal"],"technologyMixMw":{"geothermal":120.0},"unitCount":4,"unitIds":["gem-unit-G100000700196","gem-unit-G100000700197","gem-unit-G100000700198","gem-unit-G100000700199"]},"type":"Feature"},{"geometry":{"coordinates":[-22.6848,63.8251],"type":"Point"},"id":"wattlas-plant-gemplant-l100000700148","properties":{"aliases":["1.0","2.0","3.0","Reykjanes geothermal power plant"],"canonicalAnchor":"gemplant:L100000700148","canonicalCountryKey":"IS","capacityMw":130.0,"country":"IS","externalIdAliases":{"gemUnit":["G100000700242","G100000700243","G100000700244"]},"externalIds":{"gemPlant":"L100000700148","gemUnit":"G100000700244"},"geographyId":"IS-53860390B87574894134156","id":"wattlas-plant-gemplant-l100000700148","lifecycleCounts":{"operational":3},"locationPrecision":"exact","name":"Reykjanes geothermal power plant","operatingCapacityCoverage":{"coveragePercent":100.0,"knownUnitCount":3,"method":"complete_unit_sum","provenance":{"evidenceCount":0,"recordIds":["wattlas-record-gemunit-g100000700242","wattlas-record-gemunit-g100000700243","wattlas-record-gemunit-g100000700244"],"sourceIds":["gem-global-integrated-power-tracker"],"sourceTypes":["research_verified"],"valueKind":"reported"},"totalUnitCount":3},"operatingCapacityMw":130.0,"operatingCapacityMwByTechnology":{"geothermal":130.0},"plannedCapacityCoverage":{"coveragePercent":0.0,"knownUnitCount":0,"method":"unavailable","totalUnitCount":0},"plannedCapacityMw":0.0,"plannedCapacityMwByTechnology":{},"recordCount":3,"recordIds":["wattlas-record-gemunit-g100000700242","wattlas-record-gemunit-g100000700243","wattlas-record-gemunit-g100000700244"],"sourceIds":["gem-global-integrated-power-tracker"],"technologies":["geothermal"],"technologyMixMw":{"geothermal":130.0},"unitCount":3,"unitIds":["gem-unit-G100000700242","gem-unit-G100000700243","gem-unit-G100000700244"]},"type":"Feature"},{"geometry":{"coordinates":[-22.4332,63.8788],"type":"Point"},"id":"wattlas-plant-gemplant-l100000700168","properties":{"aliases":["1.0","2.0","3.0","4.0","5.0","6.0","7.0","Svartsengi geothermal power plant"],"canonicalAnchor":"gemplant:L100000700168","canonicalCountryKey":"IS","capacityMw":131.4,"country":"IS","externalIdAliases":{"gemUnit":["G100000700276","G100000700277","G100000700338","G100001048275","G100001048276","G100001048277","G100001048278"]},"externalIds":{"gemPlant":"L100000700168","gemUnit":"G100000700338"},"geographyId":"IS-53860390B87574894134156","id":"wattlas-plant-gemplant-l100000700168","lifecycleCounts":{"operational":7},"locationPrecision":"exact","name":"Svartsengi geothermal power plant","operatingCapacityCoverage":{"coveragePercent":100.0,"knownUnitCount":7,"method":"complete_unit_sum","provenance":{"evidenceCount":0,"recordIds":["wattlas-record-gemunit-g100000700276","wattlas-record-gemunit-g100000700277","wattlas-record-gemunit-g100000700338","wattlas-record-gemunit-g100001048275","wattlas-record-gemunit-g100001048276","wattlas-record-gemunit-g100001048277","wattlas-record-gemunit-g100001048278"],"sourceIds":["gem-global-integrated-power-tracker"],"sourceTypes":["research_verified"],"valueKind":"reported"},"totalUnitCount":7},"operatingCapacityMw":131.4,"operatingCapacityMwByTechnology":{"geothermal":131.4},"plannedCapacityCoverage":{"coveragePercent":0.0,"knownUnitCount":0,"method":"unavailable","totalUnitCount":0},"plannedCapacityMw":0.0,"plannedCapacityMwByTechnology":{},"recordCount":7,"recordIds":["wattlas-record-gemunit-g100000700276","wattlas-record-gemunit-g100000700277","wattlas-record-gemunit-g100000700338","wattlas-record-gemunit-g100001048275","wattlas-record-gemunit-g100001048276","wattlas-record-gemunit-g100001048277","wattlas-record-gemunit-g100001048278"],"sourceIds":["gem-global-integrated-power-tracker"],"technologies":["geothermal"],"technologyMixMw":{"geothermal":131.4},"unitCount":7,"unitIds":["gem-unit-G100000700276","gem-unit-G100000700277","gem-unit-G100000700338","gem-unit-G100001048275","gem-unit-G100001048276","gem-unit-G100001048277","gem-unit-G100001048278"]},"type":"Feature"},{"geometry":{"coordinates":[-16.9624,65.89051],"type":"Point"},"id":"wattlas-plant-gemplant-l100000700176","properties":{"aliases":["1.0","2.0","3.0","Þeistareykir geothermal station"],"canonicalAnchor":"gemplant:L100000700176","canonicalCountryKey":"IS","capacityMw":135.0,"country":"IS","externalIdAliases":{"gemUnit":["G100000700287","G100000700288","G100000700339"]},"externalIds":{"gemPlant":"L100000700176","gemUnit":"G100000700339"},"geographyId":"IS-53860390B58519509441334","id":"wattlas-plant-gemplant-l100000700176","lifecycleCounts":{"operational":2,"under_construction":1},"locationPrecision":"exact","name":"Þeistareykir geothermal station","operatingCapacityCoverage":{"coveragePercent":100.0,"knownUnitCount":2,"method":"complete_unit_sum","provenance":{"evidenceCount":0,"recordIds":["wattlas-record-gemunit-g100000700287","wattlas-record-gemunit-g100000700288"],"sourceIds":["gem-global-integrated-power-tracker"],"sourceTypes":["research_verified"],"valueKind":"reported"},"totalUnitCount":2},"operatingCapacityMw":90.0,"operatingCapacityMwByTechnology":{"geothermal":90.0},"plannedCapacityCoverage":{"coveragePercent":100.0,"knownUnitCount":1,"method":"complete_unit_sum","provenance":{"evidenceCount":0,"recordIds":["wattlas-record-gemunit-g100000700339"],"sourceIds":["gem-global-integrated-power-tracker"],"sourceTypes":["research_verified"],"valueKind":"reported"},"totalUnitCount":1},"plannedCapacityMw":45.0,"plannedCapacityMwByTechnology":{"geothermal":45.0},"recordCount":3,"recordIds":["wattlas-record-gemunit-g100000700287","wattlas-record-gemunit-g100000700288","wattlas-record-gemunit-g100000700339"],"sourceIds":["gem-global-integrated-power-tracker"],"technologies":["geothermal"],"technologyMixMw":{"geothermal":135.0},"unitCount":3,"unitIds":["gem-unit-G100000700287","gem-unit-G100000700288","gem-unit-G100000700339"]},"type":"Feature"},{"geometry":{"coordinates":[-21.0077,64.0875],"type":"Point"},"id":"wattlas-plant-gemplant-l100001023064","properties":{"aliases":["Írafoss hydroelectric plant"],"canonicalAnchor":"gemplant:L100001023064","canonicalCountryKey":"IS","capacityMw":48.0,"country":"IS","externalIds":{"gemPlant":"L100001023064","gemUnit":"G100001027269"},"geographyId":"IS-53860390B85658391135359","id":"wattlas-plant-gemplant-l100001023064","lifecycleCounts":{"operational":1},"locationPrecision":"exact","name":"Írafoss hydroelectric plant","operatingCapacityCoverage":{"coveragePercent":100.0,"knownUnitCount":1,"method":"complete_unit_sum","provenance":{"evidenceCount":0,"recordIds":["wattlas-record-gemunit-g100001027269"],"sourceIds":["gem-global-integrated-power-tracker"],"sourceTypes":["research_verified"],"valueKind":"reported"},"totalUnitCount":1},"operatingCapacityMw":48.0,"operatingCapacityMwByTechnology":{"hydro":48.0},"plannedCapacityCoverage":{"coveragePercent":0.0,"knownUnitCount":0,"method":"unavailable","totalUnitCount":0},"plannedCapacityMw":0.0,"plannedCapacityMwByTechnology":{},"recordCount":1,"recordIds":["wattlas-record-gemunit-g100001027269"],"sourceIds":["gem-global-integrated-power-tracker"],"technologies":["hydro"],"technologyMixMw":{"hydro":48.0},"unitCount":1,"unitIds":["gem-unit-G100001027269"]},"type":"Feature"},{"geometry":{"coordinates":[-19.729202,64.127422],"type":"Point"},"id":"wattlas-plant-osm-relation-14733703","properties":{"aliases":["Hafið"],"canonicalAnchor":"osm:relation/14733703","canonicalCountryKey":"IS","capacityMw":1.8,"country":"IS","externalIds":{"osm":"relation/14733703"},"geographyId":"IS-53860390B85658391135359","id":"wattlas-plant-osm-relation-14733703","lifecycleCounts":{"operational":1},"locationPrecision":"exact","name":"Hafið","operatingCapacityCoverage":{"coveragePercent":100.0,"knownUnitCount":0,"method":"plant_aggregate","provenance":{"evidenceCount":0,"recordIds":["wattlas-record-osm-relation-14733703"],"sourceIds":["openstreetmap-power"],"sourceTypes":["community_mapped"],"valueKind":"reported"},"totalUnitCount":0},"operatingCapacityMw":1.8,"operatingCapacityMwByTechnology":{"wind":1.8},"plannedCapacityCoverage":{"coveragePercent":0.0,"knownUnitCount":0,"method":"unavailable","totalUnitCount":0},"plannedCapacityMw":0.0,"plannedCapacityMwByTechnology":{},"recordCount":1,"recordIds":["wattlas-record-osm-relation-14733703"],"sourceIds":["openstreetmap-power"],"technologies":["wind"],"technologyMixMw":{"wind":1.8},"unitCount":0,"unitIds":[]},"type":"Feature"},{"geometry":{"coordinates":[-20.598701,63.75106],"type":"Point"},"id":"wattlas-plant-osm-relation-14733729","properties":{"aliases":["Thykkvibaer"],"canonicalAnchor":"osm:relation/14733729","canonicalCountryKey":"IS","capacityMw":2.4,"country":"IS","externalIds":{"osm":"relation/14733729"},"geographyId":"IS-53860390B85658391135359","id":"wattlas-plant-osm-relation-14733729","lifecycleCounts":{"operational":1},"locationPrecision":"exact","name":"Thykkvibaer","operatingCapacityCoverage":{"coveragePercent":100.0,"knownUnitCount":0,"method":"plant_aggregate","provenance":{"evidenceCount":0,"recordIds":["wattlas-record-osm-relation-14733729"],"sourceIds":["openstreetmap-power"],"sourceTypes":["community_mapped"],"valueKind":"reported"},"totalUnitCount":0},"operatingCapacityMw":2.4,"operatingCapacityMwByTechnology":{"wind":2.4},"plannedCapacityCoverage":{"coveragePercent":0.0,"knownUnitCount":0,"method":"unavailable","totalUnitCount":0},"plannedCapacityMw":0.0,"plannedCapacityMwByTechnology":{},"recordCount":1,"recordIds":["wattlas-record-osm-relation-14733729"],"sourceIds":["openstreetmap-power"],"technologies":["wind"],"technologyMixMw":{"wind":2.4},"unitCount":0,"unitIds":[]},"type":"Feature"},{"geometry":{"coordinates":[-19.801848,64.103141],"type":"Point"},"id":"wattlas-plant-osm-way-1107078300","properties":{"aliases":["Búrfell II power station"],"canonicalAnchor":"osm:way/1107078300","canonicalCountryKey":"IS","capacityMw":100.0,"country":"IS","externalIds":{"osm":"way/1107078300"},"geographyId":"IS-53860390B85658391135359","id":"wattlas-plant-osm-way-1107078300","lifecycleCounts":{"operational":1},"locationPrecision":"exact","name":"Búrfell II power station","operatingCapacityCoverage":{"coveragePercent":100.0,"knownUnitCount":0,"method":"plant_aggregate","provenance":{"evidenceCount":0,"recordIds":["wattlas-record-osm-way-1107078300"],"sourceIds":["openstreetmap-power"],"sourceTypes":["community_mapped"],"valueKind":"reported"},"totalUnitCount":0},"operatingCapacityMw":100.0,"operatingCapacityMwByTechnology":{"hydro":100.0},"plannedCapacityCoverage":{"coveragePercent":0.0,"knownUnitCount":0,"method":"unavailable","totalUnitCount":0},"plannedCapacityMw":0.0,"plannedCapacityMwByTechnology":{},"recordCount":1,"recordIds":["wattlas-record-osm-way-1107078300"],"sourceIds":["openstreetmap-power"],"technologies":["hydro"],"technologyMixMw":{"hydro":100.0},"unitCount":0,"unitIds":[]},"type":"Feature"},{"geometry":{"coordinates":[-17.895297,65.854782],"type":"Point"},"id":"wattlas-plant-osm-way-1108405664","properties":{"aliases":["Hólsvirkjun"],"canonicalAnchor":"osm:way/1108405664","canonicalCountryKey":"IS","capacityMw":6.0,"country":"IS","externalIds":{"osm":"way/1108405664"},"geographyId":"IS-53860390B58519509441334","id":"wattlas-plant-osm-way-1108405664","lifecycleCounts":{"operational":1},"locationPrecision":"exact","name":"Hólsvirkjun","operatingCapacityCoverage":{"coveragePercent":100.0,"knownUnitCount":0,"method":"plant_aggregate","provenance":{"evidenceCount":0,"recordIds":["wattlas-record-osm-way-1108405664"],"sourceIds":["openstreetmap-power"],"sourceTypes":["community_mapped"],"valueKind":"reported"},"totalUnitCount":0},"operatingCapacityMw":6.0,"operatingCapacityMwByTechnology":{"hydro":6.0},"plannedCapacityCoverage":{"coveragePercent":0.0,"knownUnitCount":0,"method":"unavailable","totalUnitCount":0},"plannedCapacityMw":0.0,"plannedCapacityMwByTechnology":{},"recordCount":1,"recordIds":["wattlas-record-osm-way-1108405664"],"sourceIds":["openstreetmap-power"],"technologies":["hydro"],"technologyMixMw":{"hydro":6.0},"unitCount":0,"unitIds":[]},"type":"Feature"},{"geometry":{"coordinates":[-23.361092,66.025027],"type":"Point"},"id":"wattlas-plant-osm-way-1390584316","properties":{"aliases":["Breiðadalsvirkjun"],"canonicalAnchor":"osm:way/1390584316","canonicalCountryKey":"IS","capacityMw":0.0,"country":"IS","externalIds":{"osm":"way/1390584316"},"geographyId":"IS-53860390B51423153689858","id":"wattlas-plant-osm-way-1390584316","lifecycleCounts":{"operational":1},"locationPrecision":"exact","name":"Breiðadalsvirkjun","operatingCapacityCoverage":{"coveragePercent":0.0,"knownUnitCount":0,"method":"unavailable","totalUnitCount":0},"operatingCapacityMw":0.0,"operatingCapacityMwByTechnology":{},"plannedCapacityCoverage":{"coveragePercent":0.0,"knownUnitCount":0,"method":"unavailable","totalUnitCount":0},"plannedCapacityMw":0.0,"plannedCapacityMwByTechnology":{},"recordCount":1,"recordIds":["wattlas-record-osm-way-1390584316"],"sourceIds":["openstreetmap-power"],"technologies":["hydro"],"technologyMixMw":{"hydro":0.0},"unitCount":0,"unitIds":[]},"type":"Feature"},{"geometry":{"coordinates":[-23.380172,66.021282],"type":"Point"},"id":"wattlas-plant-osm-way-1390584317","properties":{"aliases":["Breiðadalsvirkjun"],"canonicalAnchor":"osm:way/1390584317","canonicalCountryKey":"IS","capacityMw":0.0,"country":"IS","externalIds":{"osm":"way/1390584317"},"geographyId":"IS-53860390B51423153689858","id":"wattlas-plant-osm-way-1390584317","lifecycleCounts":{"operational":1},"locationPrecision":"exact","name":"Breiðadalsvirkjun","operatingCapacityCoverage":{"coveragePercent":0.0,"knownUnitCount":0,"method":"unavailable","totalUnitCount":0},"operatingCapacityMw":0.0,"operatingCapacityMwByTechnology":{},"plannedCapacityCoverage":{"coveragePercent":0.0,"knownUnitCount":0,"method":"unavailable","totalUnitCount":0},"plannedCapacityMw":0.0,"plannedCapacityMwByTechnology":{},"recordCount":1,"recordIds":["wattlas-record-osm-way-1390584317"],"sourceIds":["openstreetmap-power"],"technologies":["hydro"],"technologyMixMw":{"hydro":0.0},"unitCount":0,"unitIds":[]},"type":"Feature"},{"geometry":{"coordinates":[-21.789237,65.823784],"type":"Point"},"id":"wattlas-plant-osm-way-1454606761","properties":{"aliases":["Kvíslatunguvirkjun"],"canonicalAnchor":"osm:way/1454606761","canonicalCountryKey":"IS","capacityMw":0.0,"country":"IS","externalIds":{"osm":"way/1454606761"},"geographyId":"IS-53860390B51423153689858","id":"wattlas-plant-osm-way-1454606761","lifecycleCounts":{"under_construction":1},"locationPrecision":"exact","name":"Kvíslatunguvirkjun","operatingCapacityCoverage":{"coveragePercent":0.0,"knownUnitCount":0,"method":"unavailable","totalUnitCount":0},"operatingCapacityMw":0.0,"operatingCapacityMwByTechnology":{},"plannedCapacityCoverage":{"coveragePercent":0.0,"knownUnitCount":0,"method":"unavailable","totalUnitCount":0},"plannedCapacityMw":0.0,"plannedCapacityMwByTechnology":{},"recordCount":1,"recordIds":["wattlas-record-osm-way-1454606761"],"sourceIds":["openstreetmap-power"],"technologies":["other"],"technologyMixMw":{"other":0.0},"unitCount":0,"unitIds":[]},"type":"Feature"},{"geometry":{"coordinates":[-23.166882,65.77463],"type":"Point"},"id":"wattlas-plant-osm-way-177130628","properties":{"aliases":["Mjólkárvirkjun"],"canonicalAnchor":"osm:way/177130628","canonicalCountryKey":"IS","capacityMw":10.55,"country":"IS","externalIds":{"osm":"way/177130628"},"geographyId":"IS-53860390B51423153689858","id":"wattlas-plant-osm-way-177130628","lifecycleCounts":{"operational":1},"locationPrecision":"exact","name":"Mjólkárvirkjun","operatingCapacityCoverage":{"coveragePercent":100.0,"knownUnitCount":0,"method":"plant_aggregate","provenance":{"evidenceCount":0,"recordIds":["wattlas-record-osm-way-177130628"],"sourceIds":["openstreetmap-power"],"sourceTypes":["community_mapped"],"valueKind":"reported"},"totalUnitCount":0},"operatingCapacityMw":10.55,"operatingCapacityMwByTechnology":{"hydro":10.55},"plannedCapacityCoverage":{"coveragePercent":0.0,"knownUnitCount":0,"method":"unavailable","totalUnitCount":0},"plannedCapacityMw":0.0,"plannedCapacityMwByTechnology":{},"recordCount":1,"recordIds":["wattlas-record-osm-way-177130628"],"sourceIds":["openstreetmap-power"],"technologies":["hydro"],"technologyMixMw":{"hydro":10.55},"unitCount":0,"unitIds":[]},"type":"Feature"},{"geometry":{"coordinates":[-21.010188,64.094324],"type":"Point"},"id":"wattlas-plant-osm-way-180244073","properties":{"aliases":["Ljósafossvirkjun"],"canonicalAnchor":"osm:way/180244073","canonicalCountryKey":"IS","capacityMw":16.0,"country":"IS","externalIds":{"osm":"way/180244073"},"geographyId":"IS-53860390B85658391135359","id":"wattlas-plant-osm-way-180244073","lifecycleCounts":{"operational":1},"locationPrecision":"exact","name":"Ljósafossvirkjun","operatingCapacityCoverage":{"coveragePercent":100.0,"knownUnitCount":0,"method":"plant_aggregate","provenance":{"evidenceCount":0,"recordIds":["wattlas-record-osm-way-180244073"],"sourceIds":["openstreetmap-power"],"sourceTypes":["community_mapped"],"valueKind":"reported"},"totalUnitCount":0},"operatingCapacityMw":16.0,"operatingCapacityMwByTechnology":{"hydro":16.0},"plannedCapacityCoverage":{"coveragePercent":0.0,"knownUnitCount":0,"method":"unavailable","totalUnitCount":0},"plannedCapacityMw":0.0,"plannedCapacityMwByTechnology":{},"recordCount":1,"recordIds":["wattlas-record-osm-way-180244073"],"sourceIds":["openstreetmap-power"],"technologies":["hydro"],"technologyMixMw":{"hydro":16.0},"unitCount":0,"unitIds":[]},"type":"Feature"},{"geometry":{"coordinates":[-21.006287,64.087901],"type":"Point"},"id":"wattlas-plant-osm-way-180244080","properties":{"aliases":["Írafossvirkjun"],"canonicalAnchor":"osm:way/180244080","canonicalCountryKey":"IS","capacityMw":47.7,"country":"IS","externalIds":{"osm":"way/180244080"},"geographyId":"IS-53860390B85658391135359","id":"wattlas-plant-osm-way-180244080","lifecycleCounts":{"operational":1},"locationPrecision":"exact","name":"Írafossvirkjun","operatingCapacityCoverage":{"coveragePercent":100.0,"knownUnitCount":0,"method":"plant_aggregate","provenance":{"evidenceCount":0,"recordIds":["wattlas-record-osm-way-180244080"],"sourceIds":["openstreetmap-power"],"sourceTypes":["community_mapped"],"valueKind":"reported"},"totalUnitCount":0},"operatingCapacityMw":47.7,"operatingCapacityMwByTechnology":{"hydro":47.7},"plannedCapacityCoverage":{"coveragePercent":0.0,"knownUnitCount":0,"method":"unavailable","totalUnitCount":0},"plannedCapacityMw":0.0,"plannedCapacityMwByTechnology":{},"recordCount":1,"recordIds":["wattlas-record-osm-way-180244080"],"sourceIds":["openstreetmap-power"],"technologies":["hydro"],"technologyMixMw":{"hydro":47.7},"unitCount":0,"unitIds":[]},"type":"Feature"},{"geometry":{"coordinates":[-21.025335,64.129506],"type":"Point"},"id":"wattlas-plant-osm-way-195459465","properties":{"aliases":["Steingrímsstöð"],"canonicalAnchor":"osm:way/195459465","canonicalCountryKey":"IS","capacityMw":27.0,"country":"IS","externalIds":{"osm":"way/195459465"},"geographyId":"IS-53860390B85658391135359","id":"wattlas-plant-osm-way-195459465","lifecycleCounts":{"operational":1},"locationPrecision":"exact","name":"Steingrímsstöð","operatingCapacityCoverage":{"coveragePercent":100.0,"knownUnitCount":0,"method":"plant_aggregate","provenance":{"evidenceCount":0,"recordIds":["wattlas-record-osm-way-195459465"],"sourceIds":["openstreetmap-power"],"sourceTypes":["community_mapped"],"valueKind":"reported"},"totalUnitCount":0},"operatingCapacityMw":27.0,"operatingCapacityMwByTechnology":{"hydro":27.0},"plannedCapacityCoverage":{"coveragePercent":0.0,"knownUnitCount":0,"method":"unavailable","totalUnitCount":0},"plannedCapacityMw":0.0,"plannedCapacityMwByTechnology":{},"recordCount":1,"recordIds":["wattlas-record-osm-way-195459465"],"sourceIds":["openstreetmap-power"],"technologies":["hydro"],"technologyMixMw":{"hydro":27.0},"unitCount":0,"unitIds":[]},"type":"Feature"},{"geometry":{"coordinates":[-14.364863,65.50702],"type":"Point"},"id":"wattlas-plant-osm-way-214200321","properties":{"aliases":["Lagarfossvirkjun"],"canonicalAnchor":"osm:way/214200321","canonicalCountryKey":"IS","capacityMw":27.2,"country":"IS","externalIds":{"osm":"way/214200321"},"geographyId":"IS-53860390B32173012790841","id":"wattlas-plant-osm-way-214200321","lifecycleCounts":{"operational":1},"locationPrecision":"exact","name":"Lagarfossvirkjun","operatingCapacityCoverage":{"coveragePercent":100.0,"knownUnitCount":0,"method":"plant_aggregate","provenance":{"evidenceCount":0,"recordIds":["wattlas-record-osm-way-214200321"],"sourceIds":["openstreetmap-power"],"sourceTypes":["community_mapped"],"valueKind":"reported"},"totalUnitCount":0},"operatingCapacityMw":27.2,"operatingCapacityMwByTechnology":{"hydro":27.2},"plannedCapacityCoverage":{"coveragePercent":0.0,"knownUnitCount":0,"method":"unavailable","totalUnitCount":0},"plannedCapacityMw":0.0,"plannedCapacityMwByTechnology":{},"recordCount":1,"recordIds":["wattlas-record-osm-way-214200321"],"sourceIds":["openstreetmap-power"],"technologies":["hydro"],"technologyMixMw":{"hydro":27.2},"unitCount":0,"unitIds":[]},"type":"Feature"},{"geometry":{"coordinates":[-19.652177,65.753186],"type":"Point"},"id":"wattlas-plant-osm-way-235908478","properties":{"aliases":["Gönguskarðsvirkjun"],"canonicalAnchor":"osm:way/235908478","canonicalCountryKey":"IS","capacityMw":1.12,"country":"IS","externalIds":{"osm":"way/235908478"},"geographyId":"IS-53860390B72464321703569","id":"wattlas-plant-osm-way-235908478","lifecycleCounts":{"operational":1},"locationPrecision":"exact","name":"Gönguskarðsvirkjun","operatingCapacityCoverage":{"coveragePercent":100.0,"knownUnitCount":0,"method":"plant_aggregate","provenance":{"evidenceCount":0,"recordIds":["wattlas-record-osm-way-235908478"],"sourceIds":["openstreetmap-power"],"sourceTypes":["community_mapped"],"valueKind":"reported"},"totalUnitCount":0},"operatingCapacityMw":1.12,"operatingCapacityMwByTechnology":{"hydro":1.12},"plannedCapacityCoverage":{"coveragePercent":0.0,"knownUnitCount":0,"method":"unavailable","totalUnitCount":0},"plannedCapacityMw":0.0,"plannedCapacityMwByTechnology":{},"recordCount":1,"recordIds":["wattlas-record-osm-way-235908478"],"sourceIds":["openstreetmap-power"],"technologies":["hydro"],"technologyMixMw":{"hydro":1.12},"unitCount":0,"unitIds":[]},"type":"Feature"},{"geometry":{"coordinates":[-14.533165,65.138686],"type":"Point"},"id":"wattlas-plant-osm-way-245615289","properties":{"aliases":["Grímsárvirkjun"],"canonicalAnchor":"osm:way/245615289","canonicalCountryKey":"IS","capacityMw":2.8,"country":"IS","externalIds":{"osm":"way/245615289"},"geographyId":"IS-53860390B32173012790841","id":"wattlas-plant-osm-way-245615289","lifecycleCounts":{"operational":1},"locationPrecision":"exact","name":"Grímsárvirkjun","operatingCapacityCoverage":{"coveragePercent":100.0,"knownUnitCount":0,"method":"plant_aggregate","provenance":{"evidenceCount":0,"recordIds":["wattlas-record-osm-way-245615289"],"sourceIds":["openstreetmap-power"],"sourceTypes":["community_mapped"],"valueKind":"reported"},"totalUnitCount":0},"operatingCapacityMw":2.8,"operatingCapacityMwByTechnology":{"hydro":2.8},"plannedCapacityCoverage":{"coveragePercent":0.0,"knownUnitCount":0,"method":"unavailable","totalUnitCount":0},"plannedCapacityMw":0.0,"plannedCapacityMwByTechnology":{},"recordCount":1,"recordIds":["wattlas-record-osm-way-245615289"],"sourceIds":["openstreetmap-power"],"technologies":["hydro"],"technologyMixMw":{"hydro":2.8},"unitCount":0,"unitIds":[]},"type":"Feature"},{"geometry":{"coordinates":[-19.013922,65.9987],"type":"Point"},"id":"wattlas-plant-osm-way-292000118","properties":{"aliases":["Skeiðsfossvirkjun I"],"canonicalAnchor":"osm:way/292000118","canonicalCountryKey":"IS","capacityMw":3.2,"country":"IS","externalIds":{"osm":"way/292000118"},"geographyId":"IS-53860390B72464321703569","id":"wattlas-plant-osm-way-292000118","lifecycleCounts":{"operational":1},"locationPrecision":"exact","name":"Skeiðsfossvirkjun I","operatingCapacityCoverage":{"coveragePercent":100.0,"knownUnitCount":0,"method":"plant_aggregate","provenance":{"evidenceCount":0,"recordIds":["wattlas-record-osm-way-292000118"],"sourceIds":["openstreetmap-power"],"sourceTypes":["community_mapped"],"valueKind":"reported"},"totalUnitCount":0},"operatingCapacityMw":3.2,"operatingCapacityMwByTechnology":{"hydro":3.2},"plannedCapacityCoverage":{"coveragePercent":0.0,"knownUnitCount":0,"method":"unavailable","totalUnitCount":0},"plannedCapacityMw":0.0,"plannedCapacityMwByTechnology":{},"recordCount":1,"recordIds":["wattlas-record-osm-way-292000118"],"sourceIds":["openstreetmap-power"],"technologies":["hydro"],"technologyMixMw":{"hydro":3.2},"unitCount":0,"unitIds":[]},"type":"Feature"},{"geometry":{"coordinates":[-17.308646,65.816128],"type":"Point"},"id":"wattlas-plant-osm-way-506187757","properties":{"aliases":["Laxá Power Station I"],"canonicalAnchor":"osm:way/506187757","canonicalCountryKey":"IS","capacityMw":5.0,"country":"IS","externalIds":{"osm":"way/506187757"},"geographyId":"IS-53860390B58519509441334","id":"wattlas-plant-osm-way-506187757","lifecycleCounts":{"operational":1},"locationPrecision":"exact","name":"Laxá Power Station I","operatingCapacityCoverage":{"coveragePercent":100.0,"knownUnitCount":0,"method":"plant_aggregate","provenance":{"evidenceCount":0,"recordIds":["wattlas-record-osm-way-506187757"],"sourceIds":["openstreetmap-power"],"sourceTypes":["community_mapped"],"valueKind":"reported"},"totalUnitCount":0},"operatingCapacityMw":5.0,"operatingCapacityMwByTechnology":{"hydro":5.0},"plannedCapacityCoverage":{"coveragePercent":0.0,"knownUnitCount":0,"method":"unavailable","totalUnitCount":0},"plannedCapacityMw":0.0,"plannedCapacityMwByTechnology":{},"recordCount":1,"recordIds":["wattlas-record-osm-way-506187757"],"sourceIds":["openstreetmap-power"],"technologies":["hydro"],"technologyMixMw":{"hydro":5.0},"unitCount":0,"unitIds":[]},"type":"Feature"},{"geometry":{"coordinates":[-19.619131,64.167032],"type":"Point"},"id":"wattlas-plant-osm-way-508952744","properties":{"aliases":["Sultartangastöð"],"canonicalAnchor":"osm:way/508952744","canonicalCountryKey":"IS","capacityMw":125.0,"country":"IS","externalIds":{"osm":"way/508952744"},"geographyId":"IS-53860390B85658391135359","id":"wattlas-plant-osm-way-508952744","lifecycleCounts":{"operational":1},"locationPrecision":"exact","name":"Sultartangastöð","operatingCapacityCoverage":{"coveragePercent":100.0,"knownUnitCount":0,"method":"plant_aggregate","provenance":{"evidenceCount":0,"recordIds":["wattlas-record-osm-way-508952744"],"sourceIds":["openstreetmap-power"],"sourceTypes":["community_mapped"],"valueKind":"reported"},"totalUnitCount":0},"operatingCapacityMw":125.0,"operatingCapacityMwByTechnology":{"hydro":125.0},"plannedCapacityCoverage":{"coveragePercent":0.0,"knownUnitCount":0,"method":"unavailable","totalUnitCount":0},"plannedCapacityMw":0.0,"plannedCapacityMwByTechnology":{},"recordCount":1,"recordIds":["wattlas-record-osm-way-508952744"],"sourceIds":["openstreetmap-power"],"technologies":["hydro"],"technologyMixMw":{"hydro":125.0},"unitCount":0,"unitIds":[]},"type":"Feature"},{"geometry":{"coordinates":[-17.301525,65.814138],"type":"Point"},"id":"wattlas-plant-osm-way-510589560","properties":{"aliases":["Laxá Power Station III"],"canonicalAnchor":"osm:way/510589560","canonicalCountryKey":"IS","capacityMw":13.5,"country":"IS","externalIds":{"osm":"way/510589560"},"geographyId":"IS-53860390B58519509441334","id":"wattlas-plant-osm-way-510589560","lifecycleCounts":{"operational":1},"locationPrecision":"exact","name":"Laxá Power Station III","operatingCapacityCoverage":{"coveragePercent":100.0,"knownUnitCount":0,"method":"plant_aggregate","provenance":{"evidenceCount":0,"recordIds":["wattlas-record-osm-way-510589560"],"sourceIds":["openstreetmap-power"],"sourceTypes":["community_mapped"],"valueKind":"reported"},"totalUnitCount":0},"operatingCapacityMw":13.5,"operatingCapacityMwByTechnology":{"hydro":13.5},"plannedCapacityCoverage":{"coveragePercent":0.0,"knownUnitCount":0,"method":"unavailable","totalUnitCount":0},"plannedCapacityMw":0.0,"plannedCapacityMwByTechnology":{},"recordCount":1,"recordIds":["wattlas-record-osm-way-510589560"],"sourceIds":["openstreetmap-power"],"technologies":["hydro"],"technologyMixMw":{"hydro":13.5},"unitCount":0,"unitIds":[]},"type":"Feature"},{"geometry":{"coordinates":[-17.320792,65.820308],"type":"Point"},"id":"wattlas-plant-osm-way-510589592","properties":{"aliases":["Laxá Power Station II"],"canonicalAnchor":"osm:way/510589592","canonicalCountryKey":"IS","capacityMw":9.0,"country":"IS","externalIds":{"osm":"way/510589592"},"geographyId":"IS-53860390B58519509441334","id":"wattlas-plant-osm-way-510589592","lifecycleCounts":{"operational":1},"locationPrecision":"exact","name":"Laxá Power Station II","operatingCapacityCoverage":{"coveragePercent":100.0,"knownUnitCount":0,"method":"plant_aggregate","provenance":{"evidenceCount":0,"recordIds":["wattlas-record-osm-way-510589592"],"sourceIds":["openstreetmap-power"],"sourceTypes":["community_mapped"],"valueKind":"reported"},"totalUnitCount":0},"operatingCapacityMw":9.0,"operatingCapacityMwByTechnology":{"hydro":9.0},"plannedCapacityCoverage":{"coveragePercent":0.0,"knownUnitCount":0,"method":"unavailable","totalUnitCount":0},"plannedCapacityMw":0.0,"plannedCapacityMwByTechnology":{},"recordCount":1,"recordIds":["wattlas-record-osm-way-510589592"],"sourceIds":["openstreetmap-power"],"technologies":["hydro"],"technologyMixMw":{"hydro":9.0},"unitCount":0,"unitIds":[]},"type":"Feature"},{"geometry":{"coordinates":[-15.71861,64.224937],"type":"Point"},"id":"wattlas-plant-osm-way-545548545","properties":{"aliases":["Smyrlabjargaárvirkjun"],"canonicalAnchor":"osm:way/545548545","canonicalCountryKey":"IS","capacityMw":1.3,"country":"IS","externalIds":{"osm":"way/545548545"},"geographyId":"IS-53860390B32173012790841","id":"wattlas-plant-osm-way-545548545","lifecycleCounts":{"operational":1},"locationPrecision":"exact","name":"Smyrlabjargaárvirkjun","operatingCapacityCoverage":{"coveragePercent":100.0,"knownUnitCount":0,"method":"plant_aggregate","provenance":{"evidenceCount":0,"recordIds":["wattlas-record-osm-way-545548545"],"sourceIds":["openstreetmap-power"],"sourceTypes":["community_mapped"],"valueKind":"reported"},"totalUnitCount":0},"operatingCapacityMw":1.3,"operatingCapacityMwByTechnology":{"hydro":1.3},"plannedCapacityCoverage":{"coveragePercent":0.0,"knownUnitCount":0,"method":"unavailable","totalUnitCount":0},"plannedCapacityMw":0.0,"plannedCapacityMwByTechnology":{},"recordCount":1,"recordIds":["wattlas-record-osm-way-545548545"],"sourceIds":["openstreetmap-power"],"technologies":["hydro"],"technologyMixMw":{"hydro":1.3},"unitCount":0,"unitIds":[]},"type":"Feature"},{"geometry":{"coordinates":[-19.020918,66.012445],"type":"Point"},"id":"wattlas-plant-osm-way-549039727","properties":{"aliases":["Skeiðsfossvirkjun II"],"canonicalAnchor":"osm:way/549039727","canonicalCountryKey":"IS","capacityMw":1.7,"country":"IS","externalIds":{"osm":"way/549039727"},"geographyId":"IS-53860390B72464321703569","id":"wattlas-plant-osm-way-549039727","lifecycleCounts":{"operational":1},"locationPrecision":"exact","name":"Skeiðsfossvirkjun II","operatingCapacityCoverage":{"coveragePercent":100.0,"knownUnitCount":0,"method":"plant_aggregate","provenance":{"evidenceCount":0,"recordIds":["wattlas-record-osm-way-549039727"],"sourceIds":["openstreetmap-power"],"sourceTypes":["community_mapped"],"valueKind":"reported"},"totalUnitCount":0},"operatingCapacityMw":1.7,"operatingCapacityMwByTechnology":{"hydro":1.7},"plannedCapacityCoverage":{"coveragePercent":0.0,"knownUnitCount":0,"method":"unavailable","totalUnitCount":0},"plannedCapacityMw":0.0,"plannedCapacityMwByTechnology":{},"recordCount":1,"recordIds":["wattlas-record-osm-way-549039727"],"sourceIds":["openstreetmap-power"],"technologies":["hydro"],"technologyMixMw":{"hydro":1.7},"unitCount":0,"unitIds":[]},"type":"Feature"},{"geometry":{"coordinates":[-18.180933,65.488845],"type":"Point"},"id":"wattlas-plant-osm-way-717121645","properties":{"aliases":["Djúpadalsvirkjun 1"],"canonicalAnchor":"osm:way/717121645","canonicalCountryKey":"IS","capacityMw":1.8,"country":"IS","externalIds":{"osm":"way/717121645"},"geographyId":"IS-53860390B58519509441334","id":"wattlas-plant-osm-way-717121645","lifecycleCounts":{"operational":1},"locationPrecision":"exact","name":"Djúpadalsvirkjun 1","operatingCapacityCoverage":{"coveragePercent":100.0,"knownUnitCount":0,"method":"plant_aggregate","provenance":{"evidenceCount":0,"recordIds":["wattlas-record-osm-way-717121645"],"sourceIds":["openstreetmap-power"],"sourceTypes":["community_mapped"],"valueKind":"reported"},"totalUnitCount":0},"operatingCapacityMw":1.8,"operatingCapacityMwByTechnology":{"hydro":1.8},"plannedCapacityCoverage":{"coveragePercent":0.0,"knownUnitCount":0,"method":"unavailable","totalUnitCount":0},"plannedCapacityMw":0.0,"plannedCapacityMwByTechnology":{},"recordCount":1,"recordIds":["wattlas-record-osm-way-717121645"],"sourceIds":["openstreetmap-power"],"technologies":["hydro"],"technologyMixMw":{"hydro":1.8},"unitCount":0,"unitIds":[]},"type":"Feature"},{"geometry":{"coordinates":[-14.027482,65.246018],"type":"Point"},"id":"wattlas-plant-osm-way-717746672","properties":{"aliases":["Bjólfsvirkjun"],"canonicalAnchor":"osm:way/717746672","canonicalCountryKey":"IS","capacityMw":6.4,"country":"IS","externalIds":{"osm":"way/717746672","wikipedia":"is:Bjólfsvirkjun"},"geographyId":"IS-53860390B32173012790841","id":"wattlas-plant-osm-way-717746672","idAliases":["wattlas-plant-wikipedia-is-bj-lfsvirkjun"],"lifecycleCounts":{"operational":1},"locationPrecision":"exact","name":"Bjólfsvirkjun","operatingCapacityCoverage":{"coveragePercent":100.0,"knownUnitCount":0,"method":"plant_aggregate","provenance":{"evidenceCount":0,"recordIds":["wattlas-record-osm-way-717746672"],"sourceIds":["openstreetmap-power"],"sourceTypes":["community_mapped"],"valueKind":"reported"},"totalUnitCount":0},"operatingCapacityMw":6.4,"operatingCapacityMwByTechnology":{"hydro":6.4},"plannedCapacityCoverage":{"coveragePercent":0.0,"knownUnitCount":0,"method":"unavailable","totalUnitCount":0},"plannedCapacityMw":0.0,"plannedCapacityMwByTechnology":{},"recordCount":1,"recordIds":["wattlas-record-osm-way-717746672"],"sourceIds":["openstreetmap-power"],"technologies":["hydro"],"technologyMixMw":{"hydro":6.4},"unitCount":0,"unitIds":[]},"type":"Feature"},{"geometry":{"coordinates":[-18.131997,65.677335],"type":"Point"},"id":"wattlas-plant-osm-way-732113524","properties":{"aliases":["Glerárvirkjun 2"],"canonicalAnchor":"osm:way/732113524","canonicalCountryKey":"IS","capacityMw":3.3,"country":"IS","externalIds":{"osm":"way/732113524"},"geographyId":"IS-53860390B58519509441334","id":"wattlas-plant-osm-way-732113524","lifecycleCounts":{"operational":1},"locationPrecision":"exact","name":"Glerárvirkjun 2","operatingCapacityCoverage":{"coveragePercent":100.0,"knownUnitCount":0,"method":"plant_aggregate","provenance":{"evidenceCount":0,"recordIds":["wattlas-record-osm-way-732113524"],"sourceIds":["openstreetmap-power"],"sourceTypes":["community_mapped"],"valueKind":"reported"},"totalUnitCount":0},"operatingCapacityMw":3.3,"operatingCapacityMwByTechnology":{"hydro":3.3},"plannedCapacityCoverage":{"coveragePercent":0.0,"knownUnitCount":0,"method":"unavailable","totalUnitCount":0},"plannedCapacityMw":0.0,"plannedCapacityMwByTechnology":{},"recordCount":1,"recordIds":["wattlas-record-osm-way-732113524"],"sourceIds":["openstreetmap-power"],"technologies":["hydro"],"technologyMixMw":{"hydro":3.3},"unitCount":0,"unitIds":[]},"type":"Feature"},{"geometry":{"coordinates":[-21.837608,64.119148],"type":"Point"},"id":"wattlas-plant-osm-way-94801412","properties":{"aliases":["Rafstöð"],"canonicalAnchor":"osm:way/94801412","canonicalCountryKey":"IS","capacityMw":3.0,"country":"IS","externalIds":{"osm":"way/94801412"},"geographyId":"IS-53860390B39552912285510","id":"wattlas-plant-osm-way-94801412","lifecycleCounts":{"operational":1},"locationPrecision":"exact","name":"Rafstöð","operatingCapacityCoverage":{"coveragePercent":100.0,"knownUnitCount":0,"method":"plant_aggregate","provenance":{"evidenceCount":0,"recordIds":["wattlas-record-osm-way-94801412"],"sourceIds":["openstreetmap-power"],"sourceTypes":["community_mapped"],"valueKind":"reported"},"totalUnitCount":0},"operatingCapacityMw":3.0,"operatingCapacityMwByTechnology":{"hydro":3.0},"plannedCapacityCoverage":{"coveragePercent":0.0,"knownUnitCount":0,"method":"unavailable","totalUnitCount":0},"plannedCapacityMw":0.0,"plannedCapacityMwByTechnology":{},"recordCount":1,"recordIds":["wattlas-record-osm-way-94801412"],"sourceIds":["openstreetmap-power"],"technologies":["hydro"],"technologyMixMw":{"hydro":3.0},"unitCount":0,"unitIds":[]},"type":"Feature"},{"geometry":{"coordinates":[-19.833536,64.105154],"type":"Point"},"id":"wattlas-plant-wikidata-q1020268","properties":{"aliases":["Búrfellsstöð"],"canonicalAnchor":"wikidata:Q1020268","canonicalCountryKey":"IS","capacityMw":270.0,"country":"IS","externalIds":{"osm":"way/170669045","wikidata":"Q1020268","wikipedia":"de:Búrfell-Kraftwerk"},"geographyId":"IS-53860390B85658391135359","id":"wattlas-plant-wikidata-q1020268","idAliases":["wattlas-plant-osm-way-170669045","wattlas-plant-wikipedia-de-b-rfell-kraftwerk"],"lifecycleCounts":{"operational":1},"locationPrecision":"exact","name":"Búrfellsstöð","operatingCapacityCoverage":{"coveragePercent":100.0,"knownUnitCount":0,"method":"plant_aggregate","provenance":{"evidenceCount":0,"recordIds":["wattlas-record-osm-way-170669045"],"sourceIds":["openstreetmap-power"],"sourceTypes":["community_mapped"],"valueKind":"reported"},"totalUnitCount":0},"operatingCapacityMw":270.0,"operatingCapacityMwByTechnology":{"hydro":270.0},"plannedCapacityCoverage":{"coveragePercent":0.0,"knownUnitCount":0,"method":"unavailable","totalUnitCount":0},"plannedCapacityMw":0.0,"plannedCapacityMwByTechnology":{},"recordCount":1,"recordIds":["wattlas-record-osm-way-170669045"],"sourceIds":["openstreetmap-power"],"technologies":["hydro"],"technologyMixMw":{"hydro":270.0},"unitCount":0,"unitIds":[]},"type":"Feature"},{"geometry":{"coordinates":[-16.960745,65.889704],"type":"Point"},"id":"wattlas-plant-wikidata-q111357016","properties":{"aliases":["Þeistareykjavirkjun"],"canonicalAnchor":"wikidata:Q111357016","canonicalCountryKey":"IS","capacityMw":90.0,"country":"IS","externalIds":{"osm":"way/510564355","wikidata":"Q111357016"},"geographyId":"IS-53860390B58519509441334","id":"wattlas-plant-wikidata-q111357016","idAliases":["wattlas-plant-osm-way-510564355"],"lifecycleCounts":{"operational":1},"locationPrecision":"exact","name":"Þeistareykjavirkjun","operatingCapacityCoverage":{"coveragePercent":100.0,"knownUnitCount":0,"method":"plant_aggregate","provenance":{"evidenceCount":0,"recordIds":["wattlas-record-osm-way-510564355"],"sourceIds":["openstreetmap-power"],"sourceTypes":["community_mapped"],"valueKind":"reported"},"totalUnitCount":0},"operatingCapacityMw":90.0,"operatingCapacityMwByTechnology":{"geothermal":90.0},"plannedCapacityCoverage":{"coveragePercent":0.0,"knownUnitCount":0,"method":"unavailable","totalUnitCount":0},"plannedCapacityMw":0.0,"plannedCapacityMwByTechnology":{},"recordCount":1,"recordIds":["wattlas-record-osm-way-510564355"],"sourceIds":["openstreetmap-power"],"technologies":["geothermal"],"technologyMixMw":{"geothermal":90.0},"unitCount":0,"unitIds":[]},"type":"Feature"},{"geometry":{"coordinates":[-16.774313,65.703264],"type":"Point"},"id":"wattlas-plant-wikidata-q1494458","properties":{"aliases":["Kröflustöð"],"canonicalAnchor":"wikidata:Q1494458","canonicalCountryKey":"IS","capacityMw":60.0,"country":"IS","externalIds":{"osm":"way/236287648","wikidata":"Q1494458","wikipedia":"en:Krafla Power Station"},"geographyId":"IS-53860390B58519509441334","id":"wattlas-plant-wikidata-q1494458","idAliases":["wattlas-plant-osm-way-236287648","wattlas-plant-wikipedia-en-krafla-power-station"],"lifecycleCounts":{"operational":1},"locationPrecision":"exact","name":"Kröflustöð","operatingCapacityCoverage":{"coveragePercent":100.0,"knownUnitCount":0,"method":"plant_aggregate","provenance":{"evidenceCount":0,"recordIds":["wattlas-record-osm-way-236287648"],"sourceIds":["openstreetmap-power"],"sourceTypes":["community_mapped"],"valueKind":"reported"},"totalUnitCount":0},"operatingCapacityMw":60.0,"operatingCapacityMwByTechnology":{"geothermal":60.0},"plannedCapacityCoverage":{"coveragePercent":0.0,"knownUnitCount":0,"method":"unavailable","totalUnitCount":0},"plannedCapacityMw":0.0,"plannedCapacityMwByTechnology":{},"recordCount":1,"recordIds":["wattlas-record-osm-way-236287648"],"sourceIds":["openstreetmap-power"],"technologies":["geothermal"],"technologyMixMw":{"geothermal":60.0},"unitCount":0,"unitIds":[]},"type":"Feature"},{"geometry":{"coordinates":[-21.708802,65.679229],"type":"Point"},"id":"wattlas-plant-wikidata-q16422065","properties":{"aliases":["Þverárvirkjun"],"canonicalAnchor":"wikidata:Q16422065","canonicalCountryKey":"IS","capacityMw":0.0,"country":"IS","externalIds":{"osm":"way/278871274","wikidata":"Q16422065","wikipedia":"is:Þverárvirkjun"},"geographyId":"IS-53860390B51423153689858","id":"wattlas-plant-wikidata-q16422065","idAliases":["wattlas-plant-osm-way-278871274","wattlas-plant-wikipedia-is-ver-rvirkjun"],"lifecycleCounts":{"operational":1},"locationPrecision":"exact","name":"Þverárvirkjun","operatingCapacityCoverage":{"coveragePercent":0.0,"knownUnitCount":0,"method":"unavailable","totalUnitCount":0},"operatingCapacityMw":0.0,"operatingCapacityMwByTechnology":{},"plannedCapacityCoverage":{"coveragePercent":0.0,"knownUnitCount":0,"method":"unavailable","totalUnitCount":0},"plannedCapacityMw":0.0,"plannedCapacityMwByTechnology":{},"recordCount":1,"recordIds":["wattlas-record-osm-way-278871274"],"sourceIds":["openstreetmap-power"],"technologies":["hydro"],"technologyMixMw":{"hydro":0.0},"unitCount":0,"unitIds":[]},"type":"Feature"},{"geometry":{"coordinates":[-19.368547,64.235388],"type":"Point"},"id":"wattlas-plant-wikidata-q16422352","properties":{"aliases":["Búðarhálsvirkjun"],"canonicalAnchor":"wikidata:Q16422352","canonicalCountryKey":"IS","capacityMw":95.0,"country":"IS","externalIds":{"osm":"way/26279296","wikidata":"Q16422352","wikipedia":"is:Búðarhálsvirkjun"},"geographyId":"IS-53860390B85658391135359","id":"wattlas-plant-wikidata-q16422352","idAliases":["wattlas-plant-osm-way-26279296","wattlas-plant-wikipedia-is-b-arh-lsvirkjun"],"lifecycleCounts":{"operational":1},"locationPrecision":"exact","name":"Búðarhálsvirkjun","operatingCapacityCoverage":{"coveragePercent":100.0,"knownUnitCount":0,"method":"plant_aggregate","provenance":{"evidenceCount":0,"recordIds":["wattlas-record-osm-way-26279296"],"sourceIds":["openstreetmap-power"],"sourceTypes":["community_mapped"],"valueKind":"reported"},"totalUnitCount":0},"operatingCapacityMw":95.0,"operatingCapacityMwByTechnology":{"hydro":95.0},"plannedCapacityCoverage":{"coveragePercent":0.0,"knownUnitCount":0,"method":"unavailable","totalUnitCount":0},"plannedCapacityMw":0.0,"plannedCapacityMwByTechnology":{},"recordCount":1,"recordIds":["wattlas-record-osm-way-26279296"],"sourceIds":["openstreetmap-power"],"technologies":["hydro"],"technologyMixMw":{"hydro":95.0},"unitCount":0,"unitIds":[]},"type":"Feature"},{"geometry":{"coordinates":[-21.694853,64.538645],"type":"Point"},"id":"wattlas-plant-wikidata-q2114075","properties":{"aliases":["Andakílsvirkjun"],"canonicalAnchor":"wikidata:Q2114075","canonicalCountryKey":"IS","capacityMw":8.46,"country":"IS","externalIds":{"osm":"way/535286629","wikidata":"Q2114075"},"geographyId":"IS-53860390B73804128945228","id":"wattlas-plant-wikidata-q2114075","idAliases":["wattlas-plant-osm-way-535286629"],"lifecycleCounts":{"operational":1},"locationPrecision":"exact","name":"Andakílsvirkjun","operatingCapacityCoverage":{"coveragePercent":100.0,"knownUnitCount":0,"method":"plant_aggregate","provenance":{"evidenceCount":0,"recordIds":["wattlas-record-osm-way-535286629"],"sourceIds":["openstreetmap-power"],"sourceTypes":["community_mapped"],"valueKind":"reported"},"totalUnitCount":0},"operatingCapacityMw":8.46,"operatingCapacityMwByTechnology":{"hydro":8.46},"plannedCapacityCoverage":{"coveragePercent":0.0,"knownUnitCount":0,"method":"unavailable","totalUnitCount":0},"plannedCapacityMw":0.0,"plannedCapacityMwByTechnology":{},"recordCount":1,"recordIds":["wattlas-record-osm-way-535286629"],"sourceIds":["openstreetmap-power"],"technologies":["hydro"],"technologyMixMw":{"hydro":8.46},"unitCount":0,"unitIds":[]},"type":"Feature"},{"geometry":{"coordinates":[-21.39805,64.036521],"type":"Point"},"id":"wattlas-plant-wikidata-q2508514","properties":{"aliases":["Hellisheiðarvirkjun"],"canonicalAnchor":"wikidata:Q2508514","canonicalCountryKey":"IS","capacityMw":303.0,"country":"IS","externalIds":{"osm":"way/296910352","wikidata":"Q2508514","wikipedia":"en:Hellisheiði Power Station"},"geographyId":"IS-53860390B85658391135359","id":"wattlas-plant-wikidata-q2508514","idAliases":["wattlas-plant-osm-way-296910352","wattlas-plant-wikipedia-en-hellishei-i-power-station"],"lifecycleCounts":{"operational":1},"locationPrecision":"exact","name":"Hellisheiðarvirkjun","operatingCapacityCoverage":{"coveragePercent":100.0,"knownUnitCount":0,"method":"plant_aggregate","provenance":{"evidenceCount":0,"recordIds":["wattlas-record-osm-way-296910352"],"sourceIds":["openstreetmap-power"],"sourceTypes":["community_mapped"],"valueKind":"reported"},"totalUnitCount":0},"operatingCapacityMw":303.0,"operatingCapacityMwByTechnology":{"geothermal":303.0},"plannedCapacityCoverage":{"coveragePercent":0.0,"knownUnitCount":0,"method":"unavailable","totalUnitCount":0},"plannedCapacityMw":0.0,"plannedCapacityMwByTechnology":{},"recordCount":1,"recordIds":["wattlas-record-osm-way-296910352"],"sourceIds":["openstreetmap-power"],"technologies":["geothermal"],"technologyMixMw":{"geothermal":303.0},"unitCount":0,"unitIds":[]},"type":"Feature"},{"geometry":{"coordinates":[-22.685572,63.827839],"type":"Point"},"id":"wattlas-plant-wikidata-q2944543","properties":{"aliases":["Reykjanesvirkjun"],"canonicalAnchor":"wikidata:Q2944543","canonicalCountryKey":"IS","capacityMw":150.0,"country":"IS","externalIds":{"osm":"way/1256324654","wikidata":"Q2944543","wikipedia":"en:Reykjanes Power Station"},"geographyId":"IS-53860390B87574894134156","id":"wattlas-plant-wikidata-q2944543","idAliases":["wattlas-plant-osm-way-1256324654","wattlas-plant-wikipedia-en-reykjanes-power-station"],"lifecycleCounts":{"operational":1},"locationPrecision":"exact","name":"Reykjanesvirkjun","operatingCapacityCoverage":{"coveragePercent":100.0,"knownUnitCount":0,"method":"plant_aggregate","provenance":{"evidenceCount":0,"recordIds":["wattlas-record-osm-way-1256324654"],"sourceIds":["openstreetmap-power"],"sourceTypes":["community_mapped"],"valueKind":"reported"},"totalUnitCount":0},"operatingCapacityMw":150.0,"operatingCapacityMwByTechnology":{"geothermal":150.0},"plannedCapacityCoverage":{"coveragePercent":0.0,"knownUnitCount":0,"method":"unavailable","totalUnitCount":0},"plannedCapacityMw":0.0,"plannedCapacityMwByTechnology":{},"recordCount":1,"recordIds":["wattlas-record-osm-way-1256324654"],"sourceIds":["openstreetmap-power"],"technologies":["geothermal"],"technologyMixMw":{"geothermal":150.0},"unitCount":0,"unitIds":[]},"type":"Feature"},{"geometry":{"coordinates":[-22.432913,63.878886],"type":"Point"},"id":"wattlas-plant-wikidata-q2944551","properties":{"aliases":["Svartsengisvirkjun"],"canonicalAnchor":"wikidata:Q2944551","canonicalCountryKey":"IS","capacityMw":75.0,"country":"IS","externalIds":{"osm":"relation/9091413","wikidata":"Q2944551","wikipedia":"en:Svartsengi Power Station"},"geographyId":"IS-53860390B87574894134156","id":"wattlas-plant-wikidata-q2944551","idAliases":["wattlas-plant-osm-relation-9091413","wattlas-plant-wikipedia-en-svartsengi-power-station"],"lifecycleCounts":{"operational":1},"locationPrecision":"exact","name":"Svartsengisvirkjun","operatingCapacityCoverage":{"coveragePercent":100.0,"knownUnitCount":0,"method":"plant_aggregate","provenance":{"evidenceCount":0,"recordIds":["wattlas-record-osm-relation-9091413"],"sourceIds":["openstreetmap-power"],"sourceTypes":["community_mapped"],"valueKind":"reported"},"totalUnitCount":0},"operatingCapacityMw":75.0,"operatingCapacityMwByTechnology":{"geothermal":75.0},"plannedCapacityCoverage":{"coveragePercent":0.0,"knownUnitCount":0,"method":"unavailable","totalUnitCount":0},"plannedCapacityMw":0.0,"plannedCapacityMwByTechnology":{},"recordCount":1,"recordIds":["wattlas-record-osm-relation-9091413"],"sourceIds":["openstreetmap-power"],"technologies":["geothermal"],"technologyMixMw":{"geothermal":75.0},"unitCount":0,"unitIds":[]},"type":"Feature"},{"geometry":{"coordinates":[-19.23886,64.200471],"type":"Point"},"id":"wattlas-plant-wikidata-q2944556","properties":{"aliases":["Hrauneyjavirkun"],"canonicalAnchor":"wikidata:Q2944556","canonicalCountryKey":"IS","capacityMw":210.0,"country":"IS","externalIds":{"osm":"way/80877026","wikidata":"Q2944556"},"geographyId":"IS-53860390B85658391135359","id":"wattlas-plant-wikidata-q2944556","idAliases":["wattlas-plant-osm-way-80877026"],"lifecycleCounts":{"operational":1},"locationPrecision":"exact","name":"Hrauneyjavirkun","operatingCapacityCoverage":{"coveragePercent":100.0,"knownUnitCount":0,"method":"plant_aggregate","provenance":{"evidenceCount":0,"recordIds":["wattlas-record-osm-way-80877026"],"sourceIds":["openstreetmap-power"],"sourceTypes":["community_mapped"],"valueKind":"reported"},"totalUnitCount":0},"operatingCapacityMw":210.0,"operatingCapacityMwByTechnology":{"hydro":210.0},"plannedCapacityCoverage":{"coveragePercent":0.0,"knownUnitCount":0,"method":"unavailable","totalUnitCount":0},"plannedCapacityMw":0.0,"plannedCapacityMwByTechnology":{},"recordCount":1,"recordIds":["wattlas-record-osm-way-80877026"],"sourceIds":["openstreetmap-power"],"technologies":["hydro"],"technologyMixMw":{"hydro":210.0},"unitCount":0,"unitIds":[]},"type":"Feature"},{"geometry":{"coordinates":[-19.12531,64.172979],"type":"Point"},"id":"wattlas-plant-wikidata-q2944563","properties":{"aliases":["Sigölduvirkjun"],"canonicalAnchor":"wikidata:Q2944563","canonicalCountryKey":"IS","capacityMw":150.0,"country":"IS","externalIds":{"osm":"way/365736568","wikidata":"Q2944563"},"geographyId":"IS-53860390B85658391135359","id":"wattlas-plant-wikidata-q2944563","idAliases":["wattlas-plant-osm-way-365736568"],"lifecycleCounts":{"operational":1},"locationPrecision":"exact","name":"Sigölduvirkjun","operatingCapacityCoverage":{"coveragePercent":100.0,"knownUnitCount":0,"method":"plant_aggregate","provenance":{"evidenceCount":0,"recordIds":["wattlas-record-osm-way-365736568"],"sourceIds":["openstreetmap-power"],"sourceTypes":["community_mapped"],"valueKind":"reported"},"totalUnitCount":0},"operatingCapacityMw":150.0,"operatingCapacityMwByTechnology":{"hydro":150.0},"plannedCapacityCoverage":{"coveragePercent":0.0,"knownUnitCount":0,"method":"unavailable","totalUnitCount":0},"plannedCapacityMw":0.0,"plannedCapacityMwByTechnology":{},"recordCount":1,"recordIds":["wattlas-record-osm-way-365736568"],"sourceIds":["openstreetmap-power"],"technologies":["hydro"],"technologyMixMw":{"hydro":150.0},"unitCount":0,"unitIds":[]},"type":"Feature"},{"geometry":{"coordinates":[-19.818794,65.415645],"type":"Point"},"id":"wattlas-plant-wikidata-q568034","properties":{"aliases":["Blönduvirkjun"],"canonicalAnchor":"wikidata:Q568034","canonicalCountryKey":"IS","capacityMw":150.0,"country":"IS","externalIds":{"osm":"way/517042209","wikidata":"Q568034","wikipedia":"is:Blönduvirkjun"},"geographyId":"IS-53860390B72464321703569","id":"wattlas-plant-wikidata-q568034","idAliases":["wattlas-plant-osm-way-517042209","wattlas-plant-wikipedia-is-bl-nduvirkjun"],"lifecycleCounts":{"operational":1},"locationPrecision":"exact","name":"Blönduvirkjun","operatingCapacityCoverage":{"coveragePercent":100.0,"knownUnitCount":0,"method":"plant_aggregate","provenance":{"evidenceCount":0,"recordIds":["wattlas-record-osm-way-517042209"],"sourceIds":["openstreetmap-power"],"sourceTypes":["community_mapped"],"valueKind":"reported"},"totalUnitCount":0},"operatingCapacityMw":150.0,"operatingCapacityMwByTechnology":{"hydro":150.0},"plannedCapacityCoverage":{"coveragePercent":0.0,"knownUnitCount":0,"method":"unavailable","totalUnitCount":0},"plannedCapacityMw":0.0,"plannedCapacityMwByTechnology":{},"recordCount":1,"recordIds":["wattlas-record-osm-way-517042209"],"sourceIds":["openstreetmap-power"],"technologies":["hydro"],"technologyMixMw":{"hydro":150.0},"unitCount":0,"unitIds":[]},"type":"Feature"},{"geometry":{"coordinates":[-15.00198,65.014042],"type":"Point"},"id":"wattlas-plant-wikidata-q692897","properties":{"aliases":["Fljótsdalsstöð"],"canonicalAnchor":"wikidata:Q692897","canonicalCountryKey":"IS","capacityMw":690.0,"country":"IS","externalIds":{"osm":"way/947800521","wikidata":"Q692897","wikipedia":"en:Kárahnjúkar Hydropower Plant"},"geographyId":"IS-53860390B32173012790841","id":"wattlas-plant-wikidata-q692897","idAliases":["wattlas-plant-osm-way-947800521","wattlas-plant-wikipedia-en-k-rahnj-kar-hydropower-plant"],"lifecycleCounts":{"operational":1},"locationPrecision":"exact","name":"Fljótsdalsstöð","operatingCapacityCoverage":{"coveragePercent":100.0,"knownUnitCount":0,"method":"plant_aggregate","provenance":{"evidenceCount":0,"recordIds":["wattlas-record-osm-way-947800521"],"sourceIds":["openstreetmap-power"],"sourceTypes":["community_mapped"],"valueKind":"reported"},"totalUnitCount":0},"operatingCapacityMw":690.0,"operatingCapacityMwByTechnology":{"hydro":690.0},"plannedCapacityCoverage":{"coveragePercent":0.0,"knownUnitCount":0,"method":"unavailable","totalUnitCount":0},"plannedCapacityMw":0.0,"plannedCapacityMwByTechnology":{},"recordCount":1,"recordIds":["wattlas-record-osm-way-947800521"],"sourceIds":["openstreetmap-power"],"technologies":["hydro"],"technologyMixMw":{"hydro":690.0},"unitCount":0,"unitIds":[]},"type":"Feature"},{"geometry":{"coordinates":[-21.258097,64.10625],"type":"Point"},"id":"wattlas-plant-wikidata-q693330","properties":{"aliases":["Nesjavellir"],"canonicalAnchor":"wikidata:Q693330","canonicalCountryKey":"IS","capacityMw":120.0,"country":"IS","externalIds":{"osm":"way/755845530","wikidata":"Q693330","wikipedia":"is:Nesjavallavirkjun"},"geographyId":"IS-53860390B85658391135359","id":"wattlas-plant-wikidata-q693330","idAliases":["wattlas-plant-osm-way-755845530","wattlas-plant-wikipedia-is-nesjavallavirkjun"],"lifecycleCounts":{"operational":1},"locationPrecision":"exact","name":"Nesjavellir","operatingCapacityCoverage":{"coveragePercent":100.0,"knownUnitCount":0,"method":"plant_aggregate","provenance":{"evidenceCount":0,"recordIds":["wattlas-record-osm-way-755845530"],"sourceIds":["openstreetmap-power"],"sourceTypes":["community_mapped"],"valueKind":"reported"},"totalUnitCount":0},"operatingCapacityMw":120.0,"operatingCapacityMwByTechnology":{"geothermal":120.0},"plannedCapacityCoverage":{"coveragePercent":0.0,"knownUnitCount":0,"method":"unavailable","totalUnitCount":0},"plannedCapacityMw":0.0,"plannedCapacityMwByTechnology":{},"recordCount":1,"recordIds":["wattlas-record-osm-way-755845530"],"sourceIds":["openstreetmap-power"],"technologies":["geothermal"],"technologyMixMw":{"geothermal":120.0},"unitCount":0,"unitIds":[]},"type":"Feature"},{"geometry":{"coordinates":[-16.845392,65.639655],"type":"Point"},"id":"wattlas-plant-wikidata-q879338","properties":{"aliases":["Bjarnarflagsvirkjun"],"canonicalAnchor":"wikidata:Q879338","canonicalCountryKey":"IS","capacityMw":5.0,"country":"IS","externalIds":{"osm":"relation/21031724","wikidata":"Q879338"},"geographyId":"IS-53860390B58519509441334","id":"wattlas-plant-wikidata-q879338","idAliases":["wattlas-plant-osm-relation-21031724"],"lifecycleCounts":{"operational":1},"locationPrecision":"exact","name":"Bjarnarflagsvirkjun","operatingCapacityCoverage":{"coveragePercent":100.0,"knownUnitCount":0,"method":"plant_aggregate","provenance":{"evidenceCount":0,"recordIds":["wattlas-record-osm-relation-21031724"],"sourceIds":["openstreetmap-power"],"sourceTypes":["community_mapped"],"valueKind":"reported"},"totalUnitCount":0},"operatingCapacityMw":5.0,"operatingCapacityMwByTechnology":{"geothermal":5.0},"plannedCapacityCoverage":{"coveragePercent":0.0,"knownUnitCount":0,"method":"unavailable","totalUnitCount":0},"plannedCapacityMw":0.0,"plannedCapacityMwByTechnology":{},"recordCount":1,"recordIds":["wattlas-record-osm-relation-21031724"],"sourceIds":["openstreetmap-power"],"technologies":["geothermal"],"technologyMixMw":{"geothermal":5.0},"unitCount":0,"unitIds":[]},"type":"Feature"},{"geometry":{"coordinates":[-19.03284,64.196538],"type":"Point"},"id":"wattlas-plant-wikidata-q953982","properties":{"aliases":["Vatnsfellsvirkjun"],"canonicalAnchor":"wikidata:Q953982","canonicalCountryKey":"IS","capacityMw":90.0,"country":"IS","externalIds":{"osm":"way/243555051","wikidata":"Q953982","wikipedia":"is:Vatnsfellsvirkjun"},"geographyId":"IS-53860390B85658391135359","id":"wattlas-plant-wikidata-q953982","idAliases":["wattlas-plant-osm-way-243555051","wattlas-plant-wikipedia-is-vatnsfellsvirkjun"],"lifecycleCounts":{"operational":1},"locationPrecision":"exact","name":"Vatnsfellsvirkjun","operatingCapacityCoverage":{"coveragePercent":100.0,"knownUnitCount":0,"method":"plant_aggregate","provenance":{"evidenceCount":0,"recordIds":["wattlas-record-osm-way-243555051"],"sourceIds":["openstreetmap-power"],"sourceTypes":["community_mapped"],"valueKind":"reported"},"totalUnitCount":0},"operatingCapacityMw":90.0,"operatingCapacityMwByTechnology":{"hydro":90.0},"plannedCapacityCoverage":{"coveragePercent":0.0,"knownUnitCount":0,"method":"unavailable","totalUnitCount":0},"plannedCapacityMw":0.0,"plannedCapacityMwByTechnology":{},"recordCount":1,"recordIds":["wattlas-record-osm-way-243555051"],"sourceIds":["openstreetmap-power"],"technologies":["hydro"],"technologyMixMw":{"hydro":90.0},"unitCount":0,"unitIds":[]},"type":"Feature"}],"type":"FeatureCollection"}