{"features":[{"geometry":{"coordinates":[173.1383,1.3885],"type":"Point"},"id":"wattlas-plant-gemplant-l100001020652-efec3ea0af","properties":{"aliases":["1.0","South Tarawa solar farm"],"canonicalAnchor":"gemplant:L100001020652","canonicalCountryKey":"KI","capacityMw":7.5,"country":"KI","externalIds":{"gemPlant":"L100001020652","gemUnit":"G100001023555"},"geographyId":"KI-97431129B36644055464690","id":"wattlas-plant-gemplant-l100001020652-efec3ea0af","lifecycleCounts":{"under_construction":1},"locationPrecision":"exact","name":"South Tarawa solar farm","operatingCapacityCoverage":{"coveragePercent":0.0,"knownUnitCount":0,"method":"unavailable","totalUnitCount":0},"operatingCapacityMw":0.0,"operatingCapacityMwByTechnology":{},"plannedCapacityCoverage":{"coveragePercent":100.0,"knownUnitCount":1,"method":"complete_unit_sum","provenance":{"evidenceCount":0,"recordIds":["wattlas-record-gemunit-g100001023555"],"sourceIds":["gem-global-integrated-power-tracker"],"sourceTypes":["research_verified"],"valueKind":"reported"},"totalUnitCount":1},"plannedCapacityMw":7.5,"plannedCapacityMwByTechnology":{"solar":7.5},"recordCount":1,"recordIds":["wattlas-record-gemunit-g100001023555"],"sourceIds":["gem-global-integrated-power-tracker"],"technologies":["solar"],"technologyMixMw":{"solar":7.5},"unitCount":1,"unitIds":["gem-unit-G100001023555"]},"type":"Feature"}],"type":"FeatureCollection"}