{"features":[{"geometry":{"coordinates":[-7.894287,12.583066],"type":"Point"},"id":"wattlas-plant-gemplant-l100000409046","properties":{"aliases":["1-1","Sirakoro power station"],"canonicalAnchor":"gemplant:L100000409046","canonicalCountryKey":"ML","capacityMw":100.0,"country":"ML","externalIds":{"gemPlant":"L100000409046","gemUnit":"G100000413538"},"geographyId":"ML-92416918B61022065682725","id":"wattlas-plant-gemplant-l100000409046","lifecycleCounts":{"operational":1},"locationPrecision":"exact","name":"Sirakoro power station","operatingCapacityCoverage":{"coveragePercent":100.0,"knownUnitCount":1,"method":"complete_unit_sum","provenance":{"evidenceCount":0,"recordIds":["wattlas-record-gemunit-g100000413538"],"sourceIds":["gem-global-integrated-power-tracker"],"sourceTypes":["research_verified"],"valueKind":"reported"},"totalUnitCount":1},"operatingCapacityMw":100.0,"operatingCapacityMwByTechnology":{"oil":100.0},"plannedCapacityCoverage":{"coveragePercent":0.0,"knownUnitCount":0,"method":"unavailable","totalUnitCount":0},"plannedCapacityMw":0.0,"plannedCapacityMwByTechnology":{},"recordCount":1,"recordIds":["wattlas-record-gemunit-g100000413538"],"sourceIds":["gem-global-integrated-power-tracker"],"technologies":["oil"],"technologyMixMw":{"oil":100.0},"unitCount":1,"unitIds":["gem-unit-G100000413538"]},"type":"Feature"},{"geometry":{"coordinates":[-11.379417,14.379174],"type":"Point"},"id":"wattlas-plant-gemplant-l100000409047","properties":{"aliases":["1-1","Kayes power station"],"canonicalAnchor":"gemplant:L100000409047","canonicalCountryKey":"ML","capacityMw":90.0,"country":"ML","externalIds":{"gemPlant":"L100000409047","gemUnit":"G100000413539"},"geographyId":"ML-92416918B67011525583155","id":"wattlas-plant-gemplant-l100000409047","lifecycleCounts":{"operational":1},"locationPrecision":"exact","name":"Kayes power station","operatingCapacityCoverage":{"coveragePercent":100.0,"knownUnitCount":1,"method":"complete_unit_sum","provenance":{"evidenceCount":0,"recordIds":["wattlas-record-gemunit-g100000413539"],"sourceIds":["gem-global-integrated-power-tracker"],"sourceTypes":["research_verified"],"valueKind":"reported"},"totalUnitCount":1},"operatingCapacityMw":90.0,"operatingCapacityMwByTechnology":{"gas":90.0},"plannedCapacityCoverage":{"coveragePercent":0.0,"knownUnitCount":0,"method":"unavailable","totalUnitCount":0},"plannedCapacityMw":0.0,"plannedCapacityMwByTechnology":{},"recordCount":1,"recordIds":["wattlas-record-gemunit-g100000413539"],"sourceIds":["gem-global-integrated-power-tracker"],"technologies":["gas"],"technologyMixMw":{"gas":90.0},"unitCount":1,"unitIds":["gem-unit-G100000413539"]},"type":"Feature"},{"geometry":{"coordinates":[-11.099,14.013],"type":"Point"},"id":"wattlas-plant-gemplant-l100000602461","properties":{"aliases":["Gouina hydroelectric plant"],"canonicalAnchor":"gemplant:L100000602461","canonicalCountryKey":"ML","capacityMw":140.0,"country":"ML","externalIds":{"gemPlant":"L100000602461","gemUnit":"G100000602492"},"geographyId":"ML-92416918B67011525583155","id":"wattlas-plant-gemplant-l100000602461","lifecycleCounts":{"operational":1},"locationPrecision":"exact","name":"Gouina hydroelectric plant","operatingCapacityCoverage":{"coveragePercent":100.0,"knownUnitCount":1,"method":"complete_unit_sum","provenance":{"evidenceCount":0,"recordIds":["wattlas-record-gemunit-g100000602492"],"sourceIds":["gem-global-integrated-power-tracker"],"sourceTypes":["research_verified"],"valueKind":"reported"},"totalUnitCount":1},"operatingCapacityMw":140.0,"operatingCapacityMwByTechnology":{"hydro":140.0},"plannedCapacityCoverage":{"coveragePercent":0.0,"knownUnitCount":0,"method":"unavailable","totalUnitCount":0},"plannedCapacityMw":0.0,"plannedCapacityMwByTechnology":{},"recordCount":1,"recordIds":["wattlas-record-gemunit-g100000602492"],"sourceIds":["gem-global-integrated-power-tracker"],"technologies":["hydro"],"technologyMixMw":{"hydro":140.0},"unitCount":1,"unitIds":["gem-unit-G100000602492"]},"type":"Feature"},{"geometry":{"coordinates":[-10.4292,13.1955],"type":"Point"},"id":"wattlas-plant-gemplant-l100000602462","properties":{"aliases":["Manantali hydroelectric plant"],"canonicalAnchor":"gemplant:L100000602462","canonicalCountryKey":"ML","capacityMw":200.0,"country":"ML","externalIds":{"gemPlant":"L100000602462","gemUnit":"G100000602493"},"geographyId":"ML-92416918B67011525583155","id":"wattlas-plant-gemplant-l100000602462","lifecycleCounts":{"operational":1},"locationPrecision":"exact","name":"Manantali hydroelectric plant","operatingCapacityCoverage":{"coveragePercent":100.0,"knownUnitCount":1,"method":"complete_unit_sum","provenance":{"evidenceCount":0,"recordIds":["wattlas-record-gemunit-g100000602493"],"sourceIds":["gem-global-integrated-power-tracker"],"sourceTypes":["research_verified"],"valueKind":"reported"},"totalUnitCount":1},"operatingCapacityMw":200.0,"operatingCapacityMwByTechnology":{"hydro":200.0},"plannedCapacityCoverage":{"coveragePercent":0.0,"knownUnitCount":0,"method":"unavailable","totalUnitCount":0},"plannedCapacityMw":0.0,"plannedCapacityMwByTechnology":{},"recordCount":1,"recordIds":["wattlas-record-gemunit-g100000602493"],"sourceIds":["gem-global-integrated-power-tracker"],"technologies":["hydro"],"technologyMixMw":{"hydro":200.0},"unitCount":1,"unitIds":["gem-unit-G100000602493"]},"type":"Feature"},{"geometry":{"coordinates":[-9.5178,13.0287],"type":"Point"},"id":"wattlas-plant-gemplant-l100000800016","properties":{"aliases":["--","Akuo Kita solar farm"],"canonicalAnchor":"gemplant:L100000800016","canonicalCountryKey":"ML","capacityMw":50.0,"country":"ML","externalIds":{"gemPlant":"L100000800016","gemUnit":"G100000800017"},"geographyId":"ML-92416918B67011525583155","id":"wattlas-plant-gemplant-l100000800016","lifecycleCounts":{"operational":1},"locationPrecision":"exact","name":"Akuo Kita solar farm","operatingCapacityCoverage":{"coveragePercent":100.0,"knownUnitCount":1,"method":"complete_unit_sum","provenance":{"evidenceCount":0,"recordIds":["wattlas-record-gemunit-g100000800017"],"sourceIds":["gem-global-integrated-power-tracker"],"sourceTypes":["research_verified"],"valueKind":"reported"},"totalUnitCount":1},"operatingCapacityMw":50.0,"operatingCapacityMwByTechnology":{"solar":50.0},"plannedCapacityCoverage":{"coveragePercent":0.0,"knownUnitCount":0,"method":"unavailable","totalUnitCount":0},"plannedCapacityMw":0.0,"plannedCapacityMwByTechnology":{},"recordCount":1,"recordIds":["wattlas-record-gemunit-g100000800017"],"sourceIds":["gem-global-integrated-power-tracker"],"technologies":["solar"],"technologyMixMw":{"solar":50.0},"unitCount":1,"unitIds":["gem-unit-G100000800017"]},"type":"Feature"},{"geometry":{"coordinates":[-11.395,13.078],"type":"Point"},"id":"wattlas-plant-gemplant-l100000800107","properties":{"aliases":["1.0","2.0","Fekola Gold Mine solar farm"],"canonicalAnchor":"gemplant:L100000800107","canonicalCountryKey":"ML","capacityMw":52.0,"country":"ML","externalIdAliases":{"gemUnit":["G100000800141","G100001073890"]},"externalIds":{"gemPlant":"L100000800107","gemUnit":"G100001073890"},"geographyId":"ML-92416918B67011525583155","id":"wattlas-plant-gemplant-l100000800107","lifecycleCounts":{"operational":2},"locationPrecision":"exact","name":"Fekola Gold Mine solar farm","operatingCapacityCoverage":{"coveragePercent":100.0,"knownUnitCount":2,"method":"complete_unit_sum","provenance":{"evidenceCount":0,"recordIds":["wattlas-record-gemunit-g100000800141","wattlas-record-gemunit-g100001073890"],"sourceIds":["gem-global-integrated-power-tracker"],"sourceTypes":["research_verified"],"valueKind":"reported"},"totalUnitCount":2},"operatingCapacityMw":52.0,"operatingCapacityMwByTechnology":{"solar":52.0},"plannedCapacityCoverage":{"coveragePercent":0.0,"knownUnitCount":0,"method":"unavailable","totalUnitCount":0},"plannedCapacityMw":0.0,"plannedCapacityMwByTechnology":{},"recordCount":2,"recordIds":["wattlas-record-gemunit-g100000800141","wattlas-record-gemunit-g100001073890"],"sourceIds":["gem-global-integrated-power-tracker"],"technologies":["solar"],"technologyMixMw":{"solar":52.0},"unitCount":2,"unitIds":["gem-unit-G100000800141","gem-unit-G100001073890"]},"type":"Feature"},{"geometry":{"coordinates":[-6.0699,10.7938],"type":"Point"},"id":"wattlas-plant-gemplant-l100000800315","properties":{"aliases":["--","Syama Hybrid solar farm"],"canonicalAnchor":"gemplant:L100000800315","canonicalCountryKey":"ML","capacityMw":0.0,"country":"ML","externalIds":{"gemPlant":"L100000800315","gemUnit":"G100000800385"},"geographyId":"ML-92416918B9364304684584","id":"wattlas-plant-gemplant-l100000800315","lifecycleCounts":{"paused":1},"locationPrecision":"exact","name":"Syama Hybrid solar farm","operatingCapacityCoverage":{"coveragePercent":0.0,"knownUnitCount":0,"method":"unavailable","totalUnitCount":0},"operatingCapacityMw":0.0,"operatingCapacityMwByTechnology":{},"plannedCapacityCoverage":{"coveragePercent":0.0,"knownUnitCount":0,"method":"unavailable","totalUnitCount":0},"plannedCapacityMw":0.0,"plannedCapacityMwByTechnology":{},"recordCount":1,"recordIds":["wattlas-record-gemunit-g100000800385"],"sourceIds":["gem-global-integrated-power-tracker"],"technologies":["solar"],"technologyMixMw":{"solar":0.0},"unitCount":1,"unitIds":["gem-unit-G100000800385"]},"type":"Feature"},{"geometry":{"coordinates":[-11.1987,12.8244],"type":"Point"},"id":"wattlas-plant-gemplant-l100000811617","properties":{"aliases":["1.0","2.0","Loulo-Gounkoto complex solar farm"],"canonicalAnchor":"gemplant:L100000811617","canonicalCountryKey":"ML","capacityMw":60.0,"country":"ML","externalIdAliases":{"gemUnit":["G100000814152","G100000814153"]},"externalIds":{"gemPlant":"L100000811617","gemUnit":"G100000814153"},"geographyId":"ML-92416918B67011525583155","id":"wattlas-plant-gemplant-l100000811617","lifecycleCounts":{"operational":2},"locationPrecision":"exact","name":"Loulo-Gounkoto complex solar farm","operatingCapacityCoverage":{"coveragePercent":100.0,"knownUnitCount":2,"method":"complete_unit_sum","provenance":{"evidenceCount":0,"recordIds":["wattlas-record-gemunit-g100000814152","wattlas-record-gemunit-g100000814153"],"sourceIds":["gem-global-integrated-power-tracker"],"sourceTypes":["research_verified"],"valueKind":"reported"},"totalUnitCount":2},"operatingCapacityMw":60.0,"operatingCapacityMwByTechnology":{"solar":60.0},"plannedCapacityCoverage":{"coveragePercent":0.0,"knownUnitCount":0,"method":"unavailable","totalUnitCount":0},"plannedCapacityMw":0.0,"plannedCapacityMwByTechnology":{},"recordCount":2,"recordIds":["wattlas-record-gemunit-g100000814152","wattlas-record-gemunit-g100000814153"],"sourceIds":["gem-global-integrated-power-tracker"],"technologies":["solar"],"technologyMixMw":{"solar":60.0},"unitCount":2,"unitIds":["gem-unit-G100000814152","gem-unit-G100000814153"]},"type":"Feature"},{"geometry":{"coordinates":[-7.3078,15.1677],"type":"Point"},"id":"wattlas-plant-gemplant-l100001020900","properties":{"aliases":["--","Nara Nara Cercle solar project"],"canonicalAnchor":"gemplant:L100001020900","canonicalCountryKey":"ML","capacityMw":1.2,"country":"ML","externalIds":{"gemPlant":"L100001020900","gemUnit":"G100001023869"},"geographyId":"ML-92416918B61022065682725","id":"wattlas-plant-gemplant-l100001020900","lifecycleCounts":{"operational":1},"locationPrecision":"exact","name":"Nara Nara Cercle solar project","operatingCapacityCoverage":{"coveragePercent":100.0,"knownUnitCount":1,"method":"complete_unit_sum","provenance":{"evidenceCount":0,"recordIds":["wattlas-record-gemunit-g100001023869"],"sourceIds":["gem-global-integrated-power-tracker"],"sourceTypes":["research_verified"],"valueKind":"reported"},"totalUnitCount":1},"operatingCapacityMw":1.2,"operatingCapacityMwByTechnology":{"solar":1.2},"plannedCapacityCoverage":{"coveragePercent":0.0,"knownUnitCount":0,"method":"unavailable","totalUnitCount":0},"plannedCapacityMw":0.0,"plannedCapacityMwByTechnology":{},"recordCount":1,"recordIds":["wattlas-record-gemunit-g100001023869"],"sourceIds":["gem-global-integrated-power-tracker"],"technologies":["solar"],"technologyMixMw":{"solar":1.2},"unitCount":1,"unitIds":["gem-unit-G100001023869"]},"type":"Feature"},{"geometry":{"coordinates":[-11.2303,12.8713],"type":"Point"},"id":"wattlas-plant-gemplant-l100001020901","properties":{"aliases":["--","Kéniéba solar project"],"canonicalAnchor":"gemplant:L100001020901","canonicalCountryKey":"ML","capacityMw":1.1,"country":"ML","externalIds":{"gemPlant":"L100001020901","gemUnit":"G100001023870"},"geographyId":"ML-92416918B67011525583155","id":"wattlas-plant-gemplant-l100001020901","lifecycleCounts":{"operational":1},"locationPrecision":"exact","name":"Kéniéba solar project","operatingCapacityCoverage":{"coveragePercent":100.0,"knownUnitCount":1,"method":"complete_unit_sum","provenance":{"evidenceCount":0,"recordIds":["wattlas-record-gemunit-g100001023870"],"sourceIds":["gem-global-integrated-power-tracker"],"sourceTypes":["research_verified"],"valueKind":"reported"},"totalUnitCount":1},"operatingCapacityMw":1.1,"operatingCapacityMwByTechnology":{"solar":1.1},"plannedCapacityCoverage":{"coveragePercent":0.0,"knownUnitCount":0,"method":"unavailable","totalUnitCount":0},"plannedCapacityMw":0.0,"plannedCapacityMwByTechnology":{},"recordCount":1,"recordIds":["wattlas-record-gemunit-g100001023870"],"sourceIds":["gem-global-integrated-power-tracker"],"technologies":["solar"],"technologyMixMw":{"solar":1.1},"unitCount":1,"unitIds":["gem-unit-G100001023870"]},"type":"Feature"},{"geometry":{"coordinates":[-11.3492,14.3582],"type":"Point"},"id":"wattlas-plant-gemplant-l100001023121","properties":{"aliases":["Felou hydroelectric plant"],"canonicalAnchor":"gemplant:L100001023121","canonicalCountryKey":"ML","capacityMw":62.0,"country":"ML","externalIds":{"gemPlant":"L100001023121","gemUnit":"G100001027326"},"geographyId":"ML-92416918B67011525583155","id":"wattlas-plant-gemplant-l100001023121","lifecycleCounts":{"operational":1},"locationPrecision":"exact","name":"Felou hydroelectric plant","operatingCapacityCoverage":{"coveragePercent":100.0,"knownUnitCount":1,"method":"complete_unit_sum","provenance":{"evidenceCount":0,"recordIds":["wattlas-record-gemunit-g100001027326"],"sourceIds":["gem-global-integrated-power-tracker"],"sourceTypes":["research_verified"],"valueKind":"reported"},"totalUnitCount":1},"operatingCapacityMw":62.0,"operatingCapacityMwByTechnology":{"hydro":62.0},"plannedCapacityCoverage":{"coveragePercent":0.0,"knownUnitCount":0,"method":"unavailable","totalUnitCount":0},"plannedCapacityMw":0.0,"plannedCapacityMwByTechnology":{},"recordCount":1,"recordIds":["wattlas-record-gemunit-g100001027326"],"sourceIds":["gem-global-integrated-power-tracker"],"technologies":["hydro"],"technologyMixMw":{"hydro":62.0},"unitCount":1,"unitIds":["gem-unit-G100001027326"]},"type":"Feature"},{"geometry":{"coordinates":[-8.2293,11.6384],"type":"Point"},"id":"wattlas-plant-gemplant-l100001046012","properties":{"aliases":["Selingue hydroelectric plant"],"canonicalAnchor":"gemplant:L100001046012","canonicalCountryKey":"ML","capacityMw":48.0,"country":"ML","externalIds":{"gemPlant":"L100001046012","gemUnit":"G100001051883"},"geographyId":"ML-92416918B9364304684584","id":"wattlas-plant-gemplant-l100001046012","lifecycleCounts":{"operational":1},"locationPrecision":"exact","name":"Selingue hydroelectric plant","operatingCapacityCoverage":{"coveragePercent":100.0,"knownUnitCount":1,"method":"complete_unit_sum","provenance":{"evidenceCount":0,"recordIds":["wattlas-record-gemunit-g100001051883"],"sourceIds":["gem-global-integrated-power-tracker"],"sourceTypes":["research_verified"],"valueKind":"reported"},"totalUnitCount":1},"operatingCapacityMw":48.0,"operatingCapacityMwByTechnology":{"hydro":48.0},"plannedCapacityCoverage":{"coveragePercent":0.0,"knownUnitCount":0,"method":"unavailable","totalUnitCount":0},"plannedCapacityMw":0.0,"plannedCapacityMwByTechnology":{},"recordCount":1,"recordIds":["wattlas-record-gemunit-g100001051883"],"sourceIds":["gem-global-integrated-power-tracker"],"technologies":["hydro"],"technologyMixMw":{"hydro":48.0},"unitCount":1,"unitIds":["gem-unit-G100001051883"]},"type":"Feature"},{"geometry":{"coordinates":[-6.2035,11.1578],"type":"Point"},"id":"wattlas-plant-gemplant-l100001064820","properties":{"aliases":["--","Sikasso Cercle solar project"],"canonicalAnchor":"gemplant:L100001064820","canonicalCountryKey":"ML","capacityMw":8.5,"country":"ML","externalIds":{"gemPlant":"L100001064820","gemUnit":"G100001074606"},"geographyId":"ML-92416918B9364304684584","id":"wattlas-plant-gemplant-l100001064820","lifecycleCounts":{"operational":1},"locationPrecision":"exact","name":"Sikasso Cercle solar project","operatingCapacityCoverage":{"coveragePercent":100.0,"knownUnitCount":1,"method":"complete_unit_sum","provenance":{"evidenceCount":0,"recordIds":["wattlas-record-gemunit-g100001074606"],"sourceIds":["gem-global-integrated-power-tracker"],"sourceTypes":["research_verified"],"valueKind":"reported"},"totalUnitCount":1},"operatingCapacityMw":8.5,"operatingCapacityMwByTechnology":{"solar":8.5},"plannedCapacityCoverage":{"coveragePercent":0.0,"knownUnitCount":0,"method":"unavailable","totalUnitCount":0},"plannedCapacityMw":0.0,"plannedCapacityMwByTechnology":{},"recordCount":1,"recordIds":["wattlas-record-gemunit-g100001074606"],"sourceIds":["gem-global-integrated-power-tracker"],"technologies":["solar"],"technologyMixMw":{"solar":8.5},"unitCount":1,"unitIds":["gem-unit-G100001074606"]},"type":"Feature"},{"geometry":{"coordinates":[-11.394208,13.079806],"type":"Point"},"id":"wattlas-plant-osm-relation-19001600","properties":{"aliases":["Centrale Solaire de Loulo"],"canonicalAnchor":"osm:relation/19001600","canonicalCountryKey":"ML","capacityMw":68.0,"country":"ML","externalIds":{"osm":"relation/19001600"},"geographyId":"ML-92416918B67011525583155","id":"wattlas-plant-osm-relation-19001600","lifecycleCounts":{"operational":1},"locationPrecision":"exact","name":"Centrale Solaire de Loulo","operatingCapacityCoverage":{"coveragePercent":100.0,"knownUnitCount":0,"method":"plant_aggregate","provenance":{"evidenceCount":0,"recordIds":["wattlas-record-osm-relation-19001600"],"sourceIds":["openstreetmap-power"],"sourceTypes":["community_mapped"],"valueKind":"reported"},"totalUnitCount":0},"operatingCapacityMw":68.0,"operatingCapacityMwByTechnology":{"solar":68.0},"plannedCapacityCoverage":{"coveragePercent":0.0,"knownUnitCount":0,"method":"unavailable","totalUnitCount":0},"plannedCapacityMw":0.0,"plannedCapacityMwByTechnology":{},"recordCount":1,"recordIds":["wattlas-record-osm-relation-19001600"],"sourceIds":["openstreetmap-power"],"technologies":["solar"],"technologyMixMw":{"solar":68.0},"unitCount":0,"unitIds":[]},"type":"Feature"},{"geometry":{"coordinates":[-11.352989,12.532132],"type":"Point"},"id":"wattlas-plant-osm-relation-19001633","properties":{"aliases":["Fekola Mine"],"canonicalAnchor":"osm:relation/19001633","canonicalCountryKey":"ML","capacityMw":52.0,"country":"ML","externalIds":{"osm":"relation/19001633"},"geographyId":"ML-92416918B67011525583155","id":"wattlas-plant-osm-relation-19001633","lifecycleCounts":{"operational":1},"locationPrecision":"exact","name":"Fekola Mine","operatingCapacityCoverage":{"coveragePercent":100.0,"knownUnitCount":0,"method":"plant_aggregate","provenance":{"evidenceCount":0,"recordIds":["wattlas-record-osm-relation-19001633"],"sourceIds":["openstreetmap-power"],"sourceTypes":["community_mapped"],"valueKind":"reported"},"totalUnitCount":0},"operatingCapacityMw":52.0,"operatingCapacityMwByTechnology":{"solar":52.0},"plannedCapacityCoverage":{"coveragePercent":0.0,"knownUnitCount":0,"method":"unavailable","totalUnitCount":0},"plannedCapacityMw":0.0,"plannedCapacityMwByTechnology":{},"recordCount":1,"recordIds":["wattlas-record-osm-relation-19001633"],"sourceIds":["openstreetmap-power"],"technologies":["solar"],"technologyMixMw":{"solar":52.0},"unitCount":0,"unitIds":[]},"type":"Feature"},{"geometry":{"coordinates":[-9.193061,14.571308],"type":"Point"},"id":"wattlas-plant-osm-way-1050565381","properties":{"aliases":["Central hybride EDM Diema"],"canonicalAnchor":"osm:way/1050565381","canonicalCountryKey":"ML","capacityMw":0.0,"country":"ML","externalIds":{"osm":"way/1050565381"},"geographyId":"ML-92416918B67011525583155","id":"wattlas-plant-osm-way-1050565381","lifecycleCounts":{"operational":1},"locationPrecision":"exact","name":"Central hybride EDM Diema","operatingCapacityCoverage":{"coveragePercent":0.0,"knownUnitCount":0,"method":"unavailable","totalUnitCount":0},"operatingCapacityMw":0.0,"operatingCapacityMwByTechnology":{},"plannedCapacityCoverage":{"coveragePercent":0.0,"knownUnitCount":0,"method":"unavailable","totalUnitCount":0},"plannedCapacityMw":0.0,"plannedCapacityMwByTechnology":{},"recordCount":1,"recordIds":["wattlas-record-osm-way-1050565381"],"sourceIds":["openstreetmap-power"],"technologies":["solar"],"technologyMixMw":{"solar":0.0},"unitCount":0,"unitIds":[]},"type":"Feature"},{"geometry":{"coordinates":[-8.218102,10.83888],"type":"Point"},"id":"wattlas-plant-osm-way-1160878955","properties":{"aliases":["Kodieran Mine Power Plant"],"canonicalAnchor":"osm:way/1160878955","canonicalCountryKey":"ML","capacityMw":9.0,"country":"ML","externalIds":{"osm":"way/1160878955"},"geographyId":"ML-92416918B9364304684584","id":"wattlas-plant-osm-way-1160878955","lifecycleCounts":{"operational":1},"locationPrecision":"exact","name":"Kodieran Mine Power Plant","operatingCapacityCoverage":{"coveragePercent":100.0,"knownUnitCount":0,"method":"plant_aggregate","provenance":{"evidenceCount":0,"recordIds":["wattlas-record-osm-way-1160878955"],"sourceIds":["openstreetmap-power"],"sourceTypes":["community_mapped"],"valueKind":"reported"},"totalUnitCount":0},"operatingCapacityMw":9.0,"operatingCapacityMwByTechnology":{"oil":9.0},"plannedCapacityCoverage":{"coveragePercent":0.0,"knownUnitCount":0,"method":"unavailable","totalUnitCount":0},"plannedCapacityMw":0.0,"plannedCapacityMwByTechnology":{},"recordCount":1,"recordIds":["wattlas-record-osm-way-1160878955"],"sourceIds":["openstreetmap-power"],"technologies":["oil"],"technologyMixMw":{"oil":9.0},"unitCount":0,"unitIds":[]},"type":"Feature"},{"geometry":{"coordinates":[-11.380194,14.377171],"type":"Point"},"id":"wattlas-plant-osm-way-1165389965","properties":{"aliases":["Centrale thermique de Kayes"],"canonicalAnchor":"osm:way/1165389965","canonicalCountryKey":"ML","capacityMw":90.0,"country":"ML","externalIds":{"osm":"way/1165389965"},"geographyId":"ML-92416918B67011525583155","id":"wattlas-plant-osm-way-1165389965","lifecycleCounts":{"operational":1},"locationPrecision":"exact","name":"Centrale thermique de Kayes","operatingCapacityCoverage":{"coveragePercent":100.0,"knownUnitCount":0,"method":"plant_aggregate","provenance":{"evidenceCount":0,"recordIds":["wattlas-record-osm-way-1165389965"],"sourceIds":["openstreetmap-power"],"sourceTypes":["community_mapped"],"valueKind":"reported"},"totalUnitCount":0},"operatingCapacityMw":90.0,"operatingCapacityMwByTechnology":{"oil":90.0},"plannedCapacityCoverage":{"coveragePercent":0.0,"knownUnitCount":0,"method":"unavailable","totalUnitCount":0},"plannedCapacityMw":0.0,"plannedCapacityMwByTechnology":{},"recordCount":1,"recordIds":["wattlas-record-osm-way-1165389965"],"sourceIds":["openstreetmap-power"],"technologies":["oil"],"technologyMixMw":{"oil":90.0},"unitCount":0,"unitIds":[]},"type":"Feature"},{"geometry":{"coordinates":[-11.66784,13.890345],"type":"Point"},"id":"wattlas-plant-osm-way-1292696396","properties":{"aliases":["Sadiola Mine Power Plant"],"canonicalAnchor":"osm:way/1292696396","canonicalCountryKey":"ML","capacityMw":21.0,"country":"ML","externalIds":{"osm":"way/1292696396"},"geographyId":"ML-92416918B67011525583155","id":"wattlas-plant-osm-way-1292696396","lifecycleCounts":{"operational":1},"locationPrecision":"exact","name":"Sadiola Mine Power Plant","operatingCapacityCoverage":{"coveragePercent":100.0,"knownUnitCount":0,"method":"plant_aggregate","provenance":{"evidenceCount":0,"recordIds":["wattlas-record-osm-way-1292696396"],"sourceIds":["openstreetmap-power"],"sourceTypes":["community_mapped"],"valueKind":"reported"},"totalUnitCount":0},"operatingCapacityMw":21.0,"operatingCapacityMwByTechnology":{"other":21.0},"plannedCapacityCoverage":{"coveragePercent":0.0,"knownUnitCount":0,"method":"unavailable","totalUnitCount":0},"plannedCapacityMw":0.0,"plannedCapacityMwByTechnology":{},"recordCount":1,"recordIds":["wattlas-record-osm-way-1292696396"],"sourceIds":["openstreetmap-power"],"technologies":["other"],"technologyMixMw":{"other":21.0},"unitCount":0,"unitIds":[]},"type":"Feature"},{"geometry":{"coordinates":[-6.835689,11.679801],"type":"Point"},"id":"wattlas-plant-osm-way-1292859948","properties":{"aliases":["Morila Gold Mine Power Plant"],"canonicalAnchor":"osm:way/1292859948","canonicalCountryKey":"ML","capacityMw":20.0,"country":"ML","externalIds":{"osm":"way/1292859948"},"geographyId":"ML-92416918B9364304684584","id":"wattlas-plant-osm-way-1292859948","lifecycleCounts":{"operational":1},"locationPrecision":"exact","name":"Morila Gold Mine Power Plant","operatingCapacityCoverage":{"coveragePercent":100.0,"knownUnitCount":0,"method":"plant_aggregate","provenance":{"evidenceCount":0,"recordIds":["wattlas-record-osm-way-1292859948"],"sourceIds":["openstreetmap-power"],"sourceTypes":["community_mapped"],"valueKind":"reported"},"totalUnitCount":0},"operatingCapacityMw":20.0,"operatingCapacityMwByTechnology":{"oil":20.0},"plannedCapacityCoverage":{"coveragePercent":0.0,"knownUnitCount":0,"method":"unavailable","totalUnitCount":0},"plannedCapacityMw":0.0,"plannedCapacityMwByTechnology":{},"recordCount":1,"recordIds":["wattlas-record-osm-way-1292859948"],"sourceIds":["openstreetmap-power"],"technologies":["oil"],"technologyMixMw":{"oil":20.0},"unitCount":0,"unitIds":[]},"type":"Feature"},{"geometry":{"coordinates":[-11.744681,14.080691],"type":"Point"},"id":"wattlas-plant-osm-way-1292894703","properties":{"aliases":["Yatela Gold Mine Power Plant"],"canonicalAnchor":"osm:way/1292894703","canonicalCountryKey":"ML","capacityMw":5.0,"country":"ML","externalIds":{"osm":"way/1292894703"},"geographyId":"ML-92416918B67011525583155","id":"wattlas-plant-osm-way-1292894703","lifecycleCounts":{"operational":1},"locationPrecision":"exact","name":"Yatela Gold Mine Power Plant","operatingCapacityCoverage":{"coveragePercent":100.0,"knownUnitCount":0,"method":"plant_aggregate","provenance":{"evidenceCount":0,"recordIds":["wattlas-record-osm-way-1292894703"],"sourceIds":["openstreetmap-power"],"sourceTypes":["community_mapped"],"valueKind":"reported"},"totalUnitCount":0},"operatingCapacityMw":5.0,"operatingCapacityMwByTechnology":{"oil":5.0},"plannedCapacityCoverage":{"coveragePercent":0.0,"knownUnitCount":0,"method":"unavailable","totalUnitCount":0},"plannedCapacityMw":0.0,"plannedCapacityMwByTechnology":{},"recordCount":1,"recordIds":["wattlas-record-osm-way-1292894703"],"sourceIds":["openstreetmap-power"],"technologies":["oil"],"technologyMixMw":{"oil":5.0},"unitCount":0,"unitIds":[]},"type":"Feature"},{"geometry":{"coordinates":[-7.961508,12.645251],"type":"Point"},"id":"wattlas-plant-osm-way-201959400","properties":{"aliases":["Centrale thermique de Balingué"],"canonicalAnchor":"osm:way/201959400","canonicalCountryKey":"ML","capacityMw":95.9,"country":"ML","externalIds":{"osm":"way/201959400"},"geographyId":"ML-92416918B70420899930674","id":"wattlas-plant-osm-way-201959400","lifecycleCounts":{"operational":1},"locationPrecision":"exact","name":"Centrale thermique de Balingué","operatingCapacityCoverage":{"coveragePercent":100.0,"knownUnitCount":0,"method":"plant_aggregate","provenance":{"evidenceCount":0,"recordIds":["wattlas-record-osm-way-201959400"],"sourceIds":["openstreetmap-power"],"sourceTypes":["community_mapped"],"valueKind":"reported"},"totalUnitCount":0},"operatingCapacityMw":95.9,"operatingCapacityMwByTechnology":{"oil":95.9},"plannedCapacityCoverage":{"coveragePercent":0.0,"knownUnitCount":0,"method":"unavailable","totalUnitCount":0},"plannedCapacityMw":0.0,"plannedCapacityMwByTechnology":{},"recordCount":1,"recordIds":["wattlas-record-osm-way-201959400"],"sourceIds":["openstreetmap-power"],"technologies":["oil"],"technologyMixMw":{"oil":95.9},"unitCount":0,"unitIds":[]},"type":"Feature"},{"geometry":{"coordinates":[-8.010809,12.652982],"type":"Point"},"id":"wattlas-plant-osm-way-202487858","properties":{"aliases":["Centrale thermique de Darsalam"],"canonicalAnchor":"osm:way/202487858","canonicalCountryKey":"ML","capacityMw":36.6,"country":"ML","externalIds":{"osm":"way/202487858"},"geographyId":"ML-92416918B70420899930674","id":"wattlas-plant-osm-way-202487858","lifecycleCounts":{"operational":1},"locationPrecision":"exact","name":"Centrale thermique de Darsalam","operatingCapacityCoverage":{"coveragePercent":100.0,"knownUnitCount":0,"method":"plant_aggregate","provenance":{"evidenceCount":0,"recordIds":["wattlas-record-osm-way-202487858"],"sourceIds":["openstreetmap-power"],"sourceTypes":["community_mapped"],"valueKind":"reported"},"totalUnitCount":0},"operatingCapacityMw":36.6,"operatingCapacityMwByTechnology":{"oil":36.6},"plannedCapacityCoverage":{"coveragePercent":0.0,"knownUnitCount":0,"method":"unavailable","totalUnitCount":0},"plannedCapacityMw":0.0,"plannedCapacityMwByTechnology":{},"recordCount":1,"recordIds":["wattlas-record-osm-way-202487858"],"sourceIds":["openstreetmap-power"],"technologies":["oil"],"technologyMixMw":{"oil":36.6},"unitCount":0,"unitIds":[]},"type":"Feature"},{"geometry":{"coordinates":[-7.925352,12.637957],"type":"Point"},"id":"wattlas-plant-osm-way-506146310","properties":{"aliases":["Centrale hydroélectrique de Sotuba"],"canonicalAnchor":"osm:way/506146310","canonicalCountryKey":"ML","capacityMw":5.7,"country":"ML","externalIds":{"osm":"way/506146310"},"geographyId":"ML-92416918B61022065682725","id":"wattlas-plant-osm-way-506146310","lifecycleCounts":{"operational":1},"locationPrecision":"exact","name":"Centrale hydroélectrique de Sotuba","operatingCapacityCoverage":{"coveragePercent":100.0,"knownUnitCount":0,"method":"plant_aggregate","provenance":{"evidenceCount":0,"recordIds":["wattlas-record-osm-way-506146310"],"sourceIds":["openstreetmap-power"],"sourceTypes":["community_mapped"],"valueKind":"reported"},"totalUnitCount":0},"operatingCapacityMw":5.7,"operatingCapacityMwByTechnology":{"hydro":5.7},"plannedCapacityCoverage":{"coveragePercent":0.0,"knownUnitCount":0,"method":"unavailable","totalUnitCount":0},"plannedCapacityMw":0.0,"plannedCapacityMwByTechnology":{},"recordCount":1,"recordIds":["wattlas-record-osm-way-506146310"],"sourceIds":["openstreetmap-power"],"technologies":["hydro"],"technologyMixMw":{"hydro":5.7},"unitCount":0,"unitIds":[]},"type":"Feature"},{"geometry":{"coordinates":[-7.894336,12.581899],"type":"Point"},"id":"wattlas-plant-osm-way-605744074","properties":{"aliases":["Centrale thermique de Sirakoro Méguétana"],"canonicalAnchor":"osm:way/605744074","canonicalCountryKey":"ML","capacityMw":56.0,"country":"ML","externalIds":{"osm":"way/605744074"},"geographyId":"ML-92416918B61022065682725","id":"wattlas-plant-osm-way-605744074","lifecycleCounts":{"operational":1},"locationPrecision":"exact","name":"Centrale thermique de Sirakoro Méguétana","operatingCapacityCoverage":{"coveragePercent":100.0,"knownUnitCount":0,"method":"plant_aggregate","provenance":{"evidenceCount":0,"recordIds":["wattlas-record-osm-way-605744074"],"sourceIds":["openstreetmap-power"],"sourceTypes":["community_mapped"],"valueKind":"reported"},"totalUnitCount":0},"operatingCapacityMw":56.0,"operatingCapacityMwByTechnology":{"oil":56.0},"plannedCapacityCoverage":{"coveragePercent":0.0,"knownUnitCount":0,"method":"unavailable","totalUnitCount":0},"plannedCapacityMw":0.0,"plannedCapacityMwByTechnology":{},"recordCount":1,"recordIds":["wattlas-record-osm-way-605744074"],"sourceIds":["openstreetmap-power"],"technologies":["oil"],"technologyMixMw":{"oil":56.0},"unitCount":0,"unitIds":[]},"type":"Feature"},{"geometry":{"coordinates":[-9.523129,13.028421],"type":"Point"},"id":"wattlas-plant-osm-way-834894545","properties":{"aliases":["Centrale solaire de Kita"],"canonicalAnchor":"osm:way/834894545","canonicalCountryKey":"ML","capacityMw":50.0,"country":"ML","externalIds":{"osm":"way/834894545"},"geographyId":"ML-92416918B67011525583155","id":"wattlas-plant-osm-way-834894545","lifecycleCounts":{"operational":1},"locationPrecision":"exact","name":"Centrale solaire de Kita","operatingCapacityCoverage":{"coveragePercent":100.0,"knownUnitCount":0,"method":"plant_aggregate","provenance":{"evidenceCount":0,"recordIds":["wattlas-record-osm-way-834894545"],"sourceIds":["openstreetmap-power"],"sourceTypes":["community_mapped"],"valueKind":"reported"},"totalUnitCount":0},"operatingCapacityMw":50.0,"operatingCapacityMwByTechnology":{"solar":50.0},"plannedCapacityCoverage":{"coveragePercent":0.0,"knownUnitCount":0,"method":"unavailable","totalUnitCount":0},"plannedCapacityMw":0.0,"plannedCapacityMwByTechnology":{},"recordCount":1,"recordIds":["wattlas-record-osm-way-834894545"],"sourceIds":["openstreetmap-power"],"technologies":["solar"],"technologyMixMw":{"solar":50.0},"unitCount":0,"unitIds":[]},"type":"Feature"},{"geometry":{"coordinates":[-11.349226,14.357661],"type":"Point"},"id":"wattlas-plant-wikidata-q18712236","properties":{"aliases":["Centrale hydroélectrique de Félou"],"canonicalAnchor":"wikidata:Q18712236","canonicalCountryKey":"ML","capacityMw":63.0,"country":"ML","externalIds":{"osm":"way/357484873","wikidata":"Q18712236","wikipedia":"en:Félou Hydroelectric Plant"},"geographyId":"ML-92416918B67011525583155","id":"wattlas-plant-wikidata-q18712236","idAliases":["wattlas-plant-osm-way-357484873","wattlas-plant-wikipedia-en-f-lou-hydroelectric-plant"],"lifecycleCounts":{"operational":1},"locationPrecision":"exact","name":"Centrale hydroélectrique de Félou","operatingCapacityCoverage":{"coveragePercent":100.0,"knownUnitCount":0,"method":"plant_aggregate","provenance":{"evidenceCount":0,"recordIds":["wattlas-record-osm-way-357484873"],"sourceIds":["openstreetmap-power"],"sourceTypes":["community_mapped"],"valueKind":"reported"},"totalUnitCount":0},"operatingCapacityMw":63.0,"operatingCapacityMwByTechnology":{"hydro":63.0},"plannedCapacityCoverage":{"coveragePercent":0.0,"knownUnitCount":0,"method":"unavailable","totalUnitCount":0},"plannedCapacityMw":0.0,"plannedCapacityMwByTechnology":{},"recordCount":1,"recordIds":["wattlas-record-osm-way-357484873"],"sourceIds":["openstreetmap-power"],"technologies":["hydro"],"technologyMixMw":{"hydro":63.0},"unitCount":0,"unitIds":[]},"type":"Feature"},{"geometry":{"coordinates":[-11.105128,14.011434],"type":"Point"},"id":"wattlas-plant-wikidata-q19895188","properties":{"aliases":["Centrale hydroélectrique de Gouina"],"canonicalAnchor":"wikidata:Q19895188","canonicalCountryKey":"ML","capacityMw":140.0,"country":"ML","externalIds":{"osm":"way/839171070","wikidata":"Q19895188","wikipedia":"en:Gouina Hydroelectric Plant"},"geographyId":"ML-92416918B67011525583155","id":"wattlas-plant-wikidata-q19895188","idAliases":["wattlas-plant-osm-way-839171070","wattlas-plant-wikipedia-en-gouina-hydroelectric-plant"],"lifecycleCounts":{"under_construction":1},"locationPrecision":"exact","name":"Centrale hydroélectrique de Gouina","operatingCapacityCoverage":{"coveragePercent":0.0,"knownUnitCount":0,"method":"unavailable","totalUnitCount":0},"operatingCapacityMw":0.0,"operatingCapacityMwByTechnology":{},"plannedCapacityCoverage":{"coveragePercent":100.0,"knownUnitCount":0,"method":"plant_aggregate","provenance":{"evidenceCount":0,"recordIds":["wattlas-record-osm-way-839171070"],"sourceIds":["openstreetmap-power"],"sourceTypes":["community_mapped"],"valueKind":"reported"},"totalUnitCount":0},"plannedCapacityMw":140.0,"plannedCapacityMwByTechnology":{"hydro":140.0},"recordCount":1,"recordIds":["wattlas-record-osm-way-839171070"],"sourceIds":["openstreetmap-power"],"technologies":["hydro"],"technologyMixMw":{"hydro":140.0},"unitCount":0,"unitIds":[]},"type":"Feature"},{"geometry":{"coordinates":[-8.229028,11.638418],"type":"Point"},"id":"wattlas-plant-wikidata-q2885448","properties":{"aliases":["Centrale hydroélectrique de Sélingué"],"canonicalAnchor":"wikidata:Q2885448","canonicalCountryKey":"ML","capacityMw":46.0,"country":"ML","externalIds":{"osm":"way/244790225","wikidata":"Q2885448","wikipedia":"en:Sélingué Dam"},"geographyId":"ML-92416918B9364304684584","id":"wattlas-plant-wikidata-q2885448","idAliases":["wattlas-plant-osm-way-244790225","wattlas-plant-wikipedia-en-s-lingu-dam"],"lifecycleCounts":{"operational":1},"locationPrecision":"exact","name":"Centrale hydroélectrique de Sélingué","operatingCapacityCoverage":{"coveragePercent":100.0,"knownUnitCount":0,"method":"plant_aggregate","provenance":{"evidenceCount":0,"recordIds":["wattlas-record-osm-way-244790225"],"sourceIds":["openstreetmap-power"],"sourceTypes":["community_mapped"],"valueKind":"reported"},"totalUnitCount":0},"operatingCapacityMw":46.0,"operatingCapacityMwByTechnology":{"hydro":46.0},"plannedCapacityCoverage":{"coveragePercent":0.0,"knownUnitCount":0,"method":"unavailable","totalUnitCount":0},"plannedCapacityMw":0.0,"plannedCapacityMwByTechnology":{},"recordCount":1,"recordIds":["wattlas-record-osm-way-244790225"],"sourceIds":["openstreetmap-power"],"technologies":["hydro"],"technologyMixMw":{"hydro":46.0},"unitCount":0,"unitIds":[]},"type":"Feature"},{"geometry":{"coordinates":[-10.429846,13.196551],"type":"Point"},"id":"wattlas-plant-wikidata-q583804","properties":{"aliases":["Centrale hydroélectrique de Manantali"],"canonicalAnchor":"wikidata:Q583804","canonicalCountryKey":"ML","capacityMw":200.0,"country":"ML","externalIds":{"osm":"way/839164011","wikidata":"Q583804","wikipedia":"fr:Barrage hydroélectrique de Manantali"},"geographyId":"ML-92416918B67011525583155","id":"wattlas-plant-wikidata-q583804","idAliases":["wattlas-plant-osm-way-839164011","wattlas-plant-wikipedia-fr-barrage-hydro-lectrique-de-manantali"],"lifecycleCounts":{"operational":1},"locationPrecision":"exact","name":"Centrale hydroélectrique de Manantali","operatingCapacityCoverage":{"coveragePercent":100.0,"knownUnitCount":0,"method":"plant_aggregate","provenance":{"evidenceCount":0,"recordIds":["wattlas-record-osm-way-839164011"],"sourceIds":["openstreetmap-power"],"sourceTypes":["community_mapped"],"valueKind":"reported"},"totalUnitCount":0},"operatingCapacityMw":200.0,"operatingCapacityMwByTechnology":{"hydro":200.0},"plannedCapacityCoverage":{"coveragePercent":0.0,"knownUnitCount":0,"method":"unavailable","totalUnitCount":0},"plannedCapacityMw":0.0,"plannedCapacityMwByTechnology":{},"recordCount":1,"recordIds":["wattlas-record-osm-way-839164011"],"sourceIds":["openstreetmap-power"],"technologies":["hydro"],"technologyMixMw":{"hydro":200.0},"unitCount":0,"unitIds":[]},"type":"Feature"}],"type":"FeatureCollection"}