{"features":[{"geometry":{"coordinates":[-12.2359,8.7123],"type":"Point"},"id":"wattlas-plant-gemplant-l100000200006","properties":{"aliases":["1.0","Makeni Bioethanol Plant power station"],"canonicalAnchor":"gemplant:L100000200006","canonicalCountryKey":"SL","capacityMw":32.0,"country":"SL","externalIds":{"gemPlant":"L100000200006","gemUnit":"G100000200006"},"geographyId":"SL-38320839B67217096191525","id":"wattlas-plant-gemplant-l100000200006","lifecycleCounts":{"operational":1},"locationPrecision":"exact","name":"Makeni Bioethanol Plant power station","operatingCapacityCoverage":{"coveragePercent":100.0,"knownUnitCount":1,"method":"complete_unit_sum","provenance":{"evidenceCount":0,"recordIds":["wattlas-record-gemunit-g100000200006"],"sourceIds":["gem-global-integrated-power-tracker"],"sourceTypes":["research_verified"],"valueKind":"reported"},"totalUnitCount":1},"operatingCapacityMw":32.0,"operatingCapacityMwByTechnology":{"biomass":32.0},"plannedCapacityCoverage":{"coveragePercent":0.0,"knownUnitCount":0,"method":"unavailable","totalUnitCount":0},"plannedCapacityMw":0.0,"plannedCapacityMwByTechnology":{},"recordCount":1,"recordIds":["wattlas-record-gemunit-g100000200006"],"sourceIds":["gem-global-integrated-power-tracker"],"technologies":["biomass"],"technologyMixMw":{"biomass":32.0},"unitCount":1,"unitIds":["gem-unit-G100000200006"]},"type":"Feature"},{"geometry":{"coordinates":[-11.2629,8.5572],"type":"Point"},"id":"wattlas-plant-gemplant-l100000603304","properties":{"aliases":["Bekongor III hydroelectric plant"],"canonicalAnchor":"gemplant:L100000603304","canonicalCountryKey":"SL","capacityMw":160.0,"country":"SL","externalIds":{"gemPlant":"L100000603304","gemUnit":"G100000604244"},"geographyId":"SL-38320839B88872338973316","id":"wattlas-plant-gemplant-l100000603304","lifecycleCounts":{"announced":1},"locationPrecision":"exact","name":"Bekongor III hydroelectric plant","operatingCapacityCoverage":{"coveragePercent":0.0,"knownUnitCount":0,"method":"unavailable","totalUnitCount":0},"operatingCapacityMw":0.0,"operatingCapacityMwByTechnology":{},"plannedCapacityCoverage":{"coveragePercent":100.0,"knownUnitCount":1,"method":"complete_unit_sum","provenance":{"evidenceCount":0,"recordIds":["wattlas-record-gemunit-g100000604244"],"sourceIds":["gem-global-integrated-power-tracker"],"sourceTypes":["research_verified"],"valueKind":"reported"},"totalUnitCount":1},"plannedCapacityMw":160.0,"plannedCapacityMwByTechnology":{"hydro":160.0},"recordCount":1,"recordIds":["wattlas-record-gemunit-g100000604244"],"sourceIds":["gem-global-integrated-power-tracker"],"technologies":["hydro"],"technologyMixMw":{"hydro":160.0},"unitCount":1,"unitIds":["gem-unit-G100000604244"]},"type":"Feature"},{"geometry":{"coordinates":[-11.7361,9.0568],"type":"Point"},"id":"wattlas-plant-gemplant-l100000603305","properties":{"aliases":["Bumbuna II hydroelectric plant"],"canonicalAnchor":"gemplant:L100000603305","canonicalCountryKey":"SL","capacityMw":88.0,"country":"SL","externalIds":{"gemPlant":"L100000603305","gemUnit":"G100000603340"},"geographyId":"SL-38320839B67217096191525","id":"wattlas-plant-gemplant-l100000603305","lifecycleCounts":{"announced":1},"locationPrecision":"exact","name":"Bumbuna II hydroelectric plant","operatingCapacityCoverage":{"coveragePercent":0.0,"knownUnitCount":0,"method":"unavailable","totalUnitCount":0},"operatingCapacityMw":0.0,"operatingCapacityMwByTechnology":{},"plannedCapacityCoverage":{"coveragePercent":100.0,"knownUnitCount":1,"method":"complete_unit_sum","provenance":{"evidenceCount":0,"recordIds":["wattlas-record-gemunit-g100000603340"],"sourceIds":["gem-global-integrated-power-tracker"],"sourceTypes":["research_verified"],"valueKind":"reported"},"totalUnitCount":1},"plannedCapacityMw":88.0,"plannedCapacityMwByTechnology":{"hydro":88.0},"recordCount":1,"recordIds":["wattlas-record-gemunit-g100000603340"],"sourceIds":["gem-global-integrated-power-tracker"],"technologies":["hydro"],"technologyMixMw":{"hydro":88.0},"unitCount":1,"unitIds":["gem-unit-G100000603340"]},"type":"Feature"},{"geometry":{"coordinates":[-11.4809,7.9378],"type":"Point"},"id":"wattlas-plant-gemplant-l100000800060-5a0dfea0a2","properties":{"aliases":["1.0","Bo-Kenema solar farm"],"canonicalAnchor":"gemplant:L100000800060","canonicalCountryKey":"SL","capacityMw":5.0,"country":"SL","externalIds":{"gemPlant":"L100000800060","gemUnit":"G100000831269"},"geographyId":"SL-38320839B10533035746056","id":"wattlas-plant-gemplant-l100000800060-5a0dfea0a2","idAliases":["wattlas-plant-gemplant-l100000800060"],"lifecycleCounts":{"operational":1},"locationPrecision":"exact","name":"Bo-Kenema solar farm","operatingCapacityCoverage":{"coveragePercent":100.0,"knownUnitCount":1,"method":"complete_unit_sum","provenance":{"evidenceCount":0,"recordIds":["wattlas-record-gemunit-g100000831269"],"sourceIds":["gem-global-integrated-power-tracker"],"sourceTypes":["research_verified"],"valueKind":"reported"},"totalUnitCount":1},"operatingCapacityMw":5.0,"operatingCapacityMwByTechnology":{"solar":5.0},"plannedCapacityCoverage":{"coveragePercent":0.0,"knownUnitCount":0,"method":"unavailable","totalUnitCount":0},"plannedCapacityMw":0.0,"plannedCapacityMwByTechnology":{},"recordCount":1,"recordIds":["wattlas-record-gemunit-g100000831269"],"sourceIds":["gem-global-integrated-power-tracker"],"technologies":["solar"],"technologyMixMw":{"solar":5.0},"unitCount":1,"unitIds":["gem-unit-G100000831269"]},"type":"Feature"},{"geometry":{"coordinates":[-12.996,8.3245],"type":"Point"},"id":"wattlas-plant-gemplant-l100000827723","properties":{"aliases":["--","Newton SL solar project"],"canonicalAnchor":"gemplant:L100000827723","canonicalCountryKey":"SL","capacityMw":4.3,"country":"SL","externalIds":{"gemPlant":"L100000827723","gemUnit":"G100000831270"},"geographyId":"SL-38320839B54273514798812","id":"wattlas-plant-gemplant-l100000827723","lifecycleCounts":{"operational":1},"locationPrecision":"exact","name":"Newton SL solar project","operatingCapacityCoverage":{"coveragePercent":100.0,"knownUnitCount":1,"method":"complete_unit_sum","provenance":{"evidenceCount":0,"recordIds":["wattlas-record-gemunit-g100000831270"],"sourceIds":["gem-global-integrated-power-tracker"],"sourceTypes":["research_verified"],"valueKind":"reported"},"totalUnitCount":1},"operatingCapacityMw":4.3,"operatingCapacityMwByTechnology":{"solar":4.3},"plannedCapacityCoverage":{"coveragePercent":0.0,"knownUnitCount":0,"method":"unavailable","totalUnitCount":0},"plannedCapacityMw":0.0,"plannedCapacityMwByTechnology":{},"recordCount":1,"recordIds":["wattlas-record-gemunit-g100000831270"],"sourceIds":["gem-global-integrated-power-tracker"],"technologies":["solar"],"technologyMixMw":{"solar":4.3},"unitCount":1,"unitIds":["gem-unit-G100000831270"]},"type":"Feature"},{"geometry":{"coordinates":[-12.7659,8.7771],"type":"Point"},"id":"wattlas-plant-gemplant-l100001018978","properties":{"aliases":["BO/Kenema","Kono","Makoth","Planet Solar Energy Project solar farm","Port Loko"],"canonicalAnchor":"gemplant:L100001018978","canonicalCountryKey":"SL","capacityMw":51.1,"country":"SL","externalIdAliases":{"gemUnit":["G100001021327","G100001021328","G100001021329","G100001021330"]},"externalIds":{"gemPlant":"L100001018978","gemUnit":"G100001021328"},"geographyId":"SL-38320839B67217096191525","id":"wattlas-plant-gemplant-l100001018978","lifecycleCounts":{"announced":1,"under_construction":3},"locationPrecision":"exact","name":"Planet Solar Energy Project solar farm","operatingCapacityCoverage":{"coveragePercent":0.0,"knownUnitCount":0,"method":"unavailable","totalUnitCount":0},"operatingCapacityMw":0.0,"operatingCapacityMwByTechnology":{},"plannedCapacityCoverage":{"coveragePercent":100.0,"knownUnitCount":4,"method":"complete_unit_sum","provenance":{"evidenceCount":0,"recordIds":["wattlas-record-gemunit-g100001021327","wattlas-record-gemunit-g100001021328","wattlas-record-gemunit-g100001021329","wattlas-record-gemunit-g100001021330"],"sourceIds":["gem-global-integrated-power-tracker"],"sourceTypes":["research_verified"],"valueKind":"reported"},"totalUnitCount":4},"plannedCapacityMw":51.1,"plannedCapacityMwByTechnology":{"solar":51.1},"recordCount":4,"recordIds":["wattlas-record-gemunit-g100001021327","wattlas-record-gemunit-g100001021328","wattlas-record-gemunit-g100001021329","wattlas-record-gemunit-g100001021330"],"sourceIds":["gem-global-integrated-power-tracker"],"technologies":["solar"],"technologyMixMw":{"solar":51.1},"unitCount":4,"unitIds":["gem-unit-G100001021327","gem-unit-G100001021328","gem-unit-G100001021329","gem-unit-G100001021330"]},"type":"Feature"},{"geometry":{"coordinates":[-13.1891,8.62],"type":"Point"},"id":"wattlas-plant-gemplant-l100001020954","properties":{"aliases":["--","Port Loko District solar project"],"canonicalAnchor":"gemplant:L100001020954","canonicalCountryKey":"SL","capacityMw":1.8,"country":"SL","externalIds":{"gemPlant":"L100001020954","gemUnit":"G100001023923"},"geographyId":"SL-38320839B67217096191525","id":"wattlas-plant-gemplant-l100001020954","lifecycleCounts":{"operational":1},"locationPrecision":"exact","name":"Port Loko District solar project","operatingCapacityCoverage":{"coveragePercent":100.0,"knownUnitCount":1,"method":"complete_unit_sum","provenance":{"evidenceCount":0,"recordIds":["wattlas-record-gemunit-g100001023923"],"sourceIds":["gem-global-integrated-power-tracker"],"sourceTypes":["research_verified"],"valueKind":"reported"},"totalUnitCount":1},"operatingCapacityMw":1.8,"operatingCapacityMwByTechnology":{"solar":1.8},"plannedCapacityCoverage":{"coveragePercent":0.0,"knownUnitCount":0,"method":"unavailable","totalUnitCount":0},"plannedCapacityMw":0.0,"plannedCapacityMwByTechnology":{},"recordCount":1,"recordIds":["wattlas-record-gemunit-g100001023923"],"sourceIds":["gem-global-integrated-power-tracker"],"technologies":["solar"],"technologyMixMw":{"solar":1.8},"unitCount":1,"unitIds":["gem-unit-G100001023923"]},"type":"Feature"},{"geometry":{"coordinates":[-11.7229,9.0713],"type":"Point"},"id":"wattlas-plant-gemplant-l100001023207","properties":{"aliases":["Bumbuna hydroelectric plant"],"canonicalAnchor":"gemplant:L100001023207","canonicalCountryKey":"SL","capacityMw":50.0,"country":"SL","externalIds":{"gemPlant":"L100001023207","gemUnit":"G100001027412"},"geographyId":"SL-38320839B67217096191525","id":"wattlas-plant-gemplant-l100001023207","lifecycleCounts":{"operational":1},"locationPrecision":"exact","name":"Bumbuna hydroelectric plant","operatingCapacityCoverage":{"coveragePercent":100.0,"knownUnitCount":1,"method":"complete_unit_sum","provenance":{"evidenceCount":0,"recordIds":["wattlas-record-gemunit-g100001027412"],"sourceIds":["gem-global-integrated-power-tracker"],"sourceTypes":["research_verified"],"valueKind":"reported"},"totalUnitCount":1},"operatingCapacityMw":50.0,"operatingCapacityMwByTechnology":{"hydro":50.0},"plannedCapacityCoverage":{"coveragePercent":0.0,"knownUnitCount":0,"method":"unavailable","totalUnitCount":0},"plannedCapacityMw":0.0,"plannedCapacityMwByTechnology":{},"recordCount":1,"recordIds":["wattlas-record-gemunit-g100001027412"],"sourceIds":["gem-global-integrated-power-tracker"],"technologies":["hydro"],"technologyMixMw":{"hydro":50.0},"unitCount":1,"unitIds":["gem-unit-G100001027412"]},"type":"Feature"},{"geometry":{"coordinates":[-11.141627,7.948091],"type":"Point"},"id":"wattlas-plant-osm-way-1059802559","properties":{"aliases":["Hangha Maternal and Children Hospital"],"canonicalAnchor":"osm:way/1059802559","canonicalCountryKey":"SL","capacityMw":0.0,"country":"SL","externalIds":{"osm":"way/1059802559"},"geographyId":"SL-38320839B88872338973316","id":"wattlas-plant-osm-way-1059802559","lifecycleCounts":{"operational":1},"locationPrecision":"exact","name":"Hangha Maternal and Children Hospital","operatingCapacityCoverage":{"coveragePercent":0.0,"knownUnitCount":0,"method":"unavailable","totalUnitCount":0},"operatingCapacityMw":0.0,"operatingCapacityMwByTechnology":{},"plannedCapacityCoverage":{"coveragePercent":0.0,"knownUnitCount":0,"method":"unavailable","totalUnitCount":0},"plannedCapacityMw":0.0,"plannedCapacityMwByTechnology":{},"recordCount":1,"recordIds":["wattlas-record-osm-way-1059802559"],"sourceIds":["openstreetmap-power"],"technologies":["solar"],"technologyMixMw":{"solar":0.0},"unitCount":0,"unitIds":[]},"type":"Feature"},{"geometry":{"coordinates":[-13.189069,8.619935],"type":"Point"},"id":"wattlas-plant-osm-way-1169830864","properties":{"aliases":["Airport Solar Farm"],"canonicalAnchor":"osm:way/1169830864","canonicalCountryKey":"SL","capacityMw":6.0,"country":"SL","externalIds":{"osm":"way/1169830864"},"geographyId":"SL-38320839B67217096191525","id":"wattlas-plant-osm-way-1169830864","lifecycleCounts":{"operational":1},"locationPrecision":"exact","name":"Airport Solar Farm","operatingCapacityCoverage":{"coveragePercent":100.0,"knownUnitCount":0,"method":"plant_aggregate","provenance":{"evidenceCount":0,"recordIds":["wattlas-record-osm-way-1169830864"],"sourceIds":["openstreetmap-power"],"sourceTypes":["community_mapped"],"valueKind":"reported"},"totalUnitCount":0},"operatingCapacityMw":6.0,"operatingCapacityMwByTechnology":{"solar":6.0},"plannedCapacityCoverage":{"coveragePercent":0.0,"knownUnitCount":0,"method":"unavailable","totalUnitCount":0},"plannedCapacityMw":0.0,"plannedCapacityMwByTechnology":{},"recordCount":1,"recordIds":["wattlas-record-osm-way-1169830864"],"sourceIds":["openstreetmap-power"],"technologies":["solar"],"technologyMixMw":{"solar":6.0},"unitCount":0,"unitIds":[]},"type":"Feature"},{"geometry":{"coordinates":[-12.242888,8.467948],"type":"Point"},"id":"wattlas-plant-osm-way-1177585045","properties":{"aliases":["CUSL Power House"],"canonicalAnchor":"osm:way/1177585045","canonicalCountryKey":"SL","capacityMw":0.0,"country":"SL","externalIds":{"osm":"way/1177585045"},"geographyId":"SL-38320839B67217096191525","id":"wattlas-plant-osm-way-1177585045","lifecycleCounts":{"operational":1},"locationPrecision":"exact","name":"CUSL Power House","operatingCapacityCoverage":{"coveragePercent":0.0,"knownUnitCount":0,"method":"unavailable","totalUnitCount":0},"operatingCapacityMw":0.0,"operatingCapacityMwByTechnology":{},"plannedCapacityCoverage":{"coveragePercent":0.0,"knownUnitCount":0,"method":"unavailable","totalUnitCount":0},"plannedCapacityMw":0.0,"plannedCapacityMwByTechnology":{},"recordCount":1,"recordIds":["wattlas-record-osm-way-1177585045"],"sourceIds":["openstreetmap-power"],"technologies":["solar"],"technologyMixMw":{"solar":0.0},"unitCount":0,"unitIds":[]},"type":"Feature"},{"geometry":{"coordinates":[-12.243132,8.467955],"type":"Point"},"id":"wattlas-plant-osm-way-1254968571","properties":{"aliases":["CUSL Solar Farm"],"canonicalAnchor":"osm:way/1254968571","canonicalCountryKey":"SL","capacityMw":0.0,"country":"SL","externalIds":{"osm":"way/1254968571"},"geographyId":"SL-38320839B67217096191525","id":"wattlas-plant-osm-way-1254968571","lifecycleCounts":{"operational":1},"locationPrecision":"exact","name":"CUSL Solar Farm","operatingCapacityCoverage":{"coveragePercent":0.0,"knownUnitCount":0,"method":"unavailable","totalUnitCount":0},"operatingCapacityMw":0.0,"operatingCapacityMwByTechnology":{},"plannedCapacityCoverage":{"coveragePercent":0.0,"knownUnitCount":0,"method":"unavailable","totalUnitCount":0},"plannedCapacityMw":0.0,"plannedCapacityMwByTechnology":{},"recordCount":1,"recordIds":["wattlas-record-osm-way-1254968571"],"sourceIds":["openstreetmap-power"],"technologies":["solar"],"technologyMixMw":{"solar":0.0},"unitCount":0,"unitIds":[]},"type":"Feature"},{"geometry":{"coordinates":[-11.668305,7.94616],"type":"Point"},"id":"wattlas-plant-osm-way-1284377357","properties":{"aliases":["Bo-Kenema Solar PV Power Plant"],"canonicalAnchor":"osm:way/1284377357","canonicalCountryKey":"SL","capacityMw":12.0,"country":"SL","externalIds":{"osm":"way/1284377357"},"geographyId":"SL-38320839B10533035746056","id":"wattlas-plant-osm-way-1284377357","lifecycleCounts":{"operational":1},"locationPrecision":"exact","name":"Bo-Kenema Solar PV Power Plant","operatingCapacityCoverage":{"coveragePercent":100.0,"knownUnitCount":0,"method":"plant_aggregate","provenance":{"evidenceCount":0,"recordIds":["wattlas-record-osm-way-1284377357"],"sourceIds":["openstreetmap-power"],"sourceTypes":["community_mapped"],"valueKind":"reported"},"totalUnitCount":0},"operatingCapacityMw":12.0,"operatingCapacityMwByTechnology":{"solar":12.0},"plannedCapacityCoverage":{"coveragePercent":0.0,"knownUnitCount":0,"method":"unavailable","totalUnitCount":0},"plannedCapacityMw":0.0,"plannedCapacityMwByTechnology":{},"recordCount":1,"recordIds":["wattlas-record-osm-way-1284377357"],"sourceIds":["openstreetmap-power"],"technologies":["solar"],"technologyMixMw":{"solar":12.0},"unitCount":0,"unitIds":[]},"type":"Feature"},{"geometry":{"coordinates":[-12.228065,8.829857],"type":"Point"},"id":"wattlas-plant-osm-way-1284377543","properties":{"aliases":["Makoth Solar Project"],"canonicalAnchor":"osm:way/1284377543","canonicalCountryKey":"SL","capacityMw":25.0,"country":"SL","externalIds":{"osm":"way/1284377543"},"geographyId":"SL-38320839B67217096191525","id":"wattlas-plant-osm-way-1284377543","lifecycleCounts":{"operational":1},"locationPrecision":"exact","name":"Makoth Solar Project","operatingCapacityCoverage":{"coveragePercent":100.0,"knownUnitCount":0,"method":"plant_aggregate","provenance":{"evidenceCount":0,"recordIds":["wattlas-record-osm-way-1284377543"],"sourceIds":["openstreetmap-power"],"sourceTypes":["community_mapped"],"valueKind":"reported"},"totalUnitCount":0},"operatingCapacityMw":25.0,"operatingCapacityMwByTechnology":{"solar":25.0},"plannedCapacityCoverage":{"coveragePercent":0.0,"knownUnitCount":0,"method":"unavailable","totalUnitCount":0},"plannedCapacityMw":0.0,"plannedCapacityMwByTechnology":{},"recordCount":1,"recordIds":["wattlas-record-osm-way-1284377543"],"sourceIds":["openstreetmap-power"],"technologies":["solar"],"technologyMixMw":{"solar":25.0},"unitCount":0,"unitIds":[]},"type":"Feature"},{"geometry":{"coordinates":[-10.929584,8.645147],"type":"Point"},"id":"wattlas-plant-osm-way-1284377819","properties":{"aliases":["Kono thermal Power Station"],"canonicalAnchor":"osm:way/1284377819","canonicalCountryKey":"SL","capacityMw":0.0,"country":"SL","externalIds":{"osm":"way/1284377819"},"geographyId":"SL-38320839B88872338973316","id":"wattlas-plant-osm-way-1284377819","lifecycleCounts":{"operational":1},"locationPrecision":"exact","name":"Kono thermal Power Station","operatingCapacityCoverage":{"coveragePercent":0.0,"knownUnitCount":0,"method":"unavailable","totalUnitCount":0},"operatingCapacityMw":0.0,"operatingCapacityMwByTechnology":{},"plannedCapacityCoverage":{"coveragePercent":0.0,"knownUnitCount":0,"method":"unavailable","totalUnitCount":0},"plannedCapacityMw":0.0,"plannedCapacityMwByTechnology":{},"recordCount":1,"recordIds":["wattlas-record-osm-way-1284377819"],"sourceIds":["openstreetmap-power"],"technologies":["other"],"technologyMixMw":{"other":0.0},"unitCount":0,"unitIds":[]},"type":"Feature"},{"geometry":{"coordinates":[-10.931064,8.647995],"type":"Point"},"id":"wattlas-plant-osm-way-1284377820","properties":{"aliases":["Kono"],"canonicalAnchor":"osm:way/1284377820","canonicalCountryKey":"SL","capacityMw":10.0,"country":"SL","externalIds":{"osm":"way/1284377820"},"geographyId":"SL-38320839B88872338973316","id":"wattlas-plant-osm-way-1284377820","lifecycleCounts":{"operational":1},"locationPrecision":"exact","name":"Kono","operatingCapacityCoverage":{"coveragePercent":100.0,"knownUnitCount":0,"method":"plant_aggregate","provenance":{"evidenceCount":0,"recordIds":["wattlas-record-osm-way-1284377820"],"sourceIds":["openstreetmap-power"],"sourceTypes":["community_mapped"],"valueKind":"reported"},"totalUnitCount":0},"operatingCapacityMw":10.0,"operatingCapacityMwByTechnology":{"solar":10.0},"plannedCapacityCoverage":{"coveragePercent":0.0,"knownUnitCount":0,"method":"unavailable","totalUnitCount":0},"plannedCapacityMw":0.0,"plannedCapacityMwByTechnology":{},"recordCount":1,"recordIds":["wattlas-record-osm-way-1284377820"],"sourceIds":["openstreetmap-power"],"technologies":["solar"],"technologyMixMw":{"solar":10.0},"unitCount":0,"unitIds":[]},"type":"Feature"},{"geometry":{"coordinates":[-12.766281,8.775236],"type":"Point"},"id":"wattlas-plant-osm-way-1284377993","properties":{"aliases":["Port Loko Solar Project"],"canonicalAnchor":"osm:way/1284377993","canonicalCountryKey":"SL","capacityMw":4.0,"country":"SL","externalIds":{"osm":"way/1284377993"},"geographyId":"SL-38320839B67217096191525","id":"wattlas-plant-osm-way-1284377993","lifecycleCounts":{"operational":1},"locationPrecision":"exact","name":"Port Loko Solar Project","operatingCapacityCoverage":{"coveragePercent":100.0,"knownUnitCount":0,"method":"plant_aggregate","provenance":{"evidenceCount":0,"recordIds":["wattlas-record-osm-way-1284377993"],"sourceIds":["openstreetmap-power"],"sourceTypes":["community_mapped"],"valueKind":"reported"},"totalUnitCount":0},"operatingCapacityMw":4.0,"operatingCapacityMwByTechnology":{"solar":4.0},"plannedCapacityCoverage":{"coveragePercent":0.0,"knownUnitCount":0,"method":"unavailable","totalUnitCount":0},"plannedCapacityMw":0.0,"plannedCapacityMwByTechnology":{},"recordCount":1,"recordIds":["wattlas-record-osm-way-1284377993"],"sourceIds":["openstreetmap-power"],"technologies":["solar"],"technologyMixMw":{"solar":4.0},"unitCount":0,"unitIds":[]},"type":"Feature"},{"geometry":{"coordinates":[-12.070943,8.112724],"type":"Point"},"id":"wattlas-plant-osm-way-1292603644","properties":{"aliases":["Njala University Hospital"],"canonicalAnchor":"osm:way/1292603644","canonicalCountryKey":"SL","capacityMw":0.0,"country":"SL","externalIds":{"osm":"way/1292603644"},"geographyId":"SL-38320839B10533035746056","id":"wattlas-plant-osm-way-1292603644","lifecycleCounts":{"operational":1},"locationPrecision":"exact","name":"Njala University Hospital","operatingCapacityCoverage":{"coveragePercent":0.0,"knownUnitCount":0,"method":"unavailable","totalUnitCount":0},"operatingCapacityMw":0.0,"operatingCapacityMwByTechnology":{},"plannedCapacityCoverage":{"coveragePercent":0.0,"knownUnitCount":0,"method":"unavailable","totalUnitCount":0},"plannedCapacityMw":0.0,"plannedCapacityMwByTechnology":{},"recordCount":1,"recordIds":["wattlas-record-osm-way-1292603644"],"sourceIds":["openstreetmap-power"],"technologies":["solar"],"technologyMixMw":{"solar":0.0},"unitCount":0,"unitIds":[]},"type":"Feature"},{"geometry":{"coordinates":[-12.912476,9.123696],"type":"Point"},"id":"wattlas-plant-osm-way-1292614886","properties":{"aliases":["Kambia Hospital"],"canonicalAnchor":"osm:way/1292614886","canonicalCountryKey":"SL","capacityMw":0.0,"country":"SL","externalIds":{"osm":"way/1292614886"},"geographyId":"SL-38320839B67217096191525","id":"wattlas-plant-osm-way-1292614886","lifecycleCounts":{"operational":1},"locationPrecision":"exact","name":"Kambia Hospital","operatingCapacityCoverage":{"coveragePercent":0.0,"knownUnitCount":0,"method":"unavailable","totalUnitCount":0},"operatingCapacityMw":0.0,"operatingCapacityMwByTechnology":{},"plannedCapacityCoverage":{"coveragePercent":0.0,"knownUnitCount":0,"method":"unavailable","totalUnitCount":0},"plannedCapacityMw":0.0,"plannedCapacityMwByTechnology":{},"recordCount":1,"recordIds":["wattlas-record-osm-way-1292614886"],"sourceIds":["openstreetmap-power"],"technologies":["solar"],"technologyMixMw":{"solar":0.0},"unitCount":0,"unitIds":[]},"type":"Feature"},{"geometry":{"coordinates":[-10.969823,8.626035],"type":"Point"},"id":"wattlas-plant-osm-way-1292697644","properties":{"aliases":["Koidu Gensets"],"canonicalAnchor":"osm:way/1292697644","canonicalCountryKey":"SL","capacityMw":4.0,"country":"SL","externalIds":{"osm":"way/1292697644"},"geographyId":"SL-38320839B88872338973316","id":"wattlas-plant-osm-way-1292697644","lifecycleCounts":{"operational":1},"locationPrecision":"exact","name":"Koidu Gensets","operatingCapacityCoverage":{"coveragePercent":100.0,"knownUnitCount":0,"method":"plant_aggregate","provenance":{"evidenceCount":0,"recordIds":["wattlas-record-osm-way-1292697644"],"sourceIds":["openstreetmap-power"],"sourceTypes":["community_mapped"],"valueKind":"reported"},"totalUnitCount":0},"operatingCapacityMw":4.0,"operatingCapacityMwByTechnology":{"other":4.0},"plannedCapacityCoverage":{"coveragePercent":0.0,"knownUnitCount":0,"method":"unavailable","totalUnitCount":0},"plannedCapacityMw":0.0,"plannedCapacityMwByTechnology":{},"recordCount":1,"recordIds":["wattlas-record-osm-way-1292697644"],"sourceIds":["openstreetmap-power"],"technologies":["other"],"technologyMixMw":{"other":4.0},"unitCount":0,"unitIds":[]},"type":"Feature"},{"geometry":{"coordinates":[-10.960954,8.628065],"type":"Point"},"id":"wattlas-plant-osm-way-1292697645","properties":{"aliases":["Koidu Diamond Mine"],"canonicalAnchor":"osm:way/1292697645","canonicalCountryKey":"SL","capacityMw":0.0,"country":"SL","externalIds":{"osm":"way/1292697645"},"geographyId":"SL-38320839B88872338973316","id":"wattlas-plant-osm-way-1292697645","lifecycleCounts":{"operational":1},"locationPrecision":"exact","name":"Koidu Diamond Mine","operatingCapacityCoverage":{"coveragePercent":0.0,"knownUnitCount":0,"method":"unavailable","totalUnitCount":0},"operatingCapacityMw":0.0,"operatingCapacityMwByTechnology":{},"plannedCapacityCoverage":{"coveragePercent":0.0,"knownUnitCount":0,"method":"unavailable","totalUnitCount":0},"plannedCapacityMw":0.0,"plannedCapacityMwByTechnology":{},"recordCount":1,"recordIds":["wattlas-record-osm-way-1292697645"],"sourceIds":["openstreetmap-power"],"technologies":["solar"],"technologyMixMw":{"solar":0.0},"unitCount":0,"unitIds":[]},"type":"Feature"},{"geometry":{"coordinates":[-12.502313,8.677587],"type":"Point"},"id":"wattlas-plant-osm-way-1292701716","properties":{"aliases":["Marampa Mine Power Plant"],"canonicalAnchor":"osm:way/1292701716","canonicalCountryKey":"SL","capacityMw":22.0,"country":"SL","externalIds":{"osm":"way/1292701716"},"geographyId":"SL-38320839B67217096191525","id":"wattlas-plant-osm-way-1292701716","lifecycleCounts":{"operational":1},"locationPrecision":"exact","name":"Marampa Mine Power Plant","operatingCapacityCoverage":{"coveragePercent":100.0,"knownUnitCount":0,"method":"plant_aggregate","provenance":{"evidenceCount":0,"recordIds":["wattlas-record-osm-way-1292701716"],"sourceIds":["openstreetmap-power"],"sourceTypes":["community_mapped"],"valueKind":"reported"},"totalUnitCount":0},"operatingCapacityMw":22.0,"operatingCapacityMwByTechnology":{"oil":22.0},"plannedCapacityCoverage":{"coveragePercent":0.0,"knownUnitCount":0,"method":"unavailable","totalUnitCount":0},"plannedCapacityMw":0.0,"plannedCapacityMwByTechnology":{},"recordCount":1,"recordIds":["wattlas-record-osm-way-1292701716"],"sourceIds":["openstreetmap-power"],"technologies":["oil"],"technologyMixMw":{"oil":22.0},"unitCount":0,"unitIds":[]},"type":"Feature"},{"geometry":{"coordinates":[-12.52135,7.523808],"type":"Point"},"id":"wattlas-plant-osm-way-732635913","properties":{"aliases":["Bonthe"],"canonicalAnchor":"osm:way/732635913","canonicalCountryKey":"SL","capacityMw":0.0,"country":"SL","externalIds":{"osm":"way/732635913"},"geographyId":"SL-38320839B10533035746056","id":"wattlas-plant-osm-way-732635913","lifecycleCounts":{"operational":1},"locationPrecision":"exact","name":"Bonthe","operatingCapacityCoverage":{"coveragePercent":0.0,"knownUnitCount":0,"method":"unavailable","totalUnitCount":0},"operatingCapacityMw":0.0,"operatingCapacityMwByTechnology":{},"plannedCapacityCoverage":{"coveragePercent":0.0,"knownUnitCount":0,"method":"unavailable","totalUnitCount":0},"plannedCapacityMw":0.0,"plannedCapacityMwByTechnology":{},"recordCount":1,"recordIds":["wattlas-record-osm-way-732635913"],"sourceIds":["openstreetmap-power"],"technologies":["solar"],"technologyMixMw":{"solar":0.0},"unitCount":0,"unitIds":[]},"type":"Feature"},{"geometry":{"coordinates":[-11.723647,9.069491],"type":"Point"},"id":"wattlas-plant-wikidata-q16828547","properties":{"aliases":["Bumbuna Dam Hydroelectric Power Station"],"canonicalAnchor":"wikidata:Q16828547","canonicalCountryKey":"SL","capacityMw":50.0,"country":"SL","externalIds":{"osm":"way/220847614","wikidata":"Q16828547"},"geographyId":"SL-38320839B67217096191525","id":"wattlas-plant-wikidata-q16828547","idAliases":["wattlas-plant-osm-way-220847614"],"lifecycleCounts":{"operational":1},"locationPrecision":"exact","name":"Bumbuna Dam Hydroelectric Power Station","operatingCapacityCoverage":{"coveragePercent":100.0,"knownUnitCount":0,"method":"plant_aggregate","provenance":{"evidenceCount":0,"recordIds":["wattlas-record-osm-way-220847614"],"sourceIds":["openstreetmap-power"],"sourceTypes":["community_mapped"],"valueKind":"reported"},"totalUnitCount":0},"operatingCapacityMw":50.0,"operatingCapacityMwByTechnology":{"hydro":50.0},"plannedCapacityCoverage":{"coveragePercent":0.0,"knownUnitCount":0,"method":"unavailable","totalUnitCount":0},"plannedCapacityMw":0.0,"plannedCapacityMwByTechnology":{},"recordCount":1,"recordIds":["wattlas-record-osm-way-220847614"],"sourceIds":["openstreetmap-power"],"technologies":["hydro"],"technologyMixMw":{"hydro":50.0},"unitCount":0,"unitIds":[]},"type":"Feature"}],"type":"FeatureCollection"}