{"features":[{"geometry":{"coordinates":[-55.162192,5.820761],"type":"Point"},"id":"wattlas-plant-gemplant-l100000408596","properties":{"aliases":["1-1","2-1","3-1","DPP2 Bemland power station"],"canonicalAnchor":"gemplant:L100000408596","canonicalCountryKey":"SR","capacityMw":126.0,"country":"SR","externalIdAliases":{"gemUnit":["G100000411976","G100000411977","G100000411978"]},"externalIds":{"gemPlant":"L100000408596","gemUnit":"G100000411976"},"geographyId":"SR-93550828B84160656428348","id":"wattlas-plant-gemplant-l100000408596","lifecycleCounts":{"operational":3},"locationPrecision":"exact","name":"DPP2 Bemland power station","operatingCapacityCoverage":{"coveragePercent":100.0,"knownUnitCount":3,"method":"complete_unit_sum","provenance":{"evidenceCount":0,"recordIds":["wattlas-record-gemunit-g100000411976","wattlas-record-gemunit-g100000411977","wattlas-record-gemunit-g100000411978"],"sourceIds":["gem-global-integrated-power-tracker"],"sourceTypes":["research_verified"],"valueKind":"reported"},"totalUnitCount":3},"operatingCapacityMw":126.0,"operatingCapacityMwByTechnology":{"oil":126.0},"plannedCapacityCoverage":{"coveragePercent":0.0,"knownUnitCount":0,"method":"unavailable","totalUnitCount":0},"plannedCapacityMw":0.0,"plannedCapacityMwByTechnology":{},"recordCount":3,"recordIds":["wattlas-record-gemunit-g100000411976","wattlas-record-gemunit-g100000411977","wattlas-record-gemunit-g100000411978"],"sourceIds":["gem-global-integrated-power-tracker"],"technologies":["oil"],"technologyMixMw":{"oil":126.0},"unitCount":3,"unitIds":["gem-unit-G100000411976","gem-unit-G100000411977","gem-unit-G100000411978"]},"type":"Feature"},{"geometry":{"coordinates":[-54.9922,4.9828],"type":"Point"},"id":"wattlas-plant-gemplant-l100000603412","properties":{"aliases":["Brokopondo hydroelectric plant"],"canonicalAnchor":"gemplant:L100000603412","canonicalCountryKey":"SR","capacityMw":180.0,"country":"SR","externalIds":{"gemPlant":"L100000603412","gemUnit":"G100000603447"},"geographyId":"SR-93550828B96522578976801","id":"wattlas-plant-gemplant-l100000603412","lifecycleCounts":{"operational":1},"locationPrecision":"exact","name":"Brokopondo hydroelectric plant","operatingCapacityCoverage":{"coveragePercent":100.0,"knownUnitCount":1,"method":"complete_unit_sum","provenance":{"evidenceCount":0,"recordIds":["wattlas-record-gemunit-g100000603447"],"sourceIds":["gem-global-integrated-power-tracker"],"sourceTypes":["research_verified"],"valueKind":"reported"},"totalUnitCount":1},"operatingCapacityMw":180.0,"operatingCapacityMwByTechnology":{"hydro":180.0},"plannedCapacityCoverage":{"coveragePercent":0.0,"knownUnitCount":0,"method":"unavailable","totalUnitCount":0},"plannedCapacityMw":0.0,"plannedCapacityMwByTechnology":{},"recordCount":1,"recordIds":["wattlas-record-gemunit-g100000603447"],"sourceIds":["gem-global-integrated-power-tracker"],"technologies":["hydro"],"technologyMixMw":{"hydro":180.0},"unitCount":1,"unitIds":["gem-unit-G100000603447"]},"type":"Feature"},{"geometry":{"coordinates":[-57.012,5.8847],"type":"Point"},"id":"wattlas-plant-gemplant-l100000808312","properties":{"aliases":["--","Nickerie solar farm"],"canonicalAnchor":"gemplant:L100000808312","canonicalCountryKey":"SR","capacityMw":2.3,"country":"SR","externalIds":{"gemPlant":"L100000808312","gemUnit":"G100000810485"},"geographyId":"SR-93550828B24363513819677","id":"wattlas-plant-gemplant-l100000808312","lifecycleCounts":{"operational":1},"locationPrecision":"exact","name":"Nickerie solar farm","operatingCapacityCoverage":{"coveragePercent":100.0,"knownUnitCount":1,"method":"complete_unit_sum","provenance":{"evidenceCount":0,"recordIds":["wattlas-record-gemunit-g100000810485"],"sourceIds":["gem-global-integrated-power-tracker"],"sourceTypes":["research_verified"],"valueKind":"reported"},"totalUnitCount":1},"operatingCapacityMw":2.3,"operatingCapacityMwByTechnology":{"solar":2.3},"plannedCapacityCoverage":{"coveragePercent":0.0,"knownUnitCount":0,"method":"unavailable","totalUnitCount":0},"plannedCapacityMw":0.0,"plannedCapacityMwByTechnology":{},"recordCount":1,"recordIds":["wattlas-record-gemunit-g100000810485"],"sourceIds":["gem-global-integrated-power-tracker"],"technologies":["solar"],"technologyMixMw":{"solar":2.3},"unitCount":1,"unitIds":["gem-unit-G100000810485"]},"type":"Feature"},{"geometry":{"coordinates":[-55.2564,5.0889],"type":"Point"},"id":"wattlas-plant-gemplant-l100000832653","properties":{"aliases":["--","Rosebel solar project"],"canonicalAnchor":"gemplant:L100000832653","canonicalCountryKey":"SR","capacityMw":5.7,"country":"SR","externalIds":{"gemPlant":"L100000832653","gemUnit":"G100000838243"},"geographyId":"SR-93550828B96522578976801","id":"wattlas-plant-gemplant-l100000832653","lifecycleCounts":{"operational":1},"locationPrecision":"exact","name":"Rosebel solar project","operatingCapacityCoverage":{"coveragePercent":100.0,"knownUnitCount":1,"method":"complete_unit_sum","provenance":{"evidenceCount":0,"recordIds":["wattlas-record-gemunit-g100000838243"],"sourceIds":["gem-global-integrated-power-tracker"],"sourceTypes":["research_verified"],"valueKind":"reported"},"totalUnitCount":1},"operatingCapacityMw":5.7,"operatingCapacityMwByTechnology":{"solar":5.7},"plannedCapacityCoverage":{"coveragePercent":0.0,"knownUnitCount":0,"method":"unavailable","totalUnitCount":0},"plannedCapacityMw":0.0,"plannedCapacityMwByTechnology":{},"recordCount":1,"recordIds":["wattlas-record-gemunit-g100000838243"],"sourceIds":["gem-global-integrated-power-tracker"],"technologies":["solar"],"technologyMixMw":{"solar":5.7},"unitCount":1,"unitIds":["gem-unit-G100000838243"]},"type":"Feature"},{"geometry":{"coordinates":[-55.150192,5.765808],"type":"Point"},"id":"wattlas-plant-gemplant-l100001023559","properties":{"aliases":["1-1","2-1","3-1","Tout Lui Faut power station"],"canonicalAnchor":"gemplant:L100001023559","canonicalCountryKey":"SR","capacityMw":96.0,"country":"SR","externalIdAliases":{"gemUnit":["G100001028079","G100001028080","G100001028081"]},"externalIds":{"gemPlant":"L100001023559","gemUnit":"G100001028081"},"geographyId":"SR-93550828B69998957246771","id":"wattlas-plant-gemplant-l100001023559","lifecycleCounts":{"operational":3},"locationPrecision":"exact","name":"Tout Lui Faut power station","operatingCapacityCoverage":{"coveragePercent":100.0,"knownUnitCount":3,"method":"complete_unit_sum","provenance":{"evidenceCount":0,"recordIds":["wattlas-record-gemunit-g100001028079","wattlas-record-gemunit-g100001028080","wattlas-record-gemunit-g100001028081"],"sourceIds":["gem-global-integrated-power-tracker"],"sourceTypes":["research_verified"],"valueKind":"reported"},"totalUnitCount":3},"operatingCapacityMw":96.0,"operatingCapacityMwByTechnology":{"oil":96.0},"plannedCapacityCoverage":{"coveragePercent":0.0,"knownUnitCount":0,"method":"unavailable","totalUnitCount":0},"plannedCapacityMw":0.0,"plannedCapacityMwByTechnology":{},"recordCount":3,"recordIds":["wattlas-record-gemunit-g100001028079","wattlas-record-gemunit-g100001028080","wattlas-record-gemunit-g100001028081"],"sourceIds":["gem-global-integrated-power-tracker"],"technologies":["oil"],"technologyMixMw":{"oil":96.0},"unitCount":3,"unitIds":["gem-unit-G100001028079","gem-unit-G100001028080","gem-unit-G100001028081"]},"type":"Feature"},{"geometry":{"coordinates":[-55.163217,5.820588],"type":"Point"},"id":"wattlas-plant-osm-way-444482624","properties":{"aliases":["EBS Bemland Saramaccastraat"],"canonicalAnchor":"osm:way/444482624","canonicalCountryKey":"SR","capacityMw":126.0,"country":"SR","externalIds":{"osm":"way/444482624"},"geographyId":"SR-93550828B84160656428348","id":"wattlas-plant-osm-way-444482624","lifecycleCounts":{"operational":1},"locationPrecision":"exact","name":"EBS Bemland Saramaccastraat","operatingCapacityCoverage":{"coveragePercent":100.0,"knownUnitCount":0,"method":"plant_aggregate","provenance":{"evidenceCount":0,"recordIds":["wattlas-record-osm-way-444482624"],"sourceIds":["openstreetmap-power"],"sourceTypes":["community_mapped"],"valueKind":"reported"},"totalUnitCount":0},"operatingCapacityMw":126.0,"operatingCapacityMwByTechnology":{"other":126.0},"plannedCapacityCoverage":{"coveragePercent":0.0,"knownUnitCount":0,"method":"unavailable","totalUnitCount":0},"plannedCapacityMw":0.0,"plannedCapacityMwByTechnology":{},"recordCount":1,"recordIds":["wattlas-record-osm-way-444482624"],"sourceIds":["openstreetmap-power"],"technologies":["other"],"technologyMixMw":{"other":126.0},"unitCount":0,"unitIds":[]},"type":"Feature"},{"geometry":{"coordinates":[-57.028683,5.904699],"type":"Point"},"id":"wattlas-plant-osm-way-734147988","properties":{"aliases":["Powerstation Clarapolder"],"canonicalAnchor":"osm:way/734147988","canonicalCountryKey":"SR","capacityMw":24.0,"country":"SR","externalIds":{"osm":"way/734147988"},"geographyId":"SR-93550828B24363513819677","id":"wattlas-plant-osm-way-734147988","lifecycleCounts":{"operational":1},"locationPrecision":"exact","name":"Powerstation Clarapolder","operatingCapacityCoverage":{"coveragePercent":100.0,"knownUnitCount":0,"method":"plant_aggregate","provenance":{"evidenceCount":0,"recordIds":["wattlas-record-osm-way-734147988"],"sourceIds":["openstreetmap-power"],"sourceTypes":["community_mapped"],"valueKind":"reported"},"totalUnitCount":0},"operatingCapacityMw":24.0,"operatingCapacityMwByTechnology":{"oil":24.0},"plannedCapacityCoverage":{"coveragePercent":0.0,"knownUnitCount":0,"method":"unavailable","totalUnitCount":0},"plannedCapacityMw":0.0,"plannedCapacityMwByTechnology":{},"recordCount":1,"recordIds":["wattlas-record-osm-way-734147988"],"sourceIds":["openstreetmap-power"],"technologies":["oil"],"technologyMixMw":{"oil":24.0},"unitCount":0,"unitIds":[]},"type":"Feature"},{"geometry":{"coordinates":[-55.101964,5.590739],"type":"Point"},"id":"wattlas-plant-osm-way-978856398","properties":{"aliases":["Paranam Refinery Works Power Station"],"canonicalAnchor":"osm:way/978856398","canonicalCountryKey":"SR","capacityMw":47.0,"country":"SR","externalIds":{"osm":"way/978856398"},"geographyId":"SR-93550828B25693187591601","id":"wattlas-plant-osm-way-978856398","lifecycleCounts":{"operational":1},"locationPrecision":"exact","name":"Paranam Refinery Works Power Station","operatingCapacityCoverage":{"coveragePercent":100.0,"knownUnitCount":0,"method":"plant_aggregate","provenance":{"evidenceCount":0,"recordIds":["wattlas-record-osm-way-978856398"],"sourceIds":["openstreetmap-power"],"sourceTypes":["community_mapped"],"valueKind":"reported"},"totalUnitCount":0},"operatingCapacityMw":47.0,"operatingCapacityMwByTechnology":{"oil":47.0},"plannedCapacityCoverage":{"coveragePercent":0.0,"knownUnitCount":0,"method":"unavailable","totalUnitCount":0},"plannedCapacityMw":0.0,"plannedCapacityMwByTechnology":{},"recordCount":1,"recordIds":["wattlas-record-osm-way-978856398"],"sourceIds":["openstreetmap-power"],"technologies":["oil"],"technologyMixMw":{"oil":47.0},"unitCount":0,"unitIds":[]},"type":"Feature"},{"geometry":{"coordinates":[-54.992217,4.98262],"type":"Point"},"id":"wattlas-plant-wikidata-q16001998","properties":{"aliases":["Brokopondo Krachtcentrale"],"canonicalAnchor":"wikidata:Q16001998","canonicalCountryKey":"SR","capacityMw":180.0,"country":"SR","externalIds":{"osm":"way/191198500","wikidata":"Q16001998"},"geographyId":"SR-93550828B96522578976801","id":"wattlas-plant-wikidata-q16001998","idAliases":["wattlas-plant-osm-way-191198500"],"lifecycleCounts":{"operational":1},"locationPrecision":"exact","name":"Brokopondo Krachtcentrale","operatingCapacityCoverage":{"coveragePercent":100.0,"knownUnitCount":0,"method":"plant_aggregate","provenance":{"evidenceCount":0,"recordIds":["wattlas-record-osm-way-191198500"],"sourceIds":["openstreetmap-power"],"sourceTypes":["community_mapped"],"valueKind":"reported"},"totalUnitCount":0},"operatingCapacityMw":180.0,"operatingCapacityMwByTechnology":{"hydro":180.0},"plannedCapacityCoverage":{"coveragePercent":0.0,"knownUnitCount":0,"method":"unavailable","totalUnitCount":0},"plannedCapacityMw":0.0,"plannedCapacityMwByTechnology":{},"recordCount":1,"recordIds":["wattlas-record-osm-way-191198500"],"sourceIds":["openstreetmap-power"],"technologies":["hydro"],"technologyMixMw":{"hydro":180.0},"unitCount":0,"unitIds":[]},"type":"Feature"}],"type":"FeatureCollection"}