{"features":[{"geometry":{"coordinates":[115.12298,5.000576],"type":"Point"},"id":"wattlas-plant-gemplant-l100000104551","properties":{"aliases":["Pulau Muara Besar power station","Unit 1","Unit 2","Unit 3","Unit 4"],"canonicalAnchor":"gemplant:L100000104551","canonicalCountryKey":"BN","capacityMw":220.0,"country":"BN","externalIdAliases":{"gemUnit":["G100000114115","G100000114116","G100000114117","G100000114118"]},"externalIds":{"gemPlant":"L100000104551","gemUnit":"G100000114118"},"gemWikiUrl":"https://www.gem.wiki/Pulau_Muara_Besar_power_station","geographyId":"BN-89281809B42057356743122","id":"wattlas-plant-gemplant-l100000104551","lifecycleCounts":{"operational":4},"locationPrecision":"exact","name":"Pulau Muara Besar power station","operatingCapacityCoverage":{"coveragePercent":100.0,"knownUnitCount":4,"method":"complete_unit_sum","provenance":{"evidenceCount":0,"recordIds":["wattlas-record-gemunit-g100000114115","wattlas-record-gemunit-g100000114116","wattlas-record-gemunit-g100000114117","wattlas-record-gemunit-g100000114118"],"sourceIds":["gem-global-integrated-power-tracker"],"sourceTypes":["research_verified"],"valueKind":"reported"},"totalUnitCount":4},"operatingCapacityMw":220.0,"operatingCapacityMwByTechnology":{"coal":220.0},"plannedCapacityCoverage":{"coveragePercent":0.0,"knownUnitCount":0,"method":"unavailable","totalUnitCount":0},"plannedCapacityMw":0.0,"plannedCapacityMwByTechnology":{},"recordCount":4,"recordIds":["wattlas-record-gemunit-g100000114115","wattlas-record-gemunit-g100000114116","wattlas-record-gemunit-g100000114117","wattlas-record-gemunit-g100000114118"],"sourceIds":["gem-global-integrated-power-tracker"],"sourceUrl":"https://www.gem.wiki/Pulau_Muara_Besar_power_station","technologies":["coal"],"technologyMixMw":{"coal":220.0},"unitCount":4,"unitIds":["gem-unit-G100000114115","gem-unit-G100000114116","gem-unit-G100000114117","gem-unit-G100000114118"]},"type":"Feature"},{"geometry":{"coordinates":[114.9303,4.9707],"type":"Point"},"id":"wattlas-plant-gemplant-l100000405261","properties":{"aliases":["1-1","Berakas power station"],"canonicalAnchor":"gemplant:L100000405261","canonicalCountryKey":"BN","capacityMw":102.0,"country":"BN","externalIds":{"gemPlant":"L100000405261","gemUnit":"G100000404556"},"gemWikiUrl":"https://www.gem.wiki/Berakas_power_station","geographyId":"BN-89281809B42057356743122","id":"wattlas-plant-gemplant-l100000405261","lifecycleCounts":{"operational":1},"locationPrecision":"exact","name":"Berakas power station","operatingCapacityCoverage":{"coveragePercent":100.0,"knownUnitCount":1,"method":"complete_unit_sum","provenance":{"evidenceCount":0,"recordIds":["wattlas-record-gemunit-g100000404556"],"sourceIds":["gem-global-integrated-power-tracker"],"sourceTypes":["research_verified"],"valueKind":"reported"},"totalUnitCount":1},"operatingCapacityMw":102.0,"operatingCapacityMwByTechnology":{"gas":102.0},"plannedCapacityCoverage":{"coveragePercent":0.0,"knownUnitCount":0,"method":"unavailable","totalUnitCount":0},"plannedCapacityMw":0.0,"plannedCapacityMwByTechnology":{},"recordCount":1,"recordIds":["wattlas-record-gemunit-g100000404556"],"sourceIds":["gem-global-integrated-power-tracker"],"sourceUrl":"https://www.gem.wiki/Berakas_power_station","technologies":["gas"],"technologyMixMw":{"gas":102.0},"unitCount":1,"unitIds":["gem-unit-G100000404556"]},"type":"Feature"},{"geometry":{"coordinates":[114.7461,4.8282],"type":"Point"},"id":"wattlas-plant-gemplant-l100000405262","properties":{"aliases":["1-1","2-1","Bukit Panggal power station"],"canonicalAnchor":"gemplant:L100000405262","canonicalCountryKey":"BN","capacityMw":610.0,"country":"BN","externalIdAliases":{"gemUnit":["G100000404557","G100000408595"]},"externalIds":{"gemPlant":"L100000405262","gemUnit":"G100000408595"},"gemWikiUrl":"https://www.gem.wiki/Bukit_Panggal_power_station","geographyId":"BN-89281809B59327831149370","id":"wattlas-plant-gemplant-l100000405262","lifecycleCounts":{"announced":1,"operational":1},"locationPrecision":"exact","name":"Bukit Panggal power station","operatingCapacityCoverage":{"coveragePercent":100.0,"knownUnitCount":1,"method":"complete_unit_sum","provenance":{"evidenceCount":0,"recordIds":["wattlas-record-gemunit-g100000404557"],"sourceIds":["gem-global-integrated-power-tracker"],"sourceTypes":["research_verified"],"valueKind":"reported"},"totalUnitCount":1},"operatingCapacityMw":110.0,"operatingCapacityMwByTechnology":{"gas":110.0},"plannedCapacityCoverage":{"coveragePercent":100.0,"knownUnitCount":1,"method":"complete_unit_sum","provenance":{"evidenceCount":0,"recordIds":["wattlas-record-gemunit-g100000408595"],"sourceIds":["gem-global-integrated-power-tracker"],"sourceTypes":["research_verified"],"valueKind":"reported"},"totalUnitCount":1},"plannedCapacityMw":500.0,"plannedCapacityMwByTechnology":{"gas":500.0},"recordCount":2,"recordIds":["wattlas-record-gemunit-g100000404557","wattlas-record-gemunit-g100000408595"],"sourceIds":["gem-global-integrated-power-tracker"],"sourceUrl":"https://www.gem.wiki/Bukit_Panggal_power_station","technologies":["gas"],"technologyMixMw":{"gas":610.0},"unitCount":2,"unitIds":["gem-unit-G100000404557","gem-unit-G100000408595"]},"type":"Feature"},{"geometry":{"coordinates":[114.2951,4.603],"type":"Point"},"id":"wattlas-plant-gemplant-l100001024220","properties":{"aliases":["--","Brunei solar project I"],"canonicalAnchor":"gemplant:L100001024220","canonicalCountryKey":"BN","capacityMw":3.6,"country":"BN","externalIds":{"gemPlant":"L100001024220","gemUnit":"G100001028901"},"gemWikiUrl":"https://www.gem.wiki/Brunei_solar_project_I","geographyId":"BN-89281809B69825435871977","id":"wattlas-plant-gemplant-l100001024220","lifecycleCounts":{"operational":1},"locationPrecision":"exact","name":"Brunei solar project I","operatingCapacityCoverage":{"coveragePercent":100.0,"knownUnitCount":1,"method":"complete_unit_sum","provenance":{"evidenceCount":0,"recordIds":["wattlas-record-gemunit-g100001028901"],"sourceIds":["gem-global-integrated-power-tracker"],"sourceTypes":["research_verified"],"valueKind":"reported"},"totalUnitCount":1},"operatingCapacityMw":3.6,"operatingCapacityMwByTechnology":{"solar":3.6},"plannedCapacityCoverage":{"coveragePercent":0.0,"knownUnitCount":0,"method":"unavailable","totalUnitCount":0},"plannedCapacityMw":0.0,"plannedCapacityMwByTechnology":{},"recordCount":1,"recordIds":["wattlas-record-gemunit-g100001028901"],"sourceIds":["gem-global-integrated-power-tracker"],"sourceUrl":"https://www.gem.wiki/Brunei_solar_project_I","technologies":["solar"],"technologyMixMw":{"solar":3.6},"unitCount":1,"unitIds":["gem-unit-G100001028901"]},"type":"Feature"},{"geometry":{"coordinates":[114.3411,4.6127],"type":"Point"},"id":"wattlas-plant-gemplant-l100001024221","properties":{"aliases":["--","Brunei solar project II"],"canonicalAnchor":"gemplant:L100001024221","canonicalCountryKey":"BN","capacityMw":1.6,"country":"BN","externalIds":{"gemPlant":"L100001024221","gemUnit":"G100001028902"},"gemWikiUrl":"https://www.gem.wiki/Brunei_solar_project_II","geographyId":"BN-89281809B69825435871977","id":"wattlas-plant-gemplant-l100001024221","lifecycleCounts":{"operational":1},"locationPrecision":"exact","name":"Brunei solar project II","operatingCapacityCoverage":{"coveragePercent":100.0,"knownUnitCount":1,"method":"complete_unit_sum","provenance":{"evidenceCount":0,"recordIds":["wattlas-record-gemunit-g100001028902"],"sourceIds":["gem-global-integrated-power-tracker"],"sourceTypes":["research_verified"],"valueKind":"reported"},"totalUnitCount":1},"operatingCapacityMw":1.6,"operatingCapacityMwByTechnology":{"solar":1.6},"plannedCapacityCoverage":{"coveragePercent":0.0,"knownUnitCount":0,"method":"unavailable","totalUnitCount":0},"plannedCapacityMw":0.0,"plannedCapacityMwByTechnology":{},"recordCount":1,"recordIds":["wattlas-record-gemunit-g100001028902"],"sourceIds":["gem-global-integrated-power-tracker"],"sourceUrl":"https://www.gem.wiki/Brunei_solar_project_II","technologies":["solar"],"technologyMixMw":{"solar":1.6},"unitCount":1,"unitIds":["gem-unit-G100001028902"]},"type":"Feature"},{"geometry":{"coordinates":[115.076777,4.675605],"type":"Point"},"id":"wattlas-plant-osm-way-1199220439","properties":{"aliases":["Belingus Power Station"],"canonicalAnchor":"osm:way/1199220439","canonicalCountryKey":"BN","capacityMw":0.0,"country":"BN","externalIds":{"osm":"way/1199220439"},"geographyId":"BN-89281809B70839875343945","id":"wattlas-plant-osm-way-1199220439","lifecycleCounts":{"operational":1},"locationPrecision":"exact","name":"Belingus Power Station","operatingCapacityCoverage":{"coveragePercent":0.0,"knownUnitCount":0,"method":"unavailable","totalUnitCount":0},"operatingCapacityMw":0.0,"operatingCapacityMwByTechnology":{},"plannedCapacityCoverage":{"coveragePercent":0.0,"knownUnitCount":0,"method":"unavailable","totalUnitCount":0},"plannedCapacityMw":0.0,"plannedCapacityMwByTechnology":{},"recordCount":1,"recordIds":["wattlas-record-osm-way-1199220439"],"sourceIds":["openstreetmap-power"],"sourceUrl":"https://www.openstreetmap.org/way/1199220439","technologies":["other"],"technologyMixMw":{"other":0.0},"unitCount":0,"unitIds":[]},"type":"Feature"},{"geometry":{"coordinates":[114.341112,4.612821],"type":"Point"},"id":"wattlas-plant-osm-way-1199220452","properties":{"aliases":["Tenaga Suria Brunei Power Station"],"canonicalAnchor":"osm:way/1199220452","canonicalCountryKey":"BN","capacityMw":1.2,"country":"BN","externalIds":{"osm":"way/1199220452"},"geographyId":"BN-89281809B69825435871977","id":"wattlas-plant-osm-way-1199220452","lifecycleCounts":{"operational":1},"locationPrecision":"exact","name":"Tenaga Suria Brunei Power Station","operatingCapacityCoverage":{"coveragePercent":100.0,"knownUnitCount":0,"method":"plant_aggregate","provenance":{"evidenceCount":0,"recordIds":["wattlas-record-osm-way-1199220452"],"sourceIds":["openstreetmap-power"],"sourceTypes":["community_mapped"],"valueKind":"reported"},"totalUnitCount":0},"operatingCapacityMw":1.2,"operatingCapacityMwByTechnology":{"solar":1.2},"plannedCapacityCoverage":{"coveragePercent":0.0,"knownUnitCount":0,"method":"unavailable","totalUnitCount":0},"plannedCapacityMw":0.0,"plannedCapacityMwByTechnology":{},"recordCount":1,"recordIds":["wattlas-record-osm-way-1199220452"],"sourceIds":["openstreetmap-power"],"sourceUrl":"https://www.openstreetmap.org/way/1199220452","technologies":["solar"],"technologyMixMw":{"solar":1.2},"unitCount":0,"unitIds":[]},"type":"Feature"},{"geometry":{"coordinates":[114.805893,4.409006],"type":"Point"},"id":"wattlas-plant-osm-way-1342095271","properties":{"aliases":["Sungai Tutung hydroElectric"],"canonicalAnchor":"osm:way/1342095271","canonicalCountryKey":"BN","capacityMw":0.0,"country":"BN","externalIds":{"osm":"way/1342095271"},"geographyId":"BN-89281809B59327831149370","id":"wattlas-plant-osm-way-1342095271","lifecycleCounts":{"operational":1},"locationPrecision":"exact","name":"Sungai Tutung hydroElectric","operatingCapacityCoverage":{"coveragePercent":0.0,"knownUnitCount":0,"method":"unavailable","totalUnitCount":0},"operatingCapacityMw":0.0,"operatingCapacityMwByTechnology":{},"plannedCapacityCoverage":{"coveragePercent":0.0,"knownUnitCount":0,"method":"unavailable","totalUnitCount":0},"plannedCapacityMw":0.0,"plannedCapacityMwByTechnology":{},"recordCount":1,"recordIds":["wattlas-record-osm-way-1342095271"],"sourceIds":["openstreetmap-power"],"sourceUrl":"https://www.openstreetmap.org/way/1342095271","technologies":["hydro"],"technologyMixMw":{"hydro":0.0},"unitCount":0,"unitIds":[]},"type":"Feature"},{"geometry":{"coordinates":[114.910631,4.911297],"type":"Point"},"id":"wattlas-plant-osm-way-179079252","properties":{"aliases":["Gadong Power Station 2"],"canonicalAnchor":"osm:way/179079252","canonicalCountryKey":"BN","capacityMw":128.0,"country":"BN","externalIds":{"osm":"way/179079252"},"geographyId":"BN-89281809B42057356743122","id":"wattlas-plant-osm-way-179079252","lifecycleCounts":{"operational":1},"locationPrecision":"exact","name":"Gadong Power Station 2","operatingCapacityCoverage":{"coveragePercent":100.0,"knownUnitCount":0,"method":"plant_aggregate","provenance":{"evidenceCount":0,"recordIds":["wattlas-record-osm-way-179079252"],"sourceIds":["openstreetmap-power"],"sourceTypes":["community_mapped"],"valueKind":"reported"},"totalUnitCount":0},"operatingCapacityMw":128.0,"operatingCapacityMwByTechnology":{"gas":128.0},"plannedCapacityCoverage":{"coveragePercent":0.0,"knownUnitCount":0,"method":"unavailable","totalUnitCount":0},"plannedCapacityMw":0.0,"plannedCapacityMwByTechnology":{},"recordCount":1,"recordIds":["wattlas-record-osm-way-179079252"],"sourceIds":["openstreetmap-power"],"sourceUrl":"https://www.openstreetmap.org/way/179079252","technologies":["gas"],"technologyMixMw":{"gas":128.0},"unitCount":0,"unitIds":[]},"type":"Feature"},{"geometry":{"coordinates":[114.911165,4.908202],"type":"Point"},"id":"wattlas-plant-osm-way-87026775","properties":{"aliases":["Stesen Janakuasa Gadong 1A"],"canonicalAnchor":"osm:way/87026775","canonicalCountryKey":"BN","capacityMw":0.0,"country":"BN","externalIds":{"osm":"way/87026775"},"geographyId":"BN-89281809B42057356743122","id":"wattlas-plant-osm-way-87026775","lifecycleCounts":{"operational":1},"locationPrecision":"exact","name":"Stesen Janakuasa Gadong 1A","operatingCapacityCoverage":{"coveragePercent":0.0,"knownUnitCount":0,"method":"unavailable","totalUnitCount":0},"operatingCapacityMw":0.0,"operatingCapacityMwByTechnology":{},"plannedCapacityCoverage":{"coveragePercent":0.0,"knownUnitCount":0,"method":"unavailable","totalUnitCount":0},"plannedCapacityMw":0.0,"plannedCapacityMwByTechnology":{},"recordCount":1,"recordIds":["wattlas-record-osm-way-87026775"],"sourceIds":["openstreetmap-power"],"sourceUrl":"https://www.openstreetmap.org/way/87026775","technologies":["gas"],"technologyMixMw":{"gas":0.0},"unitCount":0,"unitIds":[]},"type":"Feature"},{"geometry":{"coordinates":[114.910583,4.913519],"type":"Point"},"id":"wattlas-plant-osm-way-871897088","properties":{"aliases":["Gadong Power Station 3"],"canonicalAnchor":"osm:way/871897088","canonicalCountryKey":"BN","capacityMw":0.0,"country":"BN","externalIds":{"osm":"way/871897088"},"geographyId":"BN-89281809B42057356743122","id":"wattlas-plant-osm-way-871897088","lifecycleCounts":{"operational":1},"locationPrecision":"exact","name":"Gadong Power Station 3","operatingCapacityCoverage":{"coveragePercent":0.0,"knownUnitCount":0,"method":"unavailable","totalUnitCount":0},"operatingCapacityMw":0.0,"operatingCapacityMwByTechnology":{},"plannedCapacityCoverage":{"coveragePercent":0.0,"knownUnitCount":0,"method":"unavailable","totalUnitCount":0},"plannedCapacityMw":0.0,"plannedCapacityMwByTechnology":{},"recordCount":1,"recordIds":["wattlas-record-osm-way-871897088"],"sourceIds":["openstreetmap-power"],"sourceUrl":"https://www.openstreetmap.org/way/871897088","technologies":["gas"],"technologyMixMw":{"gas":0.0},"unitCount":0,"unitIds":[]},"type":"Feature"},{"geometry":{"coordinates":[115.123221,5.000616],"type":"Point"},"id":"wattlas-plant-osm-way-939098002","properties":{"aliases":["Hengyi Pulau Muara Besar Cogen Power Plant"],"canonicalAnchor":"osm:way/939098002","canonicalCountryKey":"BN","capacityMw":220.0,"country":"BN","externalIds":{"osm":"way/939098002"},"geographyId":"BN-89281809B42057356743122","id":"wattlas-plant-osm-way-939098002","lifecycleCounts":{"operational":1},"locationPrecision":"exact","name":"Hengyi Pulau Muara Besar Cogen Power Plant","operatingCapacityCoverage":{"coveragePercent":100.0,"knownUnitCount":0,"method":"plant_aggregate","provenance":{"evidenceCount":0,"recordIds":["wattlas-record-osm-way-939098002"],"sourceIds":["openstreetmap-power"],"sourceTypes":["community_mapped"],"valueKind":"reported"},"totalUnitCount":0},"operatingCapacityMw":220.0,"operatingCapacityMwByTechnology":{"coal":220.0},"plannedCapacityCoverage":{"coveragePercent":0.0,"knownUnitCount":0,"method":"unavailable","totalUnitCount":0},"plannedCapacityMw":0.0,"plannedCapacityMwByTechnology":{},"recordCount":1,"recordIds":["wattlas-record-osm-way-939098002"],"sourceIds":["openstreetmap-power"],"sourceUrl":"https://www.openstreetmap.org/way/939098002","technologies":["coal"],"technologyMixMw":{"coal":220.0},"unitCount":0,"unitIds":[]},"type":"Feature"},{"geometry":{"coordinates":[114.465248,4.664968],"type":"Point"},"id":"wattlas-plant-osm-way-941944742","properties":{"aliases":["Lumut Cogen Power Plant"],"canonicalAnchor":"osm:way/941944742","canonicalCountryKey":"BN","capacityMw":246.0,"country":"BN","externalIds":{"osm":"way/941944742"},"geographyId":"BN-89281809B69825435871977","id":"wattlas-plant-osm-way-941944742","lifecycleCounts":{"operational":1},"locationPrecision":"exact","name":"Lumut Cogen Power Plant","operatingCapacityCoverage":{"coveragePercent":100.0,"knownUnitCount":0,"method":"plant_aggregate","provenance":{"evidenceCount":0,"recordIds":["wattlas-record-osm-way-941944742"],"sourceIds":["openstreetmap-power"],"sourceTypes":["community_mapped"],"valueKind":"reported"},"totalUnitCount":0},"operatingCapacityMw":246.0,"operatingCapacityMwByTechnology":{"gas":246.0},"plannedCapacityCoverage":{"coveragePercent":0.0,"knownUnitCount":0,"method":"unavailable","totalUnitCount":0},"plannedCapacityMw":0.0,"plannedCapacityMwByTechnology":{},"recordCount":1,"recordIds":["wattlas-record-osm-way-941944742"],"sourceIds":["openstreetmap-power"],"sourceUrl":"https://www.openstreetmap.org/way/941944742","technologies":["gas"],"technologyMixMw":{"gas":246.0},"unitCount":0,"unitIds":[]},"type":"Feature"},{"geometry":{"coordinates":[114.930042,4.970752],"type":"Point"},"id":"wattlas-plant-osm-way-945538207","properties":{"aliases":["Berakas Power Plant"],"canonicalAnchor":"osm:way/945538207","canonicalCountryKey":"BN","capacityMw":102.0,"country":"BN","externalIds":{"osm":"way/945538207"},"geographyId":"BN-89281809B42057356743122","id":"wattlas-plant-osm-way-945538207","lifecycleCounts":{"operational":1},"locationPrecision":"exact","name":"Berakas Power Plant","operatingCapacityCoverage":{"coveragePercent":100.0,"knownUnitCount":0,"method":"plant_aggregate","provenance":{"evidenceCount":0,"recordIds":["wattlas-record-osm-way-945538207"],"sourceIds":["openstreetmap-power"],"sourceTypes":["community_mapped"],"valueKind":"reported"},"totalUnitCount":0},"operatingCapacityMw":102.0,"operatingCapacityMwByTechnology":{"gas":102.0},"plannedCapacityCoverage":{"coveragePercent":0.0,"knownUnitCount":0,"method":"unavailable","totalUnitCount":0},"plannedCapacityMw":0.0,"plannedCapacityMwByTechnology":{},"recordCount":1,"recordIds":["wattlas-record-osm-way-945538207"],"sourceIds":["openstreetmap-power"],"sourceUrl":"https://www.openstreetmap.org/way/945538207","technologies":["gas"],"technologyMixMw":{"gas":102.0},"unitCount":0,"unitIds":[]},"type":"Feature"},{"geometry":{"coordinates":[114.74706,4.828594],"type":"Point"},"id":"wattlas-plant-osm-way-946570969","properties":{"aliases":["Bukit Panggal Power Plant"],"canonicalAnchor":"osm:way/946570969","canonicalCountryKey":"BN","capacityMw":110.0,"country":"BN","externalIds":{"osm":"way/946570969"},"geographyId":"BN-89281809B59327831149370","id":"wattlas-plant-osm-way-946570969","lifecycleCounts":{"operational":1},"locationPrecision":"exact","name":"Bukit Panggal Power Plant","operatingCapacityCoverage":{"coveragePercent":100.0,"knownUnitCount":0,"method":"plant_aggregate","provenance":{"evidenceCount":0,"recordIds":["wattlas-record-osm-way-946570969"],"sourceIds":["openstreetmap-power"],"sourceTypes":["community_mapped"],"valueKind":"reported"},"totalUnitCount":0},"operatingCapacityMw":110.0,"operatingCapacityMwByTechnology":{"gas":110.0},"plannedCapacityCoverage":{"coveragePercent":0.0,"knownUnitCount":0,"method":"unavailable","totalUnitCount":0},"plannedCapacityMw":0.0,"plannedCapacityMwByTechnology":{},"recordCount":1,"recordIds":["wattlas-record-osm-way-946570969"],"sourceIds":["openstreetmap-power"],"sourceUrl":"https://www.openstreetmap.org/way/946570969","technologies":["gas"],"technologyMixMw":{"gas":110.0},"unitCount":0,"unitIds":[]},"type":"Feature"}],"type":"FeatureCollection"}