{"features":[{"geometry":{"coordinates":[16.0373,-2.9353],"type":"Point"},"id":"wattlas-plant-gemplant-l100000603214","properties":{"aliases":["Imboulou hydroelectric plant"],"canonicalAnchor":"gemplant:L100000603214","canonicalCountryKey":"CG","capacityMw":120.0,"country":"CG","externalIds":{"gemPlant":"L100000603214","gemUnit":"G100000603249"},"gemWikiUrl":"https://www.gem.wiki/Imboulou_hydroelectric_plant","geographyId":"CG-67827341B26824927831038","id":"wattlas-plant-gemplant-l100000603214","lifecycleCounts":{"operational":1},"locationPrecision":"exact","name":"Imboulou hydroelectric plant","operatingCapacityCoverage":{"coveragePercent":100.0,"knownUnitCount":1,"method":"complete_unit_sum","provenance":{"evidenceCount":0,"recordIds":["wattlas-record-gemunit-g100000603249"],"sourceIds":["gem-global-integrated-power-tracker"],"sourceTypes":["research_verified"],"valueKind":"reported"},"totalUnitCount":1},"operatingCapacityMw":120.0,"operatingCapacityMwByTechnology":{"hydro":120.0},"plannedCapacityCoverage":{"coveragePercent":0.0,"knownUnitCount":0,"method":"unavailable","totalUnitCount":0},"plannedCapacityMw":0.0,"plannedCapacityMwByTechnology":{},"recordCount":1,"recordIds":["wattlas-record-gemunit-g100000603249"],"sourceIds":["gem-global-integrated-power-tracker"],"sourceUrl":"https://www.gem.wiki/Imboulou_hydroelectric_plant","technologies":["hydro"],"technologyMixMw":{"hydro":120.0},"unitCount":1,"unitIds":["gem-unit-G100000603249"]},"type":"Feature"},{"geometry":{"coordinates":[14.9503,-2.9018],"type":"Point"},"id":"wattlas-plant-gemplant-l100000603215","properties":{"aliases":["Kouembali hydroelectric plant"],"canonicalAnchor":"gemplant:L100000603215","canonicalCountryKey":"CG","capacityMw":0.0,"country":"CG","externalIds":{"gemPlant":"L100000603215","gemUnit":"G100000604522"},"gemWikiUrl":"https://www.gem.wiki/Kouembali_hydroelectric_plant","geographyId":"CG-67827341B26824927831038","id":"wattlas-plant-gemplant-l100000603215","lifecycleCounts":{"cancelled":1},"locationPrecision":"exact","name":"Kouembali hydroelectric plant","operatingCapacityCoverage":{"coveragePercent":0.0,"knownUnitCount":0,"method":"unavailable","totalUnitCount":0},"operatingCapacityMw":0.0,"operatingCapacityMwByTechnology":{},"plannedCapacityCoverage":{"coveragePercent":0.0,"knownUnitCount":0,"method":"unavailable","totalUnitCount":0},"plannedCapacityMw":0.0,"plannedCapacityMwByTechnology":{},"recordCount":1,"recordIds":["wattlas-record-gemunit-g100000604522"],"sourceIds":["gem-global-integrated-power-tracker"],"sourceUrl":"https://www.gem.wiki/Kouembali_hydroelectric_plant","technologies":["hydro"],"technologyMixMw":{"hydro":0.0},"unitCount":1,"unitIds":["gem-unit-G100000604522"]},"type":"Feature"},{"geometry":{"coordinates":[12.157,-4.0764],"type":"Point"},"id":"wattlas-plant-gemplant-l100000603217","properties":{"aliases":["Sounda Gorge hydroelectric plant"],"canonicalAnchor":"gemplant:L100000603217","canonicalCountryKey":"CG","capacityMw":0.0,"country":"CG","externalIds":{"gemPlant":"L100000603217","gemUnit":"G100000604827"},"gemWikiUrl":"https://www.gem.wiki/Sounda_Gorge_hydroelectric_plant","geographyId":"CG-67827341B19376310286278","id":"wattlas-plant-gemplant-l100000603217","lifecycleCounts":{"cancelled":1},"locationPrecision":"exact","name":"Sounda Gorge hydroelectric plant","operatingCapacityCoverage":{"coveragePercent":0.0,"knownUnitCount":0,"method":"unavailable","totalUnitCount":0},"operatingCapacityMw":0.0,"operatingCapacityMwByTechnology":{},"plannedCapacityCoverage":{"coveragePercent":0.0,"knownUnitCount":0,"method":"unavailable","totalUnitCount":0},"plannedCapacityMw":0.0,"plannedCapacityMwByTechnology":{},"recordCount":1,"recordIds":["wattlas-record-gemunit-g100000604827"],"sourceIds":["gem-global-integrated-power-tracker"],"sourceUrl":"https://www.gem.wiki/Sounda_Gorge_hydroelectric_plant","technologies":["hydro"],"technologyMixMw":{"hydro":0.0},"unitCount":1,"unitIds":["gem-unit-G100000604827"]},"type":"Feature"},{"geometry":{"coordinates":[13.7656,-3.8987],"type":"Point"},"id":"wattlas-plant-gemplant-l100001025648","properties":{"aliases":["Moukoukoulou hydroelectric plant"],"canonicalAnchor":"gemplant:L100001025648","canonicalCountryKey":"CG","capacityMw":74.0,"country":"CG","externalIds":{"gemPlant":"L100001025648","gemUnit":"G100001030433"},"gemWikiUrl":"https://www.gem.wiki/Moukoukoulou_hydroelectric_plant","geographyId":"CG-67827341B31154795269334","id":"wattlas-plant-gemplant-l100001025648","lifecycleCounts":{"operational":1},"locationPrecision":"exact","name":"Moukoukoulou hydroelectric plant","operatingCapacityCoverage":{"coveragePercent":100.0,"knownUnitCount":1,"method":"complete_unit_sum","provenance":{"evidenceCount":0,"recordIds":["wattlas-record-gemunit-g100001030433"],"sourceIds":["gem-global-integrated-power-tracker"],"sourceTypes":["research_verified"],"valueKind":"reported"},"totalUnitCount":1},"operatingCapacityMw":74.0,"operatingCapacityMwByTechnology":{"hydro":74.0},"plannedCapacityCoverage":{"coveragePercent":0.0,"knownUnitCount":0,"method":"unavailable","totalUnitCount":0},"plannedCapacityMw":0.0,"plannedCapacityMwByTechnology":{},"recordCount":1,"recordIds":["wattlas-record-gemunit-g100001030433"],"sourceIds":["gem-global-integrated-power-tracker"],"sourceUrl":"https://www.gem.wiki/Moukoukoulou_hydroelectric_plant","technologies":["hydro"],"technologyMixMw":{"hydro":74.0},"unitCount":1,"unitIds":["gem-unit-G100001030433"]},"type":"Feature"},{"geometry":{"coordinates":[15.679358,1.095718],"type":"Point"},"id":"wattlas-plant-osm-way-595530648","properties":{"aliases":["Centrale hydroélectrique de Liouesso"],"canonicalAnchor":"osm:way/595530648","canonicalCountryKey":"CG","capacityMw":19.2,"country":"CG","externalIds":{"osm":"way/595530648"},"geographyId":"CG-67827341B91073241467510","id":"wattlas-plant-osm-way-595530648","lifecycleCounts":{"operational":1},"locationPrecision":"exact","name":"Centrale hydroélectrique de Liouesso","operatingCapacityCoverage":{"coveragePercent":100.0,"knownUnitCount":0,"method":"plant_aggregate","provenance":{"evidenceCount":0,"recordIds":["wattlas-record-osm-way-595530648"],"sourceIds":["openstreetmap-power"],"sourceTypes":["community_mapped"],"valueKind":"reported"},"totalUnitCount":0},"operatingCapacityMw":19.2,"operatingCapacityMwByTechnology":{"hydro":19.2},"plannedCapacityCoverage":{"coveragePercent":0.0,"knownUnitCount":0,"method":"unavailable","totalUnitCount":0},"plannedCapacityMw":0.0,"plannedCapacityMwByTechnology":{},"recordCount":1,"recordIds":["wattlas-record-osm-way-595530648"],"sourceIds":["openstreetmap-power"],"sourceUrl":"https://www.openstreetmap.org/way/595530648","technologies":["hydro"],"technologyMixMw":{"hydro":19.2},"unitCount":0,"unitIds":[]},"type":"Feature"},{"geometry":{"coordinates":[15.206829,-4.310134],"type":"Point"},"id":"wattlas-plant-osm-way-777009874","properties":{"aliases":["Centrale hydroélectrique de Djoué"],"canonicalAnchor":"osm:way/777009874","canonicalCountryKey":"CG","capacityMw":15.0,"country":"CG","externalIds":{"osm":"way/777009874"},"geographyId":"CG-67827341B64489104323901","id":"wattlas-plant-osm-way-777009874","lifecycleCounts":{"operational":1},"locationPrecision":"exact","name":"Centrale hydroélectrique de Djoué","operatingCapacityCoverage":{"coveragePercent":100.0,"knownUnitCount":0,"method":"plant_aggregate","provenance":{"evidenceCount":0,"recordIds":["wattlas-record-osm-way-777009874"],"sourceIds":["openstreetmap-power"],"sourceTypes":["community_mapped"],"valueKind":"reported"},"totalUnitCount":0},"operatingCapacityMw":15.0,"operatingCapacityMwByTechnology":{"hydro":15.0},"plannedCapacityCoverage":{"coveragePercent":0.0,"knownUnitCount":0,"method":"unavailable","totalUnitCount":0},"plannedCapacityMw":0.0,"plannedCapacityMwByTechnology":{},"recordCount":1,"recordIds":["wattlas-record-osm-way-777009874"],"sourceIds":["openstreetmap-power"],"sourceUrl":"https://www.openstreetmap.org/way/777009874","technologies":["hydro"],"technologyMixMw":{"hydro":15.0},"unitCount":0,"unitIds":[]},"type":"Feature"},{"geometry":{"coordinates":[13.765433,-3.901162],"type":"Point"},"id":"wattlas-plant-wikidata-q19381959","properties":{"aliases":["Centrale hydroélectrique de Moukoukoulou"],"canonicalAnchor":"wikidata:Q19381959","canonicalCountryKey":"CG","capacityMw":74.0,"country":"CG","externalIds":{"osm":"way/662454697","wikidata":"Q19381959"},"geographyId":"CG-67827341B31154795269334","id":"wattlas-plant-wikidata-q19381959","idAliases":["wattlas-plant-osm-way-662454697"],"lifecycleCounts":{"operational":1},"locationPrecision":"exact","name":"Centrale hydroélectrique de Moukoukoulou","operatingCapacityCoverage":{"coveragePercent":100.0,"knownUnitCount":0,"method":"plant_aggregate","provenance":{"evidenceCount":0,"recordIds":["wattlas-record-osm-way-662454697"],"sourceIds":["openstreetmap-power"],"sourceTypes":["community_mapped"],"valueKind":"reported"},"totalUnitCount":0},"operatingCapacityMw":74.0,"operatingCapacityMwByTechnology":{"hydro":74.0},"plannedCapacityCoverage":{"coveragePercent":0.0,"knownUnitCount":0,"method":"unavailable","totalUnitCount":0},"plannedCapacityMw":0.0,"plannedCapacityMwByTechnology":{},"recordCount":1,"recordIds":["wattlas-record-osm-way-662454697"],"sourceIds":["openstreetmap-power"],"sourceUrl":"https://www.openstreetmap.org/way/662454697","technologies":["hydro"],"technologyMixMw":{"hydro":74.0},"unitCount":0,"unitIds":[]},"type":"Feature"},{"geometry":{"coordinates":[15.206503,-4.301937],"type":"Point"},"id":"wattlas-plant-wikidata-q22399693","properties":{"aliases":["Centrale hydroélectrique de Djoué"],"canonicalAnchor":"wikidata:Q22399693","canonicalCountryKey":"CG","capacityMw":15.0,"country":"CG","externalIds":{"osm":"way/662457974","wikidata":"Q22399693"},"geographyId":"CG-67827341B64489104323901","id":"wattlas-plant-wikidata-q22399693","idAliases":["wattlas-plant-osm-way-662457974"],"lifecycleCounts":{"operational":1},"locationPrecision":"exact","name":"Centrale hydroélectrique de Djoué","operatingCapacityCoverage":{"coveragePercent":100.0,"knownUnitCount":0,"method":"plant_aggregate","provenance":{"evidenceCount":0,"recordIds":["wattlas-record-osm-way-662457974"],"sourceIds":["openstreetmap-power"],"sourceTypes":["community_mapped"],"valueKind":"reported"},"totalUnitCount":0},"operatingCapacityMw":15.0,"operatingCapacityMwByTechnology":{"hydro":15.0},"plannedCapacityCoverage":{"coveragePercent":0.0,"knownUnitCount":0,"method":"unavailable","totalUnitCount":0},"plannedCapacityMw":0.0,"plannedCapacityMwByTechnology":{},"recordCount":1,"recordIds":["wattlas-record-osm-way-662457974"],"sourceIds":["openstreetmap-power"],"sourceUrl":"https://www.openstreetmap.org/way/662457974","technologies":["hydro"],"technologyMixMw":{"hydro":15.0},"unitCount":0,"unitIds":[]},"type":"Feature"},{"geometry":{"coordinates":[16.037146,-2.93711],"type":"Point"},"id":"wattlas-plant-wikidata-q2885029","properties":{"aliases":["Centrale hydroélectrique d'Imboulou"],"canonicalAnchor":"wikidata:Q2885029","canonicalCountryKey":"CG","capacityMw":120.0,"country":"CG","externalIds":{"osm":"way/662444396","wikidata":"Q2885029"},"geographyId":"CG-67827341B26824927831038","id":"wattlas-plant-wikidata-q2885029","idAliases":["wattlas-plant-osm-way-662444396"],"lifecycleCounts":{"operational":1},"locationPrecision":"exact","name":"Centrale hydroélectrique d'Imboulou","operatingCapacityCoverage":{"coveragePercent":100.0,"knownUnitCount":0,"method":"plant_aggregate","provenance":{"evidenceCount":0,"recordIds":["wattlas-record-osm-way-662444396"],"sourceIds":["openstreetmap-power"],"sourceTypes":["community_mapped"],"valueKind":"reported"},"totalUnitCount":0},"operatingCapacityMw":120.0,"operatingCapacityMwByTechnology":{"hydro":120.0},"plannedCapacityCoverage":{"coveragePercent":0.0,"knownUnitCount":0,"method":"unavailable","totalUnitCount":0},"plannedCapacityMw":0.0,"plannedCapacityMwByTechnology":{},"recordCount":1,"recordIds":["wattlas-record-osm-way-662444396"],"sourceIds":["openstreetmap-power"],"sourceUrl":"https://www.openstreetmap.org/way/662444396","technologies":["hydro"],"technologyMixMw":{"hydro":120.0},"unitCount":0,"unitIds":[]},"type":"Feature"}],"type":"FeatureCollection"}