{"features":[{"geometry":{"coordinates":[-22.8125,16.0909],"type":"Point"},"id":"wattlas-plant-gemplant-l100000916604","properties":{"aliases":["--","Boa Vista (Cabo Verde) wind farm"],"canonicalAnchor":"gemplant:L100000916604","canonicalCountryKey":"CV","capacityMw":2.6,"country":"CV","externalIds":{"gemPlant":"L100000916604","gemUnit":"G100000920632"},"gemWikiUrl":"https://www.gem.wiki/Boa_Vista_(Cabo_Verde)_wind_farm","geographyId":"CV-35879248B70460974689380","id":"wattlas-plant-gemplant-l100000916604","lifecycleCounts":{"operational":1},"locationPrecision":"exact","name":"Boa Vista (Cabo Verde) wind farm","operatingCapacityCoverage":{"coveragePercent":100.0,"knownUnitCount":1,"method":"complete_unit_sum","provenance":{"evidenceCount":0,"recordIds":["wattlas-record-gemunit-g100000920632"],"sourceIds":["gem-global-integrated-power-tracker"],"sourceTypes":["research_verified"],"valueKind":"reported"},"totalUnitCount":1},"operatingCapacityMw":2.6,"operatingCapacityMwByTechnology":{"wind":2.6},"plannedCapacityCoverage":{"coveragePercent":0.0,"knownUnitCount":0,"method":"unavailable","totalUnitCount":0},"plannedCapacityMw":0.0,"plannedCapacityMwByTechnology":{},"recordCount":1,"recordIds":["wattlas-record-gemunit-g100000920632"],"sourceIds":["gem-global-integrated-power-tracker"],"sourceUrl":"https://www.gem.wiki/Boa_Vista_(Cabo_Verde)_wind_farm","technologies":["wind"],"technologyMixMw":{"wind":2.6},"unitCount":1,"unitIds":["gem-unit-G100000920632"]},"type":"Feature"},{"geometry":{"coordinates":[-22.9278,16.7249],"type":"Point"},"id":"wattlas-plant-gemplant-l100000916605","properties":{"aliases":["--","Sal wind farm"],"canonicalAnchor":"gemplant:L100000916605","canonicalCountryKey":"CV","capacityMw":7.7,"country":"CV","externalIds":{"gemPlant":"L100000916605","gemUnit":"G100000920633"},"gemWikiUrl":"https://www.gem.wiki/Sal_wind_farm","geographyId":"CV-35879248B31219630131339","id":"wattlas-plant-gemplant-l100000916605","lifecycleCounts":{"operational":1},"locationPrecision":"exact","name":"Sal wind farm","operatingCapacityCoverage":{"coveragePercent":100.0,"knownUnitCount":1,"method":"complete_unit_sum","provenance":{"evidenceCount":0,"recordIds":["wattlas-record-gemunit-g100000920633"],"sourceIds":["gem-global-integrated-power-tracker"],"sourceTypes":["research_verified"],"valueKind":"reported"},"totalUnitCount":1},"operatingCapacityMw":7.7,"operatingCapacityMwByTechnology":{"wind":7.7},"plannedCapacityCoverage":{"coveragePercent":0.0,"knownUnitCount":0,"method":"unavailable","totalUnitCount":0},"plannedCapacityMw":0.0,"plannedCapacityMwByTechnology":{},"recordCount":1,"recordIds":["wattlas-record-gemunit-g100000920633"],"sourceIds":["gem-global-integrated-power-tracker"],"sourceUrl":"https://www.gem.wiki/Sal_wind_farm","technologies":["wind"],"technologyMixMw":{"wind":7.7},"unitCount":1,"unitIds":["gem-unit-G100000920633"]},"type":"Feature"},{"geometry":{"coordinates":[-23.6245,15.0855],"type":"Point"},"id":"wattlas-plant-gemplant-l100000916606","properties":{"aliases":["1.0","2.0","Santiago wind farm"],"canonicalAnchor":"gemplant:L100000916606","canonicalCountryKey":"CV","capacityMw":22.4,"country":"CV","externalIdAliases":{"gemUnit":["G100000920634","G100001021759"]},"externalIds":{"gemPlant":"L100000916606","gemUnit":"G100001021759"},"gemWikiUrl":"https://www.gem.wiki/Santiago_wind_farm","geographyId":"CV-35879248B8506465148242","id":"wattlas-plant-gemplant-l100000916606","lifecycleCounts":{"operational":2},"locationPrecision":"exact","name":"Santiago wind farm","operatingCapacityCoverage":{"coveragePercent":100.0,"knownUnitCount":2,"method":"complete_unit_sum","provenance":{"evidenceCount":0,"recordIds":["wattlas-record-gemunit-g100000920634","wattlas-record-gemunit-g100001021759"],"sourceIds":["gem-global-integrated-power-tracker"],"sourceTypes":["research_verified"],"valueKind":"reported"},"totalUnitCount":2},"operatingCapacityMw":22.4,"operatingCapacityMwByTechnology":{"wind":22.4},"plannedCapacityCoverage":{"coveragePercent":0.0,"knownUnitCount":0,"method":"unavailable","totalUnitCount":0},"plannedCapacityMw":0.0,"plannedCapacityMwByTechnology":{},"recordCount":2,"recordIds":["wattlas-record-gemunit-g100000920634","wattlas-record-gemunit-g100001021759"],"sourceIds":["gem-global-integrated-power-tracker"],"sourceUrl":"https://www.gem.wiki/Santiago_wind_farm","technologies":["wind"],"technologyMixMw":{"wind":22.4},"unitCount":2,"unitIds":["gem-unit-G100000920634","gem-unit-G100001021759"]},"type":"Feature"},{"geometry":{"coordinates":[-24.9766,16.8289],"type":"Point"},"id":"wattlas-plant-gemplant-l100000916607","properties":{"aliases":["--","São Vicente wind farm"],"canonicalAnchor":"gemplant:L100000916607","canonicalCountryKey":"CV","capacityMw":6.0,"country":"CV","externalIds":{"gemPlant":"L100000916607","gemUnit":"G100000920635"},"gemWikiUrl":"https://www.gem.wiki/São_Vicente_wind_farm","geographyId":"CV-35879248B41743840760019","id":"wattlas-plant-gemplant-l100000916607","lifecycleCounts":{"operational":1},"locationPrecision":"exact","name":"São Vicente wind farm","operatingCapacityCoverage":{"coveragePercent":100.0,"knownUnitCount":1,"method":"complete_unit_sum","provenance":{"evidenceCount":0,"recordIds":["wattlas-record-gemunit-g100000920635"],"sourceIds":["gem-global-integrated-power-tracker"],"sourceTypes":["research_verified"],"valueKind":"reported"},"totalUnitCount":1},"operatingCapacityMw":6.0,"operatingCapacityMwByTechnology":{"wind":6.0},"plannedCapacityCoverage":{"coveragePercent":0.0,"knownUnitCount":0,"method":"unavailable","totalUnitCount":0},"plannedCapacityMw":0.0,"plannedCapacityMwByTechnology":{},"recordCount":1,"recordIds":["wattlas-record-gemunit-g100000920635"],"sourceIds":["gem-global-integrated-power-tracker"],"sourceUrl":"https://www.gem.wiki/São_Vicente_wind_farm","technologies":["wind"],"technologyMixMw":{"wind":6.0},"unitCount":1,"unitIds":["gem-unit-G100000920635"]},"type":"Feature"},{"geometry":{"coordinates":[-23.5437,14.9103],"type":"Point"},"id":"wattlas-plant-gemplant-l100001019277","properties":{"aliases":["1.0","Santiago (Cabo Verde) solar farm","repower"],"canonicalAnchor":"gemplant:L100001019277","canonicalCountryKey":"CV","capacityMw":10.0,"country":"CV","externalIdAliases":{"gemUnit":["G100001021758","G100001072747"]},"externalIds":{"gemPlant":"L100001019277","gemUnit":"G100001072747"},"gemWikiUrl":"https://www.gem.wiki/Santiago_(Cabo_Verde)_solar_farm","geographyId":"CV-35879248B53857372811673","id":"wattlas-plant-gemplant-l100001019277","lifecycleCounts":{"announced":1,"operational":1},"locationPrecision":"exact","name":"Santiago (Cabo Verde) solar farm","operatingCapacityCoverage":{"coveragePercent":100.0,"knownUnitCount":1,"method":"complete_unit_sum","provenance":{"evidenceCount":0,"recordIds":["wattlas-record-gemunit-g100001021758"],"sourceIds":["gem-global-integrated-power-tracker"],"sourceTypes":["research_verified"],"valueKind":"reported"},"totalUnitCount":1},"operatingCapacityMw":4.4,"operatingCapacityMwByTechnology":{"solar":4.4},"plannedCapacityCoverage":{"coveragePercent":100.0,"knownUnitCount":1,"method":"complete_unit_sum","provenance":{"evidenceCount":0,"recordIds":["wattlas-record-gemunit-g100001072747"],"sourceIds":["gem-global-integrated-power-tracker"],"sourceTypes":["research_verified"],"valueKind":"reported"},"totalUnitCount":1},"plannedCapacityMw":5.6,"plannedCapacityMwByTechnology":{"solar":5.6},"recordCount":2,"recordIds":["wattlas-record-gemunit-g100001021758","wattlas-record-gemunit-g100001072747"],"sourceIds":["gem-global-integrated-power-tracker"],"sourceUrl":"https://www.gem.wiki/Santiago_(Cabo_Verde)_solar_farm","technologies":["solar"],"technologyMixMw":{"solar":10.0},"unitCount":2,"unitIds":["gem-unit-G100001021758","gem-unit-G100001072747"]},"type":"Feature"},{"geometry":{"coordinates":[-24.3473,14.8568],"type":"Point"},"id":"wattlas-plant-gemplant-l100001019283","properties":{"aliases":["--","Fogo Island solar farm"],"canonicalAnchor":"gemplant:L100001019283","canonicalCountryKey":"CV","capacityMw":1.3,"country":"CV","externalIds":{"gemPlant":"L100001019283","gemUnit":"G100001021765"},"gemWikiUrl":"https://www.gem.wiki/Fogo_Island_solar_farm","geographyId":"CV-35879248B48710154896989","id":"wattlas-plant-gemplant-l100001019283","lifecycleCounts":{"operational":1},"locationPrecision":"exact","name":"Fogo Island solar farm","operatingCapacityCoverage":{"coveragePercent":100.0,"knownUnitCount":1,"method":"complete_unit_sum","provenance":{"evidenceCount":0,"recordIds":["wattlas-record-gemunit-g100001021765"],"sourceIds":["gem-global-integrated-power-tracker"],"sourceTypes":["research_verified"],"valueKind":"reported"},"totalUnitCount":1},"operatingCapacityMw":1.3,"operatingCapacityMwByTechnology":{"solar":1.3},"plannedCapacityCoverage":{"coveragePercent":0.0,"knownUnitCount":0,"method":"unavailable","totalUnitCount":0},"plannedCapacityMw":0.0,"plannedCapacityMwByTechnology":{},"recordCount":1,"recordIds":["wattlas-record-gemunit-g100001021765"],"sourceIds":["gem-global-integrated-power-tracker"],"sourceUrl":"https://www.gem.wiki/Fogo_Island_solar_farm","technologies":["solar"],"technologyMixMw":{"solar":1.3},"unitCount":1,"unitIds":["gem-unit-G100001021765"]},"type":"Feature"},{"geometry":{"coordinates":[-24.9291,16.8952],"type":"Point"},"id":"wattlas-plant-gemplant-l100001064772","properties":{"aliases":["--","São Vicente solar project"],"canonicalAnchor":"gemplant:L100001064772","canonicalCountryKey":"CV","capacityMw":1.8,"country":"CV","externalIds":{"gemPlant":"L100001064772","gemUnit":"G100001074558"},"gemWikiUrl":"https://www.gem.wiki/São_Vicente_solar_project","geographyId":"CV-35879248B41743840760019","id":"wattlas-plant-gemplant-l100001064772","lifecycleCounts":{"operational":1},"locationPrecision":"exact","name":"São Vicente solar project","operatingCapacityCoverage":{"coveragePercent":100.0,"knownUnitCount":1,"method":"complete_unit_sum","provenance":{"evidenceCount":0,"recordIds":["wattlas-record-gemunit-g100001074558"],"sourceIds":["gem-global-integrated-power-tracker"],"sourceTypes":["research_verified"],"valueKind":"reported"},"totalUnitCount":1},"operatingCapacityMw":1.8,"operatingCapacityMwByTechnology":{"solar":1.8},"plannedCapacityCoverage":{"coveragePercent":0.0,"knownUnitCount":0,"method":"unavailable","totalUnitCount":0},"plannedCapacityMw":0.0,"plannedCapacityMwByTechnology":{},"recordCount":1,"recordIds":["wattlas-record-gemunit-g100001074558"],"sourceIds":["gem-global-integrated-power-tracker"],"sourceUrl":"https://www.gem.wiki/São_Vicente_solar_project","technologies":["solar"],"technologyMixMw":{"solar":1.8},"unitCount":1,"unitIds":["gem-unit-G100001074558"]},"type":"Feature"},{"geometry":{"coordinates":[-23.512744,14.971878],"type":"Point"},"id":"wattlas-plant-osm-relation-14068329","properties":{"aliases":["Santiago Wind Farm"],"canonicalAnchor":"osm:relation/14068329","canonicalCountryKey":"CV","capacityMw":9.35,"country":"CV","externalIds":{"osm":"relation/14068329"},"geographyId":"CV-35879248B53857372811673","id":"wattlas-plant-osm-relation-14068329","lifecycleCounts":{"operational":1},"locationPrecision":"exact","name":"Santiago Wind Farm","operatingCapacityCoverage":{"coveragePercent":100.0,"knownUnitCount":0,"method":"plant_aggregate","provenance":{"evidenceCount":0,"recordIds":["wattlas-record-osm-relation-14068329"],"sourceIds":["openstreetmap-power"],"sourceTypes":["community_mapped"],"valueKind":"reported"},"totalUnitCount":0},"operatingCapacityMw":9.35,"operatingCapacityMwByTechnology":{"wind":9.35},"plannedCapacityCoverage":{"coveragePercent":0.0,"knownUnitCount":0,"method":"unavailable","totalUnitCount":0},"plannedCapacityMw":0.0,"plannedCapacityMwByTechnology":{},"recordCount":1,"recordIds":["wattlas-record-osm-relation-14068329"],"sourceIds":["openstreetmap-power"],"sourceUrl":"https://www.openstreetmap.org/relation/14068329","technologies":["wind"],"technologyMixMw":{"wind":9.35},"unitCount":0,"unitIds":[]},"type":"Feature"},{"geometry":{"coordinates":[-25.019882,16.832995],"type":"Point"},"id":"wattlas-plant-osm-relation-18504713","properties":{"aliases":["Sao Vicente Wind Farm"],"canonicalAnchor":"osm:relation/18504713","canonicalCountryKey":"CV","capacityMw":5.95,"country":"CV","externalIds":{"osm":"relation/18504713"},"geographyId":"CV-35879248B41743840760019","id":"wattlas-plant-osm-relation-18504713","lifecycleCounts":{"operational":1},"locationPrecision":"exact","name":"Sao Vicente Wind Farm","operatingCapacityCoverage":{"coveragePercent":100.0,"knownUnitCount":0,"method":"plant_aggregate","provenance":{"evidenceCount":0,"recordIds":["wattlas-record-osm-relation-18504713"],"sourceIds":["openstreetmap-power"],"sourceTypes":["community_mapped"],"valueKind":"reported"},"totalUnitCount":0},"operatingCapacityMw":5.95,"operatingCapacityMwByTechnology":{"wind":5.95},"plannedCapacityCoverage":{"coveragePercent":0.0,"knownUnitCount":0,"method":"unavailable","totalUnitCount":0},"plannedCapacityMw":0.0,"plannedCapacityMwByTechnology":{},"recordCount":1,"recordIds":["wattlas-record-osm-relation-18504713"],"sourceIds":["openstreetmap-power"],"sourceUrl":"https://www.openstreetmap.org/relation/18504713","technologies":["wind"],"technologyMixMw":{"wind":5.95},"unitCount":0,"unitIds":[]},"type":"Feature"},{"geometry":{"coordinates":[-22.906634,16.212715],"type":"Point"},"id":"wattlas-plant-osm-relation-18504766","properties":{"aliases":["Boa Vista Island wind farm"],"canonicalAnchor":"osm:relation/18504766","canonicalCountryKey":"CV","capacityMw":2.55,"country":"CV","externalIds":{"osm":"relation/18504766"},"geographyId":"CV-35879248B70460974689380","id":"wattlas-plant-osm-relation-18504766","lifecycleCounts":{"operational":1},"locationPrecision":"exact","name":"Boa Vista Island wind farm","operatingCapacityCoverage":{"coveragePercent":100.0,"knownUnitCount":0,"method":"plant_aggregate","provenance":{"evidenceCount":0,"recordIds":["wattlas-record-osm-relation-18504766"],"sourceIds":["openstreetmap-power"],"sourceTypes":["community_mapped"],"valueKind":"reported"},"totalUnitCount":0},"operatingCapacityMw":2.55,"operatingCapacityMwByTechnology":{"wind":2.55},"plannedCapacityCoverage":{"coveragePercent":0.0,"knownUnitCount":0,"method":"unavailable","totalUnitCount":0},"plannedCapacityMw":0.0,"plannedCapacityMwByTechnology":{},"recordCount":1,"recordIds":["wattlas-record-osm-relation-18504766"],"sourceIds":["openstreetmap-power"],"sourceUrl":"https://www.openstreetmap.org/relation/18504766","technologies":["wind"],"technologyMixMw":{"wind":2.55},"unitCount":0,"unitIds":[]},"type":"Feature"},{"geometry":{"coordinates":[-22.913992,16.626601],"type":"Point"},"id":"wattlas-plant-osm-way-475913262","properties":{"aliases":["Sal 2,5 MW Solar PV"],"canonicalAnchor":"osm:way/475913262","canonicalCountryKey":"CV","capacityMw":2.5,"country":"CV","externalIds":{"osm":"way/475913262"},"geographyId":"CV-35879248B31219630131339","id":"wattlas-plant-osm-way-475913262","lifecycleCounts":{"operational":1},"locationPrecision":"exact","name":"Sal 2,5 MW Solar PV","operatingCapacityCoverage":{"coveragePercent":100.0,"knownUnitCount":0,"method":"plant_aggregate","provenance":{"evidenceCount":0,"recordIds":["wattlas-record-osm-way-475913262"],"sourceIds":["openstreetmap-power"],"sourceTypes":["community_mapped"],"valueKind":"reported"},"totalUnitCount":0},"operatingCapacityMw":2.5,"operatingCapacityMwByTechnology":{"solar":2.5},"plannedCapacityCoverage":{"coveragePercent":0.0,"knownUnitCount":0,"method":"unavailable","totalUnitCount":0},"plannedCapacityMw":0.0,"plannedCapacityMwByTechnology":{},"recordCount":1,"recordIds":["wattlas-record-osm-way-475913262"],"sourceIds":["openstreetmap-power"],"sourceUrl":"https://www.openstreetmap.org/way/475913262","technologies":["solar"],"technologyMixMw":{"solar":2.5},"unitCount":0,"unitIds":[]},"type":"Feature"},{"geometry":{"coordinates":[-25.014147,16.871024],"type":"Point"},"id":"wattlas-plant-osm-way-481942270","properties":{"aliases":["Electra Norte"],"canonicalAnchor":"osm:way/481942270","canonicalCountryKey":"CV","capacityMw":0.0,"country":"CV","externalIds":{"osm":"way/481942270"},"geographyId":"CV-35879248B41743840760019","id":"wattlas-plant-osm-way-481942270","lifecycleCounts":{"operational":1},"locationPrecision":"exact","name":"Electra Norte","operatingCapacityCoverage":{"coveragePercent":0.0,"knownUnitCount":0,"method":"unavailable","totalUnitCount":0},"operatingCapacityMw":0.0,"operatingCapacityMwByTechnology":{},"plannedCapacityCoverage":{"coveragePercent":0.0,"knownUnitCount":0,"method":"unavailable","totalUnitCount":0},"plannedCapacityMw":0.0,"plannedCapacityMwByTechnology":{},"recordCount":1,"recordIds":["wattlas-record-osm-way-481942270"],"sourceIds":["openstreetmap-power"],"sourceUrl":"https://www.openstreetmap.org/way/481942270","technologies":["oil"],"technologyMixMw":{"oil":0.0},"unitCount":0,"unitIds":[]},"type":"Feature"},{"geometry":{"coordinates":[-23.582571,14.965274],"type":"Point"},"id":"wattlas-plant-osm-way-888947737","properties":{"aliases":["instalação de energia solar"],"canonicalAnchor":"osm:way/888947737","canonicalCountryKey":"CV","capacityMw":0.0,"country":"CV","externalIds":{"osm":"way/888947737"},"geographyId":"CV-35879248B5815864302343","id":"wattlas-plant-osm-way-888947737","lifecycleCounts":{"operational":1},"locationPrecision":"exact","name":"instalação de energia solar","operatingCapacityCoverage":{"coveragePercent":0.0,"knownUnitCount":0,"method":"unavailable","totalUnitCount":0},"operatingCapacityMw":0.0,"operatingCapacityMwByTechnology":{},"plannedCapacityCoverage":{"coveragePercent":0.0,"knownUnitCount":0,"method":"unavailable","totalUnitCount":0},"plannedCapacityMw":0.0,"plannedCapacityMwByTechnology":{},"recordCount":1,"recordIds":["wattlas-record-osm-way-888947737"],"sourceIds":["openstreetmap-power"],"sourceUrl":"https://www.openstreetmap.org/way/888947737","technologies":["solar"],"technologyMixMw":{"solar":0.0},"unitCount":0,"unitIds":[]},"type":"Feature"}],"type":"FeatureCollection"}