{"features":[{"geometry":{"coordinates":[-61.787,12.0012],"type":"Point"},"id":"wattlas-plant-gemplant-l100001020027","properties":{"aliases":["Maurice Bishop International Airport solar farm","Site 1","Site 2","Site 3"],"canonicalAnchor":"gemplant:L100001020027","canonicalCountryKey":"GD","capacityMw":15.1,"country":"GD","externalIdAliases":{"gemUnit":["G100001022795","G100001022796","G100001022797"]},"externalIds":{"gemPlant":"L100001020027","gemUnit":"G100001022797"},"gemWikiUrl":"https://www.gem.wiki/Maurice_Bishop_International_Airport_solar_farm","geographyId":"GD-93511190B82420517640996","id":"wattlas-plant-gemplant-l100001020027","lifecycleCounts":{"announced":3},"locationPrecision":"exact","name":"Maurice Bishop International Airport solar farm","operatingCapacityCoverage":{"coveragePercent":0.0,"knownUnitCount":0,"method":"unavailable","totalUnitCount":0},"operatingCapacityMw":0.0,"operatingCapacityMwByTechnology":{},"plannedCapacityCoverage":{"coveragePercent":100.0,"knownUnitCount":3,"method":"complete_unit_sum","provenance":{"evidenceCount":0,"recordIds":["wattlas-record-gemunit-g100001022795","wattlas-record-gemunit-g100001022796","wattlas-record-gemunit-g100001022797"],"sourceIds":["gem-global-integrated-power-tracker"],"sourceTypes":["research_verified"],"valueKind":"reported"},"totalUnitCount":3},"plannedCapacityMw":15.1,"plannedCapacityMwByTechnology":{"solar":15.1},"recordCount":3,"recordIds":["wattlas-record-gemunit-g100001022795","wattlas-record-gemunit-g100001022796","wattlas-record-gemunit-g100001022797"],"sourceIds":["gem-global-integrated-power-tracker"],"sourceUrl":"https://www.gem.wiki/Maurice_Bishop_International_Airport_solar_farm","technologies":["solar"],"technologyMixMw":{"solar":15.1},"unitCount":3,"unitIds":["gem-unit-G100001022795","gem-unit-G100001022796","gem-unit-G100001022797"]},"type":"Feature"},{"geometry":{"coordinates":[-61.690632,12.03048],"type":"Point"},"id":"wattlas-plant-osm-way-1281257433","properties":{"aliases":["Solar Farm"],"canonicalAnchor":"osm:way/1281257433","canonicalCountryKey":"GD","capacityMw":0.0,"country":"GD","externalIds":{"osm":"way/1281257433"},"geographyId":"GD-93511190B20758743929628","id":"wattlas-plant-osm-way-1281257433","lifecycleCounts":{"operational":1},"locationPrecision":"exact","name":"Solar Farm","operatingCapacityCoverage":{"coveragePercent":0.0,"knownUnitCount":0,"method":"unavailable","totalUnitCount":0},"operatingCapacityMw":0.0,"operatingCapacityMwByTechnology":{},"plannedCapacityCoverage":{"coveragePercent":0.0,"knownUnitCount":0,"method":"unavailable","totalUnitCount":0},"plannedCapacityMw":0.0,"plannedCapacityMwByTechnology":{},"recordCount":1,"recordIds":["wattlas-record-osm-way-1281257433"],"sourceIds":["openstreetmap-power"],"sourceUrl":"https://www.openstreetmap.org/way/1281257433","technologies":["solar"],"technologyMixMw":{"solar":0.0},"unitCount":0,"unitIds":[]},"type":"Feature"}],"type":"FeatureCollection"}