{"features":[{"geometry":{"coordinates":[-0.9844,7.7542],"type":"Point"},"id":"wattlas-plant-gemplant-l100000201403","properties":{"aliases":["1.0","Atebubu power station"],"canonicalAnchor":"gemplant:L100000201403","canonicalCountryKey":"GH","capacityMw":0.0,"country":"GH","externalIds":{"gemPlant":"L100000201403","gemUnit":"G100000201689"},"gemWikiUrl":"https://www.gem.wiki/Atebubu_power_station","geographyId":"GH-69750345B43572680159989","id":"wattlas-plant-gemplant-l100000201403","lifecycleCounts":{"paused":1},"locationPrecision":"exact","name":"Atebubu power station","operatingCapacityCoverage":{"coveragePercent":0.0,"knownUnitCount":0,"method":"unavailable","totalUnitCount":0},"operatingCapacityMw":0.0,"operatingCapacityMwByTechnology":{},"plannedCapacityCoverage":{"coveragePercent":0.0,"knownUnitCount":0,"method":"unavailable","totalUnitCount":0},"plannedCapacityMw":0.0,"plannedCapacityMwByTechnology":{},"recordCount":1,"recordIds":["wattlas-record-gemunit-g100000201689"],"sourceIds":["gem-global-integrated-power-tracker"],"sourceUrl":"https://www.gem.wiki/Atebubu_power_station","technologies":["biomass"],"technologyMixMw":{"biomass":0.0},"unitCount":1,"unitIds":["gem-unit-G100000201689"]},"type":"Feature"},{"geometry":{"coordinates":[0.019369,5.677739],"type":"Point"},"id":"wattlas-plant-gemplant-l100000406748","properties":{"aliases":["1-1","2-1","Bridge power station"],"canonicalAnchor":"gemplant:L100000406748","canonicalCountryKey":"GH","capacityMw":394.0,"country":"GH","externalIdAliases":{"gemUnit":["G100000407086","G100000407087"]},"externalIds":{"gemPlant":"L100000406748","gemUnit":"G100000407087"},"gemWikiUrl":"https://www.gem.wiki/Bridge_power_station","geographyId":"GH-69750345B46963341226980","id":"wattlas-plant-gemplant-l100000406748","lifecycleCounts":{"operational":2},"locationPrecision":"exact","name":"Bridge power station","operatingCapacityCoverage":{"coveragePercent":100.0,"knownUnitCount":2,"method":"complete_unit_sum","provenance":{"evidenceCount":0,"recordIds":["wattlas-record-gemunit-g100000407086","wattlas-record-gemunit-g100000407087"],"sourceIds":["gem-global-integrated-power-tracker"],"sourceTypes":["research_verified"],"valueKind":"reported"},"totalUnitCount":2},"operatingCapacityMw":394.0,"operatingCapacityMwByTechnology":{"gas":394.0},"plannedCapacityCoverage":{"coveragePercent":0.0,"knownUnitCount":0,"method":"unavailable","totalUnitCount":0},"plannedCapacityMw":0.0,"plannedCapacityMwByTechnology":{},"recordCount":2,"recordIds":["wattlas-record-gemunit-g100000407086","wattlas-record-gemunit-g100000407087"],"sourceIds":["gem-global-integrated-power-tracker"],"sourceUrl":"https://www.gem.wiki/Bridge_power_station","technologies":["gas"],"technologyMixMw":{"gas":394.0},"unitCount":2,"unitIds":["gem-unit-G100000407086","gem-unit-G100000407087"]},"type":"Feature"},{"geometry":{"coordinates":[0.041086,5.681203],"type":"Point"},"id":"wattlas-plant-gemplant-l100000406753","properties":{"aliases":["1-1","Kpone IPP (KIPP) power station"],"canonicalAnchor":"gemplant:L100000406753","canonicalCountryKey":"GH","capacityMw":350.0,"country":"GH","externalIds":{"gemPlant":"L100000406753","gemUnit":"G100000407094"},"gemWikiUrl":"https://www.gem.wiki/Kpone_IPP_(KIPP)_power_station","geographyId":"GH-69750345B46963341226980","id":"wattlas-plant-gemplant-l100000406753","lifecycleCounts":{"operational":1},"locationPrecision":"exact","name":"Kpone IPP (KIPP) power station","operatingCapacityCoverage":{"coveragePercent":100.0,"knownUnitCount":1,"method":"complete_unit_sum","provenance":{"evidenceCount":0,"recordIds":["wattlas-record-gemunit-g100000407094"],"sourceIds":["gem-global-integrated-power-tracker"],"sourceTypes":["research_verified"],"valueKind":"reported"},"totalUnitCount":1},"operatingCapacityMw":350.0,"operatingCapacityMwByTechnology":{"gas":350.0},"plannedCapacityCoverage":{"coveragePercent":0.0,"knownUnitCount":0,"method":"unavailable","totalUnitCount":0},"plannedCapacityMw":0.0,"plannedCapacityMwByTechnology":{},"recordCount":1,"recordIds":["wattlas-record-gemunit-g100000407094"],"sourceIds":["gem-global-integrated-power-tracker"],"sourceUrl":"https://www.gem.wiki/Kpone_IPP_(KIPP)_power_station","technologies":["gas"],"technologyMixMw":{"gas":350.0},"unitCount":1,"unitIds":["gem-unit-G100000407094"]},"type":"Feature"},{"geometry":{"coordinates":[0.009259,5.734624],"type":"Point"},"id":"wattlas-plant-gemplant-l100000406754","properties":{"aliases":["GT1","GT2","Kpone Thermal power plant"],"canonicalAnchor":"gemplant:L100000406754","canonicalCountryKey":"GH","capacityMw":220.0,"country":"GH","externalIdAliases":{"gemUnit":["G100000407095","G100000407096"]},"externalIds":{"gemPlant":"L100000406754","gemUnit":"G100000407096"},"gemWikiUrl":"https://www.gem.wiki/Kpone_Thermal_power_plant","geographyId":"GH-69750345B46963341226980","id":"wattlas-plant-gemplant-l100000406754","lifecycleCounts":{"operational":2},"locationPrecision":"exact","name":"Kpone Thermal power plant","operatingCapacityCoverage":{"coveragePercent":100.0,"knownUnitCount":2,"method":"complete_unit_sum","provenance":{"evidenceCount":0,"recordIds":["wattlas-record-gemunit-g100000407095","wattlas-record-gemunit-g100000407096"],"sourceIds":["gem-global-integrated-power-tracker"],"sourceTypes":["research_verified"],"valueKind":"reported"},"totalUnitCount":2},"operatingCapacityMw":220.0,"operatingCapacityMwByTechnology":{"gas":220.0},"plannedCapacityCoverage":{"coveragePercent":0.0,"knownUnitCount":0,"method":"unavailable","totalUnitCount":0},"plannedCapacityMw":0.0,"plannedCapacityMwByTechnology":{},"recordCount":2,"recordIds":["wattlas-record-gemunit-g100000407095","wattlas-record-gemunit-g100000407096"],"sourceIds":["gem-global-integrated-power-tracker"],"sourceUrl":"https://www.gem.wiki/Kpone_Thermal_power_plant","technologies":["gas"],"technologyMixMw":{"gas":220.0},"unitCount":2,"unitIds":["gem-unit-G100000407095","gem-unit-G100000407096"]},"type":"Feature"},{"geometry":{"coordinates":[0.047054,5.6803],"type":"Point"},"id":"wattlas-plant-gemplant-l100000406757","properties":{"aliases":["1-1","2-1","Sunon Asogli power station"],"canonicalAnchor":"gemplant:L100000406757","canonicalCountryKey":"GH","capacityMw":560.0,"country":"GH","externalIdAliases":{"gemUnit":["G100000407099","G100000407100"]},"externalIds":{"gemPlant":"L100000406757","gemUnit":"G100000407100"},"gemWikiUrl":"https://www.gem.wiki/Sunon_Asogli_power_station","geographyId":"GH-69750345B46963341226980","id":"wattlas-plant-gemplant-l100000406757","lifecycleCounts":{"operational":2},"locationPrecision":"exact","name":"Sunon Asogli power station","operatingCapacityCoverage":{"coveragePercent":100.0,"knownUnitCount":2,"method":"complete_unit_sum","provenance":{"evidenceCount":0,"recordIds":["wattlas-record-gemunit-g100000407099","wattlas-record-gemunit-g100000407100"],"sourceIds":["gem-global-integrated-power-tracker"],"sourceTypes":["research_verified"],"valueKind":"reported"},"totalUnitCount":2},"operatingCapacityMw":560.0,"operatingCapacityMwByTechnology":{"gas":560.0},"plannedCapacityCoverage":{"coveragePercent":0.0,"knownUnitCount":0,"method":"unavailable","totalUnitCount":0},"plannedCapacityMw":0.0,"plannedCapacityMwByTechnology":{},"recordCount":2,"recordIds":["wattlas-record-gemunit-g100000407099","wattlas-record-gemunit-g100000407100"],"sourceIds":["gem-global-integrated-power-tracker"],"sourceUrl":"https://www.gem.wiki/Sunon_Asogli_power_station","technologies":["gas"],"technologyMixMw":{"gas":560.0},"unitCount":2,"unitIds":["gem-unit-G100000407099","gem-unit-G100000407100"]},"type":"Feature"},{"geometry":{"coordinates":[0.012238,5.674457],"type":"Point"},"id":"wattlas-plant-gemplant-l100000406761","properties":{"aliases":["1-1","Tema CENIT Thermal power plant (TCTPP)"],"canonicalAnchor":"gemplant:L100000406761","canonicalCountryKey":"GH","capacityMw":110.0,"country":"GH","externalIds":{"gemPlant":"L100000406761","gemUnit":"G100000407104"},"gemWikiUrl":"https://www.gem.wiki/Tema_CENIT_Thermal_power_plant_(TCTPP)","geographyId":"GH-69750345B46963341226980","id":"wattlas-plant-gemplant-l100000406761","lifecycleCounts":{"operational":1},"locationPrecision":"exact","name":"Tema CENIT Thermal power plant (TCTPP)","operatingCapacityCoverage":{"coveragePercent":100.0,"knownUnitCount":1,"method":"complete_unit_sum","provenance":{"evidenceCount":0,"recordIds":["wattlas-record-gemunit-g100000407104"],"sourceIds":["gem-global-integrated-power-tracker"],"sourceTypes":["research_verified"],"valueKind":"reported"},"totalUnitCount":1},"operatingCapacityMw":110.0,"operatingCapacityMwByTechnology":{"gas":110.0},"plannedCapacityCoverage":{"coveragePercent":0.0,"knownUnitCount":0,"method":"unavailable","totalUnitCount":0},"plannedCapacityMw":0.0,"plannedCapacityMwByTechnology":{},"recordCount":1,"recordIds":["wattlas-record-gemunit-g100000407104"],"sourceIds":["gem-global-integrated-power-tracker"],"sourceUrl":"https://www.gem.wiki/Tema_CENIT_Thermal_power_plant_(TCTPP)","technologies":["gas"],"technologyMixMw":{"gas":110.0},"unitCount":1,"unitIds":["gem-unit-G100000407104"]},"type":"Feature"},{"geometry":{"coordinates":[0.010585,5.673994],"type":"Point"},"id":"wattlas-plant-gemplant-l100000406762","properties":{"aliases":["1-1","2-1","Tema Thermal Power Complex"],"canonicalAnchor":"gemplant:L100000406762","canonicalCountryKey":"GH","capacityMw":190.0,"country":"GH","externalIdAliases":{"gemUnit":["G100000407105","G100000410017"]},"externalIds":{"gemPlant":"L100000406762","gemUnit":"G100000410017"},"gemWikiUrl":"https://www.gem.wiki/Tema_Thermal_Power_Complex","geographyId":"GH-69750345B46963341226980","id":"wattlas-plant-gemplant-l100000406762","lifecycleCounts":{"operational":2},"locationPrecision":"exact","name":"Tema Thermal Power Complex","operatingCapacityCoverage":{"coveragePercent":100.0,"knownUnitCount":2,"method":"complete_unit_sum","provenance":{"evidenceCount":0,"recordIds":["wattlas-record-gemunit-g100000407105","wattlas-record-gemunit-g100000410017"],"sourceIds":["gem-global-integrated-power-tracker"],"sourceTypes":["research_verified"],"valueKind":"reported"},"totalUnitCount":2},"operatingCapacityMw":190.0,"operatingCapacityMwByTechnology":{"gas":190.0},"plannedCapacityCoverage":{"coveragePercent":0.0,"knownUnitCount":0,"method":"unavailable","totalUnitCount":0},"plannedCapacityMw":0.0,"plannedCapacityMwByTechnology":{},"recordCount":2,"recordIds":["wattlas-record-gemunit-g100000407105","wattlas-record-gemunit-g100000410017"],"sourceIds":["gem-global-integrated-power-tracker"],"sourceUrl":"https://www.gem.wiki/Tema_Thermal_Power_Complex","technologies":["gas"],"technologyMixMw":{"gas":190.0},"unitCount":2,"unitIds":["gem-unit-G100000407105","gem-unit-G100000410017"]},"type":"Feature"},{"geometry":{"coordinates":[-1.696663,4.93844],"type":"Point"},"id":"wattlas-plant-gemplant-l100000407150","properties":{"aliases":["1-1","Karpowership (Ghana) Osman Khan power station"],"canonicalAnchor":"gemplant:L100000407150","canonicalCountryKey":"GH","capacityMw":450.0,"country":"GH","externalIds":{"gemPlant":"L100000407150","gemUnit":"G100000408641"},"gemWikiUrl":"https://www.gem.wiki/Karpowership_(Ghana)_Osman_Khan_power_station","geographyId":"GH-69750345B38025690459934","id":"wattlas-plant-gemplant-l100000407150","lifecycleCounts":{"operational":1},"locationPrecision":"exact","name":"Karpowership (Ghana) Osman Khan power station","operatingCapacityCoverage":{"coveragePercent":100.0,"knownUnitCount":1,"method":"complete_unit_sum","provenance":{"evidenceCount":0,"recordIds":["wattlas-record-gemunit-g100000408641"],"sourceIds":["gem-global-integrated-power-tracker"],"sourceTypes":["research_verified"],"valueKind":"reported"},"totalUnitCount":1},"operatingCapacityMw":450.0,"operatingCapacityMwByTechnology":{"gas":450.0},"plannedCapacityCoverage":{"coveragePercent":0.0,"knownUnitCount":0,"method":"unavailable","totalUnitCount":0},"plannedCapacityMw":0.0,"plannedCapacityMwByTechnology":{},"recordCount":1,"recordIds":["wattlas-record-gemunit-g100000408641"],"sourceIds":["gem-global-integrated-power-tracker"],"sourceUrl":"https://www.gem.wiki/Karpowership_(Ghana)_Osman_Khan_power_station","technologies":["gas"],"technologyMixMw":{"gas":450.0},"unitCount":1,"unitIds":["gem-unit-G100000408641"]},"type":"Feature"},{"geometry":{"coordinates":[0.021523,5.692748],"type":"Point"},"id":"wattlas-plant-gemplant-l100000409168","properties":{"aliases":["1-1","Aksa Ghana HFO power plant"],"canonicalAnchor":"gemplant:L100000409168","canonicalCountryKey":"GH","capacityMw":370.0,"country":"GH","externalIds":{"gemPlant":"L100000409168","gemUnit":"G100000413980"},"gemWikiUrl":"https://www.gem.wiki/Aksa_Ghana_HFO_power_plant","geographyId":"GH-69750345B46963341226980","id":"wattlas-plant-gemplant-l100000409168","lifecycleCounts":{"operational":1},"locationPrecision":"exact","name":"Aksa Ghana HFO power plant","operatingCapacityCoverage":{"coveragePercent":100.0,"knownUnitCount":1,"method":"complete_unit_sum","provenance":{"evidenceCount":0,"recordIds":["wattlas-record-gemunit-g100000413980"],"sourceIds":["gem-global-integrated-power-tracker"],"sourceTypes":["research_verified"],"valueKind":"reported"},"totalUnitCount":1},"operatingCapacityMw":370.0,"operatingCapacityMwByTechnology":{"gas":370.0},"plannedCapacityCoverage":{"coveragePercent":0.0,"knownUnitCount":0,"method":"unavailable","totalUnitCount":0},"plannedCapacityMw":0.0,"plannedCapacityMwByTechnology":{},"recordCount":1,"recordIds":["wattlas-record-gemunit-g100000413980"],"sourceIds":["gem-global-integrated-power-tracker"],"sourceUrl":"https://www.gem.wiki/Aksa_Ghana_HFO_power_plant","technologies":["gas"],"technologyMixMw":{"gas":370.0},"unitCount":1,"unitIds":["gem-unit-G100000413980"]},"type":"Feature"},{"geometry":{"coordinates":[0.0557,6.2999],"type":"Point"},"id":"wattlas-plant-gemplant-l100000601748","properties":{"aliases":["Akosombo hydroelectric plant"],"canonicalAnchor":"gemplant:L100000601748","canonicalCountryKey":"GH","capacityMw":1020.0,"country":"GH","externalIds":{"gemPlant":"L100000601748","gemUnit":"G100000601767"},"gemWikiUrl":"https://www.gem.wiki/Akosombo_hydroelectric_plant","geographyId":"GH-69750345B54645730941985","id":"wattlas-plant-gemplant-l100000601748","lifecycleCounts":{"operational":1},"locationPrecision":"exact","name":"Akosombo hydroelectric plant","operatingCapacityCoverage":{"coveragePercent":100.0,"knownUnitCount":1,"method":"complete_unit_sum","provenance":{"evidenceCount":0,"recordIds":["wattlas-record-gemunit-g100000601767"],"sourceIds":["gem-global-integrated-power-tracker"],"sourceTypes":["research_verified"],"valueKind":"reported"},"totalUnitCount":1},"operatingCapacityMw":1020.0,"operatingCapacityMwByTechnology":{"hydro":1020.0},"plannedCapacityCoverage":{"coveragePercent":0.0,"knownUnitCount":0,"method":"unavailable","totalUnitCount":0},"plannedCapacityMw":0.0,"plannedCapacityMwByTechnology":{},"recordCount":1,"recordIds":["wattlas-record-gemunit-g100000601767"],"sourceIds":["gem-global-integrated-power-tracker"],"sourceUrl":"https://www.gem.wiki/Akosombo_hydroelectric_plant","technologies":["hydro"],"technologyMixMw":{"hydro":1020.0},"unitCount":1,"unitIds":["gem-unit-G100000601767"]},"type":"Feature"},{"geometry":{"coordinates":[-2.2356,8.2792],"type":"Point"},"id":"wattlas-plant-gemplant-l100000601749","properties":{"aliases":["Bui hydroelectric plant"],"canonicalAnchor":"gemplant:L100000601749","canonicalCountryKey":"GH","capacityMw":404.0,"country":"GH","externalIds":{"gemPlant":"L100000601749","gemUnit":"G100000601768"},"gemWikiUrl":"https://www.gem.wiki/Bui_hydroelectric_plant","geographyId":"GH-69750345B13833050062966","id":"wattlas-plant-gemplant-l100000601749","lifecycleCounts":{"operational":1},"locationPrecision":"exact","name":"Bui hydroelectric plant","operatingCapacityCoverage":{"coveragePercent":100.0,"knownUnitCount":1,"method":"complete_unit_sum","provenance":{"evidenceCount":0,"recordIds":["wattlas-record-gemunit-g100000601768"],"sourceIds":["gem-global-integrated-power-tracker"],"sourceTypes":["research_verified"],"valueKind":"reported"},"totalUnitCount":1},"operatingCapacityMw":404.0,"operatingCapacityMwByTechnology":{"hydro":404.0},"plannedCapacityCoverage":{"coveragePercent":0.0,"knownUnitCount":0,"method":"unavailable","totalUnitCount":0},"plannedCapacityMw":0.0,"plannedCapacityMwByTechnology":{},"recordCount":1,"recordIds":["wattlas-record-gemunit-g100000601768"],"sourceIds":["gem-global-integrated-power-tracker"],"sourceUrl":"https://www.gem.wiki/Bui_hydroelectric_plant","technologies":["hydro"],"technologyMixMw":{"hydro":404.0},"unitCount":1,"unitIds":["gem-unit-G100000601768"]},"type":"Feature"},{"geometry":{"coordinates":[0.1238,6.1187],"type":"Point"},"id":"wattlas-plant-gemplant-l100000601751","properties":{"aliases":["Kpong hydroelectric plant"],"canonicalAnchor":"gemplant:L100000601751","canonicalCountryKey":"GH","capacityMw":160.0,"country":"GH","externalIds":{"gemPlant":"L100000601751","gemUnit":"G100000601770"},"gemWikiUrl":"https://www.gem.wiki/Kpong_hydroelectric_plant","geographyId":"GH-69750345B54645730941985","id":"wattlas-plant-gemplant-l100000601751","lifecycleCounts":{"operational":1},"locationPrecision":"exact","name":"Kpong hydroelectric plant","operatingCapacityCoverage":{"coveragePercent":100.0,"knownUnitCount":1,"method":"complete_unit_sum","provenance":{"evidenceCount":0,"recordIds":["wattlas-record-gemunit-g100000601770"],"sourceIds":["gem-global-integrated-power-tracker"],"sourceTypes":["research_verified"],"valueKind":"reported"},"totalUnitCount":1},"operatingCapacityMw":160.0,"operatingCapacityMwByTechnology":{"hydro":160.0},"plannedCapacityCoverage":{"coveragePercent":0.0,"knownUnitCount":0,"method":"unavailable","totalUnitCount":0},"plannedCapacityMw":0.0,"plannedCapacityMwByTechnology":{},"recordCount":1,"recordIds":["wattlas-record-gemunit-g100000601770"],"sourceIds":["gem-global-integrated-power-tracker"],"sourceUrl":"https://www.gem.wiki/Kpong_hydroelectric_plant","technologies":["hydro"],"technologyMixMw":{"hydro":160.0},"unitCount":1,"unitIds":["gem-unit-G100000601770"]},"type":"Feature"},{"geometry":{"coordinates":[-0.8487,10.7854],"type":"Point"},"id":"wattlas-plant-gemplant-l100000800059","properties":{"aliases":["--","Blue Power Energy solar farm"],"canonicalAnchor":"gemplant:L100000800059","canonicalCountryKey":"GH","capacityMw":100.0,"country":"GH","externalIds":{"gemPlant":"L100000800059","gemUnit":"G100000800077"},"gemWikiUrl":"https://www.gem.wiki/Blue_Power_Energy_solar_farm","geographyId":"GH-69750345B7467317238909","id":"wattlas-plant-gemplant-l100000800059","lifecycleCounts":{"operational":1},"locationPrecision":"exact","name":"Blue Power Energy solar farm","operatingCapacityCoverage":{"coveragePercent":100.0,"knownUnitCount":1,"method":"complete_unit_sum","provenance":{"evidenceCount":0,"recordIds":["wattlas-record-gemunit-g100000800077"],"sourceIds":["gem-global-integrated-power-tracker"],"sourceTypes":["research_verified"],"valueKind":"reported"},"totalUnitCount":1},"operatingCapacityMw":100.0,"operatingCapacityMwByTechnology":{"solar":100.0},"plannedCapacityCoverage":{"coveragePercent":0.0,"knownUnitCount":0,"method":"unavailable","totalUnitCount":0},"plannedCapacityMw":0.0,"plannedCapacityMwByTechnology":{},"recordCount":1,"recordIds":["wattlas-record-gemunit-g100000800077"],"sourceIds":["gem-global-integrated-power-tracker"],"sourceUrl":"https://www.gem.wiki/Blue_Power_Energy_solar_farm","technologies":["solar"],"technologyMixMw":{"solar":100.0},"unitCount":1,"unitIds":["gem-unit-G100000800077"]},"type":"Feature"},{"geometry":{"coordinates":[-2.2363,8.2794],"type":"Point"},"id":"wattlas-plant-gemplant-l100000800070","properties":{"aliases":["1.0","2.0","3.0","4.0","5.0","Bui Floating solar farm"],"canonicalAnchor":"gemplant:L100000800070","canonicalCountryKey":"GH","capacityMw":50.0,"country":"GH","externalIdAliases":{"gemUnit":["G100000800088","G100000800089","G100000800090","G100000800091","G100000800092"]},"externalIds":{"gemPlant":"L100000800070","gemUnit":"G100000800092"},"gemWikiUrl":"https://www.gem.wiki/Bui_Floating_solar_farm","geographyId":"GH-69750345B13833050062966","id":"wattlas-plant-gemplant-l100000800070","lifecycleCounts":{"cancelled":4,"operational":1},"locationPrecision":"exact","name":"Bui Floating solar farm","operatingCapacityCoverage":{"coveragePercent":100.0,"knownUnitCount":1,"method":"complete_unit_sum","provenance":{"evidenceCount":0,"recordIds":["wattlas-record-gemunit-g100000800088"],"sourceIds":["gem-global-integrated-power-tracker"],"sourceTypes":["research_verified"],"valueKind":"reported"},"totalUnitCount":1},"operatingCapacityMw":50.0,"operatingCapacityMwByTechnology":{"solar":50.0},"plannedCapacityCoverage":{"coveragePercent":0.0,"knownUnitCount":0,"method":"unavailable","totalUnitCount":0},"plannedCapacityMw":0.0,"plannedCapacityMwByTechnology":{},"recordCount":5,"recordIds":["wattlas-record-gemunit-g100000800088","wattlas-record-gemunit-g100000800089","wattlas-record-gemunit-g100000800090","wattlas-record-gemunit-g100000800091","wattlas-record-gemunit-g100000800092"],"sourceIds":["gem-global-integrated-power-tracker"],"sourceUrl":"https://www.gem.wiki/Bui_Floating_solar_farm","technologies":["solar"],"technologyMixMw":{"solar":50.0},"unitCount":5,"unitIds":["gem-unit-G100000800088","gem-unit-G100000800089","gem-unit-G100000800090","gem-unit-G100000800091","gem-unit-G100000800092"]},"type":"Feature"},{"geometry":{"coordinates":[-0.6933,5.3728],"type":"Point"},"id":"wattlas-plant-gemplant-l100000800074","properties":{"aliases":["--","Bxc Solar Power Station"],"canonicalAnchor":"gemplant:L100000800074","canonicalCountryKey":"GH","capacityMw":20.0,"country":"GH","externalIds":{"gemPlant":"L100000800074","gemUnit":"G100000800096"},"gemWikiUrl":"https://www.gem.wiki/Bxc_Solar_Power_Station","geographyId":"GH-69750345B67040307067067","id":"wattlas-plant-gemplant-l100000800074","lifecycleCounts":{"operational":1},"locationPrecision":"exact","name":"Bxc Solar Power Station","operatingCapacityCoverage":{"coveragePercent":100.0,"knownUnitCount":1,"method":"complete_unit_sum","provenance":{"evidenceCount":0,"recordIds":["wattlas-record-gemunit-g100000800096"],"sourceIds":["gem-global-integrated-power-tracker"],"sourceTypes":["research_verified"],"valueKind":"reported"},"totalUnitCount":1},"operatingCapacityMw":20.0,"operatingCapacityMwByTechnology":{"solar":20.0},"plannedCapacityCoverage":{"coveragePercent":0.0,"knownUnitCount":0,"method":"unavailable","totalUnitCount":0},"plannedCapacityMw":0.0,"plannedCapacityMwByTechnology":{},"recordCount":1,"recordIds":["wattlas-record-gemunit-g100000800096"],"sourceIds":["gem-global-integrated-power-tracker"],"sourceUrl":"https://www.gem.wiki/Bxc_Solar_Power_Station","technologies":["solar"],"technologyMixMw":{"solar":20.0},"unitCount":1,"unitIds":["gem-unit-G100000800096"]},"type":"Feature"},{"geometry":{"coordinates":[-0.7024,5.3413],"type":"Point"},"id":"wattlas-plant-gemplant-l100000800123","properties":{"aliases":["--","Gomoa Onyadze solar farm"],"canonicalAnchor":"gemplant:L100000800123","canonicalCountryKey":"GH","capacityMw":20.0,"country":"GH","externalIds":{"gemPlant":"L100000800123","gemUnit":"G100000800159"},"gemWikiUrl":"https://www.gem.wiki/Gomoa_Onyadze_solar_farm","geographyId":"GH-69750345B67040307067067","id":"wattlas-plant-gemplant-l100000800123","lifecycleCounts":{"operational":1},"locationPrecision":"exact","name":"Gomoa Onyadze solar farm","operatingCapacityCoverage":{"coveragePercent":100.0,"knownUnitCount":1,"method":"complete_unit_sum","provenance":{"evidenceCount":0,"recordIds":["wattlas-record-gemunit-g100000800159"],"sourceIds":["gem-global-integrated-power-tracker"],"sourceTypes":["research_verified"],"valueKind":"reported"},"totalUnitCount":1},"operatingCapacityMw":20.0,"operatingCapacityMwByTechnology":{"solar":20.0},"plannedCapacityCoverage":{"coveragePercent":0.0,"knownUnitCount":0,"method":"unavailable","totalUnitCount":0},"plannedCapacityMw":0.0,"plannedCapacityMwByTechnology":{},"recordCount":1,"recordIds":["wattlas-record-gemunit-g100000800159"],"sourceIds":["gem-global-integrated-power-tracker"],"sourceUrl":"https://www.gem.wiki/Gomoa_Onyadze_solar_farm","technologies":["solar"],"technologyMixMw":{"solar":20.0},"unitCount":1,"unitIds":["gem-unit-G100000800159"]},"type":"Feature"},{"geometry":{"coordinates":[-2.4548,5.0152],"type":"Point"},"id":"wattlas-plant-gemplant-l100000800255","properties":{"aliases":["--","Nzema solar farm"],"canonicalAnchor":"gemplant:L100000800255","canonicalCountryKey":"GH","capacityMw":0.0,"country":"GH","externalIds":{"gemPlant":"L100000800255","gemUnit":"G100000800307"},"gemWikiUrl":"https://www.gem.wiki/Nzema_solar_farm","geographyId":"GH-69750345B38025690459934","id":"wattlas-plant-gemplant-l100000800255","lifecycleCounts":{"cancelled":1},"locationPrecision":"exact","name":"Nzema solar farm","operatingCapacityCoverage":{"coveragePercent":0.0,"knownUnitCount":0,"method":"unavailable","totalUnitCount":0},"operatingCapacityMw":0.0,"operatingCapacityMwByTechnology":{},"plannedCapacityCoverage":{"coveragePercent":0.0,"knownUnitCount":0,"method":"unavailable","totalUnitCount":0},"plannedCapacityMw":0.0,"plannedCapacityMwByTechnology":{},"recordCount":1,"recordIds":["wattlas-record-gemunit-g100000800307"],"sourceIds":["gem-global-integrated-power-tracker"],"sourceUrl":"https://www.gem.wiki/Nzema_solar_farm","technologies":["solar"],"technologyMixMw":{"solar":0.0},"unitCount":1,"unitIds":["gem-unit-G100000800307"]},"type":"Feature"},{"geometry":{"coordinates":[-0.3306,10.6006],"type":"Point"},"id":"wattlas-plant-gemplant-l100000800267","properties":{"aliases":["--","Pwalugu Solar Component"],"canonicalAnchor":"gemplant:L100000800267","canonicalCountryKey":"GH","capacityMw":0.0,"country":"GH","externalIds":{"gemPlant":"L100000800267","gemUnit":"G100000800319"},"gemWikiUrl":"https://www.gem.wiki/Pwalugu_Solar_Component","geographyId":"GH-69750345B94584643914501","id":"wattlas-plant-gemplant-l100000800267","lifecycleCounts":{"paused":1},"locationPrecision":"exact","name":"Pwalugu Solar Component","operatingCapacityCoverage":{"coveragePercent":0.0,"knownUnitCount":0,"method":"unavailable","totalUnitCount":0},"operatingCapacityMw":0.0,"operatingCapacityMwByTechnology":{},"plannedCapacityCoverage":{"coveragePercent":0.0,"knownUnitCount":0,"method":"unavailable","totalUnitCount":0},"plannedCapacityMw":0.0,"plannedCapacityMwByTechnology":{},"recordCount":1,"recordIds":["wattlas-record-gemunit-g100000800319"],"sourceIds":["gem-global-integrated-power-tracker"],"sourceUrl":"https://www.gem.wiki/Pwalugu_Solar_Component","technologies":["solar"],"technologyMixMw":{"solar":0.0},"unitCount":1,"unitIds":["gem-unit-G100000800319"]},"type":"Feature"},{"geometry":{"coordinates":[-0.0496,9.4725],"type":"Point"},"id":"wattlas-plant-gemplant-l100000811606","properties":{"aliases":["1.0","2.0","3.0","4.0","5.0","6.0","7.0","8.0","Bui solar farm"],"canonicalAnchor":"gemplant:L100000811606","canonicalCountryKey":"GH","capacityMw":260.0,"country":"GH","externalIdAliases":{"gemUnit":["G100000814120","G100000814121","G100000814122","G100000814123","G100000814124","G100000814125","G100000814126","G100000814127"]},"externalIds":{"gemPlant":"L100000811606","gemUnit":"G100000814127"},"gemWikiUrl":"https://www.gem.wiki/Bui_solar_farm","geographyId":"GH-69750345B37738609557703","id":"wattlas-plant-gemplant-l100000811606","lifecycleCounts":{"announced":7,"operational":1},"locationPrecision":"exact","name":"Bui solar farm","operatingCapacityCoverage":{"coveragePercent":100.0,"knownUnitCount":1,"method":"complete_unit_sum","provenance":{"evidenceCount":0,"recordIds":["wattlas-record-gemunit-g100000814120"],"sourceIds":["gem-global-integrated-power-tracker"],"sourceTypes":["research_verified"],"valueKind":"reported"},"totalUnitCount":1},"operatingCapacityMw":50.0,"operatingCapacityMwByTechnology":{"solar":50.0},"plannedCapacityCoverage":{"coveragePercent":100.0,"knownUnitCount":7,"method":"complete_unit_sum","provenance":{"evidenceCount":0,"recordIds":["wattlas-record-gemunit-g100000814121","wattlas-record-gemunit-g100000814122","wattlas-record-gemunit-g100000814123","wattlas-record-gemunit-g100000814124","wattlas-record-gemunit-g100000814125","wattlas-record-gemunit-g100000814126","wattlas-record-gemunit-g100000814127"],"sourceIds":["gem-global-integrated-power-tracker"],"sourceTypes":["research_verified"],"valueKind":"reported"},"totalUnitCount":7},"plannedCapacityMw":210.0,"plannedCapacityMwByTechnology":{"solar":210.0},"recordCount":8,"recordIds":["wattlas-record-gemunit-g100000814120","wattlas-record-gemunit-g100000814121","wattlas-record-gemunit-g100000814122","wattlas-record-gemunit-g100000814123","wattlas-record-gemunit-g100000814124","wattlas-record-gemunit-g100000814125","wattlas-record-gemunit-g100000814126","wattlas-record-gemunit-g100000814127"],"sourceIds":["gem-global-integrated-power-tracker"],"sourceUrl":"https://www.gem.wiki/Bui_solar_farm","technologies":["solar"],"technologyMixMw":{"solar":260.0},"unitCount":8,"unitIds":["gem-unit-G100000814120","gem-unit-G100000814121","gem-unit-G100000814122","gem-unit-G100000814123","gem-unit-G100000814124","gem-unit-G100000814125","gem-unit-G100000814126","gem-unit-G100000814127"]},"type":"Feature"},{"geometry":{"coordinates":[-2.5335,10.1729],"type":"Point"},"id":"wattlas-plant-gemplant-l100000827640","properties":{"aliases":["1.0","2.0","Kaleo solar project"],"canonicalAnchor":"gemplant:L100000827640","canonicalCountryKey":"GH","capacityMw":28.0,"country":"GH","externalIdAliases":{"gemUnit":["G100000831169","G100001018531"]},"externalIds":{"gemPlant":"L100000827640","gemUnit":"G100001018531"},"gemWikiUrl":"https://www.gem.wiki/Kaleo_solar_project","geographyId":"GH-69750345B48673213774244","id":"wattlas-plant-gemplant-l100000827640","lifecycleCounts":{"operational":2},"locationPrecision":"exact","name":"Kaleo solar project","operatingCapacityCoverage":{"coveragePercent":100.0,"knownUnitCount":2,"method":"complete_unit_sum","provenance":{"evidenceCount":0,"recordIds":["wattlas-record-gemunit-g100000831169","wattlas-record-gemunit-g100001018531"],"sourceIds":["gem-global-integrated-power-tracker"],"sourceTypes":["research_verified"],"valueKind":"reported"},"totalUnitCount":2},"operatingCapacityMw":28.0,"operatingCapacityMwByTechnology":{"solar":28.0},"plannedCapacityCoverage":{"coveragePercent":0.0,"knownUnitCount":0,"method":"unavailable","totalUnitCount":0},"plannedCapacityMw":0.0,"plannedCapacityMwByTechnology":{},"recordCount":2,"recordIds":["wattlas-record-gemunit-g100000831169","wattlas-record-gemunit-g100001018531"],"sourceIds":["gem-global-integrated-power-tracker"],"sourceUrl":"https://www.gem.wiki/Kaleo_solar_project","technologies":["solar"],"technologyMixMw":{"solar":28.0},"unitCount":2,"unitIds":["gem-unit-G100000831169","gem-unit-G100001018531"]},"type":"Feature"},{"geometry":{"coordinates":[-2.9001,10.6653],"type":"Point"},"id":"wattlas-plant-gemplant-l100000827641","properties":{"aliases":["--","Lawra solar project"],"canonicalAnchor":"gemplant:L100000827641","canonicalCountryKey":"GH","capacityMw":6.5,"country":"GH","externalIds":{"gemPlant":"L100000827641","gemUnit":"G100000831170"},"gemWikiUrl":"https://www.gem.wiki/Lawra_solar_project","geographyId":"GH-69750345B48673213774244","id":"wattlas-plant-gemplant-l100000827641","lifecycleCounts":{"operational":1},"locationPrecision":"exact","name":"Lawra solar project","operatingCapacityCoverage":{"coveragePercent":100.0,"knownUnitCount":1,"method":"complete_unit_sum","provenance":{"evidenceCount":0,"recordIds":["wattlas-record-gemunit-g100000831170"],"sourceIds":["gem-global-integrated-power-tracker"],"sourceTypes":["research_verified"],"valueKind":"reported"},"totalUnitCount":1},"operatingCapacityMw":6.5,"operatingCapacityMwByTechnology":{"solar":6.5},"plannedCapacityCoverage":{"coveragePercent":0.0,"knownUnitCount":0,"method":"unavailable","totalUnitCount":0},"plannedCapacityMw":0.0,"plannedCapacityMwByTechnology":{},"recordCount":1,"recordIds":["wattlas-record-gemunit-g100000831170"],"sourceIds":["gem-global-integrated-power-tracker"],"sourceUrl":"https://www.gem.wiki/Lawra_solar_project","technologies":["solar"],"technologyMixMw":{"solar":6.5},"unitCount":1,"unitIds":["gem-unit-G100000831170"]},"type":"Feature"},{"geometry":{"coordinates":[0.5847,5.811],"type":"Point"},"id":"wattlas-plant-gemplant-l100000900112","properties":{"aliases":["--","Togbloku wind farm"],"canonicalAnchor":"gemplant:L100000900112","canonicalCountryKey":"GH","capacityMw":280.0,"country":"GH","externalIds":{"gemPlant":"L100000900112","gemUnit":"G100000900145"},"gemWikiUrl":"https://www.gem.wiki/Togbloku_wind_farm","geographyId":"GH-69750345B46963341226980","id":"wattlas-plant-gemplant-l100000900112","lifecycleCounts":{"announced":1},"locationPrecision":"exact","name":"Togbloku wind farm","operatingCapacityCoverage":{"coveragePercent":0.0,"knownUnitCount":0,"method":"unavailable","totalUnitCount":0},"operatingCapacityMw":0.0,"operatingCapacityMwByTechnology":{},"plannedCapacityCoverage":{"coveragePercent":100.0,"knownUnitCount":1,"method":"complete_unit_sum","provenance":{"evidenceCount":0,"recordIds":["wattlas-record-gemunit-g100000900145"],"sourceIds":["gem-global-integrated-power-tracker"],"sourceTypes":["research_verified"],"valueKind":"reported"},"totalUnitCount":1},"plannedCapacityMw":280.0,"plannedCapacityMwByTechnology":{"wind":280.0},"recordCount":1,"recordIds":["wattlas-record-gemunit-g100000900145"],"sourceIds":["gem-global-integrated-power-tracker"],"sourceUrl":"https://www.gem.wiki/Togbloku_wind_farm","technologies":["wind"],"technologyMixMw":{"wind":280.0},"unitCount":1,"unitIds":["gem-unit-G100000900145"]},"type":"Feature"},{"geometry":{"coordinates":[0.3386,5.898],"type":"Point"},"id":"wattlas-plant-gemplant-l100000900113","properties":{"aliases":["--","Konikablo wind farm"],"canonicalAnchor":"gemplant:L100000900113","canonicalCountryKey":"GH","capacityMw":0.0,"country":"GH","externalIds":{"gemPlant":"L100000900113","gemUnit":"G100000900146"},"gemWikiUrl":"https://www.gem.wiki/Konikablo_wind_farm","geographyId":"GH-69750345B46963341226980","id":"wattlas-plant-gemplant-l100000900113","lifecycleCounts":{"paused":1},"locationPrecision":"exact","name":"Konikablo wind farm","operatingCapacityCoverage":{"coveragePercent":0.0,"knownUnitCount":0,"method":"unavailable","totalUnitCount":0},"operatingCapacityMw":0.0,"operatingCapacityMwByTechnology":{},"plannedCapacityCoverage":{"coveragePercent":0.0,"knownUnitCount":0,"method":"unavailable","totalUnitCount":0},"plannedCapacityMw":0.0,"plannedCapacityMwByTechnology":{},"recordCount":1,"recordIds":["wattlas-record-gemunit-g100000900146"],"sourceIds":["gem-global-integrated-power-tracker"],"sourceUrl":"https://www.gem.wiki/Konikablo_wind_farm","technologies":["wind"],"technologyMixMw":{"wind":0.0},"unitCount":1,"unitIds":["gem-unit-G100000900146"]},"type":"Feature"},{"geometry":{"coordinates":[0.2512,5.8005],"type":"Point"},"id":"wattlas-plant-gemplant-l100000900114","properties":{"aliases":["1.0","2.0","Ayitepa wind farm"],"canonicalAnchor":"gemplant:L100000900114","canonicalCountryKey":"GH","capacityMw":225.0,"country":"GH","externalIdAliases":{"gemUnit":["G100000900147","G100000900148"]},"externalIds":{"gemPlant":"L100000900114","gemUnit":"G100000900148"},"gemWikiUrl":"https://www.gem.wiki/Ayitepa_wind_farm","geographyId":"GH-69750345B46963341226980","id":"wattlas-plant-gemplant-l100000900114","lifecycleCounts":{"announced":2},"locationPrecision":"exact","name":"Ayitepa wind farm","operatingCapacityCoverage":{"coveragePercent":0.0,"knownUnitCount":0,"method":"unavailable","totalUnitCount":0},"operatingCapacityMw":0.0,"operatingCapacityMwByTechnology":{},"plannedCapacityCoverage":{"coveragePercent":100.0,"knownUnitCount":2,"method":"complete_unit_sum","provenance":{"evidenceCount":0,"recordIds":["wattlas-record-gemunit-g100000900147","wattlas-record-gemunit-g100000900148"],"sourceIds":["gem-global-integrated-power-tracker"],"sourceTypes":["research_verified"],"valueKind":"reported"},"totalUnitCount":2},"plannedCapacityMw":225.0,"plannedCapacityMwByTechnology":{"wind":225.0},"recordCount":2,"recordIds":["wattlas-record-gemunit-g100000900147","wattlas-record-gemunit-g100000900148"],"sourceIds":["gem-global-integrated-power-tracker"],"sourceUrl":"https://www.gem.wiki/Ayitepa_wind_farm","technologies":["wind"],"technologyMixMw":{"wind":225.0},"unitCount":2,"unitIds":["gem-unit-G100000900147","gem-unit-G100000900148"]},"type":"Feature"},{"geometry":{"coordinates":[0.0133,5.6999],"type":"Point"},"id":"wattlas-plant-gemplant-l100001016636","properties":{"aliases":["--","Tema Freezone rooftop solar"],"canonicalAnchor":"gemplant:L100001016636","canonicalCountryKey":"GH","capacityMw":16.8,"country":"GH","externalIds":{"gemPlant":"L100001016636","gemUnit":"G100001018532"},"gemWikiUrl":"https://www.gem.wiki/Tema_Freezone_rooftop_solar","geographyId":"GH-69750345B46963341226980","id":"wattlas-plant-gemplant-l100001016636","lifecycleCounts":{"operational":1},"locationPrecision":"exact","name":"Tema Freezone rooftop solar","operatingCapacityCoverage":{"coveragePercent":100.0,"knownUnitCount":1,"method":"complete_unit_sum","provenance":{"evidenceCount":0,"recordIds":["wattlas-record-gemunit-g100001018532"],"sourceIds":["gem-global-integrated-power-tracker"],"sourceTypes":["research_verified"],"valueKind":"reported"},"totalUnitCount":1},"operatingCapacityMw":16.8,"operatingCapacityMwByTechnology":{"solar":16.8},"plannedCapacityCoverage":{"coveragePercent":0.0,"knownUnitCount":0,"method":"unavailable","totalUnitCount":0},"plannedCapacityMw":0.0,"plannedCapacityMwByTechnology":{},"recordCount":1,"recordIds":["wattlas-record-gemunit-g100001018532"],"sourceIds":["gem-global-integrated-power-tracker"],"sourceUrl":"https://www.gem.wiki/Tema_Freezone_rooftop_solar","technologies":["solar"],"technologyMixMw":{"solar":16.8},"unitCount":1,"unitIds":["gem-unit-G100001018532"]},"type":"Feature"},{"geometry":{"coordinates":[-1.0554,10.9234],"type":"Point"},"id":"wattlas-plant-gemplant-l100001020893","properties":{"aliases":["--","Kassena-Nankana Municipal District solar project"],"canonicalAnchor":"gemplant:L100001020893","canonicalCountryKey":"GH","capacityMw":3.7,"country":"GH","externalIds":{"gemPlant":"L100001020893","gemUnit":"G100001023862"},"gemWikiUrl":"https://www.gem.wiki/Kassena-Nankana_Municipal_District_solar_project","geographyId":"GH-69750345B7467317238909","id":"wattlas-plant-gemplant-l100001020893","lifecycleCounts":{"operational":1},"locationPrecision":"exact","name":"Kassena-Nankana Municipal District solar project","operatingCapacityCoverage":{"coveragePercent":100.0,"knownUnitCount":1,"method":"complete_unit_sum","provenance":{"evidenceCount":0,"recordIds":["wattlas-record-gemunit-g100001023862"],"sourceIds":["gem-global-integrated-power-tracker"],"sourceTypes":["research_verified"],"valueKind":"reported"},"totalUnitCount":1},"operatingCapacityMw":3.7,"operatingCapacityMwByTechnology":{"solar":3.7},"plannedCapacityCoverage":{"coveragePercent":0.0,"knownUnitCount":0,"method":"unavailable","totalUnitCount":0},"plannedCapacityMw":0.0,"plannedCapacityMwByTechnology":{},"recordCount":1,"recordIds":["wattlas-record-gemunit-g100001023862"],"sourceIds":["gem-global-integrated-power-tracker"],"sourceUrl":"https://www.gem.wiki/Kassena-Nankana_Municipal_District_solar_project","technologies":["solar"],"technologyMixMw":{"solar":3.7},"unitCount":1,"unitIds":["gem-unit-G100001023862"]},"type":"Feature"},{"geometry":{"coordinates":[-2.5348,10.1798],"type":"Point"},"id":"wattlas-plant-gemplant-l100001020894","properties":{"aliases":["--","Nadowli-Kaleo District solar project"],"canonicalAnchor":"gemplant:L100001020894","canonicalCountryKey":"GH","capacityMw":4.2,"country":"GH","externalIds":{"gemPlant":"L100001020894","gemUnit":"G100001023863"},"gemWikiUrl":"https://www.gem.wiki/Nadowli-Kaleo_District_solar_project","geographyId":"GH-69750345B48673213774244","id":"wattlas-plant-gemplant-l100001020894","lifecycleCounts":{"operational":1},"locationPrecision":"exact","name":"Nadowli-Kaleo District solar project","operatingCapacityCoverage":{"coveragePercent":100.0,"knownUnitCount":1,"method":"complete_unit_sum","provenance":{"evidenceCount":0,"recordIds":["wattlas-record-gemunit-g100001023863"],"sourceIds":["gem-global-integrated-power-tracker"],"sourceTypes":["research_verified"],"valueKind":"reported"},"totalUnitCount":1},"operatingCapacityMw":4.2,"operatingCapacityMwByTechnology":{"solar":4.2},"plannedCapacityCoverage":{"coveragePercent":0.0,"knownUnitCount":0,"method":"unavailable","totalUnitCount":0},"plannedCapacityMw":0.0,"plannedCapacityMwByTechnology":{},"recordCount":1,"recordIds":["wattlas-record-gemunit-g100001023863"],"sourceIds":["gem-global-integrated-power-tracker"],"sourceUrl":"https://www.gem.wiki/Nadowli-Kaleo_District_solar_project","technologies":["solar"],"technologyMixMw":{"solar":4.2},"unitCount":1,"unitIds":["gem-unit-G100001023863"]},"type":"Feature"},{"geometry":{"coordinates":[-1.4599,6.6145],"type":"Point"},"id":"wattlas-plant-gemplant-l100001020895","properties":{"aliases":["--","Ejisu Municipal District solar project"],"canonicalAnchor":"gemplant:L100001020895","canonicalCountryKey":"GH","capacityMw":2.4,"country":"GH","externalIds":{"gemPlant":"L100001020895","gemUnit":"G100001023864"},"gemWikiUrl":"https://www.gem.wiki/Ejisu_Municipal_District_solar_project","geographyId":"GH-69750345B3295588325057","id":"wattlas-plant-gemplant-l100001020895","lifecycleCounts":{"operational":1},"locationPrecision":"exact","name":"Ejisu Municipal District solar project","operatingCapacityCoverage":{"coveragePercent":100.0,"knownUnitCount":1,"method":"complete_unit_sum","provenance":{"evidenceCount":0,"recordIds":["wattlas-record-gemunit-g100001023864"],"sourceIds":["gem-global-integrated-power-tracker"],"sourceTypes":["research_verified"],"valueKind":"reported"},"totalUnitCount":1},"operatingCapacityMw":2.4,"operatingCapacityMwByTechnology":{"solar":2.4},"plannedCapacityCoverage":{"coveragePercent":0.0,"knownUnitCount":0,"method":"unavailable","totalUnitCount":0},"plannedCapacityMw":0.0,"plannedCapacityMwByTechnology":{},"recordCount":1,"recordIds":["wattlas-record-gemunit-g100001023864"],"sourceIds":["gem-global-integrated-power-tracker"],"sourceUrl":"https://www.gem.wiki/Ejisu_Municipal_District_solar_project","technologies":["solar"],"technologyMixMw":{"solar":2.4},"unitCount":1,"unitIds":["gem-unit-G100001023864"]},"type":"Feature"},{"geometry":{"coordinates":[-2.2533,8.2654],"type":"Point"},"id":"wattlas-plant-gemplant-l100001020896","properties":{"aliases":["--","Banda District solar project"],"canonicalAnchor":"gemplant:L100001020896","canonicalCountryKey":"GH","capacityMw":3.2,"country":"GH","externalIds":{"gemPlant":"L100001020896","gemUnit":"G100001023865"},"gemWikiUrl":"https://www.gem.wiki/Banda_District_solar_project","geographyId":"GH-69750345B13833050062966","id":"wattlas-plant-gemplant-l100001020896","lifecycleCounts":{"operational":1},"locationPrecision":"exact","name":"Banda District solar project","operatingCapacityCoverage":{"coveragePercent":100.0,"knownUnitCount":1,"method":"complete_unit_sum","provenance":{"evidenceCount":0,"recordIds":["wattlas-record-gemunit-g100001023865"],"sourceIds":["gem-global-integrated-power-tracker"],"sourceTypes":["research_verified"],"valueKind":"reported"},"totalUnitCount":1},"operatingCapacityMw":3.2,"operatingCapacityMwByTechnology":{"solar":3.2},"plannedCapacityCoverage":{"coveragePercent":0.0,"knownUnitCount":0,"method":"unavailable","totalUnitCount":0},"plannedCapacityMw":0.0,"plannedCapacityMwByTechnology":{},"recordCount":1,"recordIds":["wattlas-record-gemunit-g100001023865"],"sourceIds":["gem-global-integrated-power-tracker"],"sourceUrl":"https://www.gem.wiki/Banda_District_solar_project","technologies":["solar"],"technologyMixMw":{"solar":3.2},"unitCount":1,"unitIds":["gem-unit-G100001023865"]},"type":"Feature"},{"geometry":{"coordinates":[-0.4505,6.8651],"type":"Point"},"id":"wattlas-plant-gemplant-l100001064791","properties":{"aliases":["--","Kwahu Afram Plains South District solar project"],"canonicalAnchor":"gemplant:L100001064791","canonicalCountryKey":"GH","capacityMw":1.5,"country":"GH","externalIds":{"gemPlant":"L100001064791","gemUnit":"G100001074577"},"gemWikiUrl":"https://www.gem.wiki/Kwahu_Afram_Plains_South_District_solar_project","geographyId":"GH-69750345B54645730941985","id":"wattlas-plant-gemplant-l100001064791","lifecycleCounts":{"operational":1},"locationPrecision":"exact","name":"Kwahu Afram Plains South District solar project","operatingCapacityCoverage":{"coveragePercent":100.0,"knownUnitCount":1,"method":"complete_unit_sum","provenance":{"evidenceCount":0,"recordIds":["wattlas-record-gemunit-g100001074577"],"sourceIds":["gem-global-integrated-power-tracker"],"sourceTypes":["research_verified"],"valueKind":"reported"},"totalUnitCount":1},"operatingCapacityMw":1.5,"operatingCapacityMwByTechnology":{"solar":1.5},"plannedCapacityCoverage":{"coveragePercent":0.0,"knownUnitCount":0,"method":"unavailable","totalUnitCount":0},"plannedCapacityMw":0.0,"plannedCapacityMwByTechnology":{},"recordCount":1,"recordIds":["wattlas-record-gemunit-g100001074577"],"sourceIds":["gem-global-integrated-power-tracker"],"sourceUrl":"https://www.gem.wiki/Kwahu_Afram_Plains_South_District_solar_project","technologies":["solar"],"technologyMixMw":{"solar":1.5},"unitCount":1,"unitIds":["gem-unit-G100001074577"]},"type":"Feature"},{"geometry":{"coordinates":[-1.2541,6.6149],"type":"Point"},"id":"wattlas-plant-gemplant-l100001064792","properties":{"aliases":["--","Asante-Akim Central Municipal District solar project"],"canonicalAnchor":"gemplant:L100001064792","canonicalCountryKey":"GH","capacityMw":2.5,"country":"GH","externalIds":{"gemPlant":"L100001064792","gemUnit":"G100001074578"},"gemWikiUrl":"https://www.gem.wiki/Asante-Akim_Central_Municipal_District_solar_project","geographyId":"GH-69750345B3295588325057","id":"wattlas-plant-gemplant-l100001064792","lifecycleCounts":{"operational":1},"locationPrecision":"exact","name":"Asante-Akim Central Municipal District solar project","operatingCapacityCoverage":{"coveragePercent":100.0,"knownUnitCount":1,"method":"complete_unit_sum","provenance":{"evidenceCount":0,"recordIds":["wattlas-record-gemunit-g100001074578"],"sourceIds":["gem-global-integrated-power-tracker"],"sourceTypes":["research_verified"],"valueKind":"reported"},"totalUnitCount":1},"operatingCapacityMw":2.5,"operatingCapacityMwByTechnology":{"solar":2.5},"plannedCapacityCoverage":{"coveragePercent":0.0,"knownUnitCount":0,"method":"unavailable","totalUnitCount":0},"plannedCapacityMw":0.0,"plannedCapacityMwByTechnology":{},"recordCount":1,"recordIds":["wattlas-record-gemunit-g100001074578"],"sourceIds":["gem-global-integrated-power-tracker"],"sourceUrl":"https://www.gem.wiki/Asante-Akim_Central_Municipal_District_solar_project","technologies":["solar"],"technologyMixMw":{"solar":2.5},"unitCount":1,"unitIds":["gem-unit-G100001074578"]},"type":"Feature"},{"geometry":{"coordinates":[-0.0474,9.4738],"type":"Point"},"id":"wattlas-plant-gemplant-l100001064793","properties":{"aliases":["--","Yendi Yendi Municipal District solar project"],"canonicalAnchor":"gemplant:L100001064793","canonicalCountryKey":"GH","capacityMw":11.9,"country":"GH","externalIds":{"gemPlant":"L100001064793","gemUnit":"G100001074579"},"gemWikiUrl":"https://www.gem.wiki/Yendi_Yendi_Municipal_District_solar_project","geographyId":"GH-69750345B37738609557703","id":"wattlas-plant-gemplant-l100001064793","lifecycleCounts":{"operational":1},"locationPrecision":"exact","name":"Yendi Yendi Municipal District solar project","operatingCapacityCoverage":{"coveragePercent":100.0,"knownUnitCount":1,"method":"complete_unit_sum","provenance":{"evidenceCount":0,"recordIds":["wattlas-record-gemunit-g100001074579"],"sourceIds":["gem-global-integrated-power-tracker"],"sourceTypes":["research_verified"],"valueKind":"reported"},"totalUnitCount":1},"operatingCapacityMw":11.9,"operatingCapacityMwByTechnology":{"solar":11.9},"plannedCapacityCoverage":{"coveragePercent":0.0,"knownUnitCount":0,"method":"unavailable","totalUnitCount":0},"plannedCapacityMw":0.0,"plannedCapacityMwByTechnology":{},"recordCount":1,"recordIds":["wattlas-record-gemunit-g100001074579"],"sourceIds":["gem-global-integrated-power-tracker"],"sourceUrl":"https://www.gem.wiki/Yendi_Yendi_Municipal_District_solar_project","technologies":["solar"],"technologyMixMw":{"solar":11.9},"unitCount":1,"unitIds":["gem-unit-G100001074579"]},"type":"Feature"},{"geometry":{"coordinates":[-2.2447,7.2416],"type":"Point"},"id":"wattlas-plant-gemplant-l100001064794","properties":{"aliases":["--","Tano North Municipal District solar project"],"canonicalAnchor":"gemplant:L100001064794","canonicalCountryKey":"GH","capacityMw":5.5,"country":"GH","externalIds":{"gemPlant":"L100001064794","gemUnit":"G100001074580"},"gemWikiUrl":"https://www.gem.wiki/Tano_North_Municipal_District_solar_project","geographyId":"GH-69750345B39836988306125","id":"wattlas-plant-gemplant-l100001064794","lifecycleCounts":{"operational":1},"locationPrecision":"exact","name":"Tano North Municipal District solar project","operatingCapacityCoverage":{"coveragePercent":100.0,"knownUnitCount":1,"method":"complete_unit_sum","provenance":{"evidenceCount":0,"recordIds":["wattlas-record-gemunit-g100001074580"],"sourceIds":["gem-global-integrated-power-tracker"],"sourceTypes":["research_verified"],"valueKind":"reported"},"totalUnitCount":1},"operatingCapacityMw":5.5,"operatingCapacityMwByTechnology":{"solar":5.5},"plannedCapacityCoverage":{"coveragePercent":0.0,"knownUnitCount":0,"method":"unavailable","totalUnitCount":0},"plannedCapacityMw":0.0,"plannedCapacityMwByTechnology":{},"recordCount":1,"recordIds":["wattlas-record-gemunit-g100001074580"],"sourceIds":["gem-global-integrated-power-tracker"],"sourceUrl":"https://www.gem.wiki/Tano_North_Municipal_District_solar_project","technologies":["solar"],"technologyMixMw":{"solar":5.5},"unitCount":1,"unitIds":["gem-unit-G100001074580"]},"type":"Feature"},{"geometry":{"coordinates":[-2.533618,10.172746],"type":"Point"},"id":"wattlas-plant-osm-way-1133332174","properties":{"aliases":["Nadowli-Kaleo District solar project"],"canonicalAnchor":"osm:way/1133332174","canonicalCountryKey":"GH","capacityMw":5.8,"country":"GH","externalIds":{"osm":"way/1133332174"},"geographyId":"GH-69750345B48673213774244","id":"wattlas-plant-osm-way-1133332174","lifecycleCounts":{"operational":1},"locationPrecision":"exact","name":"Nadowli-Kaleo District solar project","operatingCapacityCoverage":{"coveragePercent":100.0,"knownUnitCount":0,"method":"plant_aggregate","provenance":{"evidenceCount":0,"recordIds":["wattlas-record-osm-way-1133332174"],"sourceIds":["openstreetmap-power"],"sourceTypes":["community_mapped"],"valueKind":"reported"},"totalUnitCount":0},"operatingCapacityMw":5.8,"operatingCapacityMwByTechnology":{"solar":5.8},"plannedCapacityCoverage":{"coveragePercent":0.0,"knownUnitCount":0,"method":"unavailable","totalUnitCount":0},"plannedCapacityMw":0.0,"plannedCapacityMwByTechnology":{},"recordCount":1,"recordIds":["wattlas-record-osm-way-1133332174"],"sourceIds":["openstreetmap-power"],"sourceUrl":"https://www.openstreetmap.org/way/1133332174","technologies":["solar"],"technologyMixMw":{"solar":5.8},"unitCount":0,"unitIds":[]},"type":"Feature"},{"geometry":{"coordinates":[-2.534204,10.180031],"type":"Point"},"id":"wattlas-plant-osm-way-1133332257","properties":{"aliases":["Kaleo Solar Farm - Phase I"],"canonicalAnchor":"osm:way/1133332257","canonicalCountryKey":"GH","capacityMw":15.0,"country":"GH","externalIds":{"osm":"way/1133332257"},"geographyId":"GH-69750345B48673213774244","id":"wattlas-plant-osm-way-1133332257","lifecycleCounts":{"operational":1},"locationPrecision":"exact","name":"Kaleo Solar Farm - Phase I","operatingCapacityCoverage":{"coveragePercent":100.0,"knownUnitCount":0,"method":"plant_aggregate","provenance":{"evidenceCount":0,"recordIds":["wattlas-record-osm-way-1133332257"],"sourceIds":["openstreetmap-power"],"sourceTypes":["community_mapped"],"valueKind":"reported"},"totalUnitCount":0},"operatingCapacityMw":15.0,"operatingCapacityMwByTechnology":{"solar":15.0},"plannedCapacityCoverage":{"coveragePercent":0.0,"knownUnitCount":0,"method":"unavailable","totalUnitCount":0},"plannedCapacityMw":0.0,"plannedCapacityMwByTechnology":{},"recordCount":1,"recordIds":["wattlas-record-osm-way-1133332257"],"sourceIds":["openstreetmap-power"],"sourceUrl":"https://www.openstreetmap.org/way/1133332257","technologies":["solar"],"technologyMixMw":{"solar":15.0},"unitCount":0,"unitIds":[]},"type":"Feature"},{"geometry":{"coordinates":[-0.693246,5.3711],"type":"Point"},"id":"wattlas-plant-osm-way-1201725680","properties":{"aliases":["BXC Oyandze"],"canonicalAnchor":"osm:way/1201725680","canonicalCountryKey":"GH","capacityMw":20.0,"country":"GH","externalIds":{"osm":"way/1201725680"},"geographyId":"GH-69750345B67040307067067","id":"wattlas-plant-osm-way-1201725680","lifecycleCounts":{"operational":1},"locationPrecision":"exact","name":"BXC Oyandze","operatingCapacityCoverage":{"coveragePercent":100.0,"knownUnitCount":0,"method":"plant_aggregate","provenance":{"evidenceCount":0,"recordIds":["wattlas-record-osm-way-1201725680"],"sourceIds":["openstreetmap-power"],"sourceTypes":["community_mapped"],"valueKind":"reported"},"totalUnitCount":0},"operatingCapacityMw":20.0,"operatingCapacityMwByTechnology":{"solar":20.0},"plannedCapacityCoverage":{"coveragePercent":0.0,"knownUnitCount":0,"method":"unavailable","totalUnitCount":0},"plannedCapacityMw":0.0,"plannedCapacityMwByTechnology":{},"recordCount":1,"recordIds":["wattlas-record-osm-way-1201725680"],"sourceIds":["openstreetmap-power"],"sourceUrl":"https://www.openstreetmap.org/way/1201725680","technologies":["solar"],"technologyMixMw":{"solar":20.0},"unitCount":0,"unitIds":[]},"type":"Feature"},{"geometry":{"coordinates":[0.025045,5.693932],"type":"Point"},"id":"wattlas-plant-osm-way-1246170596","properties":{"aliases":["Mapped power plant · OSM 1246170596"],"canonicalAnchor":"osm:way/1246170596","canonicalCountryKey":"GH","capacityMw":370.0,"country":"GH","externalIds":{"osm":"way/1246170596"},"geographyId":"GH-69750345B46963341226980","id":"wattlas-plant-osm-way-1246170596","lifecycleCounts":{"operational":1},"locationPrecision":"exact","name":"Mapped power plant · OSM 1246170596","operatingCapacityCoverage":{"coveragePercent":100.0,"knownUnitCount":0,"method":"plant_aggregate","provenance":{"evidenceCount":0,"recordIds":["wattlas-record-osm-way-1246170596"],"sourceIds":["openstreetmap-power"],"sourceTypes":["community_mapped"],"valueKind":"reported"},"totalUnitCount":0},"operatingCapacityMw":370.0,"operatingCapacityMwByTechnology":{"oil":370.0},"plannedCapacityCoverage":{"coveragePercent":0.0,"knownUnitCount":0,"method":"unavailable","totalUnitCount":0},"plannedCapacityMw":0.0,"plannedCapacityMwByTechnology":{},"recordCount":1,"recordIds":["wattlas-record-osm-way-1246170596"],"sourceIds":["openstreetmap-power"],"sourceUrl":"https://www.openstreetmap.org/way/1246170596","technologies":["oil"],"technologyMixMw":{"oil":370.0},"unitCount":0,"unitIds":[]},"type":"Feature"},{"geometry":{"coordinates":[-2.373218,6.291356],"type":"Point"},"id":"wattlas-plant-osm-way-1254910749","properties":{"aliases":["Chirano Plant"],"canonicalAnchor":"osm:way/1254910749","canonicalCountryKey":"GH","capacityMw":33.0,"country":"GH","externalIds":{"osm":"way/1254910749"},"geographyId":"GH-69750345B35244651716901","id":"wattlas-plant-osm-way-1254910749","lifecycleCounts":{"operational":1},"locationPrecision":"exact","name":"Chirano Plant","operatingCapacityCoverage":{"coveragePercent":100.0,"knownUnitCount":0,"method":"plant_aggregate","provenance":{"evidenceCount":0,"recordIds":["wattlas-record-osm-way-1254910749"],"sourceIds":["openstreetmap-power"],"sourceTypes":["community_mapped"],"valueKind":"reported"},"totalUnitCount":0},"operatingCapacityMw":33.0,"operatingCapacityMwByTechnology":{"gas":33.0},"plannedCapacityCoverage":{"coveragePercent":0.0,"knownUnitCount":0,"method":"unavailable","totalUnitCount":0},"plannedCapacityMw":0.0,"plannedCapacityMwByTechnology":{},"recordCount":1,"recordIds":["wattlas-record-osm-way-1254910749"],"sourceIds":["openstreetmap-power"],"sourceUrl":"https://www.openstreetmap.org/way/1254910749","technologies":["gas"],"technologyMixMw":{"gas":33.0},"unitCount":0,"unitIds":[]},"type":"Feature"},{"geometry":{"coordinates":[-1.055516,10.923343],"type":"Point"},"id":"wattlas-plant-osm-way-1284312136","properties":{"aliases":["Navrongo"],"canonicalAnchor":"osm:way/1284312136","canonicalCountryKey":"GH","capacityMw":2.5,"country":"GH","externalIds":{"osm":"way/1284312136"},"geographyId":"GH-69750345B7467317238909","id":"wattlas-plant-osm-way-1284312136","lifecycleCounts":{"operational":1},"locationPrecision":"exact","name":"Navrongo","operatingCapacityCoverage":{"coveragePercent":100.0,"knownUnitCount":0,"method":"plant_aggregate","provenance":{"evidenceCount":0,"recordIds":["wattlas-record-osm-way-1284312136"],"sourceIds":["openstreetmap-power"],"sourceTypes":["community_mapped"],"valueKind":"reported"},"totalUnitCount":0},"operatingCapacityMw":2.5,"operatingCapacityMwByTechnology":{"solar":2.5},"plannedCapacityCoverage":{"coveragePercent":0.0,"knownUnitCount":0,"method":"unavailable","totalUnitCount":0},"plannedCapacityMw":0.0,"plannedCapacityMwByTechnology":{},"recordCount":1,"recordIds":["wattlas-record-osm-way-1284312136"],"sourceIds":["openstreetmap-power"],"sourceUrl":"https://www.openstreetmap.org/way/1284312136","technologies":["solar"],"technologyMixMw":{"solar":2.5},"unitCount":0,"unitIds":[]},"type":"Feature"},{"geometry":{"coordinates":[-2.535359,10.166587],"type":"Point"},"id":"wattlas-plant-osm-way-1284321013","properties":{"aliases":["Kaleo Solar Farm - Phase II"],"canonicalAnchor":"osm:way/1284321013","canonicalCountryKey":"GH","capacityMw":15.0,"country":"GH","externalIds":{"osm":"way/1284321013"},"geographyId":"GH-69750345B48673213774244","id":"wattlas-plant-osm-way-1284321013","lifecycleCounts":{"operational":1},"locationPrecision":"exact","name":"Kaleo Solar Farm - Phase II","operatingCapacityCoverage":{"coveragePercent":100.0,"knownUnitCount":0,"method":"plant_aggregate","provenance":{"evidenceCount":0,"recordIds":["wattlas-record-osm-way-1284321013"],"sourceIds":["openstreetmap-power"],"sourceTypes":["community_mapped"],"valueKind":"reported"},"totalUnitCount":0},"operatingCapacityMw":15.0,"operatingCapacityMwByTechnology":{"solar":15.0},"plannedCapacityCoverage":{"coveragePercent":0.0,"knownUnitCount":0,"method":"unavailable","totalUnitCount":0},"plannedCapacityMw":0.0,"plannedCapacityMwByTechnology":{},"recordCount":1,"recordIds":["wattlas-record-osm-way-1284321013"],"sourceIds":["openstreetmap-power"],"sourceUrl":"https://www.openstreetmap.org/way/1284321013","technologies":["solar"],"technologyMixMw":{"solar":15.0},"unitCount":0,"unitIds":[]},"type":"Feature"},{"geometry":{"coordinates":[-0.050166,9.474131],"type":"Point"},"id":"wattlas-plant-osm-way-1424431183","properties":{"aliases":["Yendi"],"canonicalAnchor":"osm:way/1424431183","canonicalCountryKey":"GH","capacityMw":50.0,"country":"GH","externalIds":{"osm":"way/1424431183"},"geographyId":"GH-69750345B37738609557703","id":"wattlas-plant-osm-way-1424431183","lifecycleCounts":{"operational":1},"locationPrecision":"exact","name":"Yendi","operatingCapacityCoverage":{"coveragePercent":100.0,"knownUnitCount":0,"method":"plant_aggregate","provenance":{"evidenceCount":0,"recordIds":["wattlas-record-osm-way-1424431183"],"sourceIds":["openstreetmap-power"],"sourceTypes":["community_mapped"],"valueKind":"reported"},"totalUnitCount":0},"operatingCapacityMw":50.0,"operatingCapacityMwByTechnology":{"solar":50.0},"plannedCapacityCoverage":{"coveragePercent":0.0,"knownUnitCount":0,"method":"unavailable","totalUnitCount":0},"plannedCapacityMw":0.0,"plannedCapacityMwByTechnology":{},"recordCount":1,"recordIds":["wattlas-record-osm-way-1424431183"],"sourceIds":["openstreetmap-power"],"sourceUrl":"https://www.openstreetmap.org/way/1424431183","technologies":["solar"],"technologyMixMw":{"solar":50.0},"unitCount":0,"unitIds":[]},"type":"Feature"},{"geometry":{"coordinates":[-2.245549,8.261483],"type":"Point"},"id":"wattlas-plant-osm-way-1442128806","properties":{"aliases":["Bui Solar Farm"],"canonicalAnchor":"osm:way/1442128806","canonicalCountryKey":"GH","capacityMw":50.0,"country":"GH","externalIds":{"osm":"way/1442128806"},"geographyId":"GH-69750345B13833050062966","id":"wattlas-plant-osm-way-1442128806","lifecycleCounts":{"operational":1},"locationPrecision":"exact","name":"Bui Solar Farm","operatingCapacityCoverage":{"coveragePercent":100.0,"knownUnitCount":0,"method":"plant_aggregate","provenance":{"evidenceCount":0,"recordIds":["wattlas-record-osm-way-1442128806"],"sourceIds":["openstreetmap-power"],"sourceTypes":["community_mapped"],"valueKind":"reported"},"totalUnitCount":0},"operatingCapacityMw":50.0,"operatingCapacityMwByTechnology":{"solar":50.0},"plannedCapacityCoverage":{"coveragePercent":0.0,"knownUnitCount":0,"method":"unavailable","totalUnitCount":0},"plannedCapacityMw":0.0,"plannedCapacityMwByTechnology":{},"recordCount":1,"recordIds":["wattlas-record-osm-way-1442128806"],"sourceIds":["openstreetmap-power"],"sourceUrl":"https://www.openstreetmap.org/way/1442128806","technologies":["solar"],"technologyMixMw":{"solar":50.0},"unitCount":0,"unitIds":[]},"type":"Feature"},{"geometry":{"coordinates":[-1.459885,6.61469],"type":"Point"},"id":"wattlas-plant-osm-way-1442129276","properties":{"aliases":["Premium Foods - Kwaso"],"canonicalAnchor":"osm:way/1442129276","canonicalCountryKey":"GH","capacityMw":2.0,"country":"GH","externalIds":{"osm":"way/1442129276"},"geographyId":"GH-69750345B3295588325057","id":"wattlas-plant-osm-way-1442129276","lifecycleCounts":{"operational":1},"locationPrecision":"exact","name":"Premium Foods - Kwaso","operatingCapacityCoverage":{"coveragePercent":100.0,"knownUnitCount":0,"method":"plant_aggregate","provenance":{"evidenceCount":0,"recordIds":["wattlas-record-osm-way-1442129276"],"sourceIds":["openstreetmap-power"],"sourceTypes":["community_mapped"],"valueKind":"reported"},"totalUnitCount":0},"operatingCapacityMw":2.0,"operatingCapacityMwByTechnology":{"solar":2.0},"plannedCapacityCoverage":{"coveragePercent":0.0,"knownUnitCount":0,"method":"unavailable","totalUnitCount":0},"plannedCapacityMw":0.0,"plannedCapacityMwByTechnology":{},"recordCount":1,"recordIds":["wattlas-record-osm-way-1442129276"],"sourceIds":["openstreetmap-power"],"sourceUrl":"https://www.openstreetmap.org/way/1442129276","technologies":["solar"],"technologyMixMw":{"solar":2.0},"unitCount":0,"unitIds":[]},"type":"Feature"},{"geometry":{"coordinates":[-2.900278,10.66524],"type":"Point"},"id":"wattlas-plant-osm-way-1442129277","properties":{"aliases":["Mapped power plant · OSM 1442129277"],"canonicalAnchor":"osm:way/1442129277","canonicalCountryKey":"GH","capacityMw":6.5,"country":"GH","externalIds":{"osm":"way/1442129277"},"geographyId":"GH-69750345B48673213774244","id":"wattlas-plant-osm-way-1442129277","lifecycleCounts":{"operational":1},"locationPrecision":"exact","name":"Mapped power plant · OSM 1442129277","operatingCapacityCoverage":{"coveragePercent":100.0,"knownUnitCount":0,"method":"plant_aggregate","provenance":{"evidenceCount":0,"recordIds":["wattlas-record-osm-way-1442129277"],"sourceIds":["openstreetmap-power"],"sourceTypes":["community_mapped"],"valueKind":"reported"},"totalUnitCount":0},"operatingCapacityMw":6.5,"operatingCapacityMwByTechnology":{"solar":6.5},"plannedCapacityCoverage":{"coveragePercent":0.0,"knownUnitCount":0,"method":"unavailable","totalUnitCount":0},"plannedCapacityMw":0.0,"plannedCapacityMwByTechnology":{},"recordCount":1,"recordIds":["wattlas-record-osm-way-1442129277"],"sourceIds":["openstreetmap-power"],"sourceUrl":"https://www.openstreetmap.org/way/1442129277","technologies":["solar"],"technologyMixMw":{"solar":6.5},"unitCount":0,"unitIds":[]},"type":"Feature"},{"geometry":{"coordinates":[-2.253292,8.265395],"type":"Point"},"id":"wattlas-plant-osm-way-1450979103","properties":{"aliases":["Bui Floating Solar Farm"],"canonicalAnchor":"osm:way/1450979103","canonicalCountryKey":"GH","capacityMw":5.0,"country":"GH","externalIds":{"osm":"way/1450979103"},"geographyId":"GH-69750345B13833050062966","id":"wattlas-plant-osm-way-1450979103","lifecycleCounts":{"operational":1},"locationPrecision":"exact","name":"Bui Floating Solar Farm","operatingCapacityCoverage":{"coveragePercent":100.0,"knownUnitCount":0,"method":"plant_aggregate","provenance":{"evidenceCount":0,"recordIds":["wattlas-record-osm-way-1450979103"],"sourceIds":["openstreetmap-power"],"sourceTypes":["community_mapped"],"valueKind":"reported"},"totalUnitCount":0},"operatingCapacityMw":5.0,"operatingCapacityMwByTechnology":{"solar":5.0},"plannedCapacityCoverage":{"coveragePercent":0.0,"knownUnitCount":0,"method":"unavailable","totalUnitCount":0},"plannedCapacityMw":0.0,"plannedCapacityMwByTechnology":{},"recordCount":1,"recordIds":["wattlas-record-osm-way-1450979103"],"sourceIds":["openstreetmap-power"],"sourceUrl":"https://www.openstreetmap.org/way/1450979103","technologies":["solar"],"technologyMixMw":{"solar":5.0},"unitCount":0,"unitIds":[]},"type":"Feature"},{"geometry":{"coordinates":[-2.026624,5.327177],"type":"Point"},"id":"wattlas-plant-osm-way-1458096387","properties":{"aliases":["Tarkwa Plant"],"canonicalAnchor":"osm:way/1458096387","canonicalCountryKey":"GH","capacityMw":66.0,"country":"GH","externalIds":{"osm":"way/1458096387"},"geographyId":"GH-69750345B38025690459934","id":"wattlas-plant-osm-way-1458096387","lifecycleCounts":{"operational":1},"locationPrecision":"exact","name":"Tarkwa Plant","operatingCapacityCoverage":{"coveragePercent":100.0,"knownUnitCount":0,"method":"plant_aggregate","provenance":{"evidenceCount":0,"recordIds":["wattlas-record-osm-way-1458096387"],"sourceIds":["openstreetmap-power"],"sourceTypes":["community_mapped"],"valueKind":"reported"},"totalUnitCount":0},"operatingCapacityMw":66.0,"operatingCapacityMwByTechnology":{"gas":66.0},"plannedCapacityCoverage":{"coveragePercent":0.0,"knownUnitCount":0,"method":"unavailable","totalUnitCount":0},"plannedCapacityMw":0.0,"plannedCapacityMwByTechnology":{},"recordCount":1,"recordIds":["wattlas-record-osm-way-1458096387"],"sourceIds":["openstreetmap-power"],"sourceUrl":"https://www.openstreetmap.org/way/1458096387","technologies":["gas"],"technologyMixMw":{"gas":66.0},"unitCount":0,"unitIds":[]},"type":"Feature"},{"geometry":{"coordinates":[-1.851626,5.521862],"type":"Point"},"id":"wattlas-plant-osm-way-1458098307","properties":{"aliases":["Damang Plant"],"canonicalAnchor":"osm:way/1458098307","canonicalCountryKey":"GH","capacityMw":25.5,"country":"GH","externalIds":{"osm":"way/1458098307"},"geographyId":"GH-69750345B38025690459934","id":"wattlas-plant-osm-way-1458098307","lifecycleCounts":{"operational":1},"locationPrecision":"exact","name":"Damang Plant","operatingCapacityCoverage":{"coveragePercent":100.0,"knownUnitCount":0,"method":"plant_aggregate","provenance":{"evidenceCount":0,"recordIds":["wattlas-record-osm-way-1458098307"],"sourceIds":["openstreetmap-power"],"sourceTypes":["community_mapped"],"valueKind":"reported"},"totalUnitCount":0},"operatingCapacityMw":25.5,"operatingCapacityMwByTechnology":{"gas":25.5},"plannedCapacityCoverage":{"coveragePercent":0.0,"knownUnitCount":0,"method":"unavailable","totalUnitCount":0},"plannedCapacityMw":0.0,"plannedCapacityMwByTechnology":{},"recordCount":1,"recordIds":["wattlas-record-osm-way-1458098307"],"sourceIds":["openstreetmap-power"],"sourceUrl":"https://www.openstreetmap.org/way/1458098307","technologies":["gas"],"technologyMixMw":{"gas":25.5},"unitCount":0,"unitIds":[]},"type":"Feature"},{"geometry":{"coordinates":[-1.728593,5.482651],"type":"Point"},"id":"wattlas-plant-osm-way-1458099924","properties":{"aliases":["Wassa Plant"],"canonicalAnchor":"osm:way/1458099924","canonicalCountryKey":"GH","capacityMw":33.0,"country":"GH","externalIds":{"osm":"way/1458099924"},"geographyId":"GH-69750345B38025690459934","id":"wattlas-plant-osm-way-1458099924","lifecycleCounts":{"operational":1},"locationPrecision":"exact","name":"Wassa Plant","operatingCapacityCoverage":{"coveragePercent":100.0,"knownUnitCount":0,"method":"plant_aggregate","provenance":{"evidenceCount":0,"recordIds":["wattlas-record-osm-way-1458099924"],"sourceIds":["openstreetmap-power"],"sourceTypes":["community_mapped"],"valueKind":"reported"},"totalUnitCount":0},"operatingCapacityMw":33.0,"operatingCapacityMwByTechnology":{"gas":33.0},"plannedCapacityCoverage":{"coveragePercent":0.0,"knownUnitCount":0,"method":"unavailable","totalUnitCount":0},"plannedCapacityMw":0.0,"plannedCapacityMwByTechnology":{},"recordCount":1,"recordIds":["wattlas-record-osm-way-1458099924"],"sourceIds":["openstreetmap-power"],"sourceUrl":"https://www.openstreetmap.org/way/1458099924","technologies":["gas"],"technologyMixMw":{"gas":33.0},"unitCount":0,"unitIds":[]},"type":"Feature"},{"geometry":{"coordinates":[-1.931502,5.958483],"type":"Point"},"id":"wattlas-plant-osm-way-1458100137","properties":{"aliases":["Edikan Plant"],"canonicalAnchor":"osm:way/1458100137","canonicalCountryKey":"GH","capacityMw":33.0,"country":"GH","externalIds":{"osm":"way/1458100137"},"geographyId":"GH-69750345B67040307067067","id":"wattlas-plant-osm-way-1458100137","lifecycleCounts":{"operational":1},"locationPrecision":"exact","name":"Edikan Plant","operatingCapacityCoverage":{"coveragePercent":100.0,"knownUnitCount":0,"method":"plant_aggregate","provenance":{"evidenceCount":0,"recordIds":["wattlas-record-osm-way-1458100137"],"sourceIds":["openstreetmap-power"],"sourceTypes":["community_mapped"],"valueKind":"reported"},"totalUnitCount":0},"operatingCapacityMw":33.0,"operatingCapacityMwByTechnology":{"gas":33.0},"plannedCapacityCoverage":{"coveragePercent":0.0,"knownUnitCount":0,"method":"unavailable","totalUnitCount":0},"plannedCapacityMw":0.0,"plannedCapacityMwByTechnology":{},"recordCount":1,"recordIds":["wattlas-record-osm-way-1458100137"],"sourceIds":["openstreetmap-power"],"sourceUrl":"https://www.openstreetmap.org/way/1458100137","technologies":["gas"],"technologyMixMw":{"gas":33.0},"unitCount":0,"unitIds":[]},"type":"Feature"},{"geometry":{"coordinates":[-0.181407,5.633435],"type":"Point"},"id":"wattlas-plant-osm-way-444487572","properties":{"aliases":["University of Ghana"],"canonicalAnchor":"osm:way/444487572","canonicalCountryKey":"GH","capacityMw":2.0,"country":"GH","externalIds":{"osm":"way/444487572"},"geographyId":"GH-69750345B46963341226980","id":"wattlas-plant-osm-way-444487572","lifecycleCounts":{"operational":1},"locationPrecision":"exact","name":"University of Ghana","operatingCapacityCoverage":{"coveragePercent":100.0,"knownUnitCount":0,"method":"plant_aggregate","provenance":{"evidenceCount":0,"recordIds":["wattlas-record-osm-way-444487572"],"sourceIds":["openstreetmap-power"],"sourceTypes":["community_mapped"],"valueKind":"reported"},"totalUnitCount":0},"operatingCapacityMw":2.0,"operatingCapacityMwByTechnology":{"solar":2.0},"plannedCapacityCoverage":{"coveragePercent":0.0,"knownUnitCount":0,"method":"unavailable","totalUnitCount":0},"plannedCapacityMw":0.0,"plannedCapacityMwByTechnology":{},"recordCount":1,"recordIds":["wattlas-record-osm-way-444487572"],"sourceIds":["openstreetmap-power"],"sourceUrl":"https://www.openstreetmap.org/way/444487572","technologies":["solar"],"technologyMixMw":{"solar":2.0},"unitCount":0,"unitIds":[]},"type":"Feature"},{"geometry":{"coordinates":[-0.703653,5.343943],"type":"Point"},"id":"wattlas-plant-osm-way-636838998","properties":{"aliases":["Gomoa Onyaadze"],"canonicalAnchor":"osm:way/636838998","canonicalCountryKey":"GH","capacityMw":20.0,"country":"GH","externalIds":{"osm":"way/636838998"},"geographyId":"GH-69750345B67040307067067","id":"wattlas-plant-osm-way-636838998","lifecycleCounts":{"operational":1},"locationPrecision":"exact","name":"Gomoa Onyaadze","operatingCapacityCoverage":{"coveragePercent":100.0,"knownUnitCount":0,"method":"plant_aggregate","provenance":{"evidenceCount":0,"recordIds":["wattlas-record-osm-way-636838998"],"sourceIds":["openstreetmap-power"],"sourceTypes":["community_mapped"],"valueKind":"reported"},"totalUnitCount":0},"operatingCapacityMw":20.0,"operatingCapacityMwByTechnology":{"solar":20.0},"plannedCapacityCoverage":{"coveragePercent":0.0,"knownUnitCount":0,"method":"unavailable","totalUnitCount":0},"plannedCapacityMw":0.0,"plannedCapacityMwByTechnology":{},"recordCount":1,"recordIds":["wattlas-record-osm-way-636838998"],"sourceIds":["openstreetmap-power"],"sourceUrl":"https://www.openstreetmap.org/way/636838998","technologies":["solar"],"technologyMixMw":{"solar":20.0},"unitCount":0,"unitIds":[]},"type":"Feature"},{"geometry":{"coordinates":[0.014107,5.677073],"type":"Point"},"id":"wattlas-plant-osm-way-791950855","properties":{"aliases":["Vpower Power plant"],"canonicalAnchor":"osm:way/791950855","canonicalCountryKey":"GH","capacityMw":50.0,"country":"GH","externalIds":{"osm":"way/791950855"},"geographyId":"GH-69750345B46963341226980","id":"wattlas-plant-osm-way-791950855","lifecycleCounts":{"operational":1},"locationPrecision":"exact","name":"Vpower Power plant","operatingCapacityCoverage":{"coveragePercent":100.0,"knownUnitCount":0,"method":"plant_aggregate","provenance":{"evidenceCount":0,"recordIds":["wattlas-record-osm-way-791950855"],"sourceIds":["openstreetmap-power"],"sourceTypes":["community_mapped"],"valueKind":"reported"},"totalUnitCount":0},"operatingCapacityMw":50.0,"operatingCapacityMwByTechnology":{"gas":50.0},"plannedCapacityCoverage":{"coveragePercent":0.0,"knownUnitCount":0,"method":"unavailable","totalUnitCount":0},"plannedCapacityMw":0.0,"plannedCapacityMwByTechnology":{},"recordCount":1,"recordIds":["wattlas-record-osm-way-791950855"],"sourceIds":["openstreetmap-power"],"sourceUrl":"https://www.openstreetmap.org/way/791950855","technologies":["gas"],"technologyMixMw":{"gas":50.0},"unitCount":0,"unitIds":[]},"type":"Feature"},{"geometry":{"coordinates":[0.055788,6.298749],"type":"Point"},"id":"wattlas-plant-wikidata-q1282314","properties":{"aliases":["Akosombo Hydroelectric Power Plant"],"canonicalAnchor":"wikidata:Q1282314","canonicalCountryKey":"GH","capacityMw":1020.0,"country":"GH","externalIds":{"osm":"way/826311727","wikidata":"Q1282314"},"geographyId":"GH-69750345B54645730941985","id":"wattlas-plant-wikidata-q1282314","idAliases":["wattlas-plant-osm-way-826311727"],"lifecycleCounts":{"operational":1},"locationPrecision":"exact","name":"Akosombo Hydroelectric Power Plant","operatingCapacityCoverage":{"coveragePercent":100.0,"knownUnitCount":0,"method":"plant_aggregate","provenance":{"evidenceCount":0,"recordIds":["wattlas-record-osm-way-826311727"],"sourceIds":["openstreetmap-power"],"sourceTypes":["community_mapped"],"valueKind":"reported"},"totalUnitCount":0},"operatingCapacityMw":1020.0,"operatingCapacityMwByTechnology":{"hydro":1020.0},"plannedCapacityCoverage":{"coveragePercent":0.0,"knownUnitCount":0,"method":"unavailable","totalUnitCount":0},"plannedCapacityMw":0.0,"plannedCapacityMwByTechnology":{},"recordCount":1,"recordIds":["wattlas-record-osm-way-826311727"],"sourceIds":["openstreetmap-power"],"sourceUrl":"https://www.openstreetmap.org/way/826311727","technologies":["hydro"],"technologyMixMw":{"hydro":1020.0},"unitCount":0,"unitIds":[]},"type":"Feature"},{"geometry":{"coordinates":[0.01244,5.67408],"type":"Point"},"id":"wattlas-plant-wikidata-q16734150","properties":{"aliases":["Tema Cenit & Tema Thermal Power Plants"],"canonicalAnchor":"wikidata:Q16734150","canonicalCountryKey":"GH","capacityMw":252.0,"country":"GH","externalIds":{"osm":"way/256779004","wikidata":"Q16734150"},"geographyId":"GH-69750345B46963341226980","id":"wattlas-plant-wikidata-q16734150","idAliases":["wattlas-plant-osm-way-256779004"],"lifecycleCounts":{"operational":1},"locationPrecision":"exact","name":"Tema Cenit & Tema Thermal Power Plants","operatingCapacityCoverage":{"coveragePercent":100.0,"knownUnitCount":0,"method":"plant_aggregate","provenance":{"evidenceCount":0,"recordIds":["wattlas-record-osm-way-256779004"],"sourceIds":["openstreetmap-power"],"sourceTypes":["community_mapped"],"valueKind":"reported"},"totalUnitCount":0},"operatingCapacityMw":252.0,"operatingCapacityMwByTechnology":{"gas":252.0},"plannedCapacityCoverage":{"coveragePercent":0.0,"knownUnitCount":0,"method":"unavailable","totalUnitCount":0},"plannedCapacityMw":0.0,"plannedCapacityMwByTechnology":{},"recordCount":1,"recordIds":["wattlas-record-osm-way-256779004"],"sourceIds":["openstreetmap-power"],"sourceUrl":"https://www.openstreetmap.org/way/256779004","technologies":["gas"],"technologyMixMw":{"gas":252.0},"unitCount":0,"unitIds":[]},"type":"Feature"},{"geometry":{"coordinates":[0.046909,5.680911],"type":"Point"},"id":"wattlas-plant-wikidata-q25102069","properties":{"aliases":["Sunon Asogli Power Plant"],"canonicalAnchor":"wikidata:Q25102069","canonicalCountryKey":"GH","capacityMw":560.0,"country":"GH","externalIds":{"osm":"way/256777446","wikidata":"Q25102069"},"geographyId":"GH-69750345B46963341226980","id":"wattlas-plant-wikidata-q25102069","idAliases":["wattlas-plant-osm-way-256777446"],"lifecycleCounts":{"operational":1},"locationPrecision":"exact","name":"Sunon Asogli Power Plant","operatingCapacityCoverage":{"coveragePercent":100.0,"knownUnitCount":0,"method":"plant_aggregate","provenance":{"evidenceCount":0,"recordIds":["wattlas-record-osm-way-256777446"],"sourceIds":["openstreetmap-power"],"sourceTypes":["community_mapped"],"valueKind":"reported"},"totalUnitCount":0},"operatingCapacityMw":560.0,"operatingCapacityMwByTechnology":{"gas":560.0},"plannedCapacityCoverage":{"coveragePercent":0.0,"knownUnitCount":0,"method":"unavailable","totalUnitCount":0},"plannedCapacityMw":0.0,"plannedCapacityMwByTechnology":{},"recordCount":1,"recordIds":["wattlas-record-osm-way-256777446"],"sourceIds":["openstreetmap-power"],"sourceUrl":"https://www.openstreetmap.org/way/256777446","technologies":["gas"],"technologyMixMw":{"gas":560.0},"unitCount":0,"unitIds":[]},"type":"Feature"},{"geometry":{"coordinates":[0.010157,5.733494],"type":"Point"},"id":"wattlas-plant-wikidata-q25230618","properties":{"aliases":["Kpone Thermal Power Station I"],"canonicalAnchor":"wikidata:Q25230618","canonicalCountryKey":"GH","capacityMw":220.0,"country":"GH","externalIds":{"osm":"way/826311725","wikidata":"Q25230618"},"geographyId":"GH-69750345B46963341226980","id":"wattlas-plant-wikidata-q25230618","idAliases":["wattlas-plant-osm-way-826311725"],"lifecycleCounts":{"operational":1},"locationPrecision":"exact","name":"Kpone Thermal Power Station I","operatingCapacityCoverage":{"coveragePercent":100.0,"knownUnitCount":0,"method":"plant_aggregate","provenance":{"evidenceCount":0,"recordIds":["wattlas-record-osm-way-826311725"],"sourceIds":["openstreetmap-power"],"sourceTypes":["community_mapped"],"valueKind":"reported"},"totalUnitCount":0},"operatingCapacityMw":220.0,"operatingCapacityMwByTechnology":{"gas":220.0},"plannedCapacityCoverage":{"coveragePercent":0.0,"knownUnitCount":0,"method":"unavailable","totalUnitCount":0},"plannedCapacityMw":0.0,"plannedCapacityMwByTechnology":{},"recordCount":1,"recordIds":["wattlas-record-osm-way-826311725"],"sourceIds":["openstreetmap-power"],"sourceUrl":"https://www.openstreetmap.org/way/826311725","technologies":["gas"],"technologyMixMw":{"gas":220.0},"unitCount":0,"unitIds":[]},"type":"Feature"},{"geometry":{"coordinates":[0.04163,5.68025],"type":"Point"},"id":"wattlas-plant-wikidata-q25247875","properties":{"aliases":["Kpone Independent Power Plant"],"canonicalAnchor":"wikidata:Q25247875","canonicalCountryKey":"GH","capacityMw":340.0,"country":"GH","externalIds":{"osm":"way/695710257","wikidata":"Q25247875","wikipedia":"en:Kpone Thermal Power Station II"},"geographyId":"GH-69750345B46963341226980","id":"wattlas-plant-wikidata-q25247875","idAliases":["wattlas-plant-osm-way-695710257","wattlas-plant-wikipedia-en-kpone-thermal-power-station-ii"],"lifecycleCounts":{"operational":1},"locationPrecision":"exact","name":"Kpone Independent Power Plant","operatingCapacityCoverage":{"coveragePercent":100.0,"knownUnitCount":0,"method":"plant_aggregate","provenance":{"evidenceCount":0,"recordIds":["wattlas-record-osm-way-695710257"],"sourceIds":["openstreetmap-power"],"sourceTypes":["community_mapped"],"valueKind":"reported"},"totalUnitCount":0},"operatingCapacityMw":340.0,"operatingCapacityMwByTechnology":{"gas":340.0},"plannedCapacityCoverage":{"coveragePercent":0.0,"knownUnitCount":0,"method":"unavailable","totalUnitCount":0},"plannedCapacityMw":0.0,"plannedCapacityMwByTechnology":{},"recordCount":1,"recordIds":["wattlas-record-osm-way-695710257"],"sourceIds":["openstreetmap-power"],"sourceUrl":"https://www.openstreetmap.org/way/695710257","technologies":["gas"],"technologyMixMw":{"gas":340.0},"unitCount":0,"unitIds":[]},"type":"Feature"},{"geometry":{"coordinates":[-1.696481,4.93841],"type":"Point"},"id":"wattlas-plant-wikidata-q28126859","properties":{"aliases":["Osman Khan Power Plant"],"canonicalAnchor":"wikidata:Q28126859","canonicalCountryKey":"GH","capacityMw":450.0,"country":"GH","externalIds":{"osm":"way/1158032338","wikidata":"Q28126859","wikipedia":"en:MV Karadeniz Powership Osman Khan"},"geographyId":"GH-69750345B38025690459934","id":"wattlas-plant-wikidata-q28126859","idAliases":["wattlas-plant-osm-way-1158032338","wattlas-plant-wikipedia-en-mv-karadeniz-powership-osman-khan"],"lifecycleCounts":{"operational":1},"locationPrecision":"exact","name":"Osman Khan Power Plant","operatingCapacityCoverage":{"coveragePercent":100.0,"knownUnitCount":0,"method":"plant_aggregate","provenance":{"evidenceCount":0,"recordIds":["wattlas-record-osm-way-1158032338"],"sourceIds":["openstreetmap-power"],"sourceTypes":["community_mapped"],"valueKind":"reported"},"totalUnitCount":0},"operatingCapacityMw":450.0,"operatingCapacityMwByTechnology":{"gas":450.0},"plannedCapacityCoverage":{"coveragePercent":0.0,"knownUnitCount":0,"method":"unavailable","totalUnitCount":0},"plannedCapacityMw":0.0,"plannedCapacityMwByTechnology":{},"recordCount":1,"recordIds":["wattlas-record-osm-way-1158032338"],"sourceIds":["openstreetmap-power"],"sourceUrl":"https://www.openstreetmap.org/way/1158032338","technologies":["gas"],"technologyMixMw":{"gas":450.0},"unitCount":0,"unitIds":[]},"type":"Feature"},{"geometry":{"coordinates":[-2.235482,8.279136],"type":"Point"},"id":"wattlas-plant-wikidata-q4986338","properties":{"aliases":["Bui Hydropower Plant"],"canonicalAnchor":"wikidata:Q4986338","canonicalCountryKey":"GH","capacityMw":400.0,"country":"GH","externalIds":{"osm":"way/407081343","wikidata":"Q4986338"},"geographyId":"GH-69750345B13833050062966","id":"wattlas-plant-wikidata-q4986338","idAliases":["wattlas-plant-osm-way-407081343"],"lifecycleCounts":{"operational":1},"locationPrecision":"exact","name":"Bui Hydropower Plant","operatingCapacityCoverage":{"coveragePercent":100.0,"knownUnitCount":0,"method":"plant_aggregate","provenance":{"evidenceCount":0,"recordIds":["wattlas-record-osm-way-407081343"],"sourceIds":["openstreetmap-power"],"sourceTypes":["community_mapped"],"valueKind":"reported"},"totalUnitCount":0},"operatingCapacityMw":400.0,"operatingCapacityMwByTechnology":{"hydro":400.0},"plannedCapacityCoverage":{"coveragePercent":0.0,"knownUnitCount":0,"method":"unavailable","totalUnitCount":0},"plannedCapacityMw":0.0,"plannedCapacityMwByTechnology":{},"recordCount":1,"recordIds":["wattlas-record-osm-way-407081343"],"sourceIds":["openstreetmap-power"],"sourceUrl":"https://www.openstreetmap.org/way/407081343","technologies":["hydro"],"technologyMixMw":{"hydro":400.0},"unitCount":0,"unitIds":[]},"type":"Feature"},{"geometry":{"coordinates":[0.124225,6.119261],"type":"Point"},"id":"wattlas-plant-wikidata-q6435738","properties":{"aliases":["Kpong Power Station"],"canonicalAnchor":"wikidata:Q6435738","canonicalCountryKey":"GH","capacityMw":160.0,"country":"GH","externalIds":{"osm":"way/302127338","wikidata":"Q6435738"},"geographyId":"GH-69750345B54645730941985","id":"wattlas-plant-wikidata-q6435738","idAliases":["wattlas-plant-osm-way-302127338"],"lifecycleCounts":{"operational":1},"locationPrecision":"exact","name":"Kpong Power Station","operatingCapacityCoverage":{"coveragePercent":100.0,"knownUnitCount":0,"method":"plant_aggregate","provenance":{"evidenceCount":0,"recordIds":["wattlas-record-osm-way-302127338"],"sourceIds":["openstreetmap-power"],"sourceTypes":["community_mapped"],"valueKind":"reported"},"totalUnitCount":0},"operatingCapacityMw":160.0,"operatingCapacityMwByTechnology":{"hydro":160.0},"plannedCapacityCoverage":{"coveragePercent":0.0,"knownUnitCount":0,"method":"unavailable","totalUnitCount":0},"plannedCapacityMw":0.0,"plannedCapacityMwByTechnology":{},"recordCount":1,"recordIds":["wattlas-record-osm-way-302127338"],"sourceIds":["openstreetmap-power"],"sourceUrl":"https://www.openstreetmap.org/way/302127338","technologies":["hydro"],"technologyMixMw":{"hydro":160.0},"unitCount":0,"unitIds":[]},"type":"Feature"},{"geometry":{"coordinates":[-3.039296,5.080395],"type":"Point"},"id":"wattlas-plant-wikidata-q7105531","properties":{"aliases":["Osagyefo Barge"],"canonicalAnchor":"wikidata:Q7105531","canonicalCountryKey":"GH","capacityMw":125.0,"country":"GH","externalIds":{"osm":"way/507400869","wikidata":"Q7105531"},"geographyId":"GH-69750345B38025690459934","id":"wattlas-plant-wikidata-q7105531","idAliases":["wattlas-plant-osm-way-507400869"],"lifecycleCounts":{"operational":1},"locationPrecision":"exact","name":"Osagyefo Barge","operatingCapacityCoverage":{"coveragePercent":100.0,"knownUnitCount":0,"method":"plant_aggregate","provenance":{"evidenceCount":0,"recordIds":["wattlas-record-osm-way-507400869"],"sourceIds":["openstreetmap-power"],"sourceTypes":["community_mapped"],"valueKind":"reported"},"totalUnitCount":0},"operatingCapacityMw":125.0,"operatingCapacityMwByTechnology":{"gas":125.0},"plannedCapacityCoverage":{"coveragePercent":0.0,"knownUnitCount":0,"method":"unavailable","totalUnitCount":0},"plannedCapacityMw":0.0,"plannedCapacityMwByTechnology":{},"recordCount":1,"recordIds":["wattlas-record-osm-way-507400869"],"sourceIds":["openstreetmap-power"],"sourceUrl":"https://www.openstreetmap.org/way/507400869","technologies":["gas"],"technologyMixMw":{"gas":125.0},"unitCount":0,"unitIds":[]},"type":"Feature"}],"type":"FeatureCollection"}