{"features":[{"geometry":{"coordinates":[-50.8909,63.9211],"type":"Point"},"id":"wattlas-plant-gemplant-l100001025619","properties":{"aliases":["Buksefjord hydroelectric plant"],"canonicalAnchor":"gemplant:L100001025619","canonicalCountryKey":"GL","capacityMw":122.0,"country":"GL","externalIdAliases":{"gemUnit":["G100001030373","G100001030374"]},"externalIds":{"gemPlant":"L100001025619","gemUnit":"G100001030374"},"gemWikiUrl":"https://www.gem.wiki/Buksefjord_hydroelectric_plant","geographyId":"GL-42512837B19798010135006","id":"wattlas-plant-gemplant-l100001025619","lifecycleCounts":{"announced":1,"operational":1},"locationPrecision":"exact","name":"Buksefjord hydroelectric plant","operatingCapacityCoverage":{"coveragePercent":100.0,"knownUnitCount":1,"method":"complete_unit_sum","provenance":{"evidenceCount":0,"recordIds":["wattlas-record-gemunit-g100001030373"],"sourceIds":["gem-global-integrated-power-tracker"],"sourceTypes":["research_verified"],"valueKind":"reported"},"totalUnitCount":1},"operatingCapacityMw":45.0,"operatingCapacityMwByTechnology":{"hydro":45.0},"plannedCapacityCoverage":{"coveragePercent":100.0,"knownUnitCount":1,"method":"complete_unit_sum","provenance":{"evidenceCount":0,"recordIds":["wattlas-record-gemunit-g100001030374"],"sourceIds":["gem-global-integrated-power-tracker"],"sourceTypes":["research_verified"],"valueKind":"reported"},"totalUnitCount":1},"plannedCapacityMw":77.0,"plannedCapacityMwByTechnology":{"hydro":77.0},"recordCount":2,"recordIds":["wattlas-record-gemunit-g100001030373","wattlas-record-gemunit-g100001030374"],"sourceIds":["gem-global-integrated-power-tracker"],"sourceUrl":"https://www.gem.wiki/Buksefjord_hydroelectric_plant","technologies":["hydro"],"technologyMixMw":{"hydro":122.0},"unitCount":2,"unitIds":["gem-unit-G100001030373","gem-unit-G100001030374"]},"type":"Feature"},{"geometry":{"coordinates":[-45.43145,61.163489],"type":"Point"},"id":"wattlas-plant-osm-way-1303321696","properties":{"aliases":["Mapped power plant · OSM 1303321696"],"canonicalAnchor":"osm:way/1303321696","canonicalCountryKey":"GL","capacityMw":0.0,"country":"GL","externalIds":{"osm":"way/1303321696"},"geographyId":"GL-42512837B76623301896964","id":"wattlas-plant-osm-way-1303321696","lifecycleCounts":{"announced":1},"locationPrecision":"exact","name":"Mapped power plant · OSM 1303321696","operatingCapacityCoverage":{"coveragePercent":0.0,"knownUnitCount":0,"method":"unavailable","totalUnitCount":0},"operatingCapacityMw":0.0,"operatingCapacityMwByTechnology":{},"plannedCapacityCoverage":{"coveragePercent":0.0,"knownUnitCount":0,"method":"unavailable","totalUnitCount":0},"plannedCapacityMw":0.0,"plannedCapacityMwByTechnology":{},"recordCount":1,"recordIds":["wattlas-record-osm-way-1303321696"],"sourceIds":["openstreetmap-power"],"sourceUrl":"https://www.openstreetmap.org/way/1303321696","technologies":["solar"],"technologyMixMw":{"solar":0.0},"unitCount":0,"unitIds":[]},"type":"Feature"},{"geometry":{"coordinates":[-50.692893,67.020607],"type":"Point"},"id":"wattlas-plant-osm-way-188986908","properties":{"aliases":["Kangerlussuaq Kraftværk"],"canonicalAnchor":"osm:way/188986908","canonicalCountryKey":"GL","capacityMw":0.0,"country":"GL","externalIds":{"osm":"way/188986908"},"geographyId":"GL-42512837B89373787162082","id":"wattlas-plant-osm-way-188986908","lifecycleCounts":{"operational":1},"locationPrecision":"exact","name":"Kangerlussuaq Kraftværk","operatingCapacityCoverage":{"coveragePercent":0.0,"knownUnitCount":0,"method":"unavailable","totalUnitCount":0},"operatingCapacityMw":0.0,"operatingCapacityMwByTechnology":{},"plannedCapacityCoverage":{"coveragePercent":0.0,"knownUnitCount":0,"method":"unavailable","totalUnitCount":0},"plannedCapacityMw":0.0,"plannedCapacityMwByTechnology":{},"recordCount":1,"recordIds":["wattlas-record-osm-way-188986908"],"sourceIds":["openstreetmap-power"],"sourceUrl":"https://www.openstreetmap.org/way/188986908","technologies":["other"],"technologyMixMw":{"other":0.0},"unitCount":0,"unitIds":[]},"type":"Feature"},{"geometry":{"coordinates":[-45.236136,60.776388],"type":"Point"},"id":"wattlas-plant-osm-way-300445193","properties":{"aliases":["Qorlortorsuaq vandkraftværk"],"canonicalAnchor":"osm:way/300445193","canonicalCountryKey":"GL","capacityMw":7.6,"country":"GL","externalIds":{"osm":"way/300445193"},"geographyId":"GL-42512837B76623301896964","id":"wattlas-plant-osm-way-300445193","lifecycleCounts":{"operational":1},"locationPrecision":"exact","name":"Qorlortorsuaq vandkraftværk","operatingCapacityCoverage":{"coveragePercent":100.0,"knownUnitCount":0,"method":"plant_aggregate","provenance":{"evidenceCount":0,"recordIds":["wattlas-record-osm-way-300445193"],"sourceIds":["openstreetmap-power"],"sourceTypes":["community_mapped"],"valueKind":"reported"},"totalUnitCount":0},"operatingCapacityMw":7.6,"operatingCapacityMwByTechnology":{"hydro":7.6},"plannedCapacityCoverage":{"coveragePercent":0.0,"knownUnitCount":0,"method":"unavailable","totalUnitCount":0},"plannedCapacityMw":0.0,"plannedCapacityMwByTechnology":{},"recordCount":1,"recordIds":["wattlas-record-osm-way-300445193"],"sourceIds":["openstreetmap-power"],"sourceUrl":"https://www.openstreetmap.org/way/300445193","technologies":["hydro"],"technologyMixMw":{"hydro":7.6},"unitCount":0,"unitIds":[]},"type":"Feature"},{"geometry":{"coordinates":[-51.101341,69.221014],"type":"Point"},"id":"wattlas-plant-osm-way-406188825","properties":{"aliases":["Gamle elværk"],"canonicalAnchor":"osm:way/406188825","canonicalCountryKey":"GL","capacityMw":0.0,"country":"GL","externalIds":{"osm":"way/406188825"},"geographyId":"GL-42512837B56880650870693","id":"wattlas-plant-osm-way-406188825","lifecycleCounts":{"operational":1},"locationPrecision":"exact","name":"Gamle elværk","operatingCapacityCoverage":{"coveragePercent":0.0,"knownUnitCount":0,"method":"unavailable","totalUnitCount":0},"operatingCapacityMw":0.0,"operatingCapacityMwByTechnology":{},"plannedCapacityCoverage":{"coveragePercent":0.0,"knownUnitCount":0,"method":"unavailable","totalUnitCount":0},"plannedCapacityMw":0.0,"plannedCapacityMwByTechnology":{},"recordCount":1,"recordIds":["wattlas-record-osm-way-406188825"],"sourceIds":["openstreetmap-power"],"sourceUrl":"https://www.openstreetmap.org/way/406188825","technologies":["other"],"technologyMixMw":{"other":0.0},"unitCount":0,"unitIds":[]},"type":"Feature"},{"geometry":{"coordinates":[-50.890694,63.921252],"type":"Point"},"id":"wattlas-plant-wikidata-q1366227","properties":{"aliases":["Buksefjorden Vandkraftværk"],"canonicalAnchor":"wikidata:Q1366227","canonicalCountryKey":"GL","capacityMw":45.0,"country":"GL","externalIds":{"osm":"way/144091917","wikidata":"Q1366227"},"geographyId":"GL-42512837B19798010135006","id":"wattlas-plant-wikidata-q1366227","idAliases":["wattlas-plant-osm-way-144091917"],"lifecycleCounts":{"operational":1},"locationPrecision":"exact","name":"Buksefjorden Vandkraftværk","operatingCapacityCoverage":{"coveragePercent":100.0,"knownUnitCount":0,"method":"plant_aggregate","provenance":{"evidenceCount":0,"recordIds":["wattlas-record-osm-way-144091917"],"sourceIds":["openstreetmap-power"],"sourceTypes":["community_mapped"],"valueKind":"reported"},"totalUnitCount":0},"operatingCapacityMw":45.0,"operatingCapacityMwByTechnology":{"hydro":45.0},"plannedCapacityCoverage":{"coveragePercent":0.0,"knownUnitCount":0,"method":"unavailable","totalUnitCount":0},"plannedCapacityMw":0.0,"plannedCapacityMwByTechnology":{},"recordCount":1,"recordIds":["wattlas-record-osm-way-144091917"],"sourceIds":["openstreetmap-power"],"sourceUrl":"https://www.openstreetmap.org/way/144091917","technologies":["hydro"],"technologyMixMw":{"hydro":45.0},"unitCount":0,"unitIds":[]},"type":"Feature"},{"geometry":{"coordinates":[-50.298334,69.479837],"type":"Point"},"id":"wattlas-plant-wikidata-q16324306","properties":{"aliases":["Paakitsumi imermit nukissiorfik"],"canonicalAnchor":"wikidata:Q16324306","canonicalCountryKey":"GL","capacityMw":22.5,"country":"GL","externalIds":{"osm":"way/1301125541","wikidata":"Q16324306"},"geographyId":"GL-42512837B56880650870693","id":"wattlas-plant-wikidata-q16324306","idAliases":["wattlas-plant-osm-way-1301125541"],"lifecycleCounts":{"operational":1},"locationPrecision":"exact","name":"Paakitsumi imermit nukissiorfik","operatingCapacityCoverage":{"coveragePercent":100.0,"knownUnitCount":0,"method":"plant_aggregate","provenance":{"evidenceCount":0,"recordIds":["wattlas-record-osm-way-1301125541"],"sourceIds":["openstreetmap-power"],"sourceTypes":["community_mapped"],"valueKind":"reported"},"totalUnitCount":0},"operatingCapacityMw":22.5,"operatingCapacityMwByTechnology":{"hydro":22.5},"plannedCapacityCoverage":{"coveragePercent":0.0,"knownUnitCount":0,"method":"unavailable","totalUnitCount":0},"plannedCapacityMw":0.0,"plannedCapacityMwByTechnology":{},"recordCount":1,"recordIds":["wattlas-record-osm-way-1301125541"],"sourceIds":["openstreetmap-power"],"sourceUrl":"https://www.openstreetmap.org/way/1301125541","technologies":["hydro"],"technologyMixMw":{"hydro":22.5},"unitCount":0,"unitIds":[]},"type":"Feature"},{"geometry":{"coordinates":[-53.366283,67.110756],"type":"Point"},"id":"wattlas-plant-wikidata-q7530815","properties":{"aliases":["Sisimiut vandkraftværk"],"canonicalAnchor":"wikidata:Q7530815","canonicalCountryKey":"GL","capacityMw":15.0,"country":"GL","externalIds":{"osm":"way/1190847478","wikidata":"Q7530815"},"geographyId":"GL-42512837B89373787162082","id":"wattlas-plant-wikidata-q7530815","idAliases":["wattlas-plant-osm-way-1190847478"],"lifecycleCounts":{"operational":1},"locationPrecision":"exact","name":"Sisimiut vandkraftværk","operatingCapacityCoverage":{"coveragePercent":100.0,"knownUnitCount":0,"method":"plant_aggregate","provenance":{"evidenceCount":0,"recordIds":["wattlas-record-osm-way-1190847478"],"sourceIds":["openstreetmap-power"],"sourceTypes":["community_mapped"],"valueKind":"reported"},"totalUnitCount":0},"operatingCapacityMw":15.0,"operatingCapacityMwByTechnology":{"hydro":15.0},"plannedCapacityCoverage":{"coveragePercent":0.0,"knownUnitCount":0,"method":"unavailable","totalUnitCount":0},"plannedCapacityMw":0.0,"plannedCapacityMwByTechnology":{},"recordCount":1,"recordIds":["wattlas-record-osm-way-1190847478"],"sourceIds":["openstreetmap-power"],"sourceUrl":"https://www.openstreetmap.org/way/1190847478","technologies":["hydro"],"technologyMixMw":{"hydro":15.0},"unitCount":0,"unitIds":[]},"type":"Feature"}],"type":"FeatureCollection"}