{"features":[{"geometry":{"coordinates":[-58.2464,6.5039],"type":"Point"},"id":"wattlas-plant-gemplant-l100001020314","properties":{"aliases":["--","Cheddi Jagan Airport solar farm"],"canonicalAnchor":"gemplant:L100001020314","canonicalCountryKey":"GY","capacityMw":3.0,"country":"GY","externalIds":{"gemPlant":"L100001020314","gemUnit":"G100001023125"},"gemWikiUrl":"https://www.gem.wiki/Cheddi_Jagan_Airport_solar_farm","geographyId":"GY-73500413B28210658685043","id":"wattlas-plant-gemplant-l100001020314","lifecycleCounts":{"announced":1},"locationPrecision":"exact","name":"Cheddi Jagan Airport solar farm","operatingCapacityCoverage":{"coveragePercent":0.0,"knownUnitCount":0,"method":"unavailable","totalUnitCount":0},"operatingCapacityMw":0.0,"operatingCapacityMwByTechnology":{},"plannedCapacityCoverage":{"coveragePercent":100.0,"knownUnitCount":1,"method":"complete_unit_sum","provenance":{"evidenceCount":0,"recordIds":["wattlas-record-gemunit-g100001023125"],"sourceIds":["gem-global-integrated-power-tracker"],"sourceTypes":["research_verified"],"valueKind":"reported"},"totalUnitCount":1},"plannedCapacityMw":3.0,"plannedCapacityMwByTechnology":{"solar":3.0},"recordCount":1,"recordIds":["wattlas-record-gemunit-g100001023125"],"sourceIds":["gem-global-integrated-power-tracker"],"sourceUrl":"https://www.gem.wiki/Cheddi_Jagan_Airport_solar_farm","technologies":["solar"],"technologyMixMw":{"solar":3.0},"unitCount":1,"unitIds":["gem-unit-G100001023125"]},"type":"Feature"},{"geometry":{"coordinates":[-59.5433,5.3679],"type":"Point"},"id":"wattlas-plant-gemplant-l100001045843","properties":{"aliases":["Amaila Falls hydroelectric plant"],"canonicalAnchor":"gemplant:L100001045843","canonicalCountryKey":"GY","capacityMw":165.0,"country":"GY","externalIds":{"gemPlant":"L100001045843","gemUnit":"G100001051672"},"gemWikiUrl":"https://www.gem.wiki/Amaila_Falls_hydroelectric_plant","geographyId":"GY-73500413B80201159559449","id":"wattlas-plant-gemplant-l100001045843","lifecycleCounts":{"announced":1},"locationPrecision":"exact","name":"Amaila Falls hydroelectric plant","operatingCapacityCoverage":{"coveragePercent":0.0,"knownUnitCount":0,"method":"unavailable","totalUnitCount":0},"operatingCapacityMw":0.0,"operatingCapacityMwByTechnology":{},"plannedCapacityCoverage":{"coveragePercent":100.0,"knownUnitCount":1,"method":"complete_unit_sum","provenance":{"evidenceCount":0,"recordIds":["wattlas-record-gemunit-g100001051672"],"sourceIds":["gem-global-integrated-power-tracker"],"sourceTypes":["research_verified"],"valueKind":"reported"},"totalUnitCount":1},"plannedCapacityMw":165.0,"plannedCapacityMwByTechnology":{"hydro":165.0},"recordCount":1,"recordIds":["wattlas-record-gemunit-g100001051672"],"sourceIds":["gem-global-integrated-power-tracker"],"sourceUrl":"https://www.gem.wiki/Amaila_Falls_hydroelectric_plant","technologies":["hydro"],"technologyMixMw":{"hydro":165.0},"unitCount":1,"unitIds":["gem-unit-G100001051672"]},"type":"Feature"},{"geometry":{"coordinates":[-57.14999,5.880331],"type":"Point"},"id":"wattlas-plant-gemplant-l100001046247","properties":{"aliases":["1.0","2.0","Skeldon power station"],"canonicalAnchor":"gemplant:L100001046247","canonicalCountryKey":"GY","capacityMw":30.0,"country":"GY","externalIdAliases":{"gemUnit":["G100001052192","G100001052193"]},"externalIds":{"gemPlant":"L100001046247","gemUnit":"G100001052192"},"gemWikiUrl":"https://www.gem.wiki/Skeldon_power_station","geographyId":"GY-73500413B7170020273928","id":"wattlas-plant-gemplant-l100001046247","lifecycleCounts":{"operational":2},"locationPrecision":"exact","name":"Skeldon power station","operatingCapacityCoverage":{"coveragePercent":100.0,"knownUnitCount":2,"method":"complete_unit_sum","provenance":{"evidenceCount":0,"recordIds":["wattlas-record-gemunit-g100001052192","wattlas-record-gemunit-g100001052193"],"sourceIds":["gem-global-integrated-power-tracker"],"sourceTypes":["research_verified"],"valueKind":"reported"},"totalUnitCount":2},"operatingCapacityMw":30.0,"operatingCapacityMwByTechnology":{"biomass":30.0},"plannedCapacityCoverage":{"coveragePercent":0.0,"knownUnitCount":0,"method":"unavailable","totalUnitCount":0},"plannedCapacityMw":0.0,"plannedCapacityMwByTechnology":{},"recordCount":2,"recordIds":["wattlas-record-gemunit-g100001052192","wattlas-record-gemunit-g100001052193"],"sourceIds":["gem-global-integrated-power-tracker"],"sourceUrl":"https://www.gem.wiki/Skeldon_power_station","technologies":["biomass"],"technologyMixMw":{"biomass":30.0},"unitCount":2,"unitIds":["gem-unit-G100001052192","gem-unit-G100001052193"]},"type":"Feature"},{"geometry":{"coordinates":[-59.7469,6.7862],"type":"Point"},"id":"wattlas-plant-gemplant-l100001062655","properties":{"aliases":["--","Aurora gold mine solar farm"],"canonicalAnchor":"gemplant:L100001062655","canonicalCountryKey":"GY","capacityMw":16.0,"country":"GY","externalIds":{"gemPlant":"L100001062655","gemUnit":"G100001071987"},"gemWikiUrl":"https://www.gem.wiki/Aurora_gold_mine_solar_farm","geographyId":"GY-73500413B42913807349964","id":"wattlas-plant-gemplant-l100001062655","lifecycleCounts":{"announced":1},"locationPrecision":"exact","name":"Aurora gold mine solar farm","operatingCapacityCoverage":{"coveragePercent":0.0,"knownUnitCount":0,"method":"unavailable","totalUnitCount":0},"operatingCapacityMw":0.0,"operatingCapacityMwByTechnology":{},"plannedCapacityCoverage":{"coveragePercent":100.0,"knownUnitCount":1,"method":"complete_unit_sum","provenance":{"evidenceCount":0,"recordIds":["wattlas-record-gemunit-g100001071987"],"sourceIds":["gem-global-integrated-power-tracker"],"sourceTypes":["research_verified"],"valueKind":"reported"},"totalUnitCount":1},"plannedCapacityMw":16.0,"plannedCapacityMwByTechnology":{"solar":16.0},"recordCount":1,"recordIds":["wattlas-record-gemunit-g100001071987"],"sourceIds":["gem-global-integrated-power-tracker"],"sourceUrl":"https://www.gem.wiki/Aurora_gold_mine_solar_farm","technologies":["solar"],"technologyMixMw":{"solar":16.0},"unitCount":1,"unitIds":["gem-unit-G100001071987"]},"type":"Feature"},{"geometry":{"coordinates":[-57.149472,5.879815],"type":"Point"},"id":"wattlas-plant-osm-way-1214604172","properties":{"aliases":["Skeldon Energy Incorporated"],"canonicalAnchor":"osm:way/1214604172","canonicalCountryKey":"GY","capacityMw":40.0,"country":"GY","externalIds":{"osm":"way/1214604172"},"geographyId":"GY-73500413B7170020273928","id":"wattlas-plant-osm-way-1214604172","lifecycleCounts":{"operational":1},"locationPrecision":"exact","name":"Skeldon Energy Incorporated","operatingCapacityCoverage":{"coveragePercent":100.0,"knownUnitCount":0,"method":"plant_aggregate","provenance":{"evidenceCount":0,"recordIds":["wattlas-record-osm-way-1214604172"],"sourceIds":["openstreetmap-power"],"sourceTypes":["community_mapped"],"valueKind":"reported"},"totalUnitCount":0},"operatingCapacityMw":40.0,"operatingCapacityMwByTechnology":{"oil":40.0},"plannedCapacityCoverage":{"coveragePercent":0.0,"knownUnitCount":0,"method":"unavailable","totalUnitCount":0},"plannedCapacityMw":0.0,"plannedCapacityMwByTechnology":{},"recordCount":1,"recordIds":["wattlas-record-osm-way-1214604172"],"sourceIds":["openstreetmap-power"],"sourceUrl":"https://www.openstreetmap.org/way/1214604172","technologies":["oil"],"technologyMixMw":{"oil":40.0},"unitCount":0,"unitIds":[]},"type":"Feature"},{"geometry":{"coordinates":[-58.47875,6.946013],"type":"Point"},"id":"wattlas-plant-osm-way-1312667072","properties":{"aliases":["Guyana Power & Light Corporation - Wakenaam"],"canonicalAnchor":"osm:way/1312667072","canonicalCountryKey":"GY","capacityMw":0.0,"country":"GY","externalIds":{"osm":"way/1312667072"},"geographyId":"GY-73500413B61038187736836","id":"wattlas-plant-osm-way-1312667072","lifecycleCounts":{"operational":1},"locationPrecision":"exact","name":"Guyana Power & Light Corporation - Wakenaam","operatingCapacityCoverage":{"coveragePercent":0.0,"knownUnitCount":0,"method":"unavailable","totalUnitCount":0},"operatingCapacityMw":0.0,"operatingCapacityMwByTechnology":{},"plannedCapacityCoverage":{"coveragePercent":0.0,"knownUnitCount":0,"method":"unavailable","totalUnitCount":0},"plannedCapacityMw":0.0,"plannedCapacityMwByTechnology":{},"recordCount":1,"recordIds":["wattlas-record-osm-way-1312667072"],"sourceIds":["openstreetmap-power"],"sourceUrl":"https://www.openstreetmap.org/way/1312667072","technologies":["other"],"technologyMixMw":{"other":0.0},"unitCount":0,"unitIds":[]},"type":"Feature"},{"geometry":{"coordinates":[-58.477998,6.945647],"type":"Point"},"id":"wattlas-plant-osm-way-1473255969","properties":{"aliases":["Wakenaam Solar Plant"],"canonicalAnchor":"osm:way/1473255969","canonicalCountryKey":"GY","capacityMw":2.5,"country":"GY","externalIds":{"osm":"way/1473255969"},"geographyId":"GY-73500413B61038187736836","id":"wattlas-plant-osm-way-1473255969","lifecycleCounts":{"operational":1},"locationPrecision":"exact","name":"Wakenaam Solar Plant","operatingCapacityCoverage":{"coveragePercent":100.0,"knownUnitCount":0,"method":"plant_aggregate","provenance":{"evidenceCount":0,"recordIds":["wattlas-record-osm-way-1473255969"],"sourceIds":["openstreetmap-power"],"sourceTypes":["community_mapped"],"valueKind":"reported"},"totalUnitCount":0},"operatingCapacityMw":2.5,"operatingCapacityMwByTechnology":{"solar":2.5},"plannedCapacityCoverage":{"coveragePercent":0.0,"knownUnitCount":0,"method":"unavailable","totalUnitCount":0},"plannedCapacityMw":0.0,"plannedCapacityMwByTechnology":{},"recordCount":1,"recordIds":["wattlas-record-osm-way-1473255969"],"sourceIds":["openstreetmap-power"],"sourceUrl":"https://www.openstreetmap.org/way/1473255969","technologies":["solar"],"technologyMixMw":{"solar":2.5},"unitCount":0,"unitIds":[]},"type":"Feature"},{"geometry":{"coordinates":[-58.165217,6.823064],"type":"Point"},"id":"wattlas-plant-osm-way-443653697","properties":{"aliases":["Kingston Power Plant"],"canonicalAnchor":"osm:way/443653697","canonicalCountryKey":"GY","capacityMw":58.3,"country":"GY","externalIds":{"osm":"way/443653697"},"geographyId":"GY-73500413B28210658685043","id":"wattlas-plant-osm-way-443653697","lifecycleCounts":{"operational":1},"locationPrecision":"exact","name":"Kingston Power Plant","operatingCapacityCoverage":{"coveragePercent":100.0,"knownUnitCount":0,"method":"plant_aggregate","provenance":{"evidenceCount":0,"recordIds":["wattlas-record-osm-way-443653697"],"sourceIds":["openstreetmap-power"],"sourceTypes":["community_mapped"],"valueKind":"reported"},"totalUnitCount":0},"operatingCapacityMw":58.3,"operatingCapacityMwByTechnology":{"other":58.3},"plannedCapacityCoverage":{"coveragePercent":0.0,"knownUnitCount":0,"method":"unavailable","totalUnitCount":0},"plannedCapacityMw":0.0,"plannedCapacityMwByTechnology":{},"recordCount":1,"recordIds":["wattlas-record-osm-way-443653697"],"sourceIds":["openstreetmap-power"],"sourceUrl":"https://www.openstreetmap.org/way/443653697","technologies":["other"],"technologyMixMw":{"other":58.3},"unitCount":0,"unitIds":[]},"type":"Feature"},{"geometry":{"coordinates":[-58.178895,6.808617],"type":"Point"},"id":"wattlas-plant-osm-way-544243394","properties":{"aliases":["Vreed-En-Hoop Power Plant"],"canonicalAnchor":"osm:way/544243394","canonicalCountryKey":"GY","capacityMw":26.1,"country":"GY","externalIds":{"osm":"way/544243394"},"geographyId":"GY-73500413B61038187736836","id":"wattlas-plant-osm-way-544243394","lifecycleCounts":{"operational":1},"locationPrecision":"exact","name":"Vreed-En-Hoop Power Plant","operatingCapacityCoverage":{"coveragePercent":100.0,"knownUnitCount":0,"method":"plant_aggregate","provenance":{"evidenceCount":0,"recordIds":["wattlas-record-osm-way-544243394"],"sourceIds":["openstreetmap-power"],"sourceTypes":["community_mapped"],"valueKind":"reported"},"totalUnitCount":0},"operatingCapacityMw":26.1,"operatingCapacityMwByTechnology":{"oil":26.1},"plannedCapacityCoverage":{"coveragePercent":0.0,"knownUnitCount":0,"method":"unavailable","totalUnitCount":0},"plannedCapacityMw":0.0,"plannedCapacityMwByTechnology":{},"recordCount":1,"recordIds":["wattlas-record-osm-way-544243394"],"sourceIds":["openstreetmap-power"],"sourceUrl":"https://www.openstreetmap.org/way/544243394","technologies":["oil"],"technologyMixMw":{"oil":26.1},"unitCount":0,"unitIds":[]},"type":"Feature"},{"geometry":{"coordinates":[-58.200282,6.634754],"type":"Point"},"id":"wattlas-plant-osm-way-997245676","properties":{"aliases":["Garden of Eden Power Plant"],"canonicalAnchor":"osm:way/997245676","canonicalCountryKey":"GY","capacityMw":22.0,"country":"GY","externalIds":{"osm":"way/997245676"},"geographyId":"GY-73500413B28210658685043","id":"wattlas-plant-osm-way-997245676","lifecycleCounts":{"operational":1},"locationPrecision":"exact","name":"Garden of Eden Power Plant","operatingCapacityCoverage":{"coveragePercent":100.0,"knownUnitCount":0,"method":"plant_aggregate","provenance":{"evidenceCount":0,"recordIds":["wattlas-record-osm-way-997245676"],"sourceIds":["openstreetmap-power"],"sourceTypes":["community_mapped"],"valueKind":"reported"},"totalUnitCount":0},"operatingCapacityMw":22.0,"operatingCapacityMwByTechnology":{"other":22.0},"plannedCapacityCoverage":{"coveragePercent":0.0,"knownUnitCount":0,"method":"unavailable","totalUnitCount":0},"plannedCapacityMw":0.0,"plannedCapacityMwByTechnology":{},"recordCount":1,"recordIds":["wattlas-record-osm-way-997245676"],"sourceIds":["openstreetmap-power"],"sourceUrl":"https://www.openstreetmap.org/way/997245676","technologies":["other"],"technologyMixMw":{"other":22.0},"unitCount":0,"unitIds":[]},"type":"Feature"}],"type":"FeatureCollection"}