{"features":[{"geometry":{"coordinates":[12.674,32.7882],"type":"Point"},"id":"wattlas-plant-gemplant-l100000406152","properties":{"aliases":["1-1","2-1","3-1","4-Mobile","5-Mobile","Al Zawiya power station"],"canonicalAnchor":"gemplant:L100000406152","canonicalCountryKey":"LY","capacityMw":1540.0,"country":"LY","externalIdAliases":{"gemUnit":["G100000408488","G100000408489","G100000408490","G100001023012","G100001023013"]},"externalIds":{"gemPlant":"L100000406152","gemUnit":"G100001023013"},"gemWikiUrl":"https://www.gem.wiki/Al_Zawiya_power_station","geographyId":"LY-10800210B15874653580067","id":"wattlas-plant-gemplant-l100000406152","lifecycleCounts":{"operational":5},"locationPrecision":"exact","name":"Al Zawiya power station","operatingCapacityCoverage":{"coveragePercent":100.0,"knownUnitCount":5,"method":"complete_unit_sum","provenance":{"evidenceCount":0,"recordIds":["wattlas-record-gemunit-g100000408488","wattlas-record-gemunit-g100000408489","wattlas-record-gemunit-g100000408490","wattlas-record-gemunit-g100001023012","wattlas-record-gemunit-g100001023013"],"sourceIds":["gem-global-integrated-power-tracker"],"sourceTypes":["research_verified"],"valueKind":"reported"},"totalUnitCount":5},"operatingCapacityMw":1540.0,"operatingCapacityMwByTechnology":{"gas":1540.0},"plannedCapacityCoverage":{"coveragePercent":0.0,"knownUnitCount":0,"method":"unavailable","totalUnitCount":0},"plannedCapacityMw":0.0,"plannedCapacityMwByTechnology":{},"recordCount":5,"recordIds":["wattlas-record-gemunit-g100000408488","wattlas-record-gemunit-g100000408489","wattlas-record-gemunit-g100000408490","wattlas-record-gemunit-g100001023012","wattlas-record-gemunit-g100001023013"],"sourceIds":["gem-global-integrated-power-tracker"],"sourceUrl":"https://www.gem.wiki/Al_Zawiya_power_station","technologies":["gas"],"technologyMixMw":{"gas":1540.0},"unitCount":5,"unitIds":["gem-unit-G100000408488","gem-unit-G100000408489","gem-unit-G100000408490","gem-unit-G100001023012","gem-unit-G100001023013"]},"type":"Feature"},{"geometry":{"coordinates":[11.145284,31.955532],"type":"Point"},"id":"wattlas-plant-gemplant-l100000406158","properties":{"aliases":["GT1","GT2","GT3","GT4","GT5","GT6","ST1","Western Mountain power plant"],"canonicalAnchor":"gemplant:L100000406158","canonicalCountryKey":"LY","capacityMw":1396.0,"country":"LY","externalIdAliases":{"gemUnit":["G100000408463","G100000408464","G100000408465","G100000408466","G100000408467","G100000408468","G100000408577"]},"externalIds":{"gemPlant":"L100000406158","gemUnit":"G100000408577"},"gemWikiUrl":"https://www.gem.wiki/Western_Mountain_power_plant","geographyId":"LY-10800210B65194490964920","id":"wattlas-plant-gemplant-l100000406158","lifecycleCounts":{"announced":1,"operational":6},"locationPrecision":"exact","name":"Western Mountain power plant","operatingCapacityCoverage":{"coveragePercent":100.0,"knownUnitCount":6,"method":"complete_unit_sum","provenance":{"evidenceCount":0,"recordIds":["wattlas-record-gemunit-g100000408463","wattlas-record-gemunit-g100000408464","wattlas-record-gemunit-g100000408465","wattlas-record-gemunit-g100000408466","wattlas-record-gemunit-g100000408467","wattlas-record-gemunit-g100000408468"],"sourceIds":["gem-global-integrated-power-tracker"],"sourceTypes":["research_verified"],"valueKind":"reported"},"totalUnitCount":6},"operatingCapacityMw":936.0,"operatingCapacityMwByTechnology":{"gas":936.0},"plannedCapacityCoverage":{"coveragePercent":100.0,"knownUnitCount":1,"method":"complete_unit_sum","provenance":{"evidenceCount":0,"recordIds":["wattlas-record-gemunit-g100000408577"],"sourceIds":["gem-global-integrated-power-tracker"],"sourceTypes":["research_verified"],"valueKind":"reported"},"totalUnitCount":1},"plannedCapacityMw":460.0,"plannedCapacityMwByTechnology":{"gas":460.0},"recordCount":7,"recordIds":["wattlas-record-gemunit-g100000408463","wattlas-record-gemunit-g100000408464","wattlas-record-gemunit-g100000408465","wattlas-record-gemunit-g100000408466","wattlas-record-gemunit-g100000408467","wattlas-record-gemunit-g100000408468","wattlas-record-gemunit-g100000408577"],"sourceIds":["gem-global-integrated-power-tracker"],"sourceUrl":"https://www.gem.wiki/Western_Mountain_power_plant","technologies":["gas"],"technologyMixMw":{"gas":1396.0},"unitCount":7,"unitIds":["gem-unit-G100000408463","gem-unit-G100000408464","gem-unit-G100000408465","gem-unit-G100000408466","gem-unit-G100000408467","gem-unit-G100000408468","gem-unit-G100000408577"]},"type":"Feature"},{"geometry":{"coordinates":[20.116529,30.955452],"type":"Point"},"id":"wattlas-plant-gemplant-l100000406159","properties":{"aliases":["CC","GT1","GT2","GT3","GT4","GT5","GT6","Zueitina power station"],"canonicalAnchor":"gemplant:L100000406159","canonicalCountryKey":"LY","capacityMw":770.0,"country":"LY","externalIdAliases":{"gemUnit":["G100000408456","G100000408457","G100000408458","G100000408459","G100000408460","G100000408461","G100000408462"]},"externalIds":{"gemPlant":"L100000406159","gemUnit":"G100000408457"},"gemWikiUrl":"https://www.gem.wiki/Zueitina_power_station","geographyId":"LY-10800210B39782956615971","id":"wattlas-plant-gemplant-l100000406159","lifecycleCounts":{"operational":6,"paused":1},"locationPrecision":"exact","name":"Zueitina power station","operatingCapacityCoverage":{"coveragePercent":100.0,"knownUnitCount":6,"method":"complete_unit_sum","provenance":{"evidenceCount":0,"recordIds":["wattlas-record-gemunit-g100000408457","wattlas-record-gemunit-g100000408458","wattlas-record-gemunit-g100000408459","wattlas-record-gemunit-g100000408460","wattlas-record-gemunit-g100000408461","wattlas-record-gemunit-g100000408462"],"sourceIds":["gem-global-integrated-power-tracker"],"sourceTypes":["research_verified"],"valueKind":"reported"},"totalUnitCount":6},"operatingCapacityMw":770.0,"operatingCapacityMwByTechnology":{"gas":770.0},"plannedCapacityCoverage":{"coveragePercent":0.0,"knownUnitCount":0,"method":"unavailable","totalUnitCount":0},"plannedCapacityMw":0.0,"plannedCapacityMwByTechnology":{},"recordCount":7,"recordIds":["wattlas-record-gemunit-g100000408456","wattlas-record-gemunit-g100000408457","wattlas-record-gemunit-g100000408458","wattlas-record-gemunit-g100000408459","wattlas-record-gemunit-g100000408460","wattlas-record-gemunit-g100000408461","wattlas-record-gemunit-g100000408462"],"sourceIds":["gem-global-integrated-power-tracker"],"sourceUrl":"https://www.gem.wiki/Zueitina_power_station","technologies":["gas"],"technologyMixMw":{"gas":770.0},"unitCount":7,"unitIds":["gem-unit-G100000408456","gem-unit-G100000408457","gem-unit-G100000408458","gem-unit-G100000408459","gem-unit-G100000408460","gem-unit-G100000408461","gem-unit-G100000408462"]},"type":"Feature"},{"geometry":{"coordinates":[22.095786,26.909488],"type":"Point"},"id":"wattlas-plant-gemplant-l100000407055","properties":{"aliases":["1-1","2-1","3-1","Sarir power station"],"canonicalAnchor":"gemplant:L100000407055","canonicalCountryKey":"LY","capacityMw":855.0,"country":"LY","externalIdAliases":{"gemUnit":["G100000408165","G100000408166","G100000408167"]},"externalIds":{"gemPlant":"L100000407055","gemUnit":"G100000408165"},"gemWikiUrl":"https://www.gem.wiki/Sarir_power_station","geographyId":"LY-10800210B89898169718474","id":"wattlas-plant-gemplant-l100000407055","lifecycleCounts":{"operational":3},"locationPrecision":"exact","name":"Sarir power station","operatingCapacityCoverage":{"coveragePercent":100.0,"knownUnitCount":3,"method":"complete_unit_sum","provenance":{"evidenceCount":0,"recordIds":["wattlas-record-gemunit-g100000408165","wattlas-record-gemunit-g100000408166","wattlas-record-gemunit-g100000408167"],"sourceIds":["gem-global-integrated-power-tracker"],"sourceTypes":["research_verified"],"valueKind":"reported"},"totalUnitCount":3},"operatingCapacityMw":855.0,"operatingCapacityMwByTechnology":{"gas":855.0},"plannedCapacityCoverage":{"coveragePercent":0.0,"knownUnitCount":0,"method":"unavailable","totalUnitCount":0},"plannedCapacityMw":0.0,"plannedCapacityMwByTechnology":{},"recordCount":3,"recordIds":["wattlas-record-gemunit-g100000408165","wattlas-record-gemunit-g100000408166","wattlas-record-gemunit-g100000408167"],"sourceIds":["gem-global-integrated-power-tracker"],"sourceUrl":"https://www.gem.wiki/Sarir_power_station","technologies":["gas"],"technologyMixMw":{"gas":855.0},"unitCount":3,"unitIds":["gem-unit-G100000408165","gem-unit-G100000408166","gem-unit-G100000408167"]},"type":"Feature"},{"geometry":{"coordinates":[12.977791,32.826719],"type":"Point"},"id":"wattlas-plant-gemplant-l100000407059","properties":{"aliases":["GT1","GT2","GT3","GT4","Mobile Units -محطة غرب طرابلس البخارية","ST1- محطة غرب طرابلس البخارية","ST2-محطة غرب طرابلس البخارية","ST3-محطة غرب طرابلس البخارية","ST4- محطة غرب طرابلس البخارية","West Tripoli power station"],"canonicalAnchor":"gemplant:L100000407059","canonicalCountryKey":"LY","capacityMw":2120.0,"country":"LY","externalIdAliases":{"gemUnit":["G100000408146","G100000408147","G100000408148","G100000408149","G100000408573","G100000408574","G100000408575","G100000408576","G100001051749"]},"externalIds":{"gemPlant":"L100000407059","gemUnit":"G100000408573"},"gemWikiUrl":"https://www.gem.wiki/West_Tripoli_power_station","geographyId":"LY-10800210B15874653580067","id":"wattlas-plant-gemplant-l100000407059","lifecycleCounts":{"operational":3,"under_construction":6},"locationPrecision":"exact","name":"West Tripoli power station","operatingCapacityCoverage":{"coveragePercent":100.0,"knownUnitCount":3,"method":"complete_unit_sum","provenance":{"evidenceCount":0,"recordIds":["wattlas-record-gemunit-g100000408148","wattlas-record-gemunit-g100000408149","wattlas-record-gemunit-g100001051749"],"sourceIds":["gem-global-integrated-power-tracker"],"sourceTypes":["research_verified"],"valueKind":"reported"},"totalUnitCount":3},"operatingCapacityMw":384.0,"operatingCapacityMwByTechnology":{"gas":384.0},"plannedCapacityCoverage":{"coveragePercent":100.0,"knownUnitCount":6,"method":"complete_unit_sum","provenance":{"evidenceCount":0,"recordIds":["wattlas-record-gemunit-g100000408146","wattlas-record-gemunit-g100000408147","wattlas-record-gemunit-g100000408573","wattlas-record-gemunit-g100000408574","wattlas-record-gemunit-g100000408575","wattlas-record-gemunit-g100000408576"],"sourceIds":["gem-global-integrated-power-tracker"],"sourceTypes":["research_verified"],"valueKind":"reported"},"totalUnitCount":6},"plannedCapacityMw":1736.0,"plannedCapacityMwByTechnology":{"gas":1736.0},"recordCount":9,"recordIds":["wattlas-record-gemunit-g100000408146","wattlas-record-gemunit-g100000408147","wattlas-record-gemunit-g100000408148","wattlas-record-gemunit-g100000408149","wattlas-record-gemunit-g100000408573","wattlas-record-gemunit-g100000408574","wattlas-record-gemunit-g100000408575","wattlas-record-gemunit-g100000408576","wattlas-record-gemunit-g100001051749"],"sourceIds":["gem-global-integrated-power-tracker"],"sourceUrl":"https://www.gem.wiki/West_Tripoli_power_station","technologies":["gas"],"technologyMixMw":{"gas":2120.0},"unitCount":9,"unitIds":["gem-unit-G100000408146","gem-unit-G100000408147","gem-unit-G100000408148","gem-unit-G100000408149","gem-unit-G100000408573","gem-unit-G100000408574","gem-unit-G100000408575","gem-unit-G100000408576","gem-unit-G100001051749"]},"type":"Feature"},{"geometry":{"coordinates":[12.679494,26.56378],"type":"Point"},"id":"wattlas-plant-gemplant-l100000407117","properties":{"aliases":["1-1","2-1","3-1","4-1","Ubari power station"],"canonicalAnchor":"gemplant:L100000407117","canonicalCountryKey":"LY","capacityMw":640.0,"country":"LY","externalIdAliases":{"gemUnit":["G100000408569","G100000408570","G100000408571","G100000408572"]},"externalIds":{"gemPlant":"L100000407117","gemUnit":"G100000408569"},"gemWikiUrl":"https://www.gem.wiki/Ubari_power_station","geographyId":"LY-10800210B2800497533490","id":"wattlas-plant-gemplant-l100000407117","lifecycleCounts":{"operational":4},"locationPrecision":"exact","name":"Ubari power station","operatingCapacityCoverage":{"coveragePercent":100.0,"knownUnitCount":4,"method":"complete_unit_sum","provenance":{"evidenceCount":0,"recordIds":["wattlas-record-gemunit-g100000408569","wattlas-record-gemunit-g100000408570","wattlas-record-gemunit-g100000408571","wattlas-record-gemunit-g100000408572"],"sourceIds":["gem-global-integrated-power-tracker"],"sourceTypes":["research_verified"],"valueKind":"reported"},"totalUnitCount":4},"operatingCapacityMw":640.0,"operatingCapacityMwByTechnology":{"gas":640.0},"plannedCapacityCoverage":{"coveragePercent":0.0,"knownUnitCount":0,"method":"unavailable","totalUnitCount":0},"plannedCapacityMw":0.0,"plannedCapacityMwByTechnology":{},"recordCount":4,"recordIds":["wattlas-record-gemunit-g100000408569","wattlas-record-gemunit-g100000408570","wattlas-record-gemunit-g100000408571","wattlas-record-gemunit-g100000408572"],"sourceIds":["gem-global-integrated-power-tracker"],"sourceUrl":"https://www.gem.wiki/Ubari_power_station","technologies":["gas"],"technologyMixMw":{"gas":640.0},"unitCount":4,"unitIds":["gem-unit-G100000408569","gem-unit-G100000408570","gem-unit-G100000408571","gem-unit-G100000408572"]},"type":"Feature"},{"geometry":{"coordinates":[14.431053,27.038047],"type":"Point"},"id":"wattlas-plant-gemplant-l100000408047","properties":{"aliases":["GT","Sabha 2 power plant"],"canonicalAnchor":"gemplant:L100000408047","canonicalCountryKey":"LY","capacityMw":750.0,"country":"LY","externalIds":{"gemPlant":"L100000408047","gemUnit":"G100000411159"},"gemWikiUrl":"https://www.gem.wiki/Sabha_2_power_plant","geographyId":"LY-10800210B80153830865201","id":"wattlas-plant-gemplant-l100000408047","lifecycleCounts":{"operational":1},"locationPrecision":"exact","name":"Sabha 2 power plant","operatingCapacityCoverage":{"coveragePercent":100.0,"knownUnitCount":1,"method":"complete_unit_sum","provenance":{"evidenceCount":0,"recordIds":["wattlas-record-gemunit-g100000411159"],"sourceIds":["gem-global-integrated-power-tracker"],"sourceTypes":["research_verified"],"valueKind":"reported"},"totalUnitCount":1},"operatingCapacityMw":750.0,"operatingCapacityMwByTechnology":{"gas":750.0},"plannedCapacityCoverage":{"coveragePercent":0.0,"knownUnitCount":0,"method":"unavailable","totalUnitCount":0},"plannedCapacityMw":0.0,"plannedCapacityMwByTechnology":{},"recordCount":1,"recordIds":["wattlas-record-gemunit-g100000411159"],"sourceIds":["gem-global-integrated-power-tracker"],"sourceUrl":"https://www.gem.wiki/Sabha_2_power_plant","technologies":["gas"],"technologyMixMw":{"gas":750.0},"unitCount":1,"unitIds":["gem-unit-G100000411159"]},"type":"Feature"},{"geometry":{"coordinates":[14.889865,27.221319],"type":"Point"},"id":"wattlas-plant-gemplant-l100000408214","properties":{"aliases":["1-1","GECOL power plant 1"],"canonicalAnchor":"gemplant:L100000408214","canonicalCountryKey":"LY","capacityMw":100.0,"country":"LY","externalIds":{"gemPlant":"L100000408214","gemUnit":"G100000411567"},"gemWikiUrl":"https://www.gem.wiki/GECOL_power_plant_1","geographyId":"LY-10800210B80153830865201","id":"wattlas-plant-gemplant-l100000408214","lifecycleCounts":{"operational":1},"locationPrecision":"exact","name":"GECOL power plant 1","operatingCapacityCoverage":{"coveragePercent":100.0,"knownUnitCount":1,"method":"complete_unit_sum","provenance":{"evidenceCount":0,"recordIds":["wattlas-record-gemunit-g100000411567"],"sourceIds":["gem-global-integrated-power-tracker"],"sourceTypes":["research_verified"],"valueKind":"reported"},"totalUnitCount":1},"operatingCapacityMw":100.0,"operatingCapacityMwByTechnology":{"gas":100.0},"plannedCapacityCoverage":{"coveragePercent":0.0,"knownUnitCount":0,"method":"unavailable","totalUnitCount":0},"plannedCapacityMw":0.0,"plannedCapacityMwByTechnology":{},"recordCount":1,"recordIds":["wattlas-record-gemunit-g100000411567"],"sourceIds":["gem-global-integrated-power-tracker"],"sourceUrl":"https://www.gem.wiki/GECOL_power_plant_1","technologies":["gas"],"technologyMixMw":{"gas":100.0},"unitCount":1,"unitIds":["gem-unit-G100000411567"]},"type":"Feature"},{"geometry":{"coordinates":[14.445031,27.033885],"type":"Point"},"id":"wattlas-plant-gemplant-l100000408217","properties":{"aliases":["GT1","GT2","GT3","Sabha power plant"],"canonicalAnchor":"gemplant:L100000408217","canonicalCountryKey":"LY","capacityMw":0.0,"country":"LY","externalIdAliases":{"gemUnit":["G100000411559","G100000411560","G100000411561"]},"externalIds":{"gemPlant":"L100000408217","gemUnit":"G100000411559"},"gemWikiUrl":"https://www.gem.wiki/Sabha_power_plant","geographyId":"LY-10800210B80153830865201","id":"wattlas-plant-gemplant-l100000408217","lifecycleCounts":{"paused":3},"locationPrecision":"exact","name":"Sabha power plant","operatingCapacityCoverage":{"coveragePercent":0.0,"knownUnitCount":0,"method":"unavailable","totalUnitCount":0},"operatingCapacityMw":0.0,"operatingCapacityMwByTechnology":{},"plannedCapacityCoverage":{"coveragePercent":0.0,"knownUnitCount":0,"method":"unavailable","totalUnitCount":0},"plannedCapacityMw":0.0,"plannedCapacityMwByTechnology":{},"recordCount":3,"recordIds":["wattlas-record-gemunit-g100000411559","wattlas-record-gemunit-g100000411560","wattlas-record-gemunit-g100000411561"],"sourceIds":["gem-global-integrated-power-tracker"],"sourceUrl":"https://www.gem.wiki/Sabha_power_plant","technologies":["gas"],"technologyMixMw":{"gas":0.0},"unitCount":3,"unitIds":["gem-unit-G100000411559","gem-unit-G100000411560","gem-unit-G100000411561"]},"type":"Feature"},{"geometry":{"coordinates":[14.889664,27.221992],"type":"Point"},"id":"wattlas-plant-gemplant-l100000408218","properties":{"aliases":["1-1","Samnu Power plant"],"canonicalAnchor":"gemplant:L100000408218","canonicalCountryKey":"LY","capacityMw":220.0,"country":"LY","externalIds":{"gemPlant":"L100000408218","gemUnit":"G100000411558"},"gemWikiUrl":"https://www.gem.wiki/Samnu_Power_plant","geographyId":"LY-10800210B80153830865201","id":"wattlas-plant-gemplant-l100000408218","lifecycleCounts":{"operational":1},"locationPrecision":"exact","name":"Samnu Power plant","operatingCapacityCoverage":{"coveragePercent":100.0,"knownUnitCount":1,"method":"complete_unit_sum","provenance":{"evidenceCount":0,"recordIds":["wattlas-record-gemunit-g100000411558"],"sourceIds":["gem-global-integrated-power-tracker"],"sourceTypes":["research_verified"],"valueKind":"reported"},"totalUnitCount":1},"operatingCapacityMw":220.0,"operatingCapacityMwByTechnology":{"gas":220.0},"plannedCapacityCoverage":{"coveragePercent":0.0,"knownUnitCount":0,"method":"unavailable","totalUnitCount":0},"plannedCapacityMw":0.0,"plannedCapacityMwByTechnology":{},"recordCount":1,"recordIds":["wattlas-record-gemunit-g100000411558"],"sourceIds":["gem-global-integrated-power-tracker"],"sourceUrl":"https://www.gem.wiki/Samnu_Power_plant","technologies":["gas"],"technologyMixMw":{"gas":220.0},"unitCount":1,"unitIds":["gem-unit-G100000411558"]},"type":"Feature"},{"geometry":{"coordinates":[12.97455,32.822983],"type":"Point"},"id":"wattlas-plant-gemplant-l100000408221","properties":{"aliases":["ST1","ST2","ST3","ST4","ST5","ST6","West Tripoli Thermal power station"],"canonicalAnchor":"gemplant:L100000408221","canonicalCountryKey":"LY","capacityMw":500.0,"country":"LY","externalIdAliases":{"gemUnit":["G100000411545","G100000411546","G100000411547","G100000411548","G100000411549","G100000411550"]},"externalIds":{"gemPlant":"L100000408221","gemUnit":"G100000411545"},"gemWikiUrl":"https://www.gem.wiki/West_Tripoli_Thermal_power_station","geographyId":"LY-10800210B15874653580067","id":"wattlas-plant-gemplant-l100000408221","lifecycleCounts":{"operational":6},"locationPrecision":"exact","name":"West Tripoli Thermal power station","operatingCapacityCoverage":{"coveragePercent":100.0,"knownUnitCount":6,"method":"complete_unit_sum","provenance":{"evidenceCount":0,"recordIds":["wattlas-record-gemunit-g100000411545","wattlas-record-gemunit-g100000411546","wattlas-record-gemunit-g100000411547","wattlas-record-gemunit-g100000411548","wattlas-record-gemunit-g100000411549","wattlas-record-gemunit-g100000411550"],"sourceIds":["gem-global-integrated-power-tracker"],"sourceTypes":["research_verified"],"valueKind":"reported"},"totalUnitCount":6},"operatingCapacityMw":500.0,"operatingCapacityMwByTechnology":{"oil":500.0},"plannedCapacityCoverage":{"coveragePercent":0.0,"knownUnitCount":0,"method":"unavailable","totalUnitCount":0},"plannedCapacityMw":0.0,"plannedCapacityMwByTechnology":{},"recordCount":6,"recordIds":["wattlas-record-gemunit-g100000411545","wattlas-record-gemunit-g100000411546","wattlas-record-gemunit-g100000411547","wattlas-record-gemunit-g100000411548","wattlas-record-gemunit-g100000411549","wattlas-record-gemunit-g100000411550"],"sourceIds":["gem-global-integrated-power-tracker"],"sourceUrl":"https://www.gem.wiki/West_Tripoli_Thermal_power_station","technologies":["oil"],"technologyMixMw":{"oil":500.0},"unitCount":6,"unitIds":["gem-unit-G100000411545","gem-unit-G100000411546","gem-unit-G100000411547","gem-unit-G100000411548","gem-unit-G100000411549","gem-unit-G100000411550"]},"type":"Feature"},{"geometry":{"coordinates":[14.5725,32.463889],"type":"Point"},"id":"wattlas-plant-gemplant-l100000409119","properties":{"aliases":["1-1","2-1","3-1","4-1","5-1","6-1","Zliten power plant"],"canonicalAnchor":"gemplant:L100000409119","canonicalCountryKey":"LY","capacityMw":1044.0,"country":"LY","externalIdAliases":{"gemUnit":["G100000410495","G100000413705","G100000413706","G100000413707","G100000413708","G100000413709"]},"externalIds":{"gemPlant":"L100000409119","gemUnit":"G100000413705"},"gemWikiUrl":"https://www.gem.wiki/Zliten_power_plant","geographyId":"LY-10800210B66581866957995","id":"wattlas-plant-gemplant-l100000409119","lifecycleCounts":{"under_construction":6},"locationPrecision":"exact","name":"Zliten power plant","operatingCapacityCoverage":{"coveragePercent":0.0,"knownUnitCount":0,"method":"unavailable","totalUnitCount":0},"operatingCapacityMw":0.0,"operatingCapacityMwByTechnology":{},"plannedCapacityCoverage":{"coveragePercent":100.0,"knownUnitCount":6,"method":"complete_unit_sum","provenance":{"evidenceCount":0,"recordIds":["wattlas-record-gemunit-g100000410495","wattlas-record-gemunit-g100000413705","wattlas-record-gemunit-g100000413706","wattlas-record-gemunit-g100000413707","wattlas-record-gemunit-g100000413708","wattlas-record-gemunit-g100000413709"],"sourceIds":["gem-global-integrated-power-tracker"],"sourceTypes":["research_verified"],"valueKind":"reported"},"totalUnitCount":6},"plannedCapacityMw":1044.0,"plannedCapacityMwByTechnology":{"gas":1044.0},"recordCount":6,"recordIds":["wattlas-record-gemunit-g100000410495","wattlas-record-gemunit-g100000413705","wattlas-record-gemunit-g100000413706","wattlas-record-gemunit-g100000413707","wattlas-record-gemunit-g100000413708","wattlas-record-gemunit-g100000413709"],"sourceIds":["gem-global-integrated-power-tracker"],"sourceUrl":"https://www.gem.wiki/Zliten_power_plant","technologies":["gas"],"technologyMixMw":{"gas":1044.0},"unitCount":6,"unitIds":["gem-unit-G100000410495","gem-unit-G100000413705","gem-unit-G100000413706","gem-unit-G100000413707","gem-unit-G100000413708","gem-unit-G100000413709"]},"type":"Feature"},{"geometry":{"coordinates":[12.878595,32.679847],"type":"Point"},"id":"wattlas-plant-gemplant-l100000409297","properties":{"aliases":["1-1","AL Zahra power plant"],"canonicalAnchor":"gemplant:L100000409297","canonicalCountryKey":"LY","capacityMw":141.0,"country":"LY","externalIds":{"gemPlant":"L100000409297","gemUnit":"G100000414367"},"gemWikiUrl":"https://www.gem.wiki/AL_Zahra_power_plant","geographyId":"LY-10800210B15874653580067","id":"wattlas-plant-gemplant-l100000409297","lifecycleCounts":{"operational":1},"locationPrecision":"exact","name":"AL Zahra power plant","operatingCapacityCoverage":{"coveragePercent":100.0,"knownUnitCount":1,"method":"complete_unit_sum","provenance":{"evidenceCount":0,"recordIds":["wattlas-record-gemunit-g100000414367"],"sourceIds":["gem-global-integrated-power-tracker"],"sourceTypes":["research_verified"],"valueKind":"reported"},"totalUnitCount":1},"operatingCapacityMw":141.0,"operatingCapacityMwByTechnology":{"gas":141.0},"plannedCapacityCoverage":{"coveragePercent":0.0,"knownUnitCount":0,"method":"unavailable","totalUnitCount":0},"plannedCapacityMw":0.0,"plannedCapacityMwByTechnology":{},"recordCount":1,"recordIds":["wattlas-record-gemunit-g100000414367"],"sourceIds":["gem-global-integrated-power-tracker"],"sourceUrl":"https://www.gem.wiki/AL_Zahra_power_plant","technologies":["gas"],"technologyMixMw":{"gas":141.0},"unitCount":1,"unitIds":["gem-unit-G100000414367"]},"type":"Feature"},{"geometry":{"coordinates":[12.0798,32.0987],"type":"Point"},"id":"wattlas-plant-gemplant-l100000811612","properties":{"aliases":["--","Jadu solar farm"],"canonicalAnchor":"gemplant:L100000811612","canonicalCountryKey":"LY","capacityMw":70.0,"country":"LY","externalIds":{"gemPlant":"L100000811612","gemUnit":"G100000814146"},"gemWikiUrl":"https://www.gem.wiki/Jadu_solar_farm","geographyId":"LY-10800210B39461050964926","id":"wattlas-plant-gemplant-l100000811612","lifecycleCounts":{"announced":1},"locationPrecision":"exact","name":"Jadu solar farm","operatingCapacityCoverage":{"coveragePercent":0.0,"knownUnitCount":0,"method":"unavailable","totalUnitCount":0},"operatingCapacityMw":0.0,"operatingCapacityMwByTechnology":{},"plannedCapacityCoverage":{"coveragePercent":100.0,"knownUnitCount":1,"method":"complete_unit_sum","provenance":{"evidenceCount":0,"recordIds":["wattlas-record-gemunit-g100000814146"],"sourceIds":["gem-global-integrated-power-tracker"],"sourceTypes":["research_verified"],"valueKind":"reported"},"totalUnitCount":1},"plannedCapacityMw":70.0,"plannedCapacityMwByTechnology":{"solar":70.0},"recordCount":1,"recordIds":["wattlas-record-gemunit-g100000814146"],"sourceIds":["gem-global-integrated-power-tracker"],"sourceUrl":"https://www.gem.wiki/Jadu_solar_farm","technologies":["solar"],"technologyMixMw":{"solar":70.0},"unitCount":1,"unitIds":["gem-unit-G100000814146"]},"type":"Feature"},{"geometry":{"coordinates":[19.518308,28.449557],"type":"Point"},"id":"wattlas-plant-osm-way-1327770378","properties":{"aliases":["Zaggut Station"],"canonicalAnchor":"osm:way/1327770378","canonicalCountryKey":"LY","capacityMw":0.0,"country":"LY","externalIds":{"osm":"way/1327770378"},"geographyId":"LY-10800210B39782956615971","id":"wattlas-plant-osm-way-1327770378","lifecycleCounts":{"operational":1},"locationPrecision":"exact","name":"Zaggut Station","operatingCapacityCoverage":{"coveragePercent":0.0,"knownUnitCount":0,"method":"unavailable","totalUnitCount":0},"operatingCapacityMw":0.0,"operatingCapacityMwByTechnology":{},"plannedCapacityCoverage":{"coveragePercent":0.0,"knownUnitCount":0,"method":"unavailable","totalUnitCount":0},"plannedCapacityMw":0.0,"plannedCapacityMwByTechnology":{},"recordCount":1,"recordIds":["wattlas-record-osm-way-1327770378"],"sourceIds":["openstreetmap-power"],"sourceUrl":"https://www.openstreetmap.org/way/1327770378","technologies":["oil"],"technologyMixMw":{"oil":0.0},"unitCount":0,"unitIds":[]},"type":"Feature"},{"geometry":{"coordinates":[12.456342,32.730569],"type":"Point"},"id":"wattlas-plant-osm-way-1328110580","properties":{"aliases":["محطة توليد النهضة"],"canonicalAnchor":"osm:way/1328110580","canonicalCountryKey":"LY","capacityMw":0.0,"country":"LY","externalIds":{"osm":"way/1328110580"},"geographyId":"LY-10800210B63841479422356","id":"wattlas-plant-osm-way-1328110580","lifecycleCounts":{"operational":1},"locationPrecision":"exact","name":"محطة توليد النهضة","operatingCapacityCoverage":{"coveragePercent":0.0,"knownUnitCount":0,"method":"unavailable","totalUnitCount":0},"operatingCapacityMw":0.0,"operatingCapacityMwByTechnology":{},"plannedCapacityCoverage":{"coveragePercent":0.0,"knownUnitCount":0,"method":"unavailable","totalUnitCount":0},"plannedCapacityMw":0.0,"plannedCapacityMwByTechnology":{},"recordCount":1,"recordIds":["wattlas-record-osm-way-1328110580"],"sourceIds":["openstreetmap-power"],"sourceUrl":"https://www.openstreetmap.org/way/1328110580","technologies":["other"],"technologyMixMw":{"other":0.0},"unitCount":0,"unitIds":[]},"type":"Feature"},{"geometry":{"coordinates":[14.639854,27.205802],"type":"Point"},"id":"wattlas-plant-osm-way-1415736370","properties":{"aliases":["مزرعة"],"canonicalAnchor":"osm:way/1415736370","canonicalCountryKey":"LY","capacityMw":0.0,"country":"LY","externalIds":{"osm":"way/1415736370"},"geographyId":"LY-10800210B80153830865201","id":"wattlas-plant-osm-way-1415736370","lifecycleCounts":{"operational":1},"locationPrecision":"exact","name":"مزرعة","operatingCapacityCoverage":{"coveragePercent":0.0,"knownUnitCount":0,"method":"unavailable","totalUnitCount":0},"operatingCapacityMw":0.0,"operatingCapacityMwByTechnology":{},"plannedCapacityCoverage":{"coveragePercent":0.0,"knownUnitCount":0,"method":"unavailable","totalUnitCount":0},"plannedCapacityMw":0.0,"plannedCapacityMwByTechnology":{},"recordCount":1,"recordIds":["wattlas-record-osm-way-1415736370"],"sourceIds":["openstreetmap-power"],"sourceUrl":"https://www.openstreetmap.org/way/1415736370","technologies":["solar"],"technologyMixMw":{"solar":0.0},"unitCount":0,"unitIds":[]},"type":"Feature"},{"geometry":{"coordinates":[14.615513,27.213757],"type":"Point"},"id":"wattlas-plant-osm-way-1415737240","properties":{"aliases":["مزرعة"],"canonicalAnchor":"osm:way/1415737240","canonicalCountryKey":"LY","capacityMw":0.0,"country":"LY","externalIds":{"osm":"way/1415737240"},"geographyId":"LY-10800210B80153830865201","id":"wattlas-plant-osm-way-1415737240","lifecycleCounts":{"operational":1},"locationPrecision":"exact","name":"مزرعة","operatingCapacityCoverage":{"coveragePercent":0.0,"knownUnitCount":0,"method":"unavailable","totalUnitCount":0},"operatingCapacityMw":0.0,"operatingCapacityMwByTechnology":{},"plannedCapacityCoverage":{"coveragePercent":0.0,"knownUnitCount":0,"method":"unavailable","totalUnitCount":0},"plannedCapacityMw":0.0,"plannedCapacityMwByTechnology":{},"recordCount":1,"recordIds":["wattlas-record-osm-way-1415737240"],"sourceIds":["openstreetmap-power"],"sourceUrl":"https://www.openstreetmap.org/way/1415737240","technologies":["solar"],"technologyMixMw":{"solar":0.0},"unitCount":0,"unitIds":[]},"type":"Feature"},{"geometry":{"coordinates":[15.925913,29.102946],"type":"Point"},"id":"wattlas-plant-osm-way-1416198098","properties":{"aliases":["مزرعة بقصيصة"],"canonicalAnchor":"osm:way/1416198098","canonicalCountryKey":"LY","capacityMw":0.0,"country":"LY","externalIds":{"osm":"way/1416198098"},"geographyId":"LY-10800210B94224648391824","id":"wattlas-plant-osm-way-1416198098","lifecycleCounts":{"operational":1},"locationPrecision":"exact","name":"مزرعة بقصيصة","operatingCapacityCoverage":{"coveragePercent":0.0,"knownUnitCount":0,"method":"unavailable","totalUnitCount":0},"operatingCapacityMw":0.0,"operatingCapacityMwByTechnology":{},"plannedCapacityCoverage":{"coveragePercent":0.0,"knownUnitCount":0,"method":"unavailable","totalUnitCount":0},"plannedCapacityMw":0.0,"plannedCapacityMwByTechnology":{},"recordCount":1,"recordIds":["wattlas-record-osm-way-1416198098"],"sourceIds":["openstreetmap-power"],"sourceUrl":"https://www.openstreetmap.org/way/1416198098","technologies":["solar"],"technologyMixMw":{"solar":0.0},"unitCount":0,"unitIds":[]},"type":"Feature"},{"geometry":{"coordinates":[13.332934,32.84738],"type":"Point"},"id":"wattlas-plant-osm-way-161963067","properties":{"aliases":["محطة كهرباء شرق طرابلس"],"canonicalAnchor":"osm:way/161963067","canonicalCountryKey":"LY","capacityMw":12.0,"country":"LY","externalIds":{"osm":"way/161963067"},"geographyId":"LY-10800210B53685260454781","id":"wattlas-plant-osm-way-161963067","lifecycleCounts":{"operational":1},"locationPrecision":"exact","name":"محطة كهرباء شرق طرابلس","operatingCapacityCoverage":{"coveragePercent":100.0,"knownUnitCount":0,"method":"plant_aggregate","provenance":{"evidenceCount":0,"recordIds":["wattlas-record-osm-way-161963067"],"sourceIds":["openstreetmap-power"],"sourceTypes":["community_mapped"],"valueKind":"reported"},"totalUnitCount":0},"operatingCapacityMw":12.0,"operatingCapacityMwByTechnology":{"other":12.0},"plannedCapacityCoverage":{"coveragePercent":0.0,"knownUnitCount":0,"method":"unavailable","totalUnitCount":0},"plannedCapacityMw":0.0,"plannedCapacityMwByTechnology":{},"recordCount":1,"recordIds":["wattlas-record-osm-way-161963067"],"sourceIds":["openstreetmap-power"],"sourceUrl":"https://www.openstreetmap.org/way/161963067","technologies":["other"],"technologyMixMw":{"other":12.0},"unitCount":0,"unitIds":[]},"type":"Feature"},{"geometry":{"coordinates":[18.450834,29.015069],"type":"Point"},"id":"wattlas-plant-osm-way-169562938","properties":{"aliases":["Gattar Station"],"canonicalAnchor":"osm:way/169562938","canonicalCountryKey":"LY","capacityMw":0.0,"country":"LY","externalIds":{"osm":"way/169562938"},"geographyId":"LY-10800210B41812565387288","id":"wattlas-plant-osm-way-169562938","lifecycleCounts":{"operational":1},"locationPrecision":"exact","name":"Gattar Station","operatingCapacityCoverage":{"coveragePercent":0.0,"knownUnitCount":0,"method":"unavailable","totalUnitCount":0},"operatingCapacityMw":0.0,"operatingCapacityMwByTechnology":{},"plannedCapacityCoverage":{"coveragePercent":0.0,"knownUnitCount":0,"method":"unavailable","totalUnitCount":0},"plannedCapacityMw":0.0,"plannedCapacityMwByTechnology":{},"recordCount":1,"recordIds":["wattlas-record-osm-way-169562938"],"sourceIds":["openstreetmap-power"],"sourceUrl":"https://www.openstreetmap.org/way/169562938","technologies":["oil"],"technologyMixMw":{"oil":0.0},"unitCount":0,"unitIds":[]},"type":"Feature"},{"geometry":{"coordinates":[13.999154,31.696543],"type":"Point"},"id":"wattlas-plant-osm-way-181030546","properties":{"aliases":["محطة جهد 66"],"canonicalAnchor":"osm:way/181030546","canonicalCountryKey":"LY","capacityMw":5.0,"country":"LY","externalIds":{"osm":"way/181030546"},"geographyId":"LY-10800210B58781405840719","id":"wattlas-plant-osm-way-181030546","lifecycleCounts":{"operational":1},"locationPrecision":"exact","name":"محطة جهد 66","operatingCapacityCoverage":{"coveragePercent":100.0,"knownUnitCount":0,"method":"plant_aggregate","provenance":{"evidenceCount":0,"recordIds":["wattlas-record-osm-way-181030546"],"sourceIds":["openstreetmap-power"],"sourceTypes":["community_mapped"],"valueKind":"reported"},"totalUnitCount":0},"operatingCapacityMw":5.0,"operatingCapacityMwByTechnology":{"other":5.0},"plannedCapacityCoverage":{"coveragePercent":0.0,"knownUnitCount":0,"method":"unavailable","totalUnitCount":0},"plannedCapacityMw":0.0,"plannedCapacityMwByTechnology":{},"recordCount":1,"recordIds":["wattlas-record-osm-way-181030546"],"sourceIds":["openstreetmap-power"],"sourceUrl":"https://www.openstreetmap.org/way/181030546","technologies":["other"],"technologyMixMw":{"other":5.0},"unitCount":0,"unitIds":[]},"type":"Feature"},{"geometry":{"coordinates":[14.889758,27.221779],"type":"Point"},"id":"wattlas-plant-osm-way-193765930","properties":{"aliases":["محطه توليد كهرباء ديزل سمنو"],"canonicalAnchor":"osm:way/193765930","canonicalCountryKey":"LY","capacityMw":220.0,"country":"LY","externalIds":{"osm":"way/193765930"},"geographyId":"LY-10800210B80153830865201","id":"wattlas-plant-osm-way-193765930","lifecycleCounts":{"operational":1},"locationPrecision":"exact","name":"محطه توليد كهرباء ديزل سمنو","operatingCapacityCoverage":{"coveragePercent":100.0,"knownUnitCount":0,"method":"plant_aggregate","provenance":{"evidenceCount":0,"recordIds":["wattlas-record-osm-way-193765930"],"sourceIds":["openstreetmap-power"],"sourceTypes":["community_mapped"],"valueKind":"reported"},"totalUnitCount":0},"operatingCapacityMw":220.0,"operatingCapacityMwByTechnology":{"other":220.0},"plannedCapacityCoverage":{"coveragePercent":0.0,"knownUnitCount":0,"method":"unavailable","totalUnitCount":0},"plannedCapacityMw":0.0,"plannedCapacityMwByTechnology":{},"recordCount":1,"recordIds":["wattlas-record-osm-way-193765930"],"sourceIds":["openstreetmap-power"],"sourceUrl":"https://www.openstreetmap.org/way/193765930","technologies":["other"],"technologyMixMw":{"other":220.0},"unitCount":0,"unitIds":[]},"type":"Feature"},{"geometry":{"coordinates":[14.078642,31.838278],"type":"Point"},"id":"wattlas-plant-osm-way-196394003","properties":{"aliases":["66KVA"],"canonicalAnchor":"osm:way/196394003","canonicalCountryKey":"LY","capacityMw":0.0,"country":"LY","externalIds":{"osm":"way/196394003"},"geographyId":"LY-10800210B58781405840719","id":"wattlas-plant-osm-way-196394003","lifecycleCounts":{"operational":1},"locationPrecision":"exact","name":"66KVA","operatingCapacityCoverage":{"coveragePercent":0.0,"knownUnitCount":0,"method":"unavailable","totalUnitCount":0},"operatingCapacityMw":0.0,"operatingCapacityMwByTechnology":{},"plannedCapacityCoverage":{"coveragePercent":0.0,"knownUnitCount":0,"method":"unavailable","totalUnitCount":0},"plannedCapacityMw":0.0,"plannedCapacityMwByTechnology":{},"recordCount":1,"recordIds":["wattlas-record-osm-way-196394003"],"sourceIds":["openstreetmap-power"],"sourceUrl":"https://www.openstreetmap.org/way/196394003","technologies":["other"],"technologyMixMw":{"other":0.0},"unitCount":0,"unitIds":[]},"type":"Feature"},{"geometry":{"coordinates":[13.993144,31.789666],"type":"Point"},"id":"wattlas-plant-osm-way-222641613","properties":{"aliases":["محطة 66 فولت"],"canonicalAnchor":"osm:way/222641613","canonicalCountryKey":"LY","capacityMw":2.0,"country":"LY","externalIds":{"osm":"way/222641613"},"geographyId":"LY-10800210B58781405840719","id":"wattlas-plant-osm-way-222641613","lifecycleCounts":{"operational":1},"locationPrecision":"exact","name":"محطة 66 فولت","operatingCapacityCoverage":{"coveragePercent":100.0,"knownUnitCount":0,"method":"plant_aggregate","provenance":{"evidenceCount":0,"recordIds":["wattlas-record-osm-way-222641613"],"sourceIds":["openstreetmap-power"],"sourceTypes":["community_mapped"],"valueKind":"reported"},"totalUnitCount":0},"operatingCapacityMw":2.0,"operatingCapacityMwByTechnology":{"other":2.0},"plannedCapacityCoverage":{"coveragePercent":0.0,"knownUnitCount":0,"method":"unavailable","totalUnitCount":0},"plannedCapacityMw":0.0,"plannedCapacityMwByTechnology":{},"recordCount":1,"recordIds":["wattlas-record-osm-way-222641613"],"sourceIds":["openstreetmap-power"],"sourceUrl":"https://www.openstreetmap.org/way/222641613","technologies":["other"],"technologyMixMw":{"other":2.0},"unitCount":0,"unitIds":[]},"type":"Feature"},{"geometry":{"coordinates":[11.997695,31.906065],"type":"Point"},"id":"wattlas-plant-osm-way-224243440","properties":{"aliases":["66KVA"],"canonicalAnchor":"osm:way/224243440","canonicalCountryKey":"LY","capacityMw":0.0,"country":"LY","externalIds":{"osm":"way/224243440"},"geographyId":"LY-10800210B39461050964926","id":"wattlas-plant-osm-way-224243440","lifecycleCounts":{"operational":1},"locationPrecision":"exact","name":"66KVA","operatingCapacityCoverage":{"coveragePercent":0.0,"knownUnitCount":0,"method":"unavailable","totalUnitCount":0},"operatingCapacityMw":0.0,"operatingCapacityMwByTechnology":{},"plannedCapacityCoverage":{"coveragePercent":0.0,"knownUnitCount":0,"method":"unavailable","totalUnitCount":0},"plannedCapacityMw":0.0,"plannedCapacityMwByTechnology":{},"recordCount":1,"recordIds":["wattlas-record-osm-way-224243440"],"sourceIds":["openstreetmap-power"],"sourceUrl":"https://www.openstreetmap.org/way/224243440","technologies":["oil"],"technologyMixMw":{"oil":0.0},"unitCount":0,"unitIds":[]},"type":"Feature"},{"geometry":{"coordinates":[10.556238,25.788496],"type":"Point"},"id":"wattlas-plant-osm-way-274184515","properties":{"aliases":["66KVA"],"canonicalAnchor":"osm:way/274184515","canonicalCountryKey":"LY","capacityMw":5.0,"country":"LY","externalIds":{"osm":"way/274184515"},"geographyId":"LY-10800210B26344076542723","id":"wattlas-plant-osm-way-274184515","lifecycleCounts":{"operational":1},"locationPrecision":"exact","name":"66KVA","operatingCapacityCoverage":{"coveragePercent":100.0,"knownUnitCount":0,"method":"plant_aggregate","provenance":{"evidenceCount":0,"recordIds":["wattlas-record-osm-way-274184515"],"sourceIds":["openstreetmap-power"],"sourceTypes":["community_mapped"],"valueKind":"reported"},"totalUnitCount":0},"operatingCapacityMw":5.0,"operatingCapacityMwByTechnology":{"gas":5.0},"plannedCapacityCoverage":{"coveragePercent":0.0,"knownUnitCount":0,"method":"unavailable","totalUnitCount":0},"plannedCapacityMw":0.0,"plannedCapacityMwByTechnology":{},"recordCount":1,"recordIds":["wattlas-record-osm-way-274184515"],"sourceIds":["openstreetmap-power"],"sourceUrl":"https://www.openstreetmap.org/way/274184515","technologies":["gas"],"technologyMixMw":{"gas":5.0},"unitCount":0,"unitIds":[]},"type":"Feature"},{"geometry":{"coordinates":[14.012784,31.761856],"type":"Point"},"id":"wattlas-plant-osm-way-766225226","properties":{"aliases":["محطة بني وليد للكهرباء الغازية"],"canonicalAnchor":"osm:way/766225226","canonicalCountryKey":"LY","capacityMw":0.0,"country":"LY","externalIds":{"osm":"way/766225226"},"geographyId":"LY-10800210B58781405840719","id":"wattlas-plant-osm-way-766225226","lifecycleCounts":{"operational":1},"locationPrecision":"exact","name":"محطة بني وليد للكهرباء الغازية","operatingCapacityCoverage":{"coveragePercent":0.0,"knownUnitCount":0,"method":"unavailable","totalUnitCount":0},"operatingCapacityMw":0.0,"operatingCapacityMwByTechnology":{},"plannedCapacityCoverage":{"coveragePercent":0.0,"knownUnitCount":0,"method":"unavailable","totalUnitCount":0},"plannedCapacityMw":0.0,"plannedCapacityMwByTechnology":{},"recordCount":1,"recordIds":["wattlas-record-osm-way-766225226"],"sourceIds":["openstreetmap-power"],"sourceUrl":"https://www.openstreetmap.org/way/766225226","technologies":["gas"],"technologyMixMw":{"gas":0.0},"unitCount":0,"unitIds":[]},"type":"Feature"},{"geometry":{"coordinates":[22.140989,32.78209],"type":"Point"},"id":"wattlas-plant-osm-way-814785351","properties":{"aliases":["محطة كهرباء لملودة"],"canonicalAnchor":"osm:way/814785351","canonicalCountryKey":"LY","capacityMw":33.0,"country":"LY","externalIds":{"osm":"way/814785351"},"geographyId":"LY-10800210B44488917334986","id":"wattlas-plant-osm-way-814785351","lifecycleCounts":{"operational":1},"locationPrecision":"exact","name":"محطة كهرباء لملودة","operatingCapacityCoverage":{"coveragePercent":100.0,"knownUnitCount":0,"method":"plant_aggregate","provenance":{"evidenceCount":0,"recordIds":["wattlas-record-osm-way-814785351"],"sourceIds":["openstreetmap-power"],"sourceTypes":["community_mapped"],"valueKind":"reported"},"totalUnitCount":0},"operatingCapacityMw":33.0,"operatingCapacityMwByTechnology":{"oil":33.0},"plannedCapacityCoverage":{"coveragePercent":0.0,"knownUnitCount":0,"method":"unavailable","totalUnitCount":0},"plannedCapacityMw":0.0,"plannedCapacityMwByTechnology":{},"recordCount":1,"recordIds":["wattlas-record-osm-way-814785351"],"sourceIds":["openstreetmap-power"],"sourceUrl":"https://www.openstreetmap.org/way/814785351","technologies":["oil"],"technologyMixMw":{"oil":33.0},"unitCount":0,"unitIds":[]},"type":"Feature"},{"geometry":{"coordinates":[14.033196,31.733105],"type":"Point"},"id":"wattlas-plant-osm-way-829445592","properties":{"aliases":["66KVA"],"canonicalAnchor":"osm:way/829445592","canonicalCountryKey":"LY","capacityMw":2.0,"country":"LY","externalIds":{"osm":"way/829445592"},"geographyId":"LY-10800210B58781405840719","id":"wattlas-plant-osm-way-829445592","lifecycleCounts":{"operational":1},"locationPrecision":"exact","name":"66KVA","operatingCapacityCoverage":{"coveragePercent":100.0,"knownUnitCount":0,"method":"plant_aggregate","provenance":{"evidenceCount":0,"recordIds":["wattlas-record-osm-way-829445592"],"sourceIds":["openstreetmap-power"],"sourceTypes":["community_mapped"],"valueKind":"reported"},"totalUnitCount":0},"operatingCapacityMw":2.0,"operatingCapacityMwByTechnology":{"other":2.0},"plannedCapacityCoverage":{"coveragePercent":0.0,"knownUnitCount":0,"method":"unavailable","totalUnitCount":0},"plannedCapacityMw":0.0,"plannedCapacityMwByTechnology":{},"recordCount":1,"recordIds":["wattlas-record-osm-way-829445592"],"sourceIds":["openstreetmap-power"],"sourceUrl":"https://www.openstreetmap.org/way/829445592","technologies":["other"],"technologyMixMw":{"other":2.0},"unitCount":0,"unitIds":[]},"type":"Feature"},{"geometry":{"coordinates":[21.600584,27.587531],"type":"Point"},"id":"wattlas-plant-osm-way-875632765","properties":{"aliases":["محطة كهرباء مشروع النهر الصناعي"],"canonicalAnchor":"osm:way/875632765","canonicalCountryKey":"LY","capacityMw":0.0,"country":"LY","externalIds":{"osm":"way/875632765"},"geographyId":"LY-10800210B39782956615971","id":"wattlas-plant-osm-way-875632765","lifecycleCounts":{"operational":1},"locationPrecision":"exact","name":"محطة كهرباء مشروع النهر الصناعي","operatingCapacityCoverage":{"coveragePercent":0.0,"knownUnitCount":0,"method":"unavailable","totalUnitCount":0},"operatingCapacityMw":0.0,"operatingCapacityMwByTechnology":{},"plannedCapacityCoverage":{"coveragePercent":0.0,"knownUnitCount":0,"method":"unavailable","totalUnitCount":0},"plannedCapacityMw":0.0,"plannedCapacityMwByTechnology":{},"recordCount":1,"recordIds":["wattlas-record-osm-way-875632765"],"sourceIds":["openstreetmap-power"],"sourceUrl":"https://www.openstreetmap.org/way/875632765","technologies":["oil"],"technologyMixMw":{"oil":0.0},"unitCount":0,"unitIds":[]},"type":"Feature"},{"geometry":{"coordinates":[11.822022,33.06287],"type":"Point"},"id":"wattlas-plant-osm-way-977088210","properties":{"aliases":["Abu Kammash Power Station"],"canonicalAnchor":"osm:way/977088210","canonicalCountryKey":"LY","capacityMw":90.0,"country":"LY","externalIds":{"osm":"way/977088210"},"geographyId":"LY-10800210B63841479422356","id":"wattlas-plant-osm-way-977088210","lifecycleCounts":{"operational":1},"locationPrecision":"exact","name":"Abu Kammash Power Station","operatingCapacityCoverage":{"coveragePercent":100.0,"knownUnitCount":0,"method":"plant_aggregate","provenance":{"evidenceCount":0,"recordIds":["wattlas-record-osm-way-977088210"],"sourceIds":["openstreetmap-power"],"sourceTypes":["community_mapped"],"valueKind":"reported"},"totalUnitCount":0},"operatingCapacityMw":90.0,"operatingCapacityMwByTechnology":{"gas":90.0},"plannedCapacityCoverage":{"coveragePercent":0.0,"knownUnitCount":0,"method":"unavailable","totalUnitCount":0},"plannedCapacityMw":0.0,"plannedCapacityMwByTechnology":{},"recordCount":1,"recordIds":["wattlas-record-osm-way-977088210"],"sourceIds":["openstreetmap-power"],"sourceUrl":"https://www.openstreetmap.org/way/977088210","technologies":["gas"],"technologyMixMw":{"gas":90.0},"unitCount":0,"unitIds":[]},"type":"Feature"},{"geometry":{"coordinates":[11.144344,31.956536],"type":"Point"},"id":"wattlas-plant-wikidata-q12010551","properties":{"aliases":["محطة الرويسات الكهربائية"],"canonicalAnchor":"wikidata:Q12010551","canonicalCountryKey":"LY","capacityMw":936.0,"country":"LY","externalIds":{"osm":"way/102739078","wikidata":"Q12010551"},"geographyId":"LY-10800210B65194490964920","id":"wattlas-plant-wikidata-q12010551","idAliases":["wattlas-plant-osm-way-102739078"],"lifecycleCounts":{"operational":1},"locationPrecision":"exact","name":"محطة الرويسات الكهربائية","operatingCapacityCoverage":{"coveragePercent":100.0,"knownUnitCount":0,"method":"plant_aggregate","provenance":{"evidenceCount":0,"recordIds":["wattlas-record-osm-way-102739078"],"sourceIds":["openstreetmap-power"],"sourceTypes":["community_mapped"],"valueKind":"reported"},"totalUnitCount":0},"operatingCapacityMw":936.0,"operatingCapacityMwByTechnology":{"gas":936.0},"plannedCapacityCoverage":{"coveragePercent":0.0,"knownUnitCount":0,"method":"unavailable","totalUnitCount":0},"plannedCapacityMw":0.0,"plannedCapacityMwByTechnology":{},"recordCount":1,"recordIds":["wattlas-record-osm-way-102739078"],"sourceIds":["openstreetmap-power"],"sourceUrl":"https://www.openstreetmap.org/way/102739078","technologies":["gas"],"technologyMixMw":{"gas":936.0},"unitCount":0,"unitIds":[]},"type":"Feature"},{"geometry":{"coordinates":[12.673573,32.788725],"type":"Point"},"id":"wattlas-plant-wikidata-q12011162","properties":{"aliases":["Zawiya CCGT Power Plant"],"canonicalAnchor":"wikidata:Q12011162","canonicalCountryKey":"LY","capacityMw":1490.0,"country":"LY","externalIds":{"osm":"way/161744923","wikidata":"Q12011162"},"geographyId":"LY-10800210B15874653580067","id":"wattlas-plant-wikidata-q12011162","idAliases":["wattlas-plant-osm-way-161744923"],"lifecycleCounts":{"operational":1},"locationPrecision":"exact","name":"Zawiya CCGT Power Plant","operatingCapacityCoverage":{"coveragePercent":100.0,"knownUnitCount":0,"method":"plant_aggregate","provenance":{"evidenceCount":0,"recordIds":["wattlas-record-osm-way-161744923"],"sourceIds":["openstreetmap-power"],"sourceTypes":["community_mapped"],"valueKind":"reported"},"totalUnitCount":0},"operatingCapacityMw":1490.0,"operatingCapacityMwByTechnology":{"gas":1490.0},"plannedCapacityCoverage":{"coveragePercent":0.0,"knownUnitCount":0,"method":"unavailable","totalUnitCount":0},"plannedCapacityMw":0.0,"plannedCapacityMwByTechnology":{},"recordCount":1,"recordIds":["wattlas-record-osm-way-161744923"],"sourceIds":["openstreetmap-power"],"sourceUrl":"https://www.openstreetmap.org/way/161744923","technologies":["gas"],"technologyMixMw":{"gas":1490.0},"unitCount":0,"unitIds":[]},"type":"Feature"},{"geometry":{"coordinates":[12.973791,32.824067],"type":"Point"},"id":"wattlas-plant-wikidata-q56373423","properties":{"aliases":["محطه توليد الكهرباء غرب طرابلس"],"canonicalAnchor":"wikidata:Q56373423","canonicalCountryKey":"LY","capacityMw":677.0,"country":"LY","externalIds":{"osm":"way/313517843","wikidata":"Q56373423"},"geographyId":"LY-10800210B15874653580067","id":"wattlas-plant-wikidata-q56373423","idAliases":["wattlas-plant-osm-way-313517843"],"lifecycleCounts":{"operational":1},"locationPrecision":"exact","name":"محطه توليد الكهرباء غرب طرابلس","operatingCapacityCoverage":{"coveragePercent":100.0,"knownUnitCount":0,"method":"plant_aggregate","provenance":{"evidenceCount":0,"recordIds":["wattlas-record-osm-way-313517843"],"sourceIds":["openstreetmap-power"],"sourceTypes":["community_mapped"],"valueKind":"reported"},"totalUnitCount":0},"operatingCapacityMw":677.0,"operatingCapacityMwByTechnology":{"oil":677.0},"plannedCapacityCoverage":{"coveragePercent":0.0,"knownUnitCount":0,"method":"unavailable","totalUnitCount":0},"plannedCapacityMw":0.0,"plannedCapacityMwByTechnology":{},"recordCount":1,"recordIds":["wattlas-record-osm-way-313517843"],"sourceIds":["openstreetmap-power"],"sourceUrl":"https://www.openstreetmap.org/way/313517843","technologies":["oil"],"technologyMixMw":{"oil":677.0},"unitCount":0,"unitIds":[]},"type":"Feature"},{"geometry":{"coordinates":[12.877597,32.679136],"type":"Point"},"id":"wattlas-plant-wikidata-q56373427","properties":{"aliases":["Zahra Power Plant"],"canonicalAnchor":"wikidata:Q56373427","canonicalCountryKey":"LY","capacityMw":141.0,"country":"LY","externalIds":{"osm":"way/214448787","wikidata":"Q56373427"},"geographyId":"LY-10800210B15874653580067","id":"wattlas-plant-wikidata-q56373427","idAliases":["wattlas-plant-osm-way-214448787"],"lifecycleCounts":{"operational":1},"locationPrecision":"exact","name":"Zahra Power Plant","operatingCapacityCoverage":{"coveragePercent":100.0,"knownUnitCount":0,"method":"plant_aggregate","provenance":{"evidenceCount":0,"recordIds":["wattlas-record-osm-way-214448787"],"sourceIds":["openstreetmap-power"],"sourceTypes":["community_mapped"],"valueKind":"reported"},"totalUnitCount":0},"operatingCapacityMw":141.0,"operatingCapacityMwByTechnology":{"gas":141.0},"plannedCapacityCoverage":{"coveragePercent":0.0,"knownUnitCount":0,"method":"unavailable","totalUnitCount":0},"plannedCapacityMw":0.0,"plannedCapacityMwByTechnology":{},"recordCount":1,"recordIds":["wattlas-record-osm-way-214448787"],"sourceIds":["openstreetmap-power"],"sourceUrl":"https://www.openstreetmap.org/way/214448787","technologies":["gas"],"technologyMixMw":{"gas":141.0},"unitCount":0,"unitIds":[]},"type":"Feature"},{"geometry":{"coordinates":[20.115375,30.955069],"type":"Point"},"id":"wattlas-plant-wikidata-q56373464","properties":{"aliases":["محطة كهرباء الزويتينة الغازية"],"canonicalAnchor":"wikidata:Q56373464","canonicalCountryKey":"LY","capacityMw":770.0,"country":"LY","externalIds":{"osm":"way/771986224","wikidata":"Q56373464"},"geographyId":"LY-10800210B39782956615971","id":"wattlas-plant-wikidata-q56373464","idAliases":["wattlas-plant-osm-way-771986224"],"lifecycleCounts":{"operational":1},"locationPrecision":"exact","name":"محطة كهرباء الزويتينة الغازية","operatingCapacityCoverage":{"coveragePercent":100.0,"knownUnitCount":0,"method":"plant_aggregate","provenance":{"evidenceCount":0,"recordIds":["wattlas-record-osm-way-771986224"],"sourceIds":["openstreetmap-power"],"sourceTypes":["community_mapped"],"valueKind":"reported"},"totalUnitCount":0},"operatingCapacityMw":770.0,"operatingCapacityMwByTechnology":{"gas":770.0},"plannedCapacityCoverage":{"coveragePercent":0.0,"knownUnitCount":0,"method":"unavailable","totalUnitCount":0},"plannedCapacityMw":0.0,"plannedCapacityMwByTechnology":{},"recordCount":1,"recordIds":["wattlas-record-osm-way-771986224"],"sourceIds":["openstreetmap-power"],"sourceUrl":"https://www.openstreetmap.org/way/771986224","technologies":["gas"],"technologyMixMw":{"gas":770.0},"unitCount":0,"unitIds":[]},"type":"Feature"},{"geometry":{"coordinates":[12.678377,26.563592],"type":"Point"},"id":"wattlas-plant-wikidata-q56373497","properties":{"aliases":["محطة اوباري الغازية لتوليد الكهرباء"],"canonicalAnchor":"wikidata:Q56373497","canonicalCountryKey":"LY","capacityMw":640.0,"country":"LY","externalIds":{"osm":"way/1132089770","wikidata":"Q56373497"},"geographyId":"LY-10800210B2800497533490","id":"wattlas-plant-wikidata-q56373497","idAliases":["wattlas-plant-osm-way-1132089770"],"lifecycleCounts":{"operational":1},"locationPrecision":"exact","name":"محطة اوباري الغازية لتوليد الكهرباء","operatingCapacityCoverage":{"coveragePercent":100.0,"knownUnitCount":0,"method":"plant_aggregate","provenance":{"evidenceCount":0,"recordIds":["wattlas-record-osm-way-1132089770"],"sourceIds":["openstreetmap-power"],"sourceTypes":["community_mapped"],"valueKind":"reported"},"totalUnitCount":0},"operatingCapacityMw":640.0,"operatingCapacityMwByTechnology":{"oil":640.0},"plannedCapacityCoverage":{"coveragePercent":0.0,"knownUnitCount":0,"method":"unavailable","totalUnitCount":0},"plannedCapacityMw":0.0,"plannedCapacityMwByTechnology":{},"recordCount":1,"recordIds":["wattlas-record-osm-way-1132089770"],"sourceIds":["openstreetmap-power"],"sourceUrl":"https://www.openstreetmap.org/way/1132089770","technologies":["oil"],"technologyMixMw":{"oil":640.0},"unitCount":0,"unitIds":[]},"type":"Feature"},{"geometry":{"coordinates":[21.617423,27.595563],"type":"Point"},"id":"wattlas-plant-wikidata-q56373505","properties":{"aliases":["Sareer Gas Turbine Power Plant"],"canonicalAnchor":"wikidata:Q56373505","canonicalCountryKey":"LY","capacityMw":855.0,"country":"LY","externalIds":{"osm":"way/520767959","wikidata":"Q56373505"},"geographyId":"LY-10800210B39782956615971","id":"wattlas-plant-wikidata-q56373505","idAliases":["wattlas-plant-osm-way-520767959"],"lifecycleCounts":{"operational":1},"locationPrecision":"exact","name":"Sareer Gas Turbine Power Plant","operatingCapacityCoverage":{"coveragePercent":100.0,"knownUnitCount":0,"method":"plant_aggregate","provenance":{"evidenceCount":0,"recordIds":["wattlas-record-osm-way-520767959"],"sourceIds":["openstreetmap-power"],"sourceTypes":["community_mapped"],"valueKind":"reported"},"totalUnitCount":0},"operatingCapacityMw":855.0,"operatingCapacityMwByTechnology":{"oil":855.0},"plannedCapacityCoverage":{"coveragePercent":0.0,"knownUnitCount":0,"method":"unavailable","totalUnitCount":0},"plannedCapacityMw":0.0,"plannedCapacityMwByTechnology":{},"recordCount":1,"recordIds":["wattlas-record-osm-way-520767959"],"sourceIds":["openstreetmap-power"],"sourceUrl":"https://www.openstreetmap.org/way/520767959","technologies":["oil"],"technologyMixMw":{"oil":855.0},"unitCount":0,"unitIds":[]},"type":"Feature"}],"type":"FeatureCollection"}