{"features":[{"geometry":{"coordinates":[19.32714,43.334574],"type":"Point"},"id":"wattlas-plant-gemplant-l100000103049","properties":{"aliases":["Pljevlja power station","Unit 1","Unit 2"],"canonicalAnchor":"gemplant:L100000103049","canonicalCountryKey":"ME","capacityMw":225.0,"country":"ME","externalIdAliases":{"gemUnit":["G100000108036","G100000108037"]},"externalIds":{"gemPlant":"L100000103049","gemUnit":"G100000108037"},"gemWikiUrl":"https://www.gem.wiki/Pljevlja_power_station","geographyId":"ME-59799669B58100018961631","id":"wattlas-plant-gemplant-l100000103049","lifecycleCounts":{"cancelled":1,"operational":1},"locationPrecision":"exact","name":"Pljevlja power station","operatingCapacityCoverage":{"coveragePercent":100.0,"knownUnitCount":1,"method":"complete_unit_sum","provenance":{"evidenceCount":0,"recordIds":["wattlas-record-gemunit-g100000108036"],"sourceIds":["gem-global-integrated-power-tracker"],"sourceTypes":["research_verified"],"valueKind":"reported"},"totalUnitCount":1},"operatingCapacityMw":225.0,"operatingCapacityMwByTechnology":{"coal":225.0},"plannedCapacityCoverage":{"coveragePercent":0.0,"knownUnitCount":0,"method":"unavailable","totalUnitCount":0},"plannedCapacityMw":0.0,"plannedCapacityMwByTechnology":{},"recordCount":2,"recordIds":["wattlas-record-gemunit-g100000108036","wattlas-record-gemunit-g100000108037"],"sourceIds":["gem-global-integrated-power-tracker"],"sourceUrl":"https://www.gem.wiki/Pljevlja_power_station","technologies":["coal"],"technologyMixMw":{"coal":225.0},"unitCount":2,"unitIds":["gem-unit-G100000108036","gem-unit-G100000108037"]},"type":"Feature"},{"geometry":{"coordinates":[18.9951,42.6719],"type":"Point"},"id":"wattlas-plant-gemplant-l100000602496","properties":{"aliases":["Perucica hydroelectric plant"],"canonicalAnchor":"gemplant:L100000602496","canonicalCountryKey":"ME","capacityMw":307.0,"country":"ME","externalIds":{"gemPlant":"L100000602496","gemUnit":"G100000602527"},"gemWikiUrl":"https://www.gem.wiki/Perucica_hydroelectric_plant","geographyId":"ME-59799669B66678983232609","id":"wattlas-plant-gemplant-l100000602496","lifecycleCounts":{"operational":1},"locationPrecision":"exact","name":"Perucica hydroelectric plant","operatingCapacityCoverage":{"coveragePercent":100.0,"knownUnitCount":1,"method":"complete_unit_sum","provenance":{"evidenceCount":0,"recordIds":["wattlas-record-gemunit-g100000602527"],"sourceIds":["gem-global-integrated-power-tracker"],"sourceTypes":["research_verified"],"valueKind":"reported"},"totalUnitCount":1},"operatingCapacityMw":307.0,"operatingCapacityMwByTechnology":{"hydro":307.0},"plannedCapacityCoverage":{"coveragePercent":0.0,"knownUnitCount":0,"method":"unavailable","totalUnitCount":0},"plannedCapacityMw":0.0,"plannedCapacityMwByTechnology":{},"recordCount":1,"recordIds":["wattlas-record-gemunit-g100000602527"],"sourceIds":["gem-global-integrated-power-tracker"],"sourceUrl":"https://www.gem.wiki/Perucica_hydroelectric_plant","technologies":["hydro"],"technologyMixMw":{"hydro":307.0},"unitCount":1,"unitIds":["gem-unit-G100000602527"]},"type":"Feature"},{"geometry":{"coordinates":[19.1106,42.8756],"type":"Point"},"id":"wattlas-plant-gemplant-l100000915445","properties":{"aliases":["--","Krnovo wind farm"],"canonicalAnchor":"gemplant:L100000915445","canonicalCountryKey":"ME","capacityMw":72.0,"country":"ME","externalIds":{"gemPlant":"L100000915445","gemUnit":"G100000919101"},"gemWikiUrl":"https://www.gem.wiki/Krnovo_wind_farm","geographyId":"ME-59799669B66678983232609","id":"wattlas-plant-gemplant-l100000915445","lifecycleCounts":{"operational":1},"locationPrecision":"exact","name":"Krnovo wind farm","operatingCapacityCoverage":{"coveragePercent":100.0,"knownUnitCount":1,"method":"complete_unit_sum","provenance":{"evidenceCount":0,"recordIds":["wattlas-record-gemunit-g100000919101"],"sourceIds":["gem-global-integrated-power-tracker"],"sourceTypes":["research_verified"],"valueKind":"reported"},"totalUnitCount":1},"operatingCapacityMw":72.0,"operatingCapacityMwByTechnology":{"wind":72.0},"plannedCapacityCoverage":{"coveragePercent":0.0,"knownUnitCount":0,"method":"unavailable","totalUnitCount":0},"plannedCapacityMw":0.0,"plannedCapacityMwByTechnology":{},"recordCount":1,"recordIds":["wattlas-record-gemunit-g100000919101"],"sourceIds":["gem-global-integrated-power-tracker"],"sourceUrl":"https://www.gem.wiki/Krnovo_wind_farm","technologies":["wind"],"technologyMixMw":{"wind":72.0},"unitCount":1,"unitIds":["gem-unit-G100000919101"]},"type":"Feature"},{"geometry":{"coordinates":[18.9082,42.5336],"type":"Point"},"id":"wattlas-plant-gemplant-l100001005411","properties":{"aliases":["--","Old Royal Capital Cetinje solar project"],"canonicalAnchor":"gemplant:L100001005411","canonicalCountryKey":"ME","capacityMw":5.1,"country":"ME","externalIds":{"gemPlant":"L100001005411","gemUnit":"G100001006448"},"gemWikiUrl":"https://www.gem.wiki/Old_Royal_Capital_Cetinje_solar_project","geographyId":"ME-59799669B91583747266461","id":"wattlas-plant-gemplant-l100001005411","lifecycleCounts":{"operational":1},"locationPrecision":"exact","name":"Old Royal Capital Cetinje solar project","operatingCapacityCoverage":{"coveragePercent":100.0,"knownUnitCount":1,"method":"complete_unit_sum","provenance":{"evidenceCount":0,"recordIds":["wattlas-record-gemunit-g100001006448"],"sourceIds":["gem-global-integrated-power-tracker"],"sourceTypes":["research_verified"],"valueKind":"reported"},"totalUnitCount":1},"operatingCapacityMw":5.1,"operatingCapacityMwByTechnology":{"solar":5.1},"plannedCapacityCoverage":{"coveragePercent":0.0,"knownUnitCount":0,"method":"unavailable","totalUnitCount":0},"plannedCapacityMw":0.0,"plannedCapacityMwByTechnology":{},"recordCount":1,"recordIds":["wattlas-record-gemunit-g100001006448"],"sourceIds":["gem-global-integrated-power-tracker"],"sourceUrl":"https://www.gem.wiki/Old_Royal_Capital_Cetinje_solar_project","technologies":["solar"],"technologyMixMw":{"solar":5.1},"unitCount":1,"unitIds":["gem-unit-G100001006448"]},"type":"Feature"},{"geometry":{"coordinates":[19.2309,42.3948],"type":"Point"},"id":"wattlas-plant-gemplant-l100001073775","properties":{"aliases":["--","Podgorica Podgorica Capital City solar project I"],"canonicalAnchor":"gemplant:L100001073775","canonicalCountryKey":"ME","capacityMw":1.2,"country":"ME","externalIds":{"gemPlant":"L100001073775","gemUnit":"G100001083561"},"gemWikiUrl":"https://www.gem.wiki/Podgorica_Podgorica_Capital_City_solar_project_I","geographyId":"ME-59799669B20319020653405","id":"wattlas-plant-gemplant-l100001073775","lifecycleCounts":{"operational":1},"locationPrecision":"exact","name":"Podgorica Podgorica Capital City solar project I","operatingCapacityCoverage":{"coveragePercent":100.0,"knownUnitCount":1,"method":"complete_unit_sum","provenance":{"evidenceCount":0,"recordIds":["wattlas-record-gemunit-g100001083561"],"sourceIds":["gem-global-integrated-power-tracker"],"sourceTypes":["research_verified"],"valueKind":"reported"},"totalUnitCount":1},"operatingCapacityMw":1.2,"operatingCapacityMwByTechnology":{"solar":1.2},"plannedCapacityCoverage":{"coveragePercent":0.0,"knownUnitCount":0,"method":"unavailable","totalUnitCount":0},"plannedCapacityMw":0.0,"plannedCapacityMwByTechnology":{},"recordCount":1,"recordIds":["wattlas-record-gemunit-g100001083561"],"sourceIds":["gem-global-integrated-power-tracker"],"sourceUrl":"https://www.gem.wiki/Podgorica_Podgorica_Capital_City_solar_project_I","technologies":["solar"],"technologyMixMw":{"solar":1.2},"unitCount":1,"unitIds":["gem-unit-G100001083561"]},"type":"Feature"},{"geometry":{"coordinates":[19.3532,42.4895],"type":"Point"},"id":"wattlas-plant-gemplant-l100001073776","properties":{"aliases":["--","Podgorica Capital City solar project"],"canonicalAnchor":"gemplant:L100001073776","canonicalCountryKey":"ME","capacityMw":9.0,"country":"ME","externalIds":{"gemPlant":"L100001073776","gemUnit":"G100001083562"},"gemWikiUrl":"https://www.gem.wiki/Podgorica_Capital_City_solar_project","geographyId":"ME-59799669B20319020653405","id":"wattlas-plant-gemplant-l100001073776","lifecycleCounts":{"operational":1},"locationPrecision":"exact","name":"Podgorica Capital City solar project","operatingCapacityCoverage":{"coveragePercent":100.0,"knownUnitCount":1,"method":"complete_unit_sum","provenance":{"evidenceCount":0,"recordIds":["wattlas-record-gemunit-g100001083562"],"sourceIds":["gem-global-integrated-power-tracker"],"sourceTypes":["research_verified"],"valueKind":"reported"},"totalUnitCount":1},"operatingCapacityMw":9.0,"operatingCapacityMwByTechnology":{"solar":9.0},"plannedCapacityCoverage":{"coveragePercent":0.0,"knownUnitCount":0,"method":"unavailable","totalUnitCount":0},"plannedCapacityMw":0.0,"plannedCapacityMwByTechnology":{},"recordCount":1,"recordIds":["wattlas-record-gemunit-g100001083562"],"sourceIds":["gem-global-integrated-power-tracker"],"sourceUrl":"https://www.gem.wiki/Podgorica_Capital_City_solar_project","technologies":["solar"],"technologyMixMw":{"solar":9.0},"unitCount":1,"unitIds":["gem-unit-G100001083562"]},"type":"Feature"},{"geometry":{"coordinates":[19.2446,42.4893],"type":"Point"},"id":"wattlas-plant-gemplant-l100001073777","properties":{"aliases":["--","Podgorica Podgorica Capital City solar project II"],"canonicalAnchor":"gemplant:L100001073777","canonicalCountryKey":"ME","capacityMw":1.6,"country":"ME","externalIds":{"gemPlant":"L100001073777","gemUnit":"G100001083563"},"gemWikiUrl":"https://www.gem.wiki/Podgorica_Podgorica_Capital_City_solar_project_II","geographyId":"ME-59799669B20319020653405","id":"wattlas-plant-gemplant-l100001073777","lifecycleCounts":{"operational":1},"locationPrecision":"exact","name":"Podgorica Podgorica Capital City solar project II","operatingCapacityCoverage":{"coveragePercent":100.0,"knownUnitCount":1,"method":"complete_unit_sum","provenance":{"evidenceCount":0,"recordIds":["wattlas-record-gemunit-g100001083563"],"sourceIds":["gem-global-integrated-power-tracker"],"sourceTypes":["research_verified"],"valueKind":"reported"},"totalUnitCount":1},"operatingCapacityMw":1.6,"operatingCapacityMwByTechnology":{"solar":1.6},"plannedCapacityCoverage":{"coveragePercent":0.0,"knownUnitCount":0,"method":"unavailable","totalUnitCount":0},"plannedCapacityMw":0.0,"plannedCapacityMwByTechnology":{},"recordCount":1,"recordIds":["wattlas-record-gemunit-g100001083563"],"sourceIds":["gem-global-integrated-power-tracker"],"sourceUrl":"https://www.gem.wiki/Podgorica_Podgorica_Capital_City_solar_project_II","technologies":["solar"],"technologyMixMw":{"solar":1.6},"unitCount":1,"unitIds":["gem-unit-G100001083563"]},"type":"Feature"},{"geometry":{"coordinates":[19.786772,42.636821],"type":"Point"},"id":"wattlas-plant-osm-way-1431528829","properties":{"aliases":["Mala Hidroelektrana Kutska 2"],"canonicalAnchor":"osm:way/1431528829","canonicalCountryKey":"ME","capacityMw":0.0,"country":"ME","externalIds":{"osm":"way/1431528829"},"geographyId":"ME-59799669B93063361678836","id":"wattlas-plant-osm-way-1431528829","lifecycleCounts":{"operational":1},"locationPrecision":"exact","name":"Mala Hidroelektrana Kutska 2","operatingCapacityCoverage":{"coveragePercent":0.0,"knownUnitCount":0,"method":"unavailable","totalUnitCount":0},"operatingCapacityMw":0.0,"operatingCapacityMwByTechnology":{},"plannedCapacityCoverage":{"coveragePercent":0.0,"knownUnitCount":0,"method":"unavailable","totalUnitCount":0},"plannedCapacityMw":0.0,"plannedCapacityMwByTechnology":{},"recordCount":1,"recordIds":["wattlas-record-osm-way-1431528829"],"sourceIds":["openstreetmap-power"],"sourceUrl":"https://www.openstreetmap.org/way/1431528829","technologies":["hydro"],"technologyMixMw":{"hydro":0.0},"unitCount":0,"unitIds":[]},"type":"Feature"},{"geometry":{"coordinates":[19.78715,42.656765],"type":"Point"},"id":"wattlas-plant-osm-way-1431528831","properties":{"aliases":["Mala Hidroelektrana Umski potok"],"canonicalAnchor":"osm:way/1431528831","canonicalCountryKey":"ME","capacityMw":0.0,"country":"ME","externalIds":{"osm":"way/1431528831"},"geographyId":"ME-59799669B93063361678836","id":"wattlas-plant-osm-way-1431528831","lifecycleCounts":{"operational":1},"locationPrecision":"exact","name":"Mala Hidroelektrana Umski potok","operatingCapacityCoverage":{"coveragePercent":0.0,"knownUnitCount":0,"method":"unavailable","totalUnitCount":0},"operatingCapacityMw":0.0,"operatingCapacityMwByTechnology":{},"plannedCapacityCoverage":{"coveragePercent":0.0,"knownUnitCount":0,"method":"unavailable","totalUnitCount":0},"plannedCapacityMw":0.0,"plannedCapacityMwByTechnology":{},"recordCount":1,"recordIds":["wattlas-record-osm-way-1431528831"],"sourceIds":["openstreetmap-power"],"sourceUrl":"https://www.openstreetmap.org/way/1431528831","technologies":["hydro"],"technologyMixMw":{"hydro":0.0},"unitCount":0,"unitIds":[]},"type":"Feature"},{"geometry":{"coordinates":[19.784306,42.66452],"type":"Point"},"id":"wattlas-plant-osm-way-1431528832","properties":{"aliases":["Mala Hidroelektrana Kutska 1"],"canonicalAnchor":"osm:way/1431528832","canonicalCountryKey":"ME","capacityMw":0.0,"country":"ME","externalIds":{"osm":"way/1431528832"},"geographyId":"ME-59799669B93063361678836","id":"wattlas-plant-osm-way-1431528832","lifecycleCounts":{"operational":1},"locationPrecision":"exact","name":"Mala Hidroelektrana Kutska 1","operatingCapacityCoverage":{"coveragePercent":0.0,"knownUnitCount":0,"method":"unavailable","totalUnitCount":0},"operatingCapacityMw":0.0,"operatingCapacityMwByTechnology":{},"plannedCapacityCoverage":{"coveragePercent":0.0,"knownUnitCount":0,"method":"unavailable","totalUnitCount":0},"plannedCapacityMw":0.0,"plannedCapacityMwByTechnology":{},"recordCount":1,"recordIds":["wattlas-record-osm-way-1431528832"],"sourceIds":["openstreetmap-power"],"sourceUrl":"https://www.openstreetmap.org/way/1431528832","technologies":["hydro"],"technologyMixMw":{"hydro":0.0},"unitCount":0,"unitIds":[]},"type":"Feature"},{"geometry":{"coordinates":[19.011523,42.355187],"type":"Point"},"id":"wattlas-plant-osm-way-206904651","properties":{"aliases":["HE Rijeka Crnojevića"],"canonicalAnchor":"osm:way/206904651","canonicalCountryKey":"ME","capacityMw":0.0,"country":"ME","externalIds":{"osm":"way/206904651"},"geographyId":"ME-59799669B91583747266461","id":"wattlas-plant-osm-way-206904651","lifecycleCounts":{"operational":1},"locationPrecision":"exact","name":"HE Rijeka Crnojevića","operatingCapacityCoverage":{"coveragePercent":0.0,"knownUnitCount":0,"method":"unavailable","totalUnitCount":0},"operatingCapacityMw":0.0,"operatingCapacityMwByTechnology":{},"plannedCapacityCoverage":{"coveragePercent":0.0,"knownUnitCount":0,"method":"unavailable","totalUnitCount":0},"plannedCapacityMw":0.0,"plannedCapacityMwByTechnology":{},"recordCount":1,"recordIds":["wattlas-record-osm-way-206904651"],"sourceIds":["openstreetmap-power"],"sourceUrl":"https://www.openstreetmap.org/way/206904651","technologies":["hydro"],"technologyMixMw":{"hydro":0.0},"unitCount":0,"unitIds":[]},"type":"Feature"},{"geometry":{"coordinates":[19.115113,42.879228],"type":"Point"},"id":"wattlas-plant-wikidata-q105975483","properties":{"aliases":["Vjetroelektrana Krnovo"],"canonicalAnchor":"wikidata:Q105975483","canonicalCountryKey":"ME","capacityMw":72.0,"country":"ME","externalIds":{"osm":"relation/10215568","wikidata":"Q105975483"},"geographyId":"ME-59799669B66678983232609","id":"wattlas-plant-wikidata-q105975483","idAliases":["wattlas-plant-osm-relation-10215568"],"lifecycleCounts":{"operational":1},"locationPrecision":"exact","name":"Vjetroelektrana Krnovo","operatingCapacityCoverage":{"coveragePercent":100.0,"knownUnitCount":0,"method":"plant_aggregate","provenance":{"evidenceCount":0,"recordIds":["wattlas-record-osm-relation-10215568"],"sourceIds":["openstreetmap-power"],"sourceTypes":["community_mapped"],"valueKind":"reported"},"totalUnitCount":0},"operatingCapacityMw":72.0,"operatingCapacityMwByTechnology":{"wind":72.0},"plannedCapacityCoverage":{"coveragePercent":0.0,"knownUnitCount":0,"method":"unavailable","totalUnitCount":0},"plannedCapacityMw":0.0,"plannedCapacityMwByTechnology":{},"recordCount":1,"recordIds":["wattlas-record-osm-relation-10215568"],"sourceIds":["openstreetmap-power"],"sourceUrl":"https://www.openstreetmap.org/relation/10215568","technologies":["wind"],"technologyMixMw":{"wind":72.0},"unitCount":0,"unitIds":[]},"type":"Feature"},{"geometry":{"coordinates":[18.995113,42.671938],"type":"Point"},"id":"wattlas-plant-wikidata-q27565724","properties":{"aliases":["Hidroelektrana Perućica"],"canonicalAnchor":"wikidata:Q27565724","canonicalCountryKey":"ME","capacityMw":307.0,"country":"ME","externalIds":{"osm":"way/211199776","wikidata":"Q27565724"},"geographyId":"ME-59799669B66678983232609","id":"wattlas-plant-wikidata-q27565724","idAliases":["wattlas-plant-osm-way-211199776"],"lifecycleCounts":{"operational":1},"locationPrecision":"exact","name":"Hidroelektrana Perućica","operatingCapacityCoverage":{"coveragePercent":100.0,"knownUnitCount":0,"method":"plant_aggregate","provenance":{"evidenceCount":0,"recordIds":["wattlas-record-osm-way-211199776"],"sourceIds":["openstreetmap-power"],"sourceTypes":["community_mapped"],"valueKind":"reported"},"totalUnitCount":0},"operatingCapacityMw":307.0,"operatingCapacityMwByTechnology":{"hydro":307.0},"plannedCapacityCoverage":{"coveragePercent":0.0,"knownUnitCount":0,"method":"unavailable","totalUnitCount":0},"plannedCapacityMw":0.0,"plannedCapacityMwByTechnology":{},"recordCount":1,"recordIds":["wattlas-record-osm-way-211199776"],"sourceIds":["openstreetmap-power"],"sourceUrl":"https://www.openstreetmap.org/way/211199776","technologies":["hydro"],"technologyMixMw":{"hydro":307.0},"unitCount":0,"unitIds":[]},"type":"Feature"},{"geometry":{"coordinates":[19.326987,43.333426],"type":"Point"},"id":"wattlas-plant-wikidata-q7205045","properties":{"aliases":["Pljevlja Power Station"],"canonicalAnchor":"wikidata:Q7205045","canonicalCountryKey":"ME","capacityMw":210.0,"country":"ME","externalIds":{"osm":"way/228484668","wikidata":"Q7205045"},"geographyId":"ME-59799669B58100018961631","id":"wattlas-plant-wikidata-q7205045","idAliases":["wattlas-plant-osm-way-228484668"],"lifecycleCounts":{"operational":1},"locationPrecision":"exact","name":"Pljevlja Power Station","operatingCapacityCoverage":{"coveragePercent":100.0,"knownUnitCount":0,"method":"plant_aggregate","provenance":{"evidenceCount":0,"recordIds":["wattlas-record-osm-way-228484668"],"sourceIds":["openstreetmap-power"],"sourceTypes":["community_mapped"],"valueKind":"reported"},"totalUnitCount":0},"operatingCapacityMw":210.0,"operatingCapacityMwByTechnology":{"coal":210.0},"plannedCapacityCoverage":{"coveragePercent":0.0,"knownUnitCount":0,"method":"unavailable","totalUnitCount":0},"plannedCapacityMw":0.0,"plannedCapacityMwByTechnology":{},"recordCount":1,"recordIds":["wattlas-record-osm-way-228484668"],"sourceIds":["openstreetmap-power"],"sourceUrl":"https://www.openstreetmap.org/way/228484668","technologies":["coal"],"technologyMixMw":{"coal":210.0},"unitCount":0,"unitIds":[]},"type":"Feature"}],"type":"FeatureCollection"}