{"features":[{"geometry":{"coordinates":[14.55463,35.83087],"type":"Point"},"id":"wattlas-plant-gemplant-l100000400488","properties":{"aliases":["Delimara power station","Unit 2A","Unit 2B","Unit 3, timepoint 1","Unit 4, timepoint 1"],"canonicalAnchor":"gemplant:L100000400488","canonicalCountryKey":"MT","capacityMw":547.8,"country":"MT","externalIdAliases":{"gemUnit":["G100000400488","G100000413088","G100000413089","G100000413090"]},"externalIds":{"gemPlant":"L100000400488","gemUnit":"G100000400488"},"gemWikiUrl":"https://www.gem.wiki/Delimara_power_station","geographyId":"MT-83640313B51941763183850","id":"wattlas-plant-gemplant-l100000400488","lifecycleCounts":{"operational":4},"locationPrecision":"exact","name":"Delimara power station","operatingCapacityCoverage":{"coveragePercent":100.0,"knownUnitCount":4,"method":"complete_unit_sum","provenance":{"evidenceCount":0,"recordIds":["wattlas-record-gemunit-g100000400488","wattlas-record-gemunit-g100000413088","wattlas-record-gemunit-g100000413089","wattlas-record-gemunit-g100000413090"],"sourceIds":["gem-global-integrated-power-tracker"],"sourceTypes":["research_verified"],"valueKind":"reported"},"totalUnitCount":4},"operatingCapacityMw":547.8,"operatingCapacityMwByTechnology":{"gas":547.8},"plannedCapacityCoverage":{"coveragePercent":0.0,"knownUnitCount":0,"method":"unavailable","totalUnitCount":0},"plannedCapacityMw":0.0,"plannedCapacityMwByTechnology":{},"recordCount":4,"recordIds":["wattlas-record-gemunit-g100000400488","wattlas-record-gemunit-g100000413088","wattlas-record-gemunit-g100000413089","wattlas-record-gemunit-g100000413090"],"sourceIds":["gem-global-integrated-power-tracker"],"sourceUrl":"https://www.gem.wiki/Delimara_power_station","technologies":["gas"],"technologyMixMw":{"gas":547.8},"unitCount":4,"unitIds":["gem-unit-G100000400488","gem-unit-G100000413088","gem-unit-G100000413089","gem-unit-G100000413090"]},"type":"Feature"},{"geometry":{"coordinates":[14.3939,35.9113],"type":"Point"},"id":"wattlas-plant-gemplant-l100001052779","properties":{"aliases":["--","Northern Region solar project II"],"canonicalAnchor":"gemplant:L100001052779","canonicalCountryKey":"MT","capacityMw":4.9,"country":"MT","externalIds":{"gemPlant":"L100001052779","gemUnit":"G100001060573"},"gemWikiUrl":"https://www.gem.wiki/Northern_Region_solar_project_II","geographyId":"MT-83640313B45218014578174","id":"wattlas-plant-gemplant-l100001052779","lifecycleCounts":{"operational":1},"locationPrecision":"exact","name":"Northern Region solar project II","operatingCapacityCoverage":{"coveragePercent":100.0,"knownUnitCount":1,"method":"complete_unit_sum","provenance":{"evidenceCount":0,"recordIds":["wattlas-record-gemunit-g100001060573"],"sourceIds":["gem-global-integrated-power-tracker"],"sourceTypes":["research_verified"],"valueKind":"reported"},"totalUnitCount":1},"operatingCapacityMw":4.9,"operatingCapacityMwByTechnology":{"solar":4.9},"plannedCapacityCoverage":{"coveragePercent":0.0,"knownUnitCount":0,"method":"unavailable","totalUnitCount":0},"plannedCapacityMw":0.0,"plannedCapacityMwByTechnology":{},"recordCount":1,"recordIds":["wattlas-record-gemunit-g100001060573"],"sourceIds":["gem-global-integrated-power-tracker"],"sourceUrl":"https://www.gem.wiki/Northern_Region_solar_project_II","technologies":["solar"],"technologyMixMw":{"solar":4.9},"unitCount":1,"unitIds":["gem-unit-G100001060573"]},"type":"Feature"},{"geometry":{"coordinates":[14.3767,35.8866],"type":"Point"},"id":"wattlas-plant-gemplant-l100001052781","properties":{"aliases":["--","Northern Region solar project III"],"canonicalAnchor":"gemplant:L100001052781","canonicalCountryKey":"MT","capacityMw":4.1,"country":"MT","externalIds":{"gemPlant":"L100001052781","gemUnit":"G100001060575"},"gemWikiUrl":"https://www.gem.wiki/Northern_Region_solar_project_III","geographyId":"MT-83640313B41251532632205","id":"wattlas-plant-gemplant-l100001052781","lifecycleCounts":{"operational":1},"locationPrecision":"exact","name":"Northern Region solar project III","operatingCapacityCoverage":{"coveragePercent":100.0,"knownUnitCount":1,"method":"complete_unit_sum","provenance":{"evidenceCount":0,"recordIds":["wattlas-record-gemunit-g100001060575"],"sourceIds":["gem-global-integrated-power-tracker"],"sourceTypes":["research_verified"],"valueKind":"reported"},"totalUnitCount":1},"operatingCapacityMw":4.1,"operatingCapacityMwByTechnology":{"solar":4.1},"plannedCapacityCoverage":{"coveragePercent":0.0,"knownUnitCount":0,"method":"unavailable","totalUnitCount":0},"plannedCapacityMw":0.0,"plannedCapacityMwByTechnology":{},"recordCount":1,"recordIds":["wattlas-record-gemunit-g100001060575"],"sourceIds":["gem-global-integrated-power-tracker"],"sourceUrl":"https://www.gem.wiki/Northern_Region_solar_project_III","technologies":["solar"],"technologyMixMw":{"solar":4.1},"unitCount":1,"unitIds":["gem-unit-G100001060575"]},"type":"Feature"},{"geometry":{"coordinates":[14.553534,35.833879],"type":"Point"},"id":"wattlas-plant-osm-way-404123948","properties":{"aliases":["Delimara Electrogas D4"],"canonicalAnchor":"osm:way/404123948","canonicalCountryKey":"MT","capacityMw":0.0,"country":"MT","externalIds":{"osm":"way/404123948"},"geographyId":"MT-83640313B51941763183850","id":"wattlas-plant-osm-way-404123948","lifecycleCounts":{"operational":1},"locationPrecision":"exact","name":"Delimara Electrogas D4","operatingCapacityCoverage":{"coveragePercent":0.0,"knownUnitCount":0,"method":"unavailable","totalUnitCount":0},"operatingCapacityMw":0.0,"operatingCapacityMwByTechnology":{},"plannedCapacityCoverage":{"coveragePercent":0.0,"knownUnitCount":0,"method":"unavailable","totalUnitCount":0},"plannedCapacityMw":0.0,"plannedCapacityMwByTechnology":{},"recordCount":1,"recordIds":["wattlas-record-osm-way-404123948"],"sourceIds":["openstreetmap-power"],"sourceUrl":"https://www.openstreetmap.org/way/404123948","technologies":["other"],"technologyMixMw":{"other":0.0},"unitCount":0,"unitIds":[]},"type":"Feature"},{"geometry":{"coordinates":[14.555616,35.831957],"type":"Point"},"id":"wattlas-plant-wikidata-q1786082","properties":{"aliases":["Delimara Power Station"],"canonicalAnchor":"wikidata:Q1786082","canonicalCountryKey":"MT","capacityMw":305.0,"country":"MT","externalIds":{"osm":"way/15683546","wikidata":"Q1786082"},"geographyId":"MT-83640313B51941763183850","id":"wattlas-plant-wikidata-q1786082","idAliases":["wattlas-plant-osm-way-15683546"],"lifecycleCounts":{"operational":1},"locationPrecision":"exact","name":"Delimara Power Station","operatingCapacityCoverage":{"coveragePercent":100.0,"knownUnitCount":0,"method":"plant_aggregate","provenance":{"evidenceCount":0,"recordIds":["wattlas-record-osm-way-15683546"],"sourceIds":["openstreetmap-power"],"sourceTypes":["community_mapped"],"valueKind":"reported"},"totalUnitCount":0},"operatingCapacityMw":305.0,"operatingCapacityMwByTechnology":{"oil":305.0},"plannedCapacityCoverage":{"coveragePercent":0.0,"knownUnitCount":0,"method":"unavailable","totalUnitCount":0},"plannedCapacityMw":0.0,"plannedCapacityMwByTechnology":{},"recordCount":1,"recordIds":["wattlas-record-osm-way-15683546"],"sourceIds":["openstreetmap-power"],"sourceUrl":"https://www.openstreetmap.org/way/15683546","technologies":["oil"],"technologyMixMw":{"oil":305.0},"unitCount":0,"unitIds":[]},"type":"Feature"}],"type":"FeatureCollection"}