{"features":[{"geometry":{"coordinates":[73.538049,4.20408],"type":"Point"},"id":"wattlas-plant-gemplant-l100000408995","properties":{"aliases":["1-1","Hulhumale power station"],"canonicalAnchor":"gemplant:L100000408995","canonicalCountryKey":"MV","capacityMw":80.0,"country":"MV","externalIds":{"gemPlant":"L100000408995","gemUnit":"G100000413489"},"gemWikiUrl":"https://www.gem.wiki/Hulhumale_power_station","geographyId":"MV-51498476B94896396125649","id":"wattlas-plant-gemplant-l100000408995","lifecycleCounts":{"operational":1},"locationPrecision":"exact","name":"Hulhumale power station","operatingCapacityCoverage":{"coveragePercent":100.0,"knownUnitCount":1,"method":"complete_unit_sum","provenance":{"evidenceCount":0,"recordIds":["wattlas-record-gemunit-g100000413489"],"sourceIds":["gem-global-integrated-power-tracker"],"sourceTypes":["research_verified"],"valueKind":"reported"},"totalUnitCount":1},"operatingCapacityMw":80.0,"operatingCapacityMwByTechnology":{"gas":80.0},"plannedCapacityCoverage":{"coveragePercent":0.0,"knownUnitCount":0,"method":"unavailable","totalUnitCount":0},"plannedCapacityMw":0.0,"plannedCapacityMwByTechnology":{},"recordCount":1,"recordIds":["wattlas-record-gemunit-g100000413489"],"sourceIds":["gem-global-integrated-power-tracker"],"sourceUrl":"https://www.gem.wiki/Hulhumale_power_station","technologies":["gas"],"technologyMixMw":{"gas":80.0},"unitCount":1,"unitIds":["gem-unit-G100000413489"]},"type":"Feature"},{"geometry":{"coordinates":[73.5256,1.88],"type":"Point"},"id":"wattlas-plant-gemplant-l100001068617","properties":{"aliases":["--","Hadhdhunmathi solar project"],"canonicalAnchor":"gemplant:L100001068617","canonicalCountryKey":"MV","capacityMw":1.9,"country":"MV","externalIds":{"gemPlant":"L100001068617","gemUnit":"G100001078403"},"gemWikiUrl":"https://www.gem.wiki/Hadhdhunmathi_solar_project","geographyId":"MV-51498476B3846456088277","id":"wattlas-plant-gemplant-l100001068617","lifecycleCounts":{"operational":1},"locationPrecision":"exact","name":"Hadhdhunmathi solar project","operatingCapacityCoverage":{"coveragePercent":100.0,"knownUnitCount":1,"method":"complete_unit_sum","provenance":{"evidenceCount":0,"recordIds":["wattlas-record-gemunit-g100001078403"],"sourceIds":["gem-global-integrated-power-tracker"],"sourceTypes":["research_verified"],"valueKind":"reported"},"totalUnitCount":1},"operatingCapacityMw":1.9,"operatingCapacityMwByTechnology":{"solar":1.9},"plannedCapacityCoverage":{"coveragePercent":0.0,"knownUnitCount":0,"method":"unavailable","totalUnitCount":0},"plannedCapacityMw":0.0,"plannedCapacityMwByTechnology":{},"recordCount":1,"recordIds":["wattlas-record-gemunit-g100001078403"],"sourceIds":["gem-global-integrated-power-tracker"],"sourceUrl":"https://www.gem.wiki/Hadhdhunmathi_solar_project","technologies":["solar"],"technologyMixMw":{"solar":1.9},"unitCount":1,"unitIds":["gem-unit-G100001078403"]},"type":"Feature"},{"geometry":{"coordinates":[72.956031,6.552557],"type":"Point"},"id":"wattlas-plant-osm-way-1030017884","properties":{"aliases":["Mapped power plant · OSM 1030017884"],"canonicalAnchor":"osm:way/1030017884","canonicalCountryKey":"MV","capacityMw":0.0,"country":"MV","externalIds":{"osm":"way/1030017884"},"geographyId":"MV-51498476B19903504900827","id":"wattlas-plant-osm-way-1030017884","lifecycleCounts":{"operational":1},"locationPrecision":"exact","name":"Mapped power plant · OSM 1030017884","operatingCapacityCoverage":{"coveragePercent":0.0,"knownUnitCount":0,"method":"unavailable","totalUnitCount":0},"operatingCapacityMw":0.0,"operatingCapacityMwByTechnology":{},"plannedCapacityCoverage":{"coveragePercent":0.0,"knownUnitCount":0,"method":"unavailable","totalUnitCount":0},"plannedCapacityMw":0.0,"plannedCapacityMwByTechnology":{},"recordCount":1,"recordIds":["wattlas-record-osm-way-1030017884"],"sourceIds":["openstreetmap-power"],"sourceUrl":"https://www.openstreetmap.org/way/1030017884","technologies":["other"],"technologyMixMw":{"other":0.0},"unitCount":0,"unitIds":[]},"type":"Feature"},{"geometry":{"coordinates":[73.366211,5.448653],"type":"Point"},"id":"wattlas-plant-osm-way-590293031","properties":{"aliases":["Naifaru Power House"],"canonicalAnchor":"osm:way/590293031","canonicalCountryKey":"MV","capacityMw":0.0,"country":"MV","externalIds":{"osm":"way/590293031"},"geographyId":"MV-51498476B65748733522803","id":"wattlas-plant-osm-way-590293031","lifecycleCounts":{"operational":1},"locationPrecision":"exact","name":"Naifaru Power House","operatingCapacityCoverage":{"coveragePercent":0.0,"knownUnitCount":0,"method":"unavailable","totalUnitCount":0},"operatingCapacityMw":0.0,"operatingCapacityMwByTechnology":{},"plannedCapacityCoverage":{"coveragePercent":0.0,"knownUnitCount":0,"method":"unavailable","totalUnitCount":0},"plannedCapacityMw":0.0,"plannedCapacityMwByTechnology":{},"recordCount":1,"recordIds":["wattlas-record-osm-way-590293031"],"sourceIds":["openstreetmap-power"],"sourceUrl":"https://www.openstreetmap.org/way/590293031","technologies":["other"],"technologyMixMw":{"other":0.0},"unitCount":0,"unitIds":[]},"type":"Feature"}],"type":"FeatureCollection"}