{"features":[{"geometry":{"coordinates":[-85.8375,11.4866],"type":"Point"},"id":"wattlas-plant-gemplant-l100000200192","properties":{"aliases":["1.0","Ingenio Benjamín Zeledón power station"],"canonicalAnchor":"gemplant:L100000200192","canonicalCountryKey":"NI","capacityMw":40.0,"country":"NI","externalIds":{"gemPlant":"L100000200192","gemUnit":"G100000200217"},"gemWikiUrl":"https://www.gem.wiki/Ingenio_Benjamín_Zeledón_power_station","geographyId":"NI-94367503B70144399425035","id":"wattlas-plant-gemplant-l100000200192","lifecycleCounts":{"operational":1},"locationPrecision":"exact","name":"Ingenio Benjamín Zeledón power station","operatingCapacityCoverage":{"coveragePercent":100.0,"knownUnitCount":1,"method":"complete_unit_sum","provenance":{"evidenceCount":0,"recordIds":["wattlas-record-gemunit-g100000200217"],"sourceIds":["gem-global-integrated-power-tracker"],"sourceTypes":["research_verified"],"valueKind":"reported"},"totalUnitCount":1},"operatingCapacityMw":40.0,"operatingCapacityMwByTechnology":{"biomass":40.0},"plannedCapacityCoverage":{"coveragePercent":0.0,"knownUnitCount":0,"method":"unavailable","totalUnitCount":0},"plannedCapacityMw":0.0,"plannedCapacityMwByTechnology":{},"recordCount":1,"recordIds":["wattlas-record-gemunit-g100000200217"],"sourceIds":["gem-global-integrated-power-tracker"],"sourceUrl":"https://www.gem.wiki/Ingenio_Benjamín_Zeledón_power_station","technologies":["biomass"],"technologyMixMw":{"biomass":40.0},"unitCount":1,"unitIds":["gem-unit-G100000200217"]},"type":"Feature"},{"geometry":{"coordinates":[-87.2357,12.7065],"type":"Point"},"id":"wattlas-plant-gemplant-l100000201316","properties":{"aliases":["4.0","Ingenio Monte Rosa power station"],"canonicalAnchor":"gemplant:L100000201316","canonicalCountryKey":"NI","capacityMw":54.0,"country":"NI","externalIds":{"gemPlant":"L100000201316","gemUnit":"G100000201571"},"gemWikiUrl":"https://www.gem.wiki/Ingenio_Monte_Rosa_power_station","geographyId":"NI-94367503B84000172489696","id":"wattlas-plant-gemplant-l100000201316","lifecycleCounts":{"operational":1},"locationPrecision":"exact","name":"Ingenio Monte Rosa power station","operatingCapacityCoverage":{"coveragePercent":100.0,"knownUnitCount":1,"method":"complete_unit_sum","provenance":{"evidenceCount":0,"recordIds":["wattlas-record-gemunit-g100000201571"],"sourceIds":["gem-global-integrated-power-tracker"],"sourceTypes":["research_verified"],"valueKind":"reported"},"totalUnitCount":1},"operatingCapacityMw":54.0,"operatingCapacityMwByTechnology":{"biomass":54.0},"plannedCapacityCoverage":{"coveragePercent":0.0,"knownUnitCount":0,"method":"unavailable","totalUnitCount":0},"plannedCapacityMw":0.0,"plannedCapacityMwByTechnology":{},"recordCount":1,"recordIds":["wattlas-record-gemunit-g100000201571"],"sourceIds":["gem-global-integrated-power-tracker"],"sourceUrl":"https://www.gem.wiki/Ingenio_Monte_Rosa_power_station","technologies":["biomass"],"technologyMixMw":{"biomass":54.0},"unitCount":1,"unitIds":["gem-unit-G100000201571"]},"type":"Feature"},{"geometry":{"coordinates":[-86.732137,12.20003],"type":"Point"},"id":"wattlas-plant-gemplant-l100000406684","properties":{"aliases":["1-1","2-1","3-1","4-1","5-1","6-1","7-1","Puerto Sandino LNG power plant"],"canonicalAnchor":"gemplant:L100000406684","canonicalCountryKey":"NI","capacityMw":315.0,"country":"NI","externalIdAliases":{"gemUnit":["G100000406936","G100001017740","G100001017741","G100001017742","G100001017743","G100001017744","G100001017745"]},"externalIds":{"gemPlant":"L100000406684","gemUnit":"G100001017745"},"gemWikiUrl":"https://www.gem.wiki/Puerto_Sandino_LNG_power_plant","geographyId":"NI-94367503B39053627120026","id":"wattlas-plant-gemplant-l100000406684","lifecycleCounts":{"under_construction":7},"locationPrecision":"exact","name":"Puerto Sandino LNG power plant","operatingCapacityCoverage":{"coveragePercent":0.0,"knownUnitCount":0,"method":"unavailable","totalUnitCount":0},"operatingCapacityMw":0.0,"operatingCapacityMwByTechnology":{},"plannedCapacityCoverage":{"coveragePercent":100.0,"knownUnitCount":7,"method":"complete_unit_sum","provenance":{"evidenceCount":0,"recordIds":["wattlas-record-gemunit-g100000406936","wattlas-record-gemunit-g100001017740","wattlas-record-gemunit-g100001017741","wattlas-record-gemunit-g100001017742","wattlas-record-gemunit-g100001017743","wattlas-record-gemunit-g100001017744","wattlas-record-gemunit-g100001017745"],"sourceIds":["gem-global-integrated-power-tracker"],"sourceTypes":["research_verified"],"valueKind":"reported"},"totalUnitCount":7},"plannedCapacityMw":315.0,"plannedCapacityMwByTechnology":{"gas":315.0},"recordCount":7,"recordIds":["wattlas-record-gemunit-g100000406936","wattlas-record-gemunit-g100001017740","wattlas-record-gemunit-g100001017741","wattlas-record-gemunit-g100001017742","wattlas-record-gemunit-g100001017743","wattlas-record-gemunit-g100001017744","wattlas-record-gemunit-g100001017745"],"sourceIds":["gem-global-integrated-power-tracker"],"sourceUrl":"https://www.gem.wiki/Puerto_Sandino_LNG_power_plant","technologies":["gas"],"technologyMixMw":{"gas":315.0},"unitCount":7,"unitIds":["gem-unit-G100000406936","gem-unit-G100001017740","gem-unit-G100001017741","gem-unit-G100001017742","gem-unit-G100001017743","gem-unit-G100001017744","gem-unit-G100001017745"]},"type":"Feature"},{"geometry":{"coordinates":[-86.1052,12.1698],"type":"Point"},"id":"wattlas-plant-gemplant-l100000408601","properties":{"aliases":["1-1","Tipitapa power station"],"canonicalAnchor":"gemplant:L100000408601","canonicalCountryKey":"NI","capacityMw":52.0,"country":"NI","externalIds":{"gemPlant":"L100000408601","gemUnit":"G100000411985"},"gemWikiUrl":"https://www.gem.wiki/Tipitapa_power_station","geographyId":"NI-94367503B81766766698586","id":"wattlas-plant-gemplant-l100000408601","lifecycleCounts":{"operational":1},"locationPrecision":"exact","name":"Tipitapa power station","operatingCapacityCoverage":{"coveragePercent":100.0,"knownUnitCount":1,"method":"complete_unit_sum","provenance":{"evidenceCount":0,"recordIds":["wattlas-record-gemunit-g100000411985"],"sourceIds":["gem-global-integrated-power-tracker"],"sourceTypes":["research_verified"],"valueKind":"reported"},"totalUnitCount":1},"operatingCapacityMw":52.0,"operatingCapacityMwByTechnology":{"oil":52.0},"plannedCapacityCoverage":{"coveragePercent":0.0,"knownUnitCount":0,"method":"unavailable","totalUnitCount":0},"plannedCapacityMw":0.0,"plannedCapacityMwByTechnology":{},"recordCount":1,"recordIds":["wattlas-record-gemunit-g100000411985"],"sourceIds":["gem-global-integrated-power-tracker"],"sourceUrl":"https://www.gem.wiki/Tipitapa_power_station","technologies":["oil"],"technologyMixMw":{"oil":52.0},"unitCount":1,"unitIds":["gem-unit-G100000411985"]},"type":"Feature"},{"geometry":{"coordinates":[-86.767166,12.178792],"type":"Point"},"id":"wattlas-plant-gemplant-l100000408602","properties":{"aliases":["1-1","2-1","Planta Nicaragua power station"],"canonicalAnchor":"gemplant:L100000408602","canonicalCountryKey":"NI","capacityMw":106.0,"country":"NI","externalIdAliases":{"gemUnit":["G100000411986","G100000411987"]},"externalIds":{"gemPlant":"L100000408602","gemUnit":"G100000411986"},"gemWikiUrl":"https://www.gem.wiki/Planta_Nicaragua_power_station","geographyId":"NI-94367503B39053627120026","id":"wattlas-plant-gemplant-l100000408602","lifecycleCounts":{"operational":2},"locationPrecision":"exact","name":"Planta Nicaragua power station","operatingCapacityCoverage":{"coveragePercent":100.0,"knownUnitCount":2,"method":"complete_unit_sum","provenance":{"evidenceCount":0,"recordIds":["wattlas-record-gemunit-g100000411986","wattlas-record-gemunit-g100000411987"],"sourceIds":["gem-global-integrated-power-tracker"],"sourceTypes":["research_verified"],"valueKind":"reported"},"totalUnitCount":2},"operatingCapacityMw":106.0,"operatingCapacityMwByTechnology":{"oil":106.0},"plannedCapacityCoverage":{"coveragePercent":0.0,"knownUnitCount":0,"method":"unavailable","totalUnitCount":0},"plannedCapacityMw":0.0,"plannedCapacityMwByTechnology":{},"recordCount":2,"recordIds":["wattlas-record-gemunit-g100000411986","wattlas-record-gemunit-g100000411987"],"sourceIds":["gem-global-integrated-power-tracker"],"sourceUrl":"https://www.gem.wiki/Planta_Nicaragua_power_station","technologies":["oil"],"technologyMixMw":{"oil":106.0},"unitCount":2,"unitIds":["gem-unit-G100000411986","gem-unit-G100000411987"]},"type":"Feature"},{"geometry":{"coordinates":[-86.373647,12.187261],"type":"Point"},"id":"wattlas-plant-gemplant-l100000408603","properties":{"aliases":["1-1","Planta MAN 140 power station"],"canonicalAnchor":"gemplant:L100000408603","canonicalCountryKey":"NI","capacityMw":148.0,"country":"NI","externalIds":{"gemPlant":"L100000408603","gemUnit":"G100000411988"},"gemWikiUrl":"https://www.gem.wiki/Planta_MAN_140_power_station","geographyId":"NI-94367503B81766766698586","id":"wattlas-plant-gemplant-l100000408603","lifecycleCounts":{"operational":1},"locationPrecision":"exact","name":"Planta MAN 140 power station","operatingCapacityCoverage":{"coveragePercent":100.0,"knownUnitCount":1,"method":"complete_unit_sum","provenance":{"evidenceCount":0,"recordIds":["wattlas-record-gemunit-g100000411988"],"sourceIds":["gem-global-integrated-power-tracker"],"sourceTypes":["research_verified"],"valueKind":"reported"},"totalUnitCount":1},"operatingCapacityMw":148.0,"operatingCapacityMwByTechnology":{"oil":148.0},"plannedCapacityCoverage":{"coveragePercent":0.0,"knownUnitCount":0,"method":"unavailable","totalUnitCount":0},"plannedCapacityMw":0.0,"plannedCapacityMwByTechnology":{},"recordCount":1,"recordIds":["wattlas-record-gemunit-g100000411988"],"sourceIds":["gem-global-integrated-power-tracker"],"sourceUrl":"https://www.gem.wiki/Planta_MAN_140_power_station","technologies":["oil"],"technologyMixMw":{"oil":148.0},"unitCount":1,"unitIds":["gem-unit-G100000411988"]},"type":"Feature"},{"geometry":{"coordinates":[-87.16735,12.4883],"type":"Point"},"id":"wattlas-plant-gemplant-l100000408604","properties":{"aliases":["1-1","Corinto Barge power station"],"canonicalAnchor":"gemplant:L100000408604","canonicalCountryKey":"NI","capacityMw":74.0,"country":"NI","externalIds":{"gemPlant":"L100000408604","gemUnit":"G100000411989"},"gemWikiUrl":"https://www.gem.wiki/Corinto_Barge_power_station","geographyId":"NI-94367503B84000172489696","id":"wattlas-plant-gemplant-l100000408604","lifecycleCounts":{"operational":1},"locationPrecision":"exact","name":"Corinto Barge power station","operatingCapacityCoverage":{"coveragePercent":100.0,"knownUnitCount":1,"method":"complete_unit_sum","provenance":{"evidenceCount":0,"recordIds":["wattlas-record-gemunit-g100000411989"],"sourceIds":["gem-global-integrated-power-tracker"],"sourceTypes":["research_verified"],"valueKind":"reported"},"totalUnitCount":1},"operatingCapacityMw":74.0,"operatingCapacityMwByTechnology":{"oil":74.0},"plannedCapacityCoverage":{"coveragePercent":0.0,"knownUnitCount":0,"method":"unavailable","totalUnitCount":0},"plannedCapacityMw":0.0,"plannedCapacityMwByTechnology":{},"recordCount":1,"recordIds":["wattlas-record-gemunit-g100000411989"],"sourceIds":["gem-global-integrated-power-tracker"],"sourceUrl":"https://www.gem.wiki/Corinto_Barge_power_station","technologies":["oil"],"technologyMixMw":{"oil":74.0},"unitCount":1,"unitIds":["gem-unit-G100000411989"]},"type":"Feature"},{"geometry":{"coordinates":[-86.7473,12.1857],"type":"Point"},"id":"wattlas-plant-gemplant-l100000408912","properties":{"aliases":["1-1","CENSA power station"],"canonicalAnchor":"gemplant:L100000408912","canonicalCountryKey":"NI","capacityMw":0.0,"country":"NI","externalIds":{"gemPlant":"L100000408912","gemUnit":"G100000413134"},"gemWikiUrl":"https://www.gem.wiki/CENSA_power_station","geographyId":"NI-94367503B39053627120026","id":"wattlas-plant-gemplant-l100000408912","lifecycleCounts":{"cancelled":1},"locationPrecision":"exact","name":"CENSA power station","operatingCapacityCoverage":{"coveragePercent":0.0,"knownUnitCount":0,"method":"unavailable","totalUnitCount":0},"operatingCapacityMw":0.0,"operatingCapacityMwByTechnology":{},"plannedCapacityCoverage":{"coveragePercent":0.0,"knownUnitCount":0,"method":"unavailable","totalUnitCount":0},"plannedCapacityMw":0.0,"plannedCapacityMwByTechnology":{},"recordCount":1,"recordIds":["wattlas-record-gemunit-g100000413134"],"sourceIds":["gem-global-integrated-power-tracker"],"sourceUrl":"https://www.gem.wiki/CENSA_power_station","technologies":["oil"],"technologyMixMw":{"oil":0.0},"unitCount":1,"unitIds":["gem-unit-G100000413134"]},"type":"Feature"},{"geometry":{"coordinates":[-86.5418,12.394],"type":"Point"},"id":"wattlas-plant-gemplant-l100000700110","properties":{"aliases":["1.0","2.0","Binary","Momotombo geothermal power plant"],"canonicalAnchor":"gemplant:L100000700110","canonicalCountryKey":"NI","capacityMw":76.2,"country":"NI","externalIdAliases":{"gemUnit":["G100000700184","G100000700185","G100001048521"]},"externalIds":{"gemPlant":"L100000700110","gemUnit":"G100001048521"},"gemWikiUrl":"https://www.gem.wiki/Momotombo_geothermal_power_plant","geographyId":"NI-94367503B39053627120026","id":"wattlas-plant-gemplant-l100000700110","lifecycleCounts":{"operational":3},"locationPrecision":"exact","name":"Momotombo geothermal power plant","operatingCapacityCoverage":{"coveragePercent":100.0,"knownUnitCount":3,"method":"complete_unit_sum","provenance":{"evidenceCount":0,"recordIds":["wattlas-record-gemunit-g100000700184","wattlas-record-gemunit-g100000700185","wattlas-record-gemunit-g100001048521"],"sourceIds":["gem-global-integrated-power-tracker"],"sourceTypes":["research_verified"],"valueKind":"reported"},"totalUnitCount":3},"operatingCapacityMw":76.2,"operatingCapacityMwByTechnology":{"geothermal":76.2},"plannedCapacityCoverage":{"coveragePercent":0.0,"knownUnitCount":0,"method":"unavailable","totalUnitCount":0},"plannedCapacityMw":0.0,"plannedCapacityMwByTechnology":{},"recordCount":3,"recordIds":["wattlas-record-gemunit-g100000700184","wattlas-record-gemunit-g100000700185","wattlas-record-gemunit-g100001048521"],"sourceIds":["gem-global-integrated-power-tracker"],"sourceUrl":"https://www.gem.wiki/Momotombo_geothermal_power_plant","technologies":["geothermal"],"technologyMixMw":{"geothermal":76.2},"unitCount":3,"unitIds":["gem-unit-G100000700184","gem-unit-G100000700185","gem-unit-G100001048521"]},"type":"Feature"},{"geometry":{"coordinates":[-86.773,12.6088],"type":"Point"},"id":"wattlas-plant-gemplant-l100000700154","properties":{"aliases":["1.0","2.0","Binary","San Jacinto - Tizate geothermal power plant"],"canonicalAnchor":"gemplant:L100000700154","canonicalCountryKey":"NI","capacityMw":82.4,"country":"NI","externalIdAliases":{"gemUnit":["G100000700252","G100000700253","G100001048522"]},"externalIds":{"gemPlant":"L100000700154","gemUnit":"G100001048522"},"gemWikiUrl":"https://www.gem.wiki/San_Jacinto_-_Tizate_geothermal_power_plant","geographyId":"NI-94367503B39053627120026","id":"wattlas-plant-gemplant-l100000700154","lifecycleCounts":{"operational":3},"locationPrecision":"exact","name":"San Jacinto - Tizate geothermal power plant","operatingCapacityCoverage":{"coveragePercent":100.0,"knownUnitCount":3,"method":"complete_unit_sum","provenance":{"evidenceCount":0,"recordIds":["wattlas-record-gemunit-g100000700252","wattlas-record-gemunit-g100000700253","wattlas-record-gemunit-g100001048522"],"sourceIds":["gem-global-integrated-power-tracker"],"sourceTypes":["research_verified"],"valueKind":"reported"},"totalUnitCount":3},"operatingCapacityMw":82.4,"operatingCapacityMwByTechnology":{"geothermal":82.4},"plannedCapacityCoverage":{"coveragePercent":0.0,"knownUnitCount":0,"method":"unavailable","totalUnitCount":0},"plannedCapacityMw":0.0,"plannedCapacityMwByTechnology":{},"recordCount":3,"recordIds":["wattlas-record-gemunit-g100000700252","wattlas-record-gemunit-g100000700253","wattlas-record-gemunit-g100001048522"],"sourceIds":["gem-global-integrated-power-tracker"],"sourceUrl":"https://www.gem.wiki/San_Jacinto_-_Tizate_geothermal_power_plant","technologies":["geothermal"],"technologyMixMw":{"geothermal":82.4},"unitCount":3,"unitIds":["gem-unit-G100000700252","gem-unit-G100000700253","gem-unit-G100001048522"]},"type":"Feature"},{"geometry":{"coordinates":[-86.3345,11.7325],"type":"Point"},"id":"wattlas-plant-gemplant-l100000807724","properties":{"aliases":["--","La Trinidad solar farm (Nicaragua)"],"canonicalAnchor":"gemplant:L100000807724","canonicalCountryKey":"NI","capacityMw":1.4,"country":"NI","externalIds":{"gemPlant":"L100000807724","gemUnit":"G100000809412"},"gemWikiUrl":"https://www.gem.wiki/La_Trinidad_solar_farm_(Nicaragua)","geographyId":"NI-94367503B26309730772905","id":"wattlas-plant-gemplant-l100000807724","lifecycleCounts":{"operational":1},"locationPrecision":"exact","name":"La Trinidad solar farm (Nicaragua)","operatingCapacityCoverage":{"coveragePercent":100.0,"knownUnitCount":1,"method":"complete_unit_sum","provenance":{"evidenceCount":0,"recordIds":["wattlas-record-gemunit-g100000809412"],"sourceIds":["gem-global-integrated-power-tracker"],"sourceTypes":["research_verified"],"valueKind":"reported"},"totalUnitCount":1},"operatingCapacityMw":1.4,"operatingCapacityMwByTechnology":{"solar":1.4},"plannedCapacityCoverage":{"coveragePercent":0.0,"knownUnitCount":0,"method":"unavailable","totalUnitCount":0},"plannedCapacityMw":0.0,"plannedCapacityMwByTechnology":{},"recordCount":1,"recordIds":["wattlas-record-gemunit-g100000809412"],"sourceIds":["gem-global-integrated-power-tracker"],"sourceUrl":"https://www.gem.wiki/La_Trinidad_solar_farm_(Nicaragua)","technologies":["solar"],"technologyMixMw":{"solar":1.4},"unitCount":1,"unitIds":["gem-unit-G100000809412"]},"type":"Feature"},{"geometry":{"coordinates":[-86.7185,12.2096],"type":"Point"},"id":"wattlas-plant-gemplant-l100000807725","properties":{"aliases":["--","Solaris solar farm"],"canonicalAnchor":"gemplant:L100000807725","canonicalCountryKey":"NI","capacityMw":14.2,"country":"NI","externalIds":{"gemPlant":"L100000807725","gemUnit":"G100000809413"},"gemWikiUrl":"https://www.gem.wiki/Solaris_solar_farm","geographyId":"NI-94367503B39053627120026","id":"wattlas-plant-gemplant-l100000807725","lifecycleCounts":{"operational":1},"locationPrecision":"exact","name":"Solaris solar farm","operatingCapacityCoverage":{"coveragePercent":100.0,"knownUnitCount":1,"method":"complete_unit_sum","provenance":{"evidenceCount":0,"recordIds":["wattlas-record-gemunit-g100000809413"],"sourceIds":["gem-global-integrated-power-tracker"],"sourceTypes":["research_verified"],"valueKind":"reported"},"totalUnitCount":1},"operatingCapacityMw":14.2,"operatingCapacityMwByTechnology":{"solar":14.2},"plannedCapacityCoverage":{"coveragePercent":0.0,"knownUnitCount":0,"method":"unavailable","totalUnitCount":0},"plannedCapacityMw":0.0,"plannedCapacityMwByTechnology":{},"recordCount":1,"recordIds":["wattlas-record-gemunit-g100000809413"],"sourceIds":["gem-global-integrated-power-tracker"],"sourceUrl":"https://www.gem.wiki/Solaris_solar_farm","technologies":["solar"],"technologyMixMw":{"solar":14.2},"unitCount":1,"unitIds":["gem-unit-G100000809413"]},"type":"Feature"},{"geometry":{"coordinates":[-85.7892,11.3831],"type":"Point"},"id":"wattlas-plant-gemplant-l100000905015","properties":{"aliases":["--","La Fe wind farm"],"canonicalAnchor":"gemplant:L100000905015","canonicalCountryKey":"NI","capacityMw":40.0,"country":"NI","externalIds":{"gemPlant":"L100000905015","gemUnit":"G100000906234"},"gemWikiUrl":"https://www.gem.wiki/La_Fe_wind_farm","geographyId":"NI-94367503B70144399425035","id":"wattlas-plant-gemplant-l100000905015","lifecycleCounts":{"operational":1},"locationPrecision":"exact","name":"La Fe wind farm","operatingCapacityCoverage":{"coveragePercent":100.0,"knownUnitCount":1,"method":"complete_unit_sum","provenance":{"evidenceCount":0,"recordIds":["wattlas-record-gemunit-g100000906234"],"sourceIds":["gem-global-integrated-power-tracker"],"sourceTypes":["research_verified"],"valueKind":"reported"},"totalUnitCount":1},"operatingCapacityMw":40.0,"operatingCapacityMwByTechnology":{"wind":40.0},"plannedCapacityCoverage":{"coveragePercent":0.0,"knownUnitCount":0,"method":"unavailable","totalUnitCount":0},"plannedCapacityMw":0.0,"plannedCapacityMwByTechnology":{},"recordCount":1,"recordIds":["wattlas-record-gemunit-g100000906234"],"sourceIds":["gem-global-integrated-power-tracker"],"sourceUrl":"https://www.gem.wiki/La_Fe_wind_farm","technologies":["wind"],"technologyMixMw":{"wind":40.0},"unitCount":1,"unitIds":["gem-unit-G100000906234"]},"type":"Feature"},{"geometry":{"coordinates":[-85.7072,11.3251],"type":"Point"},"id":"wattlas-plant-gemplant-l100000905549","properties":{"aliases":["1.0","2.0","Amayo wind farm"],"canonicalAnchor":"gemplant:L100000905549","canonicalCountryKey":"NI","capacityMw":63.0,"country":"NI","externalIdAliases":{"gemUnit":["G100000907627","G100000907628"]},"externalIds":{"gemPlant":"L100000905549","gemUnit":"G100000907628"},"gemWikiUrl":"https://www.gem.wiki/Amayo_wind_farm","geographyId":"NI-94367503B70144399425035","id":"wattlas-plant-gemplant-l100000905549","lifecycleCounts":{"operational":2},"locationPrecision":"exact","name":"Amayo wind farm","operatingCapacityCoverage":{"coveragePercent":100.0,"knownUnitCount":2,"method":"complete_unit_sum","provenance":{"evidenceCount":0,"recordIds":["wattlas-record-gemunit-g100000907627","wattlas-record-gemunit-g100000907628"],"sourceIds":["gem-global-integrated-power-tracker"],"sourceTypes":["research_verified"],"valueKind":"reported"},"totalUnitCount":2},"operatingCapacityMw":63.0,"operatingCapacityMwByTechnology":{"wind":63.0},"plannedCapacityCoverage":{"coveragePercent":0.0,"knownUnitCount":0,"method":"unavailable","totalUnitCount":0},"plannedCapacityMw":0.0,"plannedCapacityMwByTechnology":{},"recordCount":2,"recordIds":["wattlas-record-gemunit-g100000907627","wattlas-record-gemunit-g100000907628"],"sourceIds":["gem-global-integrated-power-tracker"],"sourceUrl":"https://www.gem.wiki/Amayo_wind_farm","technologies":["wind"],"technologyMixMw":{"wind":63.0},"unitCount":2,"unitIds":["gem-unit-G100000907627","gem-unit-G100000907628"]},"type":"Feature"},{"geometry":{"coordinates":[-85.7492,11.3648],"type":"Point"},"id":"wattlas-plant-gemplant-l100000905550","properties":{"aliases":["--","Eolo De Nicaragua Wind Facility"],"canonicalAnchor":"gemplant:L100000905550","canonicalCountryKey":"NI","capacityMw":44.0,"country":"NI","externalIds":{"gemPlant":"L100000905550","gemUnit":"G100000907629"},"gemWikiUrl":"https://www.gem.wiki/Eolo_De_Nicaragua_Wind_Facility","geographyId":"NI-94367503B70144399425035","id":"wattlas-plant-gemplant-l100000905550","lifecycleCounts":{"operational":1},"locationPrecision":"exact","name":"Eolo De Nicaragua Wind Facility","operatingCapacityCoverage":{"coveragePercent":100.0,"knownUnitCount":1,"method":"complete_unit_sum","provenance":{"evidenceCount":0,"recordIds":["wattlas-record-gemunit-g100000907629"],"sourceIds":["gem-global-integrated-power-tracker"],"sourceTypes":["research_verified"],"valueKind":"reported"},"totalUnitCount":1},"operatingCapacityMw":44.0,"operatingCapacityMwByTechnology":{"wind":44.0},"plannedCapacityCoverage":{"coveragePercent":0.0,"knownUnitCount":0,"method":"unavailable","totalUnitCount":0},"plannedCapacityMw":0.0,"plannedCapacityMwByTechnology":{},"recordCount":1,"recordIds":["wattlas-record-gemunit-g100000907629"],"sourceIds":["gem-global-integrated-power-tracker"],"sourceUrl":"https://www.gem.wiki/Eolo_De_Nicaragua_Wind_Facility","technologies":["wind"],"technologyMixMw":{"wind":44.0},"unitCount":1,"unitIds":["gem-unit-G100000907629"]},"type":"Feature"},{"geometry":{"coordinates":[-86.2798,12.7158],"type":"Point"},"id":"wattlas-plant-gemplant-l100001023141","properties":{"aliases":["Carlos Fonesca hydroelectric plant"],"canonicalAnchor":"gemplant:L100001023141","canonicalCountryKey":"NI","capacityMw":54.0,"country":"NI","externalIds":{"gemPlant":"L100001023141","gemUnit":"G100001027346"},"gemWikiUrl":"https://www.gem.wiki/Carlos_Fonesca_hydroelectric_plant","geographyId":"NI-94367503B41972548719200","id":"wattlas-plant-gemplant-l100001023141","lifecycleCounts":{"operational":1},"locationPrecision":"exact","name":"Carlos Fonesca hydroelectric plant","operatingCapacityCoverage":{"coveragePercent":100.0,"knownUnitCount":1,"method":"complete_unit_sum","provenance":{"evidenceCount":0,"recordIds":["wattlas-record-gemunit-g100001027346"],"sourceIds":["gem-global-integrated-power-tracker"],"sourceTypes":["research_verified"],"valueKind":"reported"},"totalUnitCount":1},"operatingCapacityMw":54.0,"operatingCapacityMwByTechnology":{"hydro":54.0},"plannedCapacityCoverage":{"coveragePercent":0.0,"knownUnitCount":0,"method":"unavailable","totalUnitCount":0},"plannedCapacityMw":0.0,"plannedCapacityMwByTechnology":{},"recordCount":1,"recordIds":["wattlas-record-gemunit-g100001027346"],"sourceIds":["gem-global-integrated-power-tracker"],"sourceUrl":"https://www.gem.wiki/Carlos_Fonesca_hydroelectric_plant","technologies":["hydro"],"technologyMixMw":{"hydro":54.0},"unitCount":1,"unitIds":["gem-unit-G100001027346"]},"type":"Feature"},{"geometry":{"coordinates":[-86.0516,13.1068],"type":"Point"},"id":"wattlas-plant-gemplant-l100001023142","properties":{"aliases":["Centroamérica hydroelectric plant"],"canonicalAnchor":"gemplant:L100001023142","canonicalCountryKey":"NI","capacityMw":50.0,"country":"NI","externalIds":{"gemPlant":"L100001023142","gemUnit":"G100001027347"},"gemWikiUrl":"https://www.gem.wiki/Centroamérica_hydroelectric_plant","geographyId":"NI-94367503B48061873039178","id":"wattlas-plant-gemplant-l100001023142","lifecycleCounts":{"operational":1},"locationPrecision":"exact","name":"Centroamérica hydroelectric plant","operatingCapacityCoverage":{"coveragePercent":100.0,"knownUnitCount":1,"method":"complete_unit_sum","provenance":{"evidenceCount":0,"recordIds":["wattlas-record-gemunit-g100001027347"],"sourceIds":["gem-global-integrated-power-tracker"],"sourceTypes":["research_verified"],"valueKind":"reported"},"totalUnitCount":1},"operatingCapacityMw":50.0,"operatingCapacityMwByTechnology":{"hydro":50.0},"plannedCapacityCoverage":{"coveragePercent":0.0,"knownUnitCount":0,"method":"unavailable","totalUnitCount":0},"plannedCapacityMw":0.0,"plannedCapacityMwByTechnology":{},"recordCount":1,"recordIds":["wattlas-record-gemunit-g100001027347"],"sourceIds":["gem-global-integrated-power-tracker"],"sourceUrl":"https://www.gem.wiki/Centroamérica_hydroelectric_plant","technologies":["hydro"],"technologyMixMw":{"hydro":50.0},"unitCount":1,"unitIds":["gem-unit-G100001027347"]},"type":"Feature"},{"geometry":{"coordinates":[-86.3539,12.1884],"type":"Point"},"id":"wattlas-plant-gemplant-l100001028334","properties":{"aliases":["--","Managua solar project I"],"canonicalAnchor":"gemplant:L100001028334","canonicalCountryKey":"NI","capacityMw":2.8,"country":"NI","externalIds":{"gemPlant":"L100001028334","gemUnit":"G100001033605"},"gemWikiUrl":"https://www.gem.wiki/Managua_solar_project_I","geographyId":"NI-94367503B81766766698586","id":"wattlas-plant-gemplant-l100001028334","lifecycleCounts":{"operational":1},"locationPrecision":"exact","name":"Managua solar project I","operatingCapacityCoverage":{"coveragePercent":100.0,"knownUnitCount":1,"method":"complete_unit_sum","provenance":{"evidenceCount":0,"recordIds":["wattlas-record-gemunit-g100001033605"],"sourceIds":["gem-global-integrated-power-tracker"],"sourceTypes":["research_verified"],"valueKind":"reported"},"totalUnitCount":1},"operatingCapacityMw":2.8,"operatingCapacityMwByTechnology":{"solar":2.8},"plannedCapacityCoverage":{"coveragePercent":0.0,"knownUnitCount":0,"method":"unavailable","totalUnitCount":0},"plannedCapacityMw":0.0,"plannedCapacityMwByTechnology":{},"recordCount":1,"recordIds":["wattlas-record-gemunit-g100001033605"],"sourceIds":["gem-global-integrated-power-tracker"],"sourceUrl":"https://www.gem.wiki/Managua_solar_project_I","technologies":["solar"],"technologyMixMw":{"solar":2.8},"unitCount":1,"unitIds":["gem-unit-G100001033605"]},"type":"Feature"},{"geometry":{"coordinates":[-86.0873,12.1556],"type":"Point"},"id":"wattlas-plant-gemplant-l100001028335","properties":{"aliases":["--","Managua solar project II"],"canonicalAnchor":"gemplant:L100001028335","canonicalCountryKey":"NI","capacityMw":2.8,"country":"NI","externalIds":{"gemPlant":"L100001028335","gemUnit":"G100001033606"},"gemWikiUrl":"https://www.gem.wiki/Managua_solar_project_II","geographyId":"NI-94367503B81766766698586","id":"wattlas-plant-gemplant-l100001028335","lifecycleCounts":{"operational":1},"locationPrecision":"exact","name":"Managua solar project II","operatingCapacityCoverage":{"coveragePercent":100.0,"knownUnitCount":1,"method":"complete_unit_sum","provenance":{"evidenceCount":0,"recordIds":["wattlas-record-gemunit-g100001033606"],"sourceIds":["gem-global-integrated-power-tracker"],"sourceTypes":["research_verified"],"valueKind":"reported"},"totalUnitCount":1},"operatingCapacityMw":2.8,"operatingCapacityMwByTechnology":{"solar":2.8},"plannedCapacityCoverage":{"coveragePercent":0.0,"knownUnitCount":0,"method":"unavailable","totalUnitCount":0},"plannedCapacityMw":0.0,"plannedCapacityMwByTechnology":{},"recordCount":1,"recordIds":["wattlas-record-gemunit-g100001033606"],"sourceIds":["gem-global-integrated-power-tracker"],"sourceUrl":"https://www.gem.wiki/Managua_solar_project_II","technologies":["solar"],"technologyMixMw":{"solar":2.8},"unitCount":1,"unitIds":["gem-unit-G100001033606"]},"type":"Feature"},{"geometry":{"coordinates":[-86.1721,11.9021],"type":"Point"},"id":"wattlas-plant-gemplant-l100001028338","properties":{"aliases":["--","Masaya solar project"],"canonicalAnchor":"gemplant:L100001028338","canonicalCountryKey":"NI","capacityMw":2.2,"country":"NI","externalIds":{"gemPlant":"L100001028338","gemUnit":"G100001033609"},"gemWikiUrl":"https://www.gem.wiki/Masaya_solar_project","geographyId":"NI-94367503B55220527661789","id":"wattlas-plant-gemplant-l100001028338","lifecycleCounts":{"operational":1},"locationPrecision":"exact","name":"Masaya solar project","operatingCapacityCoverage":{"coveragePercent":100.0,"knownUnitCount":1,"method":"complete_unit_sum","provenance":{"evidenceCount":0,"recordIds":["wattlas-record-gemunit-g100001033609"],"sourceIds":["gem-global-integrated-power-tracker"],"sourceTypes":["research_verified"],"valueKind":"reported"},"totalUnitCount":1},"operatingCapacityMw":2.2,"operatingCapacityMwByTechnology":{"solar":2.2},"plannedCapacityCoverage":{"coveragePercent":0.0,"knownUnitCount":0,"method":"unavailable","totalUnitCount":0},"plannedCapacityMw":0.0,"plannedCapacityMwByTechnology":{},"recordCount":1,"recordIds":["wattlas-record-gemunit-g100001033609"],"sourceIds":["gem-global-integrated-power-tracker"],"sourceUrl":"https://www.gem.wiki/Masaya_solar_project","technologies":["solar"],"technologyMixMw":{"solar":2.2},"unitCount":1,"unitIds":["gem-unit-G100001033609"]},"type":"Feature"},{"geometry":{"coordinates":[-87.046491,12.531214],"type":"Point"},"id":"wattlas-plant-gemplant-l100001046969","properties":{"aliases":["--","Ingenio San Antonio power station"],"canonicalAnchor":"gemplant:L100001046969","canonicalCountryKey":"NI","capacityMw":15.0,"country":"NI","externalIds":{"gemPlant":"L100001046969","gemUnit":"G100001053302"},"gemWikiUrl":"https://www.gem.wiki/Ingenio_San_Antonio_power_station","geographyId":"NI-94367503B84000172489696","id":"wattlas-plant-gemplant-l100001046969","lifecycleCounts":{"operational":1},"locationPrecision":"exact","name":"Ingenio San Antonio power station","operatingCapacityCoverage":{"coveragePercent":100.0,"knownUnitCount":1,"method":"complete_unit_sum","provenance":{"evidenceCount":0,"recordIds":["wattlas-record-gemunit-g100001053302"],"sourceIds":["gem-global-integrated-power-tracker"],"sourceTypes":["research_verified"],"valueKind":"reported"},"totalUnitCount":1},"operatingCapacityMw":15.0,"operatingCapacityMwByTechnology":{"biomass":15.0},"plannedCapacityCoverage":{"coveragePercent":0.0,"knownUnitCount":0,"method":"unavailable","totalUnitCount":0},"plannedCapacityMw":0.0,"plannedCapacityMwByTechnology":{},"recordCount":1,"recordIds":["wattlas-record-gemunit-g100001053302"],"sourceIds":["gem-global-integrated-power-tracker"],"sourceUrl":"https://www.gem.wiki/Ingenio_San_Antonio_power_station","technologies":["biomass"],"technologyMixMw":{"biomass":15.0},"unitCount":1,"unitIds":["gem-unit-G100001053302"]},"type":"Feature"},{"geometry":{"coordinates":[-86.1767,12.1528],"type":"Point"},"id":"wattlas-plant-gemplant-l100001065129","properties":{"aliases":["--","Managua solar project IV"],"canonicalAnchor":"gemplant:L100001065129","canonicalCountryKey":"NI","capacityMw":1.1,"country":"NI","externalIds":{"gemPlant":"L100001065129","gemUnit":"G100001074915"},"gemWikiUrl":"https://www.gem.wiki/Managua_solar_project_IV","geographyId":"NI-94367503B81766766698586","id":"wattlas-plant-gemplant-l100001065129","lifecycleCounts":{"operational":1},"locationPrecision":"exact","name":"Managua solar project IV","operatingCapacityCoverage":{"coveragePercent":100.0,"knownUnitCount":1,"method":"complete_unit_sum","provenance":{"evidenceCount":0,"recordIds":["wattlas-record-gemunit-g100001074915"],"sourceIds":["gem-global-integrated-power-tracker"],"sourceTypes":["research_verified"],"valueKind":"reported"},"totalUnitCount":1},"operatingCapacityMw":1.1,"operatingCapacityMwByTechnology":{"solar":1.1},"plannedCapacityCoverage":{"coveragePercent":0.0,"knownUnitCount":0,"method":"unavailable","totalUnitCount":0},"plannedCapacityMw":0.0,"plannedCapacityMwByTechnology":{},"recordCount":1,"recordIds":["wattlas-record-gemunit-g100001074915"],"sourceIds":["gem-global-integrated-power-tracker"],"sourceUrl":"https://www.gem.wiki/Managua_solar_project_IV","technologies":["solar"],"technologyMixMw":{"solar":1.1},"unitCount":1,"unitIds":["gem-unit-G100001074915"]},"type":"Feature"},{"geometry":{"coordinates":[-86.0946,12.1652],"type":"Point"},"id":"wattlas-plant-gemplant-l100001065130","properties":{"aliases":["--","Managua solar project V"],"canonicalAnchor":"gemplant:L100001065130","canonicalCountryKey":"NI","capacityMw":1.2,"country":"NI","externalIds":{"gemPlant":"L100001065130","gemUnit":"G100001074916"},"gemWikiUrl":"https://www.gem.wiki/Managua_solar_project_V","geographyId":"NI-94367503B81766766698586","id":"wattlas-plant-gemplant-l100001065130","lifecycleCounts":{"operational":1},"locationPrecision":"exact","name":"Managua solar project V","operatingCapacityCoverage":{"coveragePercent":100.0,"knownUnitCount":1,"method":"complete_unit_sum","provenance":{"evidenceCount":0,"recordIds":["wattlas-record-gemunit-g100001074916"],"sourceIds":["gem-global-integrated-power-tracker"],"sourceTypes":["research_verified"],"valueKind":"reported"},"totalUnitCount":1},"operatingCapacityMw":1.2,"operatingCapacityMwByTechnology":{"solar":1.2},"plannedCapacityCoverage":{"coveragePercent":0.0,"knownUnitCount":0,"method":"unavailable","totalUnitCount":0},"plannedCapacityMw":0.0,"plannedCapacityMwByTechnology":{},"recordCount":1,"recordIds":["wattlas-record-gemunit-g100001074916"],"sourceIds":["gem-global-integrated-power-tracker"],"sourceUrl":"https://www.gem.wiki/Managua_solar_project_V","technologies":["solar"],"technologyMixMw":{"solar":1.2},"unitCount":1,"unitIds":["gem-unit-G100001074916"]},"type":"Feature"},{"geometry":{"coordinates":[-86.043,12.3744],"type":"Point"},"id":"wattlas-plant-gemplant-l100001065131","properties":{"aliases":["--","Managua solar project VI"],"canonicalAnchor":"gemplant:L100001065131","canonicalCountryKey":"NI","capacityMw":1.4,"country":"NI","externalIds":{"gemPlant":"L100001065131","gemUnit":"G100001074917"},"gemWikiUrl":"https://www.gem.wiki/Managua_solar_project_VI","geographyId":"NI-94367503B81766766698586","id":"wattlas-plant-gemplant-l100001065131","lifecycleCounts":{"operational":1},"locationPrecision":"exact","name":"Managua solar project VI","operatingCapacityCoverage":{"coveragePercent":100.0,"knownUnitCount":1,"method":"complete_unit_sum","provenance":{"evidenceCount":0,"recordIds":["wattlas-record-gemunit-g100001074917"],"sourceIds":["gem-global-integrated-power-tracker"],"sourceTypes":["research_verified"],"valueKind":"reported"},"totalUnitCount":1},"operatingCapacityMw":1.4,"operatingCapacityMwByTechnology":{"solar":1.4},"plannedCapacityCoverage":{"coveragePercent":0.0,"knownUnitCount":0,"method":"unavailable","totalUnitCount":0},"plannedCapacityMw":0.0,"plannedCapacityMwByTechnology":{},"recordCount":1,"recordIds":["wattlas-record-gemunit-g100001074917"],"sourceIds":["gem-global-integrated-power-tracker"],"sourceUrl":"https://www.gem.wiki/Managua_solar_project_VI","technologies":["solar"],"technologyMixMw":{"solar":1.4},"unitCount":1,"unitIds":["gem-unit-G100001074917"]},"type":"Feature"},{"geometry":{"coordinates":[-86.5035,12.2757],"type":"Point"},"id":"wattlas-plant-gemplant-l100001065132","properties":{"aliases":["--","León solar project"],"canonicalAnchor":"gemplant:L100001065132","canonicalCountryKey":"NI","capacityMw":2.6,"country":"NI","externalIds":{"gemPlant":"L100001065132","gemUnit":"G100001074918"},"gemWikiUrl":"https://www.gem.wiki/León_solar_project","geographyId":"NI-94367503B39053627120026","id":"wattlas-plant-gemplant-l100001065132","lifecycleCounts":{"operational":1},"locationPrecision":"exact","name":"León solar project","operatingCapacityCoverage":{"coveragePercent":100.0,"knownUnitCount":1,"method":"complete_unit_sum","provenance":{"evidenceCount":0,"recordIds":["wattlas-record-gemunit-g100001074918"],"sourceIds":["gem-global-integrated-power-tracker"],"sourceTypes":["research_verified"],"valueKind":"reported"},"totalUnitCount":1},"operatingCapacityMw":2.6,"operatingCapacityMwByTechnology":{"solar":2.6},"plannedCapacityCoverage":{"coveragePercent":0.0,"knownUnitCount":0,"method":"unavailable","totalUnitCount":0},"plannedCapacityMw":0.0,"plannedCapacityMwByTechnology":{},"recordCount":1,"recordIds":["wattlas-record-gemunit-g100001074918"],"sourceIds":["gem-global-integrated-power-tracker"],"sourceUrl":"https://www.gem.wiki/León_solar_project","technologies":["solar"],"technologyMixMw":{"solar":2.6},"unitCount":1,"unitIds":["gem-unit-G100001074918"]},"type":"Feature"},{"geometry":{"coordinates":[-86.3913,12.2138],"type":"Point"},"id":"wattlas-plant-gemplant-l100001065133","properties":{"aliases":["--","Managua solar project VII"],"canonicalAnchor":"gemplant:L100001065133","canonicalCountryKey":"NI","capacityMw":1.3,"country":"NI","externalIds":{"gemPlant":"L100001065133","gemUnit":"G100001074919"},"gemWikiUrl":"https://www.gem.wiki/Managua_solar_project_VII","geographyId":"NI-94367503B81766766698586","id":"wattlas-plant-gemplant-l100001065133","lifecycleCounts":{"operational":1},"locationPrecision":"exact","name":"Managua solar project VII","operatingCapacityCoverage":{"coveragePercent":100.0,"knownUnitCount":1,"method":"complete_unit_sum","provenance":{"evidenceCount":0,"recordIds":["wattlas-record-gemunit-g100001074919"],"sourceIds":["gem-global-integrated-power-tracker"],"sourceTypes":["research_verified"],"valueKind":"reported"},"totalUnitCount":1},"operatingCapacityMw":1.3,"operatingCapacityMwByTechnology":{"solar":1.3},"plannedCapacityCoverage":{"coveragePercent":0.0,"knownUnitCount":0,"method":"unavailable","totalUnitCount":0},"plannedCapacityMw":0.0,"plannedCapacityMwByTechnology":{},"recordCount":1,"recordIds":["wattlas-record-gemunit-g100001074919"],"sourceIds":["gem-global-integrated-power-tracker"],"sourceUrl":"https://www.gem.wiki/Managua_solar_project_VII","technologies":["solar"],"technologyMixMw":{"solar":1.3},"unitCount":1,"unitIds":["gem-unit-G100001074919"]},"type":"Feature"},{"geometry":{"coordinates":[-86.5478,12.0974],"type":"Point"},"id":"wattlas-plant-gemplant-l100001065134","properties":{"aliases":["--","Managua solar project VIII"],"canonicalAnchor":"gemplant:L100001065134","canonicalCountryKey":"NI","capacityMw":1.4,"country":"NI","externalIds":{"gemPlant":"L100001065134","gemUnit":"G100001074920"},"gemWikiUrl":"https://www.gem.wiki/Managua_solar_project_VIII","geographyId":"NI-94367503B81766766698586","id":"wattlas-plant-gemplant-l100001065134","lifecycleCounts":{"operational":1},"locationPrecision":"exact","name":"Managua solar project VIII","operatingCapacityCoverage":{"coveragePercent":100.0,"knownUnitCount":1,"method":"complete_unit_sum","provenance":{"evidenceCount":0,"recordIds":["wattlas-record-gemunit-g100001074920"],"sourceIds":["gem-global-integrated-power-tracker"],"sourceTypes":["research_verified"],"valueKind":"reported"},"totalUnitCount":1},"operatingCapacityMw":1.4,"operatingCapacityMwByTechnology":{"solar":1.4},"plannedCapacityCoverage":{"coveragePercent":0.0,"knownUnitCount":0,"method":"unavailable","totalUnitCount":0},"plannedCapacityMw":0.0,"plannedCapacityMwByTechnology":{},"recordCount":1,"recordIds":["wattlas-record-gemunit-g100001074920"],"sourceIds":["gem-global-integrated-power-tracker"],"sourceUrl":"https://www.gem.wiki/Managua_solar_project_VIII","technologies":["solar"],"technologyMixMw":{"solar":1.4},"unitCount":1,"unitIds":["gem-unit-G100001074920"]},"type":"Feature"},{"geometry":{"coordinates":[-86.5743,12.2862],"type":"Point"},"id":"wattlas-plant-gemplant-l100001080396","properties":{"aliases":["--","Sun Power solar farm"],"canonicalAnchor":"gemplant:L100001080396","canonicalCountryKey":"NI","capacityMw":30.0,"country":"NI","externalIds":{"gemPlant":"L100001080396","gemUnit":"G100001090298"},"gemWikiUrl":"https://www.gem.wiki/Sun_Power_solar_farm","geographyId":"NI-94367503B39053627120026","id":"wattlas-plant-gemplant-l100001080396","lifecycleCounts":{"under_construction":1},"locationPrecision":"exact","name":"Sun Power solar farm","operatingCapacityCoverage":{"coveragePercent":0.0,"knownUnitCount":0,"method":"unavailable","totalUnitCount":0},"operatingCapacityMw":0.0,"operatingCapacityMwByTechnology":{},"plannedCapacityCoverage":{"coveragePercent":100.0,"knownUnitCount":1,"method":"complete_unit_sum","provenance":{"evidenceCount":0,"recordIds":["wattlas-record-gemunit-g100001090298"],"sourceIds":["gem-global-integrated-power-tracker"],"sourceTypes":["research_verified"],"valueKind":"reported"},"totalUnitCount":1},"plannedCapacityMw":30.0,"plannedCapacityMwByTechnology":{"solar":30.0},"recordCount":1,"recordIds":["wattlas-record-gemunit-g100001090298"],"sourceIds":["gem-global-integrated-power-tracker"],"sourceUrl":"https://www.gem.wiki/Sun_Power_solar_farm","technologies":["solar"],"technologyMixMw":{"solar":30.0},"unitCount":1,"unitIds":["gem-unit-G100001090298"]},"type":"Feature"},{"geometry":{"coordinates":[-85.740352,11.356886],"type":"Point"},"id":"wattlas-plant-osm-relation-15446105","properties":{"aliases":["Parque Eólico Eolo de Nicaragua"],"canonicalAnchor":"osm:relation/15446105","canonicalCountryKey":"NI","capacityMw":44.0,"country":"NI","externalIds":{"osm":"relation/15446105"},"geographyId":"NI-94367503B70144399425035","id":"wattlas-plant-osm-relation-15446105","lifecycleCounts":{"operational":1},"locationPrecision":"exact","name":"Parque Eólico Eolo de Nicaragua","operatingCapacityCoverage":{"coveragePercent":100.0,"knownUnitCount":0,"method":"plant_aggregate","provenance":{"evidenceCount":0,"recordIds":["wattlas-record-osm-relation-15446105"],"sourceIds":["openstreetmap-power"],"sourceTypes":["community_mapped"],"valueKind":"reported"},"totalUnitCount":0},"operatingCapacityMw":44.0,"operatingCapacityMwByTechnology":{"wind":44.0},"plannedCapacityCoverage":{"coveragePercent":0.0,"knownUnitCount":0,"method":"unavailable","totalUnitCount":0},"plannedCapacityMw":0.0,"plannedCapacityMwByTechnology":{},"recordCount":1,"recordIds":["wattlas-record-osm-relation-15446105"],"sourceIds":["openstreetmap-power"],"sourceUrl":"https://www.openstreetmap.org/relation/15446105","technologies":["wind"],"technologyMixMw":{"wind":44.0},"unitCount":0,"unitIds":[]},"type":"Feature"},{"geometry":{"coordinates":[-85.799052,11.378144],"type":"Point"},"id":"wattlas-plant-osm-relation-15458861","properties":{"aliases":["Parque Eólico Alba-Rivas Camilo Ortega Saavedra"],"canonicalAnchor":"osm:relation/15458861","canonicalCountryKey":"NI","capacityMw":39.6,"country":"NI","externalIds":{"osm":"relation/15458861"},"geographyId":"NI-94367503B70144399425035","id":"wattlas-plant-osm-relation-15458861","lifecycleCounts":{"operational":1},"locationPrecision":"exact","name":"Parque Eólico Alba-Rivas Camilo Ortega Saavedra","operatingCapacityCoverage":{"coveragePercent":100.0,"knownUnitCount":0,"method":"plant_aggregate","provenance":{"evidenceCount":0,"recordIds":["wattlas-record-osm-relation-15458861"],"sourceIds":["openstreetmap-power"],"sourceTypes":["community_mapped"],"valueKind":"reported"},"totalUnitCount":0},"operatingCapacityMw":39.6,"operatingCapacityMwByTechnology":{"wind":39.6},"plannedCapacityCoverage":{"coveragePercent":0.0,"knownUnitCount":0,"method":"unavailable","totalUnitCount":0},"plannedCapacityMw":0.0,"plannedCapacityMwByTechnology":{},"recordCount":1,"recordIds":["wattlas-record-osm-relation-15458861"],"sourceIds":["openstreetmap-power"],"sourceUrl":"https://www.openstreetmap.org/relation/15458861","technologies":["wind"],"technologyMixMw":{"wind":39.6},"unitCount":0,"unitIds":[]},"type":"Feature"},{"geometry":{"coordinates":[-85.793325,11.405861],"type":"Point"},"id":"wattlas-plant-osm-relation-15458862","properties":{"aliases":["Parque Eólico La Fe-San Martin"],"canonicalAnchor":"osm:relation/15458862","canonicalCountryKey":"NI","capacityMw":39.6,"country":"NI","externalIds":{"osm":"relation/15458862"},"geographyId":"NI-94367503B70144399425035","id":"wattlas-plant-osm-relation-15458862","lifecycleCounts":{"operational":1},"locationPrecision":"exact","name":"Parque Eólico La Fe-San Martin","operatingCapacityCoverage":{"coveragePercent":100.0,"knownUnitCount":0,"method":"plant_aggregate","provenance":{"evidenceCount":0,"recordIds":["wattlas-record-osm-relation-15458862"],"sourceIds":["openstreetmap-power"],"sourceTypes":["community_mapped"],"valueKind":"reported"},"totalUnitCount":0},"operatingCapacityMw":39.6,"operatingCapacityMwByTechnology":{"wind":39.6},"plannedCapacityCoverage":{"coveragePercent":0.0,"knownUnitCount":0,"method":"unavailable","totalUnitCount":0},"plannedCapacityMw":0.0,"plannedCapacityMwByTechnology":{},"recordCount":1,"recordIds":["wattlas-record-osm-relation-15458862"],"sourceIds":["openstreetmap-power"],"sourceUrl":"https://www.openstreetmap.org/relation/15458862","technologies":["wind"],"technologyMixMw":{"wind":39.6},"unitCount":0,"unitIds":[]},"type":"Feature"},{"geometry":{"coordinates":[-85.717867,11.3285],"type":"Point"},"id":"wattlas-plant-osm-relation-2715347","properties":{"aliases":["Parque Eólico Amayo"],"canonicalAnchor":"osm:relation/2715347","canonicalCountryKey":"NI","capacityMw":63.0,"country":"NI","externalIds":{"osm":"relation/2715347"},"geographyId":"NI-94367503B70144399425035","id":"wattlas-plant-osm-relation-2715347","lifecycleCounts":{"operational":1},"locationPrecision":"exact","name":"Parque Eólico Amayo","operatingCapacityCoverage":{"coveragePercent":100.0,"knownUnitCount":0,"method":"plant_aggregate","provenance":{"evidenceCount":0,"recordIds":["wattlas-record-osm-relation-2715347"],"sourceIds":["openstreetmap-power"],"sourceTypes":["community_mapped"],"valueKind":"reported"},"totalUnitCount":0},"operatingCapacityMw":63.0,"operatingCapacityMwByTechnology":{"wind":63.0},"plannedCapacityCoverage":{"coveragePercent":0.0,"knownUnitCount":0,"method":"unavailable","totalUnitCount":0},"plannedCapacityMw":0.0,"plannedCapacityMwByTechnology":{},"recordCount":1,"recordIds":["wattlas-record-osm-relation-2715347"],"sourceIds":["openstreetmap-power"],"sourceUrl":"https://www.openstreetmap.org/relation/2715347","technologies":["wind"],"technologyMixMw":{"wind":63.0},"unitCount":0,"unitIds":[]},"type":"Feature"},{"geometry":{"coordinates":[-84.624215,14.063468],"type":"Point"},"id":"wattlas-plant-osm-way-1055543484","properties":{"aliases":["Planta Hidro-Electrica Salto Grande"],"canonicalAnchor":"osm:way/1055543484","canonicalCountryKey":"NI","capacityMw":0.0,"country":"NI","externalIds":{"osm":"way/1055543484"},"geographyId":"NI-94367503B67681727137385","id":"wattlas-plant-osm-way-1055543484","lifecycleCounts":{"operational":1},"locationPrecision":"exact","name":"Planta Hidro-Electrica Salto Grande","operatingCapacityCoverage":{"coveragePercent":0.0,"knownUnitCount":0,"method":"unavailable","totalUnitCount":0},"operatingCapacityMw":0.0,"operatingCapacityMwByTechnology":{},"plannedCapacityCoverage":{"coveragePercent":0.0,"knownUnitCount":0,"method":"unavailable","totalUnitCount":0},"plannedCapacityMw":0.0,"plannedCapacityMwByTechnology":{},"recordCount":1,"recordIds":["wattlas-record-osm-way-1055543484"],"sourceIds":["openstreetmap-power"],"sourceUrl":"https://www.openstreetmap.org/way/1055543484","technologies":["hydro"],"technologyMixMw":{"hydro":0.0},"unitCount":0,"unitIds":[]},"type":"Feature"},{"geometry":{"coordinates":[-86.311072,12.158244],"type":"Point"},"id":"wattlas-plant-osm-way-108180682","properties":{"aliases":["Planta Las Brisas"],"canonicalAnchor":"osm:way/108180682","canonicalCountryKey":"NI","capacityMw":65.0,"country":"NI","externalIds":{"osm":"way/108180682"},"geographyId":"NI-94367503B81766766698586","id":"wattlas-plant-osm-way-108180682","lifecycleCounts":{"operational":1},"locationPrecision":"exact","name":"Planta Las Brisas","operatingCapacityCoverage":{"coveragePercent":100.0,"knownUnitCount":0,"method":"plant_aggregate","provenance":{"evidenceCount":0,"recordIds":["wattlas-record-osm-way-108180682"],"sourceIds":["openstreetmap-power"],"sourceTypes":["community_mapped"],"valueKind":"reported"},"totalUnitCount":0},"operatingCapacityMw":65.0,"operatingCapacityMwByTechnology":{"oil":65.0},"plannedCapacityCoverage":{"coveragePercent":0.0,"knownUnitCount":0,"method":"unavailable","totalUnitCount":0},"plannedCapacityMw":0.0,"plannedCapacityMwByTechnology":{},"recordCount":1,"recordIds":["wattlas-record-osm-way-108180682"],"sourceIds":["openstreetmap-power"],"sourceUrl":"https://www.openstreetmap.org/way/108180682","technologies":["oil"],"technologyMixMw":{"oil":65.0},"unitCount":0,"unitIds":[]},"type":"Feature"},{"geometry":{"coordinates":[-86.730953,12.200685],"type":"Point"},"id":"wattlas-plant-osm-way-1093138841","properties":{"aliases":["Central Puerto Sandino"],"canonicalAnchor":"osm:way/1093138841","canonicalCountryKey":"NI","capacityMw":300.0,"country":"NI","externalIds":{"osm":"way/1093138841"},"geographyId":"NI-94367503B39053627120026","id":"wattlas-plant-osm-way-1093138841","lifecycleCounts":{"operational":1},"locationPrecision":"exact","name":"Central Puerto Sandino","operatingCapacityCoverage":{"coveragePercent":100.0,"knownUnitCount":0,"method":"plant_aggregate","provenance":{"evidenceCount":0,"recordIds":["wattlas-record-osm-way-1093138841"],"sourceIds":["openstreetmap-power"],"sourceTypes":["community_mapped"],"valueKind":"reported"},"totalUnitCount":0},"operatingCapacityMw":300.0,"operatingCapacityMwByTechnology":{"gas":300.0},"plannedCapacityCoverage":{"coveragePercent":0.0,"knownUnitCount":0,"method":"unavailable","totalUnitCount":0},"plannedCapacityMw":0.0,"plannedCapacityMwByTechnology":{},"recordCount":1,"recordIds":["wattlas-record-osm-way-1093138841"],"sourceIds":["openstreetmap-power"],"sourceUrl":"https://www.openstreetmap.org/way/1093138841","technologies":["gas"],"technologyMixMw":{"gas":300.0},"unitCount":0,"unitIds":[]},"type":"Feature"},{"geometry":{"coordinates":[-85.970117,13.301369],"type":"Point"},"id":"wattlas-plant-osm-way-1096965094","properties":{"aliases":["Planta Eléctrica Hidropantasma"],"canonicalAnchor":"osm:way/1096965094","canonicalCountryKey":"NI","capacityMw":13.0,"country":"NI","externalIds":{"osm":"way/1096965094"},"geographyId":"NI-94367503B48061873039178","id":"wattlas-plant-osm-way-1096965094","lifecycleCounts":{"operational":1},"locationPrecision":"exact","name":"Planta Eléctrica Hidropantasma","operatingCapacityCoverage":{"coveragePercent":100.0,"knownUnitCount":0,"method":"plant_aggregate","provenance":{"evidenceCount":0,"recordIds":["wattlas-record-osm-way-1096965094"],"sourceIds":["openstreetmap-power"],"sourceTypes":["community_mapped"],"valueKind":"reported"},"totalUnitCount":0},"operatingCapacityMw":13.0,"operatingCapacityMwByTechnology":{"hydro":13.0},"plannedCapacityCoverage":{"coveragePercent":0.0,"knownUnitCount":0,"method":"unavailable","totalUnitCount":0},"plannedCapacityMw":0.0,"plannedCapacityMwByTechnology":{},"recordCount":1,"recordIds":["wattlas-record-osm-way-1096965094"],"sourceIds":["openstreetmap-power"],"sourceUrl":"https://www.openstreetmap.org/way/1096965094","technologies":["hydro"],"technologyMixMw":{"hydro":13.0},"unitCount":0,"unitIds":[]},"type":"Feature"},{"geometry":{"coordinates":[-86.717951,12.20934],"type":"Point"},"id":"wattlas-plant-osm-way-1139057250","properties":{"aliases":["Parque Fotovoltaico Solaris"],"canonicalAnchor":"osm:way/1139057250","canonicalCountryKey":"NI","capacityMw":12.0,"country":"NI","externalIds":{"osm":"way/1139057250"},"geographyId":"NI-94367503B39053627120026","id":"wattlas-plant-osm-way-1139057250","lifecycleCounts":{"operational":1},"locationPrecision":"exact","name":"Parque Fotovoltaico Solaris","operatingCapacityCoverage":{"coveragePercent":100.0,"knownUnitCount":0,"method":"plant_aggregate","provenance":{"evidenceCount":0,"recordIds":["wattlas-record-osm-way-1139057250"],"sourceIds":["openstreetmap-power"],"sourceTypes":["community_mapped"],"valueKind":"reported"},"totalUnitCount":0},"operatingCapacityMw":12.0,"operatingCapacityMwByTechnology":{"solar":12.0},"plannedCapacityCoverage":{"coveragePercent":0.0,"knownUnitCount":0,"method":"unavailable","totalUnitCount":0},"plannedCapacityMw":0.0,"plannedCapacityMwByTechnology":{},"recordCount":1,"recordIds":["wattlas-record-osm-way-1139057250"],"sourceIds":["openstreetmap-power"],"sourceUrl":"https://www.openstreetmap.org/way/1139057250","technologies":["solar"],"technologyMixMw":{"solar":12.0},"unitCount":0,"unitIds":[]},"type":"Feature"},{"geometry":{"coordinates":[-86.956802,12.477357],"type":"Point"},"id":"wattlas-plant-osm-way-1163124843","properties":{"aliases":["Finca La Goyena"],"canonicalAnchor":"osm:way/1163124843","canonicalCountryKey":"NI","capacityMw":0.0,"country":"NI","externalIds":{"osm":"way/1163124843"},"geographyId":"NI-94367503B39053627120026","id":"wattlas-plant-osm-way-1163124843","lifecycleCounts":{"operational":1},"locationPrecision":"exact","name":"Finca La Goyena","operatingCapacityCoverage":{"coveragePercent":0.0,"knownUnitCount":0,"method":"unavailable","totalUnitCount":0},"operatingCapacityMw":0.0,"operatingCapacityMwByTechnology":{},"plannedCapacityCoverage":{"coveragePercent":0.0,"knownUnitCount":0,"method":"unavailable","totalUnitCount":0},"plannedCapacityMw":0.0,"plannedCapacityMwByTechnology":{},"recordCount":1,"recordIds":["wattlas-record-osm-way-1163124843"],"sourceIds":["openstreetmap-power"],"sourceUrl":"https://www.openstreetmap.org/way/1163124843","technologies":["solar"],"technologyMixMw":{"solar":0.0},"unitCount":0,"unitIds":[]},"type":"Feature"},{"geometry":{"coordinates":[-86.104912,12.167964],"type":"Point"},"id":"wattlas-plant-osm-way-1337211580","properties":{"aliases":["Planta Che Guevara 1"],"canonicalAnchor":"osm:way/1337211580","canonicalCountryKey":"NI","capacityMw":0.0,"country":"NI","externalIds":{"osm":"way/1337211580"},"geographyId":"NI-94367503B81766766698586","id":"wattlas-plant-osm-way-1337211580","lifecycleCounts":{"operational":1},"locationPrecision":"exact","name":"Planta Che Guevara 1","operatingCapacityCoverage":{"coveragePercent":0.0,"knownUnitCount":0,"method":"unavailable","totalUnitCount":0},"operatingCapacityMw":0.0,"operatingCapacityMwByTechnology":{},"plannedCapacityCoverage":{"coveragePercent":0.0,"knownUnitCount":0,"method":"unavailable","totalUnitCount":0},"plannedCapacityMw":0.0,"plannedCapacityMwByTechnology":{},"recordCount":1,"recordIds":["wattlas-record-osm-way-1337211580"],"sourceIds":["openstreetmap-power"],"sourceUrl":"https://www.openstreetmap.org/way/1337211580","technologies":["oil"],"technologyMixMw":{"oil":0.0},"unitCount":0,"unitIds":[]},"type":"Feature"},{"geometry":{"coordinates":[-86.258591,12.154324],"type":"Point"},"id":"wattlas-plant-osm-way-1337211581","properties":{"aliases":["Planta Che Guevara 3"],"canonicalAnchor":"osm:way/1337211581","canonicalCountryKey":"NI","capacityMw":0.0,"country":"NI","externalIds":{"osm":"way/1337211581"},"geographyId":"NI-94367503B81766766698586","id":"wattlas-plant-osm-way-1337211581","lifecycleCounts":{"operational":1},"locationPrecision":"exact","name":"Planta Che Guevara 3","operatingCapacityCoverage":{"coveragePercent":0.0,"knownUnitCount":0,"method":"unavailable","totalUnitCount":0},"operatingCapacityMw":0.0,"operatingCapacityMwByTechnology":{},"plannedCapacityCoverage":{"coveragePercent":0.0,"knownUnitCount":0,"method":"unavailable","totalUnitCount":0},"plannedCapacityMw":0.0,"plannedCapacityMwByTechnology":{},"recordCount":1,"recordIds":["wattlas-record-osm-way-1337211581"],"sourceIds":["openstreetmap-power"],"sourceUrl":"https://www.openstreetmap.org/way/1337211581","technologies":["oil"],"technologyMixMw":{"oil":0.0},"unitCount":0,"unitIds":[]},"type":"Feature"},{"geometry":{"coordinates":[-86.311036,12.159081],"type":"Point"},"id":"wattlas-plant-osm-way-1337211582","properties":{"aliases":["Planta Hugo Chávez 1"],"canonicalAnchor":"osm:way/1337211582","canonicalCountryKey":"NI","capacityMw":0.0,"country":"NI","externalIds":{"osm":"way/1337211582"},"geographyId":"NI-94367503B81766766698586","id":"wattlas-plant-osm-way-1337211582","lifecycleCounts":{"operational":1},"locationPrecision":"exact","name":"Planta Hugo Chávez 1","operatingCapacityCoverage":{"coveragePercent":0.0,"knownUnitCount":0,"method":"unavailable","totalUnitCount":0},"operatingCapacityMw":0.0,"operatingCapacityMwByTechnology":{},"plannedCapacityCoverage":{"coveragePercent":0.0,"knownUnitCount":0,"method":"unavailable","totalUnitCount":0},"plannedCapacityMw":0.0,"plannedCapacityMwByTechnology":{},"recordCount":1,"recordIds":["wattlas-record-osm-way-1337211582"],"sourceIds":["openstreetmap-power"],"sourceUrl":"https://www.openstreetmap.org/way/1337211582","technologies":["oil"],"technologyMixMw":{"oil":0.0},"unitCount":0,"unitIds":[]},"type":"Feature"},{"geometry":{"coordinates":[-87.081694,12.437704],"type":"Point"},"id":"wattlas-plant-osm-way-1419294308","properties":{"aliases":["Planta Solar ISA"],"canonicalAnchor":"osm:way/1419294308","canonicalCountryKey":"NI","capacityMw":0.0,"country":"NI","externalIds":{"osm":"way/1419294308"},"geographyId":"NI-94367503B39053627120026","id":"wattlas-plant-osm-way-1419294308","lifecycleCounts":{"operational":1},"locationPrecision":"exact","name":"Planta Solar ISA","operatingCapacityCoverage":{"coveragePercent":0.0,"knownUnitCount":0,"method":"unavailable","totalUnitCount":0},"operatingCapacityMw":0.0,"operatingCapacityMwByTechnology":{},"plannedCapacityCoverage":{"coveragePercent":0.0,"knownUnitCount":0,"method":"unavailable","totalUnitCount":0},"plannedCapacityMw":0.0,"plannedCapacityMwByTechnology":{},"recordCount":1,"recordIds":["wattlas-record-osm-way-1419294308"],"sourceIds":["openstreetmap-power"],"sourceUrl":"https://www.openstreetmap.org/way/1419294308","technologies":["solar"],"technologyMixMw":{"solar":0.0},"unitCount":0,"unitIds":[]},"type":"Feature"},{"geometry":{"coordinates":[-87.047875,12.530884],"type":"Point"},"id":"wattlas-plant-osm-way-1473703880","properties":{"aliases":["Ingenio San Antonio"],"canonicalAnchor":"osm:way/1473703880","canonicalCountryKey":"NI","capacityMw":0.0,"country":"NI","externalIds":{"osm":"way/1473703880"},"geographyId":"NI-94367503B84000172489696","id":"wattlas-plant-osm-way-1473703880","lifecycleCounts":{"operational":1},"locationPrecision":"exact","name":"Ingenio San Antonio","operatingCapacityCoverage":{"coveragePercent":0.0,"knownUnitCount":0,"method":"unavailable","totalUnitCount":0},"operatingCapacityMw":0.0,"operatingCapacityMwByTechnology":{},"plannedCapacityCoverage":{"coveragePercent":0.0,"knownUnitCount":0,"method":"unavailable","totalUnitCount":0},"plannedCapacityMw":0.0,"plannedCapacityMwByTechnology":{},"recordCount":1,"recordIds":["wattlas-record-osm-way-1473703880"],"sourceIds":["openstreetmap-power"],"sourceUrl":"https://www.openstreetmap.org/way/1473703880","technologies":["biomass"],"technologyMixMw":{"biomass":0.0},"unitCount":0,"unitIds":[]},"type":"Feature"},{"geometry":{"coordinates":[-86.10939,12.010874],"type":"Point"},"id":"wattlas-plant-osm-way-1527930404","properties":{"aliases":["ENESOLAR-3/APAS"],"canonicalAnchor":"osm:way/1527930404","canonicalCountryKey":"NI","capacityMw":70.0,"country":"NI","externalIds":{"osm":"way/1527930404"},"geographyId":"NI-94367503B55220527661789","id":"wattlas-plant-osm-way-1527930404","lifecycleCounts":{"operational":1},"locationPrecision":"exact","name":"ENESOLAR-3/APAS","operatingCapacityCoverage":{"coveragePercent":100.0,"knownUnitCount":0,"method":"plant_aggregate","provenance":{"evidenceCount":0,"recordIds":["wattlas-record-osm-way-1527930404"],"sourceIds":["openstreetmap-power"],"sourceTypes":["community_mapped"],"valueKind":"reported"},"totalUnitCount":0},"operatingCapacityMw":70.0,"operatingCapacityMwByTechnology":{"solar":70.0},"plannedCapacityCoverage":{"coveragePercent":0.0,"knownUnitCount":0,"method":"unavailable","totalUnitCount":0},"plannedCapacityMw":0.0,"plannedCapacityMwByTechnology":{},"recordCount":1,"recordIds":["wattlas-record-osm-way-1527930404"],"sourceIds":["openstreetmap-power"],"sourceUrl":"https://www.openstreetmap.org/way/1527930404","technologies":["solar"],"technologyMixMw":{"solar":70.0},"unitCount":0,"unitIds":[]},"type":"Feature"},{"geometry":{"coordinates":[-87.167418,12.48832],"type":"Point"},"id":"wattlas-plant-osm-way-201748035","properties":{"aliases":["Planta de Generación de la Empresa Energética Corinto"],"canonicalAnchor":"osm:way/201748035","canonicalCountryKey":"NI","capacityMw":70.0,"country":"NI","externalIds":{"osm":"way/201748035"},"geographyId":"NI-94367503B84000172489696","id":"wattlas-plant-osm-way-201748035","lifecycleCounts":{"operational":1},"locationPrecision":"exact","name":"Planta de Generación de la Empresa Energética Corinto","operatingCapacityCoverage":{"coveragePercent":100.0,"knownUnitCount":0,"method":"plant_aggregate","provenance":{"evidenceCount":0,"recordIds":["wattlas-record-osm-way-201748035"],"sourceIds":["openstreetmap-power"],"sourceTypes":["community_mapped"],"valueKind":"reported"},"totalUnitCount":0},"operatingCapacityMw":70.0,"operatingCapacityMwByTechnology":{"oil":70.0},"plannedCapacityCoverage":{"coveragePercent":0.0,"knownUnitCount":0,"method":"unavailable","totalUnitCount":0},"plannedCapacityMw":0.0,"plannedCapacityMwByTechnology":{},"recordCount":1,"recordIds":["wattlas-record-osm-way-201748035"],"sourceIds":["openstreetmap-power"],"sourceUrl":"https://www.openstreetmap.org/way/201748035","technologies":["oil"],"technologyMixMw":{"oil":70.0},"unitCount":0,"unitIds":[]},"type":"Feature"},{"geometry":{"coordinates":[-86.072069,13.079666],"type":"Point"},"id":"wattlas-plant-osm-way-262114650","properties":{"aliases":["Planta Eléctrica Larreynaga"],"canonicalAnchor":"osm:way/262114650","canonicalCountryKey":"NI","capacityMw":17.0,"country":"NI","externalIds":{"osm":"way/262114650"},"geographyId":"NI-94367503B48061873039178","id":"wattlas-plant-osm-way-262114650","lifecycleCounts":{"operational":1},"locationPrecision":"exact","name":"Planta Eléctrica Larreynaga","operatingCapacityCoverage":{"coveragePercent":100.0,"knownUnitCount":0,"method":"plant_aggregate","provenance":{"evidenceCount":0,"recordIds":["wattlas-record-osm-way-262114650"],"sourceIds":["openstreetmap-power"],"sourceTypes":["community_mapped"],"valueKind":"reported"},"totalUnitCount":0},"operatingCapacityMw":17.0,"operatingCapacityMwByTechnology":{"hydro":17.0},"plannedCapacityCoverage":{"coveragePercent":0.0,"knownUnitCount":0,"method":"unavailable","totalUnitCount":0},"plannedCapacityMw":0.0,"plannedCapacityMwByTechnology":{},"recordCount":1,"recordIds":["wattlas-record-osm-way-262114650"],"sourceIds":["openstreetmap-power"],"sourceUrl":"https://www.openstreetmap.org/way/262114650","technologies":["hydro"],"technologyMixMw":{"hydro":17.0},"unitCount":0,"unitIds":[]},"type":"Feature"},{"geometry":{"coordinates":[-86.539975,12.39206],"type":"Point"},"id":"wattlas-plant-osm-way-272499415","properties":{"aliases":["Planta Geotérmica Momotombo"],"canonicalAnchor":"osm:way/272499415","canonicalCountryKey":"NI","capacityMw":77.0,"country":"NI","externalIds":{"osm":"way/272499415"},"geographyId":"NI-94367503B39053627120026","id":"wattlas-plant-osm-way-272499415","lifecycleCounts":{"operational":1},"locationPrecision":"exact","name":"Planta Geotérmica Momotombo","operatingCapacityCoverage":{"coveragePercent":100.0,"knownUnitCount":0,"method":"plant_aggregate","provenance":{"evidenceCount":0,"recordIds":["wattlas-record-osm-way-272499415"],"sourceIds":["openstreetmap-power"],"sourceTypes":["community_mapped"],"valueKind":"reported"},"totalUnitCount":0},"operatingCapacityMw":77.0,"operatingCapacityMwByTechnology":{"geothermal":77.0},"plannedCapacityCoverage":{"coveragePercent":0.0,"knownUnitCount":0,"method":"unavailable","totalUnitCount":0},"plannedCapacityMw":0.0,"plannedCapacityMwByTechnology":{},"recordCount":1,"recordIds":["wattlas-record-osm-way-272499415"],"sourceIds":["openstreetmap-power"],"sourceUrl":"https://www.openstreetmap.org/way/272499415","technologies":["geothermal"],"technologyMixMw":{"geothermal":77.0},"unitCount":0,"unitIds":[]},"type":"Feature"},{"geometry":{"coordinates":[-86.085839,12.0142],"type":"Point"},"id":"wattlas-plant-osm-way-273324901","properties":{"aliases":["Planta Che Guevara 2, 4 y 5"],"canonicalAnchor":"osm:way/273324901","canonicalCountryKey":"NI","capacityMw":0.0,"country":"NI","externalIds":{"osm":"way/273324901"},"geographyId":"NI-94367503B55220527661789","id":"wattlas-plant-osm-way-273324901","lifecycleCounts":{"operational":1},"locationPrecision":"exact","name":"Planta Che Guevara 2, 4 y 5","operatingCapacityCoverage":{"coveragePercent":0.0,"knownUnitCount":0,"method":"unavailable","totalUnitCount":0},"operatingCapacityMw":0.0,"operatingCapacityMwByTechnology":{},"plannedCapacityCoverage":{"coveragePercent":0.0,"knownUnitCount":0,"method":"unavailable","totalUnitCount":0},"plannedCapacityMw":0.0,"plannedCapacityMwByTechnology":{},"recordCount":1,"recordIds":["wattlas-record-osm-way-273324901"],"sourceIds":["openstreetmap-power"],"sourceUrl":"https://www.openstreetmap.org/way/273324901","technologies":["oil"],"technologyMixMw":{"oil":0.0},"unitCount":0,"unitIds":[]},"type":"Feature"},{"geometry":{"coordinates":[-86.576562,12.280449],"type":"Point"},"id":"wattlas-plant-osm-way-286832358","properties":{"aliases":["Planta Che Guevara 6 y 7"],"canonicalAnchor":"osm:way/286832358","canonicalCountryKey":"NI","capacityMw":0.0,"country":"NI","externalIds":{"osm":"way/286832358"},"geographyId":"NI-94367503B39053627120026","id":"wattlas-plant-osm-way-286832358","lifecycleCounts":{"operational":1},"locationPrecision":"exact","name":"Planta Che Guevara 6 y 7","operatingCapacityCoverage":{"coveragePercent":0.0,"knownUnitCount":0,"method":"unavailable","totalUnitCount":0},"operatingCapacityMw":0.0,"operatingCapacityMwByTechnology":{},"plannedCapacityCoverage":{"coveragePercent":0.0,"knownUnitCount":0,"method":"unavailable","totalUnitCount":0},"plannedCapacityMw":0.0,"plannedCapacityMwByTechnology":{},"recordCount":1,"recordIds":["wattlas-record-osm-way-286832358"],"sourceIds":["openstreetmap-power"],"sourceUrl":"https://www.openstreetmap.org/way/286832358","technologies":["other"],"technologyMixMw":{"other":0.0},"unitCount":0,"unitIds":[]},"type":"Feature"},{"geometry":{"coordinates":[-86.884706,12.469929],"type":"Point"},"id":"wattlas-plant-osm-way-305115950","properties":{"aliases":["Centrales Termoeléctricas Che Guevara León"],"canonicalAnchor":"osm:way/305115950","canonicalCountryKey":"NI","capacityMw":0.0,"country":"NI","externalIds":{"osm":"way/305115950"},"geographyId":"NI-94367503B39053627120026","id":"wattlas-plant-osm-way-305115950","lifecycleCounts":{"operational":1},"locationPrecision":"exact","name":"Centrales Termoeléctricas Che Guevara León","operatingCapacityCoverage":{"coveragePercent":0.0,"knownUnitCount":0,"method":"unavailable","totalUnitCount":0},"operatingCapacityMw":0.0,"operatingCapacityMwByTechnology":{},"plannedCapacityCoverage":{"coveragePercent":0.0,"knownUnitCount":0,"method":"unavailable","totalUnitCount":0},"plannedCapacityMw":0.0,"plannedCapacityMwByTechnology":{},"recordCount":1,"recordIds":["wattlas-record-osm-way-305115950"],"sourceIds":["openstreetmap-power"],"sourceUrl":"https://www.openstreetmap.org/way/305115950","technologies":["oil"],"technologyMixMw":{"oil":0.0},"unitCount":0,"unitIds":[]},"type":"Feature"},{"geometry":{"coordinates":[-86.747748,12.185845],"type":"Point"},"id":"wattlas-plant-osm-way-400072649","properties":{"aliases":["CENSA"],"canonicalAnchor":"osm:way/400072649","canonicalCountryKey":"NI","capacityMw":57.0,"country":"NI","externalIds":{"osm":"way/400072649"},"geographyId":"NI-94367503B39053627120026","id":"wattlas-plant-osm-way-400072649","lifecycleCounts":{"operational":1},"locationPrecision":"exact","name":"CENSA","operatingCapacityCoverage":{"coveragePercent":100.0,"knownUnitCount":0,"method":"plant_aggregate","provenance":{"evidenceCount":0,"recordIds":["wattlas-record-osm-way-400072649"],"sourceIds":["openstreetmap-power"],"sourceTypes":["community_mapped"],"valueKind":"reported"},"totalUnitCount":0},"operatingCapacityMw":57.0,"operatingCapacityMwByTechnology":{"oil":57.0},"plannedCapacityCoverage":{"coveragePercent":0.0,"knownUnitCount":0,"method":"unavailable","totalUnitCount":0},"plannedCapacityMw":0.0,"plannedCapacityMwByTechnology":{},"recordCount":1,"recordIds":["wattlas-record-osm-way-400072649"],"sourceIds":["openstreetmap-power"],"sourceUrl":"https://www.openstreetmap.org/way/400072649","technologies":["oil"],"technologyMixMw":{"oil":57.0},"unitCount":0,"unitIds":[]},"type":"Feature"},{"geometry":{"coordinates":[-86.767038,12.178841],"type":"Point"},"id":"wattlas-plant-osm-way-400332480","properties":{"aliases":["GEOSA Sandino Power Plant"],"canonicalAnchor":"osm:way/400332480","canonicalCountryKey":"NI","capacityMw":100.0,"country":"NI","externalIds":{"osm":"way/400332480"},"geographyId":"NI-94367503B39053627120026","id":"wattlas-plant-osm-way-400332480","lifecycleCounts":{"operational":1},"locationPrecision":"exact","name":"GEOSA Sandino Power Plant","operatingCapacityCoverage":{"coveragePercent":100.0,"knownUnitCount":0,"method":"plant_aggregate","provenance":{"evidenceCount":0,"recordIds":["wattlas-record-osm-way-400332480"],"sourceIds":["openstreetmap-power"],"sourceTypes":["community_mapped"],"valueKind":"reported"},"totalUnitCount":0},"operatingCapacityMw":100.0,"operatingCapacityMwByTechnology":{"oil":100.0},"plannedCapacityCoverage":{"coveragePercent":0.0,"knownUnitCount":0,"method":"unavailable","totalUnitCount":0},"plannedCapacityMw":0.0,"plannedCapacityMwByTechnology":{},"recordCount":1,"recordIds":["wattlas-record-osm-way-400332480"],"sourceIds":["openstreetmap-power"],"sourceUrl":"https://www.openstreetmap.org/way/400332480","technologies":["oil"],"technologyMixMw":{"oil":100.0},"unitCount":0,"unitIds":[]},"type":"Feature"},{"geometry":{"coordinates":[-86.773559,12.607986],"type":"Point"},"id":"wattlas-plant-osm-way-403363259","properties":{"aliases":["Central Geotérmica San Jacinto-Tizate"],"canonicalAnchor":"osm:way/403363259","canonicalCountryKey":"NI","capacityMw":72.0,"country":"NI","externalIds":{"osm":"way/403363259"},"geographyId":"NI-94367503B39053627120026","id":"wattlas-plant-osm-way-403363259","lifecycleCounts":{"operational":1},"locationPrecision":"exact","name":"Central Geotérmica San Jacinto-Tizate","operatingCapacityCoverage":{"coveragePercent":100.0,"knownUnitCount":0,"method":"plant_aggregate","provenance":{"evidenceCount":0,"recordIds":["wattlas-record-osm-way-403363259"],"sourceIds":["openstreetmap-power"],"sourceTypes":["community_mapped"],"valueKind":"reported"},"totalUnitCount":0},"operatingCapacityMw":72.0,"operatingCapacityMwByTechnology":{"geothermal":72.0},"plannedCapacityCoverage":{"coveragePercent":0.0,"knownUnitCount":0,"method":"unavailable","totalUnitCount":0},"plannedCapacityMw":0.0,"plannedCapacityMwByTechnology":{},"recordCount":1,"recordIds":["wattlas-record-osm-way-403363259"],"sourceIds":["openstreetmap-power"],"sourceUrl":"https://www.openstreetmap.org/way/403363259","technologies":["geothermal"],"technologyMixMw":{"geothermal":72.0},"unitCount":0,"unitIds":[]},"type":"Feature"},{"geometry":{"coordinates":[-86.105741,12.170141],"type":"Point"},"id":"wattlas-plant-osm-way-744799225","properties":{"aliases":["Tipitapa Power"],"canonicalAnchor":"osm:way/744799225","canonicalCountryKey":"NI","capacityMw":51.0,"country":"NI","externalIds":{"osm":"way/744799225"},"geographyId":"NI-94367503B81766766698586","id":"wattlas-plant-osm-way-744799225","lifecycleCounts":{"operational":1},"locationPrecision":"exact","name":"Tipitapa Power","operatingCapacityCoverage":{"coveragePercent":100.0,"knownUnitCount":0,"method":"plant_aggregate","provenance":{"evidenceCount":0,"recordIds":["wattlas-record-osm-way-744799225"],"sourceIds":["openstreetmap-power"],"sourceTypes":["community_mapped"],"valueKind":"reported"},"totalUnitCount":0},"operatingCapacityMw":51.0,"operatingCapacityMwByTechnology":{"other":51.0},"plannedCapacityCoverage":{"coveragePercent":0.0,"knownUnitCount":0,"method":"unavailable","totalUnitCount":0},"plannedCapacityMw":0.0,"plannedCapacityMwByTechnology":{},"recordCount":1,"recordIds":["wattlas-record-osm-way-744799225"],"sourceIds":["openstreetmap-power"],"sourceUrl":"https://www.openstreetmap.org/way/744799225","technologies":["other"],"technologyMixMw":{"other":51.0},"unitCount":0,"unitIds":[]},"type":"Feature"},{"geometry":{"coordinates":[-86.372479,12.187041],"type":"Point"},"id":"wattlas-plant-osm-way-775563588","properties":{"aliases":["Planta MAN"],"canonicalAnchor":"osm:way/775563588","canonicalCountryKey":"NI","capacityMw":140.0,"country":"NI","externalIds":{"osm":"way/775563588"},"geographyId":"NI-94367503B81766766698586","id":"wattlas-plant-osm-way-775563588","lifecycleCounts":{"operational":1},"locationPrecision":"exact","name":"Planta MAN","operatingCapacityCoverage":{"coveragePercent":100.0,"knownUnitCount":0,"method":"plant_aggregate","provenance":{"evidenceCount":0,"recordIds":["wattlas-record-osm-way-775563588"],"sourceIds":["openstreetmap-power"],"sourceTypes":["community_mapped"],"valueKind":"reported"},"totalUnitCount":0},"operatingCapacityMw":140.0,"operatingCapacityMwByTechnology":{"other":140.0},"plannedCapacityCoverage":{"coveragePercent":0.0,"knownUnitCount":0,"method":"unavailable","totalUnitCount":0},"plannedCapacityMw":0.0,"plannedCapacityMwByTechnology":{},"recordCount":1,"recordIds":["wattlas-record-osm-way-775563588"],"sourceIds":["openstreetmap-power"],"sourceUrl":"https://www.openstreetmap.org/way/775563588","technologies":["other"],"technologyMixMw":{"other":140.0},"unitCount":0,"unitIds":[]},"type":"Feature"},{"geometry":{"coordinates":[-86.257024,12.154643],"type":"Point"},"id":"wattlas-plant-osm-way-82104867","properties":{"aliases":["Planta Eléctrica Managua"],"canonicalAnchor":"osm:way/82104867","canonicalCountryKey":"NI","capacityMw":57.5,"country":"NI","externalIds":{"osm":"way/82104867"},"geographyId":"NI-94367503B81766766698586","id":"wattlas-plant-osm-way-82104867","lifecycleCounts":{"operational":1},"locationPrecision":"exact","name":"Planta Eléctrica Managua","operatingCapacityCoverage":{"coveragePercent":100.0,"knownUnitCount":0,"method":"plant_aggregate","provenance":{"evidenceCount":0,"recordIds":["wattlas-record-osm-way-82104867"],"sourceIds":["openstreetmap-power"],"sourceTypes":["community_mapped"],"valueKind":"reported"},"totalUnitCount":0},"operatingCapacityMw":57.5,"operatingCapacityMwByTechnology":{"oil":57.5},"plannedCapacityCoverage":{"coveragePercent":0.0,"knownUnitCount":0,"method":"unavailable","totalUnitCount":0},"plannedCapacityMw":0.0,"plannedCapacityMwByTechnology":{},"recordCount":1,"recordIds":["wattlas-record-osm-way-82104867"],"sourceIds":["openstreetmap-power"],"sourceUrl":"https://www.openstreetmap.org/way/82104867","technologies":["oil"],"technologyMixMw":{"oil":57.5},"unitCount":0,"unitIds":[]},"type":"Feature"},{"geometry":{"coordinates":[-86.717035,12.207777],"type":"Point"},"id":"wattlas-plant-osm-way-927083250","properties":{"aliases":["Planta Che Guevara 9"],"canonicalAnchor":"osm:way/927083250","canonicalCountryKey":"NI","capacityMw":0.0,"country":"NI","externalIds":{"osm":"way/927083250"},"geographyId":"NI-94367503B39053627120026","id":"wattlas-plant-osm-way-927083250","lifecycleCounts":{"operational":1},"locationPrecision":"exact","name":"Planta Che Guevara 9","operatingCapacityCoverage":{"coveragePercent":0.0,"knownUnitCount":0,"method":"unavailable","totalUnitCount":0},"operatingCapacityMw":0.0,"operatingCapacityMwByTechnology":{},"plannedCapacityCoverage":{"coveragePercent":0.0,"knownUnitCount":0,"method":"unavailable","totalUnitCount":0},"plannedCapacityMw":0.0,"plannedCapacityMwByTechnology":{},"recordCount":1,"recordIds":["wattlas-record-osm-way-927083250"],"sourceIds":["openstreetmap-power"],"sourceUrl":"https://www.openstreetmap.org/way/927083250","technologies":["oil"],"technologyMixMw":{"oil":0.0},"unitCount":0,"unitIds":[]},"type":"Feature"},{"geometry":{"coordinates":[-86.051241,13.106573],"type":"Point"},"id":"wattlas-plant-wikidata-q117749778","properties":{"aliases":["Planta Hydroélectrica Centro América"],"canonicalAnchor":"wikidata:Q117749778","canonicalCountryKey":"NI","capacityMw":50.0,"country":"NI","externalIds":{"osm":"way/685115335","wikidata":"Q117749778"},"geographyId":"NI-94367503B48061873039178","id":"wattlas-plant-wikidata-q117749778","idAliases":["wattlas-plant-osm-way-685115335"],"lifecycleCounts":{"operational":1},"locationPrecision":"exact","name":"Planta Hydroélectrica Centro América","operatingCapacityCoverage":{"coveragePercent":100.0,"knownUnitCount":0,"method":"plant_aggregate","provenance":{"evidenceCount":0,"recordIds":["wattlas-record-osm-way-685115335"],"sourceIds":["openstreetmap-power"],"sourceTypes":["community_mapped"],"valueKind":"reported"},"totalUnitCount":0},"operatingCapacityMw":50.0,"operatingCapacityMwByTechnology":{"hydro":50.0},"plannedCapacityCoverage":{"coveragePercent":0.0,"knownUnitCount":0,"method":"unavailable","totalUnitCount":0},"plannedCapacityMw":0.0,"plannedCapacityMwByTechnology":{},"recordCount":1,"recordIds":["wattlas-record-osm-way-685115335"],"sourceIds":["openstreetmap-power"],"sourceUrl":"https://www.openstreetmap.org/way/685115335","technologies":["hydro"],"technologyMixMw":{"hydro":50.0},"unitCount":0,"unitIds":[]},"type":"Feature"},{"geometry":{"coordinates":[-86.043095,12.37443],"type":"Point"},"id":"wattlas-plant-wikidata-q139589865-a9e87ac030","properties":{"aliases":["Planta Solar Novaterra"],"canonicalAnchor":"wikidata:Q139589865","canonicalCountryKey":"NI","capacityMw":0.0,"country":"NI","externalIds":{"osm":"relation/20604497","wikidata":"Q139589865"},"geographyId":"NI-94367503B81766766698586","id":"wattlas-plant-wikidata-q139589865-a9e87ac030","idAliases":["wattlas-plant-osm-relation-20604497","wattlas-plant-wikidata-q139589865"],"lifecycleCounts":{"operational":1},"locationPrecision":"exact","name":"Planta Solar Novaterra","operatingCapacityCoverage":{"coveragePercent":0.0,"knownUnitCount":0,"method":"unavailable","totalUnitCount":0},"operatingCapacityMw":0.0,"operatingCapacityMwByTechnology":{},"plannedCapacityCoverage":{"coveragePercent":0.0,"knownUnitCount":0,"method":"unavailable","totalUnitCount":0},"plannedCapacityMw":0.0,"plannedCapacityMwByTechnology":{},"recordCount":1,"recordIds":["wattlas-record-osm-relation-20604497"],"sourceIds":["openstreetmap-power"],"sourceUrl":"https://www.openstreetmap.org/relation/20604497","technologies":["solar"],"technologyMixMw":{"solar":0.0},"unitCount":0,"unitIds":[]},"type":"Feature"},{"geometry":{"coordinates":[-86.043095,12.37443],"type":"Point"},"id":"wattlas-plant-wikidata-q139589865-db3d90ae85","properties":{"aliases":["Planta Solar Novaterra"],"canonicalAnchor":"wikidata:Q139589865","canonicalCountryKey":"NI","capacityMw":0.0,"country":"NI","externalIds":{"osm":"way/1506292147","wikidata":"Q139589865"},"geographyId":"NI-94367503B81766766698586","id":"wattlas-plant-wikidata-q139589865-db3d90ae85","idAliases":["wattlas-plant-osm-way-1506292147"],"lifecycleCounts":{"operational":1},"locationPrecision":"exact","name":"Planta Solar Novaterra","operatingCapacityCoverage":{"coveragePercent":0.0,"knownUnitCount":0,"method":"unavailable","totalUnitCount":0},"operatingCapacityMw":0.0,"operatingCapacityMwByTechnology":{},"plannedCapacityCoverage":{"coveragePercent":0.0,"knownUnitCount":0,"method":"unavailable","totalUnitCount":0},"plannedCapacityMw":0.0,"plannedCapacityMwByTechnology":{},"recordCount":1,"recordIds":["wattlas-record-osm-way-1506292147"],"sourceIds":["openstreetmap-power"],"sourceUrl":"https://www.openstreetmap.org/way/1506292147","technologies":["solar"],"technologyMixMw":{"solar":0.0},"unitCount":0,"unitIds":[]},"type":"Feature"},{"geometry":{"coordinates":[-87.046669,12.531185],"type":"Point"},"id":"wattlas-plant-wikidata-q139609442","properties":{"aliases":["Ingenio San Antonio"],"canonicalAnchor":"wikidata:Q139609442","canonicalCountryKey":"NI","capacityMw":0.0,"country":"NI","externalIds":{"osm":"relation/20414064","wikidata":"Q139609442"},"geographyId":"NI-94367503B84000172489696","id":"wattlas-plant-wikidata-q139609442","idAliases":["wattlas-plant-osm-relation-20414064"],"lifecycleCounts":{"operational":1},"locationPrecision":"exact","name":"Ingenio San Antonio","operatingCapacityCoverage":{"coveragePercent":0.0,"knownUnitCount":0,"method":"unavailable","totalUnitCount":0},"operatingCapacityMw":0.0,"operatingCapacityMwByTechnology":{},"plannedCapacityCoverage":{"coveragePercent":0.0,"knownUnitCount":0,"method":"unavailable","totalUnitCount":0},"plannedCapacityMw":0.0,"plannedCapacityMwByTechnology":{},"recordCount":1,"recordIds":["wattlas-record-osm-relation-20414064"],"sourceIds":["openstreetmap-power"],"sourceUrl":"https://www.openstreetmap.org/relation/20414064","technologies":["biomass"],"technologyMixMw":{"biomass":0.0},"unitCount":0,"unitIds":[]},"type":"Feature"},{"geometry":{"coordinates":[-86.279541,12.715172],"type":"Point"},"id":"wattlas-plant-wikidata-q16800446","properties":{"aliases":["Planta Eléctrica Carlos Fonseca"],"canonicalAnchor":"wikidata:Q16800446","canonicalCountryKey":"NI","capacityMw":50.0,"country":"NI","externalIds":{"osm":"way/329480756","wikidata":"Q16800446","wikipedia":"en:Virgen Dam"},"geographyId":"NI-94367503B41972548719200","id":"wattlas-plant-wikidata-q16800446","idAliases":["wattlas-plant-osm-way-329480756","wattlas-plant-wikipedia-en-virgen-dam"],"lifecycleCounts":{"operational":1},"locationPrecision":"exact","name":"Planta Eléctrica Carlos Fonseca","operatingCapacityCoverage":{"coveragePercent":100.0,"knownUnitCount":0,"method":"plant_aggregate","provenance":{"evidenceCount":0,"recordIds":["wattlas-record-osm-way-329480756"],"sourceIds":["openstreetmap-power"],"sourceTypes":["community_mapped"],"valueKind":"reported"},"totalUnitCount":0},"operatingCapacityMw":50.0,"operatingCapacityMwByTechnology":{"hydro":50.0},"plannedCapacityCoverage":{"coveragePercent":0.0,"knownUnitCount":0,"method":"unavailable","totalUnitCount":0},"plannedCapacityMw":0.0,"plannedCapacityMwByTechnology":{},"recordCount":1,"recordIds":["wattlas-record-osm-way-329480756"],"sourceIds":["openstreetmap-power"],"sourceUrl":"https://www.openstreetmap.org/way/329480756","technologies":["hydro"],"technologyMixMw":{"hydro":50.0},"unitCount":0,"unitIds":[]},"type":"Feature"}],"type":"FeatureCollection"}