{"features":[{"geometry":{"coordinates":[166.9325,-0.5425],"type":"Point"},"id":"wattlas-plant-gemplant-l100001020663","properties":{"aliases":["1.0","Nauru solar farm"],"canonicalAnchor":"gemplant:L100001020663","canonicalCountryKey":"NR","capacityMw":6.0,"country":"NR","externalIds":{"gemPlant":"L100001020663","gemUnit":"G100001023566"},"gemWikiUrl":"https://www.gem.wiki/Nauru_solar_farm","geographyId":"NR-42797286B38537109036861","id":"wattlas-plant-gemplant-l100001020663","lifecycleCounts":{"operational":1},"locationPrecision":"exact","name":"Nauru solar farm","operatingCapacityCoverage":{"coveragePercent":100.0,"knownUnitCount":1,"method":"complete_unit_sum","provenance":{"evidenceCount":0,"recordIds":["wattlas-record-gemunit-g100001023566"],"sourceIds":["gem-global-integrated-power-tracker"],"sourceTypes":["research_verified"],"valueKind":"reported"},"totalUnitCount":1},"operatingCapacityMw":6.0,"operatingCapacityMwByTechnology":{"solar":6.0},"plannedCapacityCoverage":{"coveragePercent":0.0,"knownUnitCount":0,"method":"unavailable","totalUnitCount":0},"plannedCapacityMw":0.0,"plannedCapacityMwByTechnology":{},"recordCount":1,"recordIds":["wattlas-record-gemunit-g100001023566"],"sourceIds":["gem-global-integrated-power-tracker"],"sourceUrl":"https://www.gem.wiki/Nauru_solar_farm","technologies":["solar"],"technologyMixMw":{"solar":6.0},"unitCount":1,"unitIds":["gem-unit-G100001023566"]},"type":"Feature"},{"geometry":{"coordinates":[166.932313,-0.543214],"type":"Point"},"id":"wattlas-plant-osm-way-1039290319","properties":{"aliases":["Mapped power plant · OSM 1039290319"],"canonicalAnchor":"osm:way/1039290319","canonicalCountryKey":"NR","capacityMw":6.0,"country":"NR","externalIds":{"osm":"way/1039290319"},"geographyId":"NR-42797286B38537109036861","id":"wattlas-plant-osm-way-1039290319","lifecycleCounts":{"operational":1},"locationPrecision":"exact","name":"Mapped power plant · OSM 1039290319","operatingCapacityCoverage":{"coveragePercent":100.0,"knownUnitCount":0,"method":"plant_aggregate","provenance":{"evidenceCount":0,"recordIds":["wattlas-record-osm-way-1039290319"],"sourceIds":["openstreetmap-power"],"sourceTypes":["community_mapped"],"valueKind":"reported"},"totalUnitCount":0},"operatingCapacityMw":6.0,"operatingCapacityMwByTechnology":{"solar":6.0},"plannedCapacityCoverage":{"coveragePercent":0.0,"knownUnitCount":0,"method":"unavailable","totalUnitCount":0},"plannedCapacityMw":0.0,"plannedCapacityMwByTechnology":{},"recordCount":1,"recordIds":["wattlas-record-osm-way-1039290319"],"sourceIds":["openstreetmap-power"],"sourceUrl":"https://www.openstreetmap.org/way/1039290319","technologies":["solar"],"technologyMixMw":{"solar":6.0},"unitCount":0,"unitIds":[]},"type":"Feature"}],"type":"FeatureCollection"}