{"features":[{"geometry":{"coordinates":[134.5358,7.4467],"type":"Point"},"id":"wattlas-plant-gemplant-l100001020665","properties":{"aliases":["1.0","Ngatpang solar farm"],"canonicalAnchor":"gemplant:L100001020665","canonicalCountryKey":"PW","capacityMw":15.3,"country":"PW","externalIds":{"gemPlant":"L100001020665","gemUnit":"G100001023570"},"gemWikiUrl":"https://www.gem.wiki/Ngatpang_solar_farm","geographyId":"PW-51375826B69298749218873","id":"wattlas-plant-gemplant-l100001020665","lifecycleCounts":{"operational":1},"locationPrecision":"exact","name":"Ngatpang solar farm","operatingCapacityCoverage":{"coveragePercent":100.0,"knownUnitCount":1,"method":"complete_unit_sum","provenance":{"evidenceCount":0,"recordIds":["wattlas-record-gemunit-g100001023570"],"sourceIds":["gem-global-integrated-power-tracker"],"sourceTypes":["research_verified"],"valueKind":"reported"},"totalUnitCount":1},"operatingCapacityMw":15.3,"operatingCapacityMwByTechnology":{"solar":15.3},"plannedCapacityCoverage":{"coveragePercent":0.0,"knownUnitCount":0,"method":"unavailable","totalUnitCount":0},"plannedCapacityMw":0.0,"plannedCapacityMwByTechnology":{},"recordCount":1,"recordIds":["wattlas-record-gemunit-g100001023570"],"sourceIds":["gem-global-integrated-power-tracker"],"sourceUrl":"https://www.gem.wiki/Ngatpang_solar_farm","technologies":["solar"],"technologyMixMw":{"solar":15.3},"unitCount":1,"unitIds":["gem-unit-G100001023570"]},"type":"Feature"}],"type":"FeatureCollection"}