{"features":[{"geometry":{"coordinates":[-54.5892,-25.4078],"type":"Point"},"id":"wattlas-plant-gemplant-l100000604073","properties":{"aliases":["Itaipu hydroelectric plant"],"canonicalAnchor":"gemplant:L100000604073","canonicalCountryKey":"PY","capacityMw":14000.0,"country":"PY","externalIds":{"gemPlant":"L100000604073","gemUnit":"G100000604112"},"gemWikiUrl":"https://www.gem.wiki/Itaipu_hydroelectric_plant","geographyId":"PY-63826900B70318852287741","id":"wattlas-plant-gemplant-l100000604073","lifecycleCounts":{"operational":1},"locationPrecision":"exact","name":"Itaipu hydroelectric plant","operatingCapacityCoverage":{"coveragePercent":100.0,"knownUnitCount":1,"method":"complete_unit_sum","provenance":{"evidenceCount":0,"recordIds":["wattlas-record-gemunit-g100000604112"],"sourceIds":["gem-global-integrated-power-tracker"],"sourceTypes":["research_verified"],"valueKind":"reported"},"totalUnitCount":1},"operatingCapacityMw":14000.0,"operatingCapacityMwByTechnology":{"hydro":14000.0},"plannedCapacityCoverage":{"coveragePercent":0.0,"knownUnitCount":0,"method":"unavailable","totalUnitCount":0},"plannedCapacityMw":0.0,"plannedCapacityMwByTechnology":{},"recordCount":1,"recordIds":["wattlas-record-gemunit-g100000604112"],"sourceIds":["gem-global-integrated-power-tracker"],"sourceUrl":"https://www.gem.wiki/Itaipu_hydroelectric_plant","technologies":["hydro"],"technologyMixMw":{"hydro":14000.0},"unitCount":1,"unitIds":["gem-unit-G100000604112"]},"type":"Feature"},{"geometry":{"coordinates":[-54.6289,-25.4591],"type":"Point"},"id":"wattlas-plant-gemplant-l100000604157","properties":{"aliases":["Acaray hydroelectric plant"],"canonicalAnchor":"gemplant:L100000604157","canonicalCountryKey":"PY","capacityMw":258.0,"country":"PY","externalIdAliases":{"gemUnit":["G100000604197","G100000604198"]},"externalIds":{"gemPlant":"L100000604157","gemUnit":"G100000604198"},"gemWikiUrl":"https://www.gem.wiki/Acaray_hydroelectric_plant","geographyId":"PY-63826900B70318852287741","id":"wattlas-plant-gemplant-l100000604157","lifecycleCounts":{"announced":1,"operational":1},"locationPrecision":"exact","name":"Acaray hydroelectric plant","operatingCapacityCoverage":{"coveragePercent":100.0,"knownUnitCount":1,"method":"complete_unit_sum","provenance":{"evidenceCount":0,"recordIds":["wattlas-record-gemunit-g100000604198"],"sourceIds":["gem-global-integrated-power-tracker"],"sourceTypes":["research_verified"],"valueKind":"reported"},"totalUnitCount":1},"operatingCapacityMw":210.0,"operatingCapacityMwByTechnology":{"hydro":210.0},"plannedCapacityCoverage":{"coveragePercent":100.0,"knownUnitCount":1,"method":"complete_unit_sum","provenance":{"evidenceCount":0,"recordIds":["wattlas-record-gemunit-g100000604197"],"sourceIds":["gem-global-integrated-power-tracker"],"sourceTypes":["research_verified"],"valueKind":"reported"},"totalUnitCount":1},"plannedCapacityMw":48.0,"plannedCapacityMwByTechnology":{"hydro":48.0},"recordCount":2,"recordIds":["wattlas-record-gemunit-g100000604197","wattlas-record-gemunit-g100000604198"],"sourceIds":["gem-global-integrated-power-tracker"],"sourceUrl":"https://www.gem.wiki/Acaray_hydroelectric_plant","technologies":["hydro"],"technologyMixMw":{"hydro":258.0},"unitCount":2,"unitIds":["gem-unit-G100000604197","gem-unit-G100000604198"]},"type":"Feature"},{"geometry":{"coordinates":[-57.4672,-25.1935],"type":"Point"},"id":"wattlas-plant-gemplant-l100000832615","properties":{"aliases":["--","Frigorífico Guaraní Self-Consumption solar farm"],"canonicalAnchor":"gemplant:L100000832615","canonicalCountryKey":"PY","capacityMw":1.0,"country":"PY","externalIds":{"gemPlant":"L100000832615","gemUnit":"G100000838200"},"gemWikiUrl":"https://www.gem.wiki/Frigorífico_Guaraní_Self-Consumption_solar_farm","geographyId":"PY-63826900B88193761383216","id":"wattlas-plant-gemplant-l100000832615","lifecycleCounts":{"operational":1},"locationPrecision":"exact","name":"Frigorífico Guaraní Self-Consumption solar farm","operatingCapacityCoverage":{"coveragePercent":100.0,"knownUnitCount":1,"method":"complete_unit_sum","provenance":{"evidenceCount":0,"recordIds":["wattlas-record-gemunit-g100000838200"],"sourceIds":["gem-global-integrated-power-tracker"],"sourceTypes":["research_verified"],"valueKind":"reported"},"totalUnitCount":1},"operatingCapacityMw":1.0,"operatingCapacityMwByTechnology":{"solar":1.0},"plannedCapacityCoverage":{"coveragePercent":0.0,"knownUnitCount":0,"method":"unavailable","totalUnitCount":0},"plannedCapacityMw":0.0,"plannedCapacityMwByTechnology":{},"recordCount":1,"recordIds":["wattlas-record-gemunit-g100000838200"],"sourceIds":["gem-global-integrated-power-tracker"],"sourceUrl":"https://www.gem.wiki/Frigorífico_Guaraní_Self-Consumption_solar_farm","technologies":["solar"],"technologyMixMw":{"solar":1.0},"unitCount":1,"unitIds":["gem-unit-G100000838200"]},"type":"Feature"},{"geometry":{"coordinates":[-59.6697,-23.0256],"type":"Point"},"id":"wattlas-plant-gemplant-l100001065135","properties":{"aliases":["--","Presidente Hayes solar project"],"canonicalAnchor":"gemplant:L100001065135","canonicalCountryKey":"PY","capacityMw":2.5,"country":"PY","externalIds":{"gemPlant":"L100001065135","gemUnit":"G100001074921"},"gemWikiUrl":"https://www.gem.wiki/Presidente_Hayes_solar_project","geographyId":"PY-63826900B99929286362746","id":"wattlas-plant-gemplant-l100001065135","lifecycleCounts":{"operational":1},"locationPrecision":"exact","name":"Presidente Hayes solar project","operatingCapacityCoverage":{"coveragePercent":100.0,"knownUnitCount":1,"method":"complete_unit_sum","provenance":{"evidenceCount":0,"recordIds":["wattlas-record-gemunit-g100001074921"],"sourceIds":["gem-global-integrated-power-tracker"],"sourceTypes":["research_verified"],"valueKind":"reported"},"totalUnitCount":1},"operatingCapacityMw":2.5,"operatingCapacityMwByTechnology":{"solar":2.5},"plannedCapacityCoverage":{"coveragePercent":0.0,"knownUnitCount":0,"method":"unavailable","totalUnitCount":0},"plannedCapacityMw":0.0,"plannedCapacityMwByTechnology":{},"recordCount":1,"recordIds":["wattlas-record-gemunit-g100001074921"],"sourceIds":["gem-global-integrated-power-tracker"],"sourceUrl":"https://www.gem.wiki/Presidente_Hayes_solar_project","technologies":["solar"],"technologyMixMw":{"solar":2.5},"unitCount":1,"unitIds":["gem-unit-G100001074921"]},"type":"Feature"},{"geometry":{"coordinates":[-55.906514,-27.356927],"type":"Point"},"id":"wattlas-plant-osm-way-143235323","properties":{"aliases":["Ex Usina Sulzer"],"canonicalAnchor":"osm:way/143235323","canonicalCountryKey":"PY","capacityMw":0.0,"country":"PY","externalIds":{"osm":"way/143235323"},"geographyId":"PY-63826900B60028824512427","id":"wattlas-plant-osm-way-143235323","lifecycleCounts":{"operational":1},"locationPrecision":"exact","name":"Ex Usina Sulzer","operatingCapacityCoverage":{"coveragePercent":0.0,"knownUnitCount":0,"method":"unavailable","totalUnitCount":0},"operatingCapacityMw":0.0,"operatingCapacityMwByTechnology":{},"plannedCapacityCoverage":{"coveragePercent":0.0,"knownUnitCount":0,"method":"unavailable","totalUnitCount":0},"plannedCapacityMw":0.0,"plannedCapacityMwByTechnology":{},"recordCount":1,"recordIds":["wattlas-record-osm-way-143235323"],"sourceIds":["openstreetmap-power"],"sourceUrl":"https://www.openstreetmap.org/way/143235323","technologies":["other"],"technologyMixMw":{"other":0.0},"unitCount":0,"unitIds":[]},"type":"Feature"},{"geometry":{"coordinates":[-54.612241,-25.411843],"type":"Point"},"id":"wattlas-plant-osm-way-1497605063","properties":{"aliases":["Mapped power plant · OSM 1497605063"],"canonicalAnchor":"osm:way/1497605063","canonicalCountryKey":"PY","capacityMw":1.1,"country":"PY","externalIds":{"osm":"way/1497605063"},"geographyId":"PY-63826900B70318852287741","id":"wattlas-plant-osm-way-1497605063","lifecycleCounts":{"operational":1},"locationPrecision":"exact","name":"Mapped power plant · OSM 1497605063","operatingCapacityCoverage":{"coveragePercent":100.0,"knownUnitCount":0,"method":"plant_aggregate","provenance":{"evidenceCount":0,"recordIds":["wattlas-record-osm-way-1497605063"],"sourceIds":["openstreetmap-power"],"sourceTypes":["community_mapped"],"valueKind":"reported"},"totalUnitCount":0},"operatingCapacityMw":1.1,"operatingCapacityMwByTechnology":{"solar":1.1},"plannedCapacityCoverage":{"coveragePercent":0.0,"knownUnitCount":0,"method":"unavailable","totalUnitCount":0},"plannedCapacityMw":0.0,"plannedCapacityMwByTechnology":{},"recordCount":1,"recordIds":["wattlas-record-osm-way-1497605063"],"sourceIds":["openstreetmap-power"],"sourceUrl":"https://www.openstreetmap.org/way/1497605063","technologies":["solar"],"technologyMixMw":{"solar":1.1},"unitCount":0,"unitIds":[]},"type":"Feature"},{"geometry":{"coordinates":[-54.622675,-25.459933],"type":"Point"},"id":"wattlas-plant-osm-way-262532170","properties":{"aliases":["Central hidroeléctrica Acaray"],"canonicalAnchor":"osm:way/262532170","canonicalCountryKey":"PY","capacityMw":210.0,"country":"PY","externalIds":{"osm":"way/262532170"},"geographyId":"PY-63826900B70318852287741","id":"wattlas-plant-osm-way-262532170","lifecycleCounts":{"operational":1},"locationPrecision":"exact","name":"Central hidroeléctrica Acaray","operatingCapacityCoverage":{"coveragePercent":100.0,"knownUnitCount":0,"method":"plant_aggregate","provenance":{"evidenceCount":0,"recordIds":["wattlas-record-osm-way-262532170"],"sourceIds":["openstreetmap-power"],"sourceTypes":["community_mapped"],"valueKind":"reported"},"totalUnitCount":0},"operatingCapacityMw":210.0,"operatingCapacityMwByTechnology":{"hydro":210.0},"plannedCapacityCoverage":{"coveragePercent":0.0,"knownUnitCount":0,"method":"unavailable","totalUnitCount":0},"plannedCapacityMw":0.0,"plannedCapacityMwByTechnology":{},"recordCount":1,"recordIds":["wattlas-record-osm-way-262532170"],"sourceIds":["openstreetmap-power"],"sourceUrl":"https://www.openstreetmap.org/way/262532170","technologies":["hydro"],"technologyMixMw":{"hydro":210.0},"unitCount":0,"unitIds":[]},"type":"Feature"},{"geometry":{"coordinates":[-54.965584,-25.375275],"type":"Point"},"id":"wattlas-plant-wikidata-q5760708","properties":{"aliases":["Represa Yguazú"],"canonicalAnchor":"wikidata:Q5760708","canonicalCountryKey":"PY","capacityMw":0.0,"country":"PY","externalIds":{"osm":"way/262420198","wikidata":"Q5760708"},"geographyId":"PY-63826900B70318852287741","id":"wattlas-plant-wikidata-q5760708","idAliases":["wattlas-plant-osm-way-262420198"],"lifecycleCounts":{"operational":1},"locationPrecision":"exact","name":"Represa Yguazú","operatingCapacityCoverage":{"coveragePercent":0.0,"knownUnitCount":0,"method":"unavailable","totalUnitCount":0},"operatingCapacityMw":0.0,"operatingCapacityMwByTechnology":{},"plannedCapacityCoverage":{"coveragePercent":0.0,"knownUnitCount":0,"method":"unavailable","totalUnitCount":0},"plannedCapacityMw":0.0,"plannedCapacityMwByTechnology":{},"recordCount":1,"recordIds":["wattlas-record-osm-way-262420198"],"sourceIds":["openstreetmap-power"],"sourceUrl":"https://www.openstreetmap.org/way/262420198","technologies":["hydro"],"technologyMixMw":{"hydro":0.0},"unitCount":0,"unitIds":[]},"type":"Feature"}],"type":"FeatureCollection"}