{"features":[{"geometry":{"coordinates":[30.07425,-1.88248],"type":"Point"},"id":"wattlas-plant-gemplant-l100000409061","properties":{"aliases":["1-1","2-1","Jabana Thermal power plant"],"canonicalAnchor":"gemplant:L100000409061","canonicalCountryKey":"RW","capacityMw":28.8,"country":"RW","externalIdAliases":{"gemUnit":["G100000413512","G100000413513"]},"externalIds":{"gemPlant":"L100000409061","gemUnit":"G100000413512"},"gemWikiUrl":"https://www.gem.wiki/Jabana_Thermal_power_plant","geographyId":"RW-91480417B22690809677968","id":"wattlas-plant-gemplant-l100000409061","lifecycleCounts":{"operational":2},"locationPrecision":"exact","name":"Jabana Thermal power plant","operatingCapacityCoverage":{"coveragePercent":100.0,"knownUnitCount":2,"method":"complete_unit_sum","provenance":{"evidenceCount":0,"recordIds":["wattlas-record-gemunit-g100000413512","wattlas-record-gemunit-g100000413513"],"sourceIds":["gem-global-integrated-power-tracker"],"sourceTypes":["research_verified"],"valueKind":"reported"},"totalUnitCount":2},"operatingCapacityMw":28.8,"operatingCapacityMwByTechnology":{"gas":28.8},"plannedCapacityCoverage":{"coveragePercent":0.0,"knownUnitCount":0,"method":"unavailable","totalUnitCount":0},"plannedCapacityMw":0.0,"plannedCapacityMwByTechnology":{},"recordCount":2,"recordIds":["wattlas-record-gemunit-g100000413512","wattlas-record-gemunit-g100000413513"],"sourceIds":["gem-global-integrated-power-tracker"],"sourceUrl":"https://www.gem.wiki/Jabana_Thermal_power_plant","technologies":["gas"],"technologyMixMw":{"gas":28.8},"unitCount":2,"unitIds":["gem-unit-G100000413512","gem-unit-G100000413513"]},"type":"Feature"},{"geometry":{"coordinates":[29.3482,-2.0597],"type":"Point"},"id":"wattlas-plant-gemplant-l100000409070","properties":{"aliases":["1-1","2-1","Kivuwatt power plant"],"canonicalAnchor":"gemplant:L100000409070","canonicalCountryKey":"RW","capacityMw":98.1,"country":"RW","externalIdAliases":{"gemUnit":["G100000413510","G100000413511"]},"externalIds":{"gemPlant":"L100000409070","gemUnit":"G100000413510"},"gemWikiUrl":"https://www.gem.wiki/Kivuwatt_power_plant","geographyId":"RW-91480417B44016762519517","id":"wattlas-plant-gemplant-l100000409070","lifecycleCounts":{"announced":1,"operational":1},"locationPrecision":"exact","name":"Kivuwatt power plant","operatingCapacityCoverage":{"coveragePercent":100.0,"knownUnitCount":1,"method":"complete_unit_sum","provenance":{"evidenceCount":0,"recordIds":["wattlas-record-gemunit-g100000413511"],"sourceIds":["gem-global-integrated-power-tracker"],"sourceTypes":["research_verified"],"valueKind":"reported"},"totalUnitCount":1},"operatingCapacityMw":26.1,"operatingCapacityMwByTechnology":{"gas":26.1},"plannedCapacityCoverage":{"coveragePercent":100.0,"knownUnitCount":1,"method":"complete_unit_sum","provenance":{"evidenceCount":0,"recordIds":["wattlas-record-gemunit-g100000413510"],"sourceIds":["gem-global-integrated-power-tracker"],"sourceTypes":["research_verified"],"valueKind":"reported"},"totalUnitCount":1},"plannedCapacityMw":72.0,"plannedCapacityMwByTechnology":{"gas":72.0},"recordCount":2,"recordIds":["wattlas-record-gemunit-g100000413510","wattlas-record-gemunit-g100000413511"],"sourceIds":["gem-global-integrated-power-tracker"],"sourceUrl":"https://www.gem.wiki/Kivuwatt_power_plant","technologies":["gas"],"technologyMixMw":{"gas":98.1},"unitCount":2,"unitIds":["gem-unit-G100000413510","gem-unit-G100000413511"]},"type":"Feature"},{"geometry":{"coordinates":[30.377,-2.0266],"type":"Point"},"id":"wattlas-plant-gemplant-l100000827720","properties":{"aliases":["--","Rwamagana solar project"],"canonicalAnchor":"gemplant:L100000827720","canonicalCountryKey":"RW","capacityMw":8.3,"country":"RW","externalIds":{"gemPlant":"L100000827720","gemUnit":"G100000831266"},"gemWikiUrl":"https://www.gem.wiki/Agahozo_solar_project","geographyId":"RW-91480417B20985019767017","id":"wattlas-plant-gemplant-l100000827720","lifecycleCounts":{"operational":1},"locationPrecision":"exact","name":"Rwamagana solar project","operatingCapacityCoverage":{"coveragePercent":100.0,"knownUnitCount":1,"method":"complete_unit_sum","provenance":{"evidenceCount":0,"recordIds":["wattlas-record-gemunit-g100000831266"],"sourceIds":["gem-global-integrated-power-tracker"],"sourceTypes":["research_verified"],"valueKind":"reported"},"totalUnitCount":1},"operatingCapacityMw":8.3,"operatingCapacityMwByTechnology":{"solar":8.3},"plannedCapacityCoverage":{"coveragePercent":0.0,"knownUnitCount":0,"method":"unavailable","totalUnitCount":0},"plannedCapacityMw":0.0,"plannedCapacityMwByTechnology":{},"recordCount":1,"recordIds":["wattlas-record-gemunit-g100000831266"],"sourceIds":["gem-global-integrated-power-tracker"],"sourceUrl":"https://www.gem.wiki/Agahozo_solar_project","technologies":["solar"],"technologyMixMw":{"solar":8.3},"unitCount":1,"unitIds":["gem-unit-G100000831266"]},"type":"Feature"},{"geometry":{"coordinates":[30.7452,-2.0971],"type":"Point"},"id":"wattlas-plant-gemplant-l100001019333","properties":{"aliases":["--","Nasho solar farm"],"canonicalAnchor":"gemplant:L100001019333","canonicalCountryKey":"RW","capacityMw":3.3,"country":"RW","externalIds":{"gemPlant":"L100001019333","gemUnit":"G100001021828"},"gemWikiUrl":"https://www.gem.wiki/Nasho_solar_farm","geographyId":"RW-91480417B20985019767017","id":"wattlas-plant-gemplant-l100001019333","lifecycleCounts":{"operational":1},"locationPrecision":"exact","name":"Nasho solar farm","operatingCapacityCoverage":{"coveragePercent":100.0,"knownUnitCount":1,"method":"complete_unit_sum","provenance":{"evidenceCount":0,"recordIds":["wattlas-record-gemunit-g100001021828"],"sourceIds":["gem-global-integrated-power-tracker"],"sourceTypes":["research_verified"],"valueKind":"reported"},"totalUnitCount":1},"operatingCapacityMw":3.3,"operatingCapacityMwByTechnology":{"solar":3.3},"plannedCapacityCoverage":{"coveragePercent":0.0,"knownUnitCount":0,"method":"unavailable","totalUnitCount":0},"plannedCapacityMw":0.0,"plannedCapacityMwByTechnology":{},"recordCount":1,"recordIds":["wattlas-record-gemunit-g100001021828"],"sourceIds":["gem-global-integrated-power-tracker"],"sourceUrl":"https://www.gem.wiki/Nasho_solar_farm","technologies":["solar"],"technologyMixMw":{"solar":3.3},"unitCount":1,"unitIds":["gem-unit-G100001021828"]},"type":"Feature"},{"geometry":{"coordinates":[30.2619,-2.2757],"type":"Point"},"id":"wattlas-plant-gemplant-l100001020949","properties":{"aliases":["--","Bugesera District solar project"],"canonicalAnchor":"gemplant:L100001020949","canonicalCountryKey":"RW","capacityMw":2.3,"country":"RW","externalIds":{"gemPlant":"L100001020949","gemUnit":"G100001023918"},"gemWikiUrl":"https://www.gem.wiki/Bugesera_District_solar_project","geographyId":"RW-91480417B20985019767017","id":"wattlas-plant-gemplant-l100001020949","lifecycleCounts":{"operational":1},"locationPrecision":"exact","name":"Bugesera District solar project","operatingCapacityCoverage":{"coveragePercent":100.0,"knownUnitCount":1,"method":"complete_unit_sum","provenance":{"evidenceCount":0,"recordIds":["wattlas-record-gemunit-g100001023918"],"sourceIds":["gem-global-integrated-power-tracker"],"sourceTypes":["research_verified"],"valueKind":"reported"},"totalUnitCount":1},"operatingCapacityMw":2.3,"operatingCapacityMwByTechnology":{"solar":2.3},"plannedCapacityCoverage":{"coveragePercent":0.0,"knownUnitCount":0,"method":"unavailable","totalUnitCount":0},"plannedCapacityMw":0.0,"plannedCapacityMwByTechnology":{},"recordCount":1,"recordIds":["wattlas-record-gemunit-g100001023918"],"sourceIds":["gem-global-integrated-power-tracker"],"sourceUrl":"https://www.gem.wiki/Bugesera_District_solar_project","technologies":["solar"],"technologyMixMw":{"solar":2.3},"unitCount":1,"unitIds":["gem-unit-G100001023918"]},"type":"Feature"},{"geometry":{"coordinates":[29.624292,-1.67282],"type":"Point"},"id":"wattlas-plant-osm-way-1059059387","properties":{"aliases":["Giciye III Hydropower Plant"],"canonicalAnchor":"osm:way/1059059387","canonicalCountryKey":"RW","capacityMw":9.8,"country":"RW","externalIds":{"osm":"way/1059059387"},"geographyId":"RW-91480417B44016762519517","id":"wattlas-plant-osm-way-1059059387","lifecycleCounts":{"operational":1},"locationPrecision":"exact","name":"Giciye III Hydropower Plant","operatingCapacityCoverage":{"coveragePercent":100.0,"knownUnitCount":0,"method":"plant_aggregate","provenance":{"evidenceCount":0,"recordIds":["wattlas-record-osm-way-1059059387"],"sourceIds":["openstreetmap-power"],"sourceTypes":["community_mapped"],"valueKind":"reported"},"totalUnitCount":0},"operatingCapacityMw":9.8,"operatingCapacityMwByTechnology":{"hydro":9.8},"plannedCapacityCoverage":{"coveragePercent":0.0,"knownUnitCount":0,"method":"unavailable","totalUnitCount":0},"plannedCapacityMw":0.0,"plannedCapacityMwByTechnology":{},"recordCount":1,"recordIds":["wattlas-record-osm-way-1059059387"],"sourceIds":["openstreetmap-power"],"sourceUrl":"https://www.openstreetmap.org/way/1059059387","technologies":["hydro"],"technologyMixMw":{"hydro":9.8},"unitCount":0,"unitIds":[]},"type":"Feature"},{"geometry":{"coordinates":[29.647299,-1.564925],"type":"Point"},"id":"wattlas-plant-osm-way-1171110021","properties":{"aliases":["Rwanza"],"canonicalAnchor":"osm:way/1171110021","canonicalCountryKey":"RW","capacityMw":2.6,"country":"RW","externalIds":{"osm":"way/1171110021"},"geographyId":"RW-91480417B74917756285357","id":"wattlas-plant-osm-way-1171110021","lifecycleCounts":{"operational":1},"locationPrecision":"exact","name":"Rwanza","operatingCapacityCoverage":{"coveragePercent":100.0,"knownUnitCount":0,"method":"plant_aggregate","provenance":{"evidenceCount":0,"recordIds":["wattlas-record-osm-way-1171110021"],"sourceIds":["openstreetmap-power"],"sourceTypes":["community_mapped"],"valueKind":"reported"},"totalUnitCount":0},"operatingCapacityMw":2.6,"operatingCapacityMwByTechnology":{"hydro":2.6},"plannedCapacityCoverage":{"coveragePercent":0.0,"knownUnitCount":0,"method":"unavailable","totalUnitCount":0},"plannedCapacityMw":0.0,"plannedCapacityMwByTechnology":{},"recordCount":1,"recordIds":["wattlas-record-osm-way-1171110021"],"sourceIds":["openstreetmap-power"],"sourceUrl":"https://www.openstreetmap.org/way/1171110021","technologies":["hydro"],"technologyMixMw":{"hydro":2.6},"unitCount":0,"unitIds":[]},"type":"Feature"},{"geometry":{"coordinates":[29.435631,-2.459412],"type":"Point"},"id":"wattlas-plant-osm-way-1202061859","properties":{"aliases":["Rukarara II Hydroelectric Plant"],"canonicalAnchor":"osm:way/1202061859","canonicalCountryKey":"RW","capacityMw":5.0,"country":"RW","externalIds":{"osm":"way/1202061859"},"geographyId":"RW-91480417B18399648061901","id":"wattlas-plant-osm-way-1202061859","lifecycleCounts":{"operational":1},"locationPrecision":"exact","name":"Rukarara II Hydroelectric Plant","operatingCapacityCoverage":{"coveragePercent":100.0,"knownUnitCount":0,"method":"plant_aggregate","provenance":{"evidenceCount":0,"recordIds":["wattlas-record-osm-way-1202061859"],"sourceIds":["openstreetmap-power"],"sourceTypes":["community_mapped"],"valueKind":"reported"},"totalUnitCount":0},"operatingCapacityMw":5.0,"operatingCapacityMwByTechnology":{"hydro":5.0},"plannedCapacityCoverage":{"coveragePercent":0.0,"knownUnitCount":0,"method":"unavailable","totalUnitCount":0},"plannedCapacityMw":0.0,"plannedCapacityMwByTechnology":{},"recordCount":1,"recordIds":["wattlas-record-osm-way-1202061859"],"sourceIds":["openstreetmap-power"],"sourceUrl":"https://www.openstreetmap.org/way/1202061859","technologies":["hydro"],"technologyMixMw":{"hydro":5.0},"unitCount":0,"unitIds":[]},"type":"Feature"},{"geometry":{"coordinates":[29.582179,-1.522104],"type":"Point"},"id":"wattlas-plant-osm-way-1245585912","properties":{"aliases":["Mutobo Mini Hydro Electric Plant"],"canonicalAnchor":"osm:way/1245585912","canonicalCountryKey":"RW","capacityMw":0.0,"country":"RW","externalIds":{"osm":"way/1245585912"},"geographyId":"RW-91480417B74917756285357","id":"wattlas-plant-osm-way-1245585912","lifecycleCounts":{"operational":1},"locationPrecision":"exact","name":"Mutobo Mini Hydro Electric Plant","operatingCapacityCoverage":{"coveragePercent":0.0,"knownUnitCount":0,"method":"unavailable","totalUnitCount":0},"operatingCapacityMw":0.0,"operatingCapacityMwByTechnology":{},"plannedCapacityCoverage":{"coveragePercent":0.0,"knownUnitCount":0,"method":"unavailable","totalUnitCount":0},"plannedCapacityMw":0.0,"plannedCapacityMwByTechnology":{},"recordCount":1,"recordIds":["wattlas-record-osm-way-1245585912"],"sourceIds":["openstreetmap-power"],"sourceUrl":"https://www.openstreetmap.org/way/1245585912","technologies":["hydro"],"technologyMixMw":{"hydro":0.0},"unitCount":0,"unitIds":[]},"type":"Feature"},{"geometry":{"coordinates":[29.275924,-1.759466],"type":"Point"},"id":"wattlas-plant-osm-way-1453183806","properties":{"aliases":["Kivu 56"],"canonicalAnchor":"osm:way/1453183806","canonicalCountryKey":"RW","capacityMw":56.0,"country":"RW","externalIds":{"osm":"way/1453183806"},"geographyId":"RW-91480417B44016762519517","id":"wattlas-plant-osm-way-1453183806","lifecycleCounts":{"operational":1},"locationPrecision":"exact","name":"Kivu 56","operatingCapacityCoverage":{"coveragePercent":100.0,"knownUnitCount":0,"method":"plant_aggregate","provenance":{"evidenceCount":0,"recordIds":["wattlas-record-osm-way-1453183806"],"sourceIds":["openstreetmap-power"],"sourceTypes":["community_mapped"],"valueKind":"reported"},"totalUnitCount":0},"operatingCapacityMw":56.0,"operatingCapacityMwByTechnology":{"gas":56.0},"plannedCapacityCoverage":{"coveragePercent":0.0,"knownUnitCount":0,"method":"unavailable","totalUnitCount":0},"plannedCapacityMw":0.0,"plannedCapacityMwByTechnology":{},"recordCount":1,"recordIds":["wattlas-record-osm-way-1453183806"],"sourceIds":["openstreetmap-power"],"sourceUrl":"https://www.openstreetmap.org/way/1453183806","technologies":["gas"],"technologyMixMw":{"gas":56.0},"unitCount":0,"unitIds":[]},"type":"Feature"},{"geometry":{"coordinates":[29.828236,-1.421737],"type":"Point"},"id":"wattlas-plant-osm-way-697005696","properties":{"aliases":["Rugezi Hydro Power Plant"],"canonicalAnchor":"osm:way/697005696","canonicalCountryKey":"RW","capacityMw":2.2,"country":"RW","externalIds":{"osm":"way/697005696"},"geographyId":"RW-91480417B74917756285357","id":"wattlas-plant-osm-way-697005696","lifecycleCounts":{"operational":1},"locationPrecision":"exact","name":"Rugezi Hydro Power Plant","operatingCapacityCoverage":{"coveragePercent":100.0,"knownUnitCount":0,"method":"plant_aggregate","provenance":{"evidenceCount":0,"recordIds":["wattlas-record-osm-way-697005696"],"sourceIds":["openstreetmap-power"],"sourceTypes":["community_mapped"],"valueKind":"reported"},"totalUnitCount":0},"operatingCapacityMw":2.2,"operatingCapacityMwByTechnology":{"hydro":2.2},"plannedCapacityCoverage":{"coveragePercent":0.0,"knownUnitCount":0,"method":"unavailable","totalUnitCount":0},"plannedCapacityMw":0.0,"plannedCapacityMwByTechnology":{},"recordCount":1,"recordIds":["wattlas-record-osm-way-697005696"],"sourceIds":["openstreetmap-power"],"sourceUrl":"https://www.openstreetmap.org/way/697005696","technologies":["hydro"],"technologyMixMw":{"hydro":2.2},"unitCount":0,"unitIds":[]},"type":"Feature"},{"geometry":{"coordinates":[29.65507,-1.581786],"type":"Point"},"id":"wattlas-plant-osm-way-697005711","properties":{"aliases":["Mukungwa II Hydro Power Plant"],"canonicalAnchor":"osm:way/697005711","canonicalCountryKey":"RW","capacityMw":2.5,"country":"RW","externalIds":{"osm":"way/697005711"},"geographyId":"RW-91480417B74917756285357","id":"wattlas-plant-osm-way-697005711","lifecycleCounts":{"operational":1},"locationPrecision":"exact","name":"Mukungwa II Hydro Power Plant","operatingCapacityCoverage":{"coveragePercent":100.0,"knownUnitCount":0,"method":"plant_aggregate","provenance":{"evidenceCount":0,"recordIds":["wattlas-record-osm-way-697005711"],"sourceIds":["openstreetmap-power"],"sourceTypes":["community_mapped"],"valueKind":"reported"},"totalUnitCount":0},"operatingCapacityMw":2.5,"operatingCapacityMwByTechnology":{"hydro":2.5},"plannedCapacityCoverage":{"coveragePercent":0.0,"knownUnitCount":0,"method":"unavailable","totalUnitCount":0},"plannedCapacityMw":0.0,"plannedCapacityMwByTechnology":{},"recordCount":1,"recordIds":["wattlas-record-osm-way-697005711"],"sourceIds":["openstreetmap-power"],"sourceUrl":"https://www.openstreetmap.org/way/697005711","technologies":["hydro"],"technologyMixMw":{"hydro":2.5},"unitCount":0,"unitIds":[]},"type":"Feature"},{"geometry":{"coordinates":[29.495815,-2.441094],"type":"Point"},"id":"wattlas-plant-osm-way-697185217","properties":{"aliases":["Rukarara I Hydroelectric Plant"],"canonicalAnchor":"osm:way/697185217","canonicalCountryKey":"RW","capacityMw":9.5,"country":"RW","externalIds":{"osm":"way/697185217"},"geographyId":"RW-91480417B18399648061901","id":"wattlas-plant-osm-way-697185217","lifecycleCounts":{"operational":1},"locationPrecision":"exact","name":"Rukarara I Hydroelectric Plant","operatingCapacityCoverage":{"coveragePercent":100.0,"knownUnitCount":0,"method":"plant_aggregate","provenance":{"evidenceCount":0,"recordIds":["wattlas-record-osm-way-697185217"],"sourceIds":["openstreetmap-power"],"sourceTypes":["community_mapped"],"valueKind":"reported"},"totalUnitCount":0},"operatingCapacityMw":9.5,"operatingCapacityMwByTechnology":{"hydro":9.5},"plannedCapacityCoverage":{"coveragePercent":0.0,"knownUnitCount":0,"method":"unavailable","totalUnitCount":0},"plannedCapacityMw":0.0,"plannedCapacityMwByTechnology":{},"recordCount":1,"recordIds":["wattlas-record-osm-way-697185217"],"sourceIds":["openstreetmap-power"],"sourceUrl":"https://www.openstreetmap.org/way/697185217","technologies":["hydro"],"technologyMixMw":{"hydro":9.5},"unitCount":0,"unitIds":[]},"type":"Feature"},{"geometry":{"coordinates":[29.312745,-1.704735],"type":"Point"},"id":"wattlas-plant-osm-way-697629020","properties":{"aliases":["Keya Hydro Power Plant"],"canonicalAnchor":"osm:way/697629020","canonicalCountryKey":"RW","capacityMw":2.2,"country":"RW","externalIds":{"osm":"way/697629020"},"geographyId":"RW-91480417B44016762519517","id":"wattlas-plant-osm-way-697629020","lifecycleCounts":{"operational":1},"locationPrecision":"exact","name":"Keya Hydro Power Plant","operatingCapacityCoverage":{"coveragePercent":100.0,"knownUnitCount":0,"method":"plant_aggregate","provenance":{"evidenceCount":0,"recordIds":["wattlas-record-osm-way-697629020"],"sourceIds":["openstreetmap-power"],"sourceTypes":["community_mapped"],"valueKind":"reported"},"totalUnitCount":0},"operatingCapacityMw":2.2,"operatingCapacityMwByTechnology":{"hydro":2.2},"plannedCapacityCoverage":{"coveragePercent":0.0,"knownUnitCount":0,"method":"unavailable","totalUnitCount":0},"plannedCapacityMw":0.0,"plannedCapacityMwByTechnology":{},"recordCount":1,"recordIds":["wattlas-record-osm-way-697629020"],"sourceIds":["openstreetmap-power"],"sourceUrl":"https://www.openstreetmap.org/way/697629020","technologies":["hydro"],"technologyMixMw":{"hydro":2.2},"unitCount":0,"unitIds":[]},"type":"Feature"},{"geometry":{"coordinates":[29.590595,-1.669028],"type":"Point"},"id":"wattlas-plant-osm-way-697814222","properties":{"aliases":["Giciye II Hydro Power Plant"],"canonicalAnchor":"osm:way/697814222","canonicalCountryKey":"RW","capacityMw":4.0,"country":"RW","externalIds":{"osm":"way/697814222"},"geographyId":"RW-91480417B44016762519517","id":"wattlas-plant-osm-way-697814222","lifecycleCounts":{"operational":1},"locationPrecision":"exact","name":"Giciye II Hydro Power Plant","operatingCapacityCoverage":{"coveragePercent":100.0,"knownUnitCount":0,"method":"plant_aggregate","provenance":{"evidenceCount":0,"recordIds":["wattlas-record-osm-way-697814222"],"sourceIds":["openstreetmap-power"],"sourceTypes":["community_mapped"],"valueKind":"reported"},"totalUnitCount":0},"operatingCapacityMw":4.0,"operatingCapacityMwByTechnology":{"hydro":4.0},"plannedCapacityCoverage":{"coveragePercent":0.0,"knownUnitCount":0,"method":"unavailable","totalUnitCount":0},"plannedCapacityMw":0.0,"plannedCapacityMwByTechnology":{},"recordCount":1,"recordIds":["wattlas-record-osm-way-697814222"],"sourceIds":["openstreetmap-power"],"sourceUrl":"https://www.openstreetmap.org/way/697814222","technologies":["hydro"],"technologyMixMw":{"hydro":4.0},"unitCount":0,"unitIds":[]},"type":"Feature"},{"geometry":{"coordinates":[29.573692,-1.687539],"type":"Point"},"id":"wattlas-plant-osm-way-697814228","properties":{"aliases":["Giciye I Hydro Power Plant"],"canonicalAnchor":"osm:way/697814228","canonicalCountryKey":"RW","capacityMw":4.0,"country":"RW","externalIds":{"osm":"way/697814228"},"geographyId":"RW-91480417B44016762519517","id":"wattlas-plant-osm-way-697814228","lifecycleCounts":{"operational":1},"locationPrecision":"exact","name":"Giciye I Hydro Power Plant","operatingCapacityCoverage":{"coveragePercent":100.0,"knownUnitCount":0,"method":"plant_aggregate","provenance":{"evidenceCount":0,"recordIds":["wattlas-record-osm-way-697814228"],"sourceIds":["openstreetmap-power"],"sourceTypes":["community_mapped"],"valueKind":"reported"},"totalUnitCount":0},"operatingCapacityMw":4.0,"operatingCapacityMwByTechnology":{"hydro":4.0},"plannedCapacityCoverage":{"coveragePercent":0.0,"knownUnitCount":0,"method":"unavailable","totalUnitCount":0},"plannedCapacityMw":0.0,"plannedCapacityMwByTechnology":{},"recordCount":1,"recordIds":["wattlas-record-osm-way-697814228"],"sourceIds":["openstreetmap-power"],"sourceUrl":"https://www.openstreetmap.org/way/697814228","technologies":["hydro"],"technologyMixMw":{"hydro":4.0},"unitCount":0,"unitIds":[]},"type":"Feature"},{"geometry":{"coordinates":[30.074246,-1.882478],"type":"Point"},"id":"wattlas-plant-osm-way-697829861","properties":{"aliases":["Jabana I & II Thermal Power Plant"],"canonicalAnchor":"osm:way/697829861","canonicalCountryKey":"RW","capacityMw":27.8,"country":"RW","externalIds":{"osm":"way/697829861"},"geographyId":"RW-91480417B22690809677968","id":"wattlas-plant-osm-way-697829861","lifecycleCounts":{"operational":1},"locationPrecision":"exact","name":"Jabana I & II Thermal Power Plant","operatingCapacityCoverage":{"coveragePercent":100.0,"knownUnitCount":0,"method":"plant_aggregate","provenance":{"evidenceCount":0,"recordIds":["wattlas-record-osm-way-697829861"],"sourceIds":["openstreetmap-power"],"sourceTypes":["community_mapped"],"valueKind":"reported"},"totalUnitCount":0},"operatingCapacityMw":27.8,"operatingCapacityMwByTechnology":{"oil":27.8},"plannedCapacityCoverage":{"coveragePercent":0.0,"knownUnitCount":0,"method":"unavailable","totalUnitCount":0},"plannedCapacityMw":0.0,"plannedCapacityMwByTechnology":{},"recordCount":1,"recordIds":["wattlas-record-osm-way-697829861"],"sourceIds":["openstreetmap-power"],"sourceUrl":"https://www.openstreetmap.org/way/697829861","technologies":["oil"],"technologyMixMw":{"oil":27.8},"unitCount":0,"unitIds":[]},"type":"Feature"},{"geometry":{"coordinates":[30.745113,-2.09783],"type":"Point"},"id":"wattlas-plant-osm-way-847819732","properties":{"aliases":["Nasho Power"],"canonicalAnchor":"osm:way/847819732","canonicalCountryKey":"RW","capacityMw":3.3,"country":"RW","externalIds":{"osm":"way/847819732"},"geographyId":"RW-91480417B20985019767017","id":"wattlas-plant-osm-way-847819732","lifecycleCounts":{"operational":1},"locationPrecision":"exact","name":"Nasho Power","operatingCapacityCoverage":{"coveragePercent":100.0,"knownUnitCount":0,"method":"plant_aggregate","provenance":{"evidenceCount":0,"recordIds":["wattlas-record-osm-way-847819732"],"sourceIds":["openstreetmap-power"],"sourceTypes":["community_mapped"],"valueKind":"reported"},"totalUnitCount":0},"operatingCapacityMw":3.3,"operatingCapacityMwByTechnology":{"solar":3.3},"plannedCapacityCoverage":{"coveragePercent":0.0,"knownUnitCount":0,"method":"unavailable","totalUnitCount":0},"plannedCapacityMw":0.0,"plannedCapacityMwByTechnology":{},"recordCount":1,"recordIds":["wattlas-record-osm-way-847819732"],"sourceIds":["openstreetmap-power"],"sourceUrl":"https://www.openstreetmap.org/way/847819732","technologies":["solar"],"technologyMixMw":{"solar":3.3},"unitCount":0,"unitIds":[]},"type":"Feature"},{"geometry":{"coordinates":[30.125982,-1.907211],"type":"Point"},"id":"wattlas-plant-osm-way-847819733","properties":{"aliases":["SoEnergy"],"canonicalAnchor":"osm:way/847819733","canonicalCountryKey":"RW","capacityMw":10.0,"country":"RW","externalIds":{"osm":"way/847819733"},"geographyId":"RW-91480417B22690809677968","id":"wattlas-plant-osm-way-847819733","lifecycleCounts":{"operational":1},"locationPrecision":"exact","name":"SoEnergy","operatingCapacityCoverage":{"coveragePercent":100.0,"knownUnitCount":0,"method":"plant_aggregate","provenance":{"evidenceCount":0,"recordIds":["wattlas-record-osm-way-847819733"],"sourceIds":["openstreetmap-power"],"sourceTypes":["community_mapped"],"valueKind":"reported"},"totalUnitCount":0},"operatingCapacityMw":10.0,"operatingCapacityMwByTechnology":{"oil":10.0},"plannedCapacityCoverage":{"coveragePercent":0.0,"knownUnitCount":0,"method":"unavailable","totalUnitCount":0},"plannedCapacityMw":0.0,"plannedCapacityMwByTechnology":{},"recordCount":1,"recordIds":["wattlas-record-osm-way-847819733"],"sourceIds":["openstreetmap-power"],"sourceUrl":"https://www.openstreetmap.org/way/847819733","technologies":["oil"],"technologyMixMw":{"oil":10.0},"unitCount":0,"unitIds":[]},"type":"Feature"},{"geometry":{"coordinates":[30.149584,-1.933301],"type":"Point"},"id":"wattlas-plant-osm-way-847819734","properties":{"aliases":["SoEnergy"],"canonicalAnchor":"osm:way/847819734","canonicalCountryKey":"RW","capacityMw":10.0,"country":"RW","externalIds":{"osm":"way/847819734"},"geographyId":"RW-91480417B22690809677968","id":"wattlas-plant-osm-way-847819734","lifecycleCounts":{"operational":1},"locationPrecision":"exact","name":"SoEnergy","operatingCapacityCoverage":{"coveragePercent":100.0,"knownUnitCount":0,"method":"plant_aggregate","provenance":{"evidenceCount":0,"recordIds":["wattlas-record-osm-way-847819734"],"sourceIds":["openstreetmap-power"],"sourceTypes":["community_mapped"],"valueKind":"reported"},"totalUnitCount":0},"operatingCapacityMw":10.0,"operatingCapacityMwByTechnology":{"oil":10.0},"plannedCapacityCoverage":{"coveragePercent":0.0,"knownUnitCount":0,"method":"unavailable","totalUnitCount":0},"plannedCapacityMw":0.0,"plannedCapacityMwByTechnology":{},"recordCount":1,"recordIds":["wattlas-record-osm-way-847819734"],"sourceIds":["openstreetmap-power"],"sourceUrl":"https://www.openstreetmap.org/way/847819734","technologies":["oil"],"technologyMixMw":{"oil":10.0},"unitCount":0,"unitIds":[]},"type":"Feature"},{"geometry":{"coordinates":[29.681938,-1.536848],"type":"Point"},"id":"wattlas-plant-osm-way-847819735","properties":{"aliases":["SoEnergy"],"canonicalAnchor":"osm:way/847819735","canonicalCountryKey":"RW","capacityMw":10.0,"country":"RW","externalIds":{"osm":"way/847819735"},"geographyId":"RW-91480417B74917756285357","id":"wattlas-plant-osm-way-847819735","lifecycleCounts":{"operational":1},"locationPrecision":"exact","name":"SoEnergy","operatingCapacityCoverage":{"coveragePercent":100.0,"knownUnitCount":0,"method":"plant_aggregate","provenance":{"evidenceCount":0,"recordIds":["wattlas-record-osm-way-847819735"],"sourceIds":["openstreetmap-power"],"sourceTypes":["community_mapped"],"valueKind":"reported"},"totalUnitCount":0},"operatingCapacityMw":10.0,"operatingCapacityMwByTechnology":{"oil":10.0},"plannedCapacityCoverage":{"coveragePercent":0.0,"knownUnitCount":0,"method":"unavailable","totalUnitCount":0},"plannedCapacityMw":0.0,"plannedCapacityMwByTechnology":{},"recordCount":1,"recordIds":["wattlas-record-osm-way-847819735"],"sourceIds":["openstreetmap-power"],"sourceUrl":"https://www.openstreetmap.org/way/847819735","technologies":["oil"],"technologyMixMw":{"oil":10.0},"unitCount":0,"unitIds":[]},"type":"Feature"},{"geometry":{"coordinates":[29.512355,-2.44135],"type":"Point"},"id":"wattlas-plant-osm-way-847819745","properties":{"aliases":["Rukarara V Hydroelectric Plant"],"canonicalAnchor":"osm:way/847819745","canonicalCountryKey":"RW","capacityMw":2.2,"country":"RW","externalIds":{"osm":"way/847819745"},"geographyId":"RW-91480417B18399648061901","id":"wattlas-plant-osm-way-847819745","lifecycleCounts":{"operational":1},"locationPrecision":"exact","name":"Rukarara V Hydroelectric Plant","operatingCapacityCoverage":{"coveragePercent":100.0,"knownUnitCount":0,"method":"plant_aggregate","provenance":{"evidenceCount":0,"recordIds":["wattlas-record-osm-way-847819745"],"sourceIds":["openstreetmap-power"],"sourceTypes":["community_mapped"],"valueKind":"reported"},"totalUnitCount":0},"operatingCapacityMw":2.2,"operatingCapacityMwByTechnology":{"hydro":2.2},"plannedCapacityCoverage":{"coveragePercent":0.0,"knownUnitCount":0,"method":"unavailable","totalUnitCount":0},"plannedCapacityMw":0.0,"plannedCapacityMwByTechnology":{},"recordCount":1,"recordIds":["wattlas-record-osm-way-847819745"],"sourceIds":["openstreetmap-power"],"sourceUrl":"https://www.openstreetmap.org/way/847819745","technologies":["hydro"],"technologyMixMw":{"hydro":2.2},"unitCount":0,"unitIds":[]},"type":"Feature"},{"geometry":{"coordinates":[29.31962,-2.0679],"type":"Point"},"id":"wattlas-plant-wikidata-q22079959","properties":{"aliases":["Kivu Watt Power Station"],"canonicalAnchor":"wikidata:Q22079959","canonicalCountryKey":"RW","capacityMw":26.4,"country":"RW","externalIds":{"osm":"way/697168706","wikidata":"Q22079959","wikipedia":"en:KivuWatt Power Station"},"geographyId":"RW-91480417B44016762519517","id":"wattlas-plant-wikidata-q22079959","idAliases":["wattlas-plant-osm-way-697168706","wattlas-plant-wikipedia-en-kivuwatt-power-station"],"lifecycleCounts":{"operational":1},"locationPrecision":"exact","name":"Kivu Watt Power Station","operatingCapacityCoverage":{"coveragePercent":100.0,"knownUnitCount":0,"method":"plant_aggregate","provenance":{"evidenceCount":0,"recordIds":["wattlas-record-osm-way-697168706"],"sourceIds":["openstreetmap-power"],"sourceTypes":["community_mapped"],"valueKind":"reported"},"totalUnitCount":0},"operatingCapacityMw":26.4,"operatingCapacityMwByTechnology":{"gas":26.4},"plannedCapacityCoverage":{"coveragePercent":0.0,"knownUnitCount":0,"method":"unavailable","totalUnitCount":0},"plannedCapacityMw":0.0,"plannedCapacityMwByTechnology":{},"recordCount":1,"recordIds":["wattlas-record-osm-way-697168706"],"sourceIds":["openstreetmap-power"],"sourceUrl":"https://www.openstreetmap.org/way/697168706","technologies":["gas"],"technologyMixMw":{"gas":26.4},"unitCount":0,"unitIds":[]},"type":"Feature"},{"geometry":{"coordinates":[30.376454,-2.026065],"type":"Point"},"id":"wattlas-plant-wikidata-q25043508","properties":{"aliases":["Rwamagana Solar Power Station"],"canonicalAnchor":"wikidata:Q25043508","canonicalCountryKey":"RW","capacityMw":8.5,"country":"RW","externalIds":{"osm":"way/405480242","wikidata":"Q25043508","wikipedia":"en:Rwamagana Solar Power Station"},"geographyId":"RW-91480417B20985019767017","id":"wattlas-plant-wikidata-q25043508","idAliases":["wattlas-plant-osm-way-405480242","wattlas-plant-wikipedia-en-rwamagana-solar-power-station"],"lifecycleCounts":{"operational":1},"locationPrecision":"exact","name":"Rwamagana Solar Power Station","operatingCapacityCoverage":{"coveragePercent":100.0,"knownUnitCount":0,"method":"plant_aggregate","provenance":{"evidenceCount":0,"recordIds":["wattlas-record-osm-way-405480242"],"sourceIds":["openstreetmap-power"],"sourceTypes":["community_mapped"],"valueKind":"reported"},"totalUnitCount":0},"operatingCapacityMw":8.5,"operatingCapacityMwByTechnology":{"solar":8.5},"plannedCapacityCoverage":{"coveragePercent":0.0,"knownUnitCount":0,"method":"unavailable","totalUnitCount":0},"plannedCapacityMw":0.0,"plannedCapacityMwByTechnology":{},"recordCount":1,"recordIds":["wattlas-record-osm-way-405480242"],"sourceIds":["openstreetmap-power"],"sourceUrl":"https://www.openstreetmap.org/way/405480242","technologies":["solar"],"technologyMixMw":{"solar":8.5},"unitCount":0,"unitIds":[]},"type":"Feature"},{"geometry":{"coordinates":[29.683223,-1.536781],"type":"Point"},"id":"wattlas-plant-wikidata-q49627704","properties":{"aliases":["Mukungwa Hydro Power Plant"],"canonicalAnchor":"wikidata:Q49627704","canonicalCountryKey":"RW","capacityMw":12.0,"country":"RW","externalIds":{"osm":"way/697005718","wikidata":"Q49627704"},"geographyId":"RW-91480417B74917756285357","id":"wattlas-plant-wikidata-q49627704","idAliases":["wattlas-plant-osm-way-697005718"],"lifecycleCounts":{"operational":1},"locationPrecision":"exact","name":"Mukungwa Hydro Power Plant","operatingCapacityCoverage":{"coveragePercent":100.0,"knownUnitCount":0,"method":"plant_aggregate","provenance":{"evidenceCount":0,"recordIds":["wattlas-record-osm-way-697005718"],"sourceIds":["openstreetmap-power"],"sourceTypes":["community_mapped"],"valueKind":"reported"},"totalUnitCount":0},"operatingCapacityMw":12.0,"operatingCapacityMwByTechnology":{"hydro":12.0},"plannedCapacityCoverage":{"coveragePercent":0.0,"knownUnitCount":0,"method":"unavailable","totalUnitCount":0},"plannedCapacityMw":0.0,"plannedCapacityMwByTechnology":{},"recordCount":1,"recordIds":["wattlas-record-osm-way-697005718"],"sourceIds":["openstreetmap-power"],"sourceUrl":"https://www.openstreetmap.org/way/697005718","technologies":["hydro"],"technologyMixMw":{"hydro":12.0},"unitCount":0,"unitIds":[]},"type":"Feature"},{"geometry":{"coordinates":[29.750376,-1.477408],"type":"Point"},"id":"wattlas-plant-wikidata-q49627705","properties":{"aliases":["Ntaruka Hydro Power Station"],"canonicalAnchor":"wikidata:Q49627705","canonicalCountryKey":"RW","capacityMw":11.25,"country":"RW","externalIds":{"osm":"way/610191867","wikidata":"Q49627705"},"geographyId":"RW-91480417B74917756285357","id":"wattlas-plant-wikidata-q49627705","idAliases":["wattlas-plant-osm-way-610191867"],"lifecycleCounts":{"operational":1},"locationPrecision":"exact","name":"Ntaruka Hydro Power Station","operatingCapacityCoverage":{"coveragePercent":100.0,"knownUnitCount":0,"method":"plant_aggregate","provenance":{"evidenceCount":0,"recordIds":["wattlas-record-osm-way-610191867"],"sourceIds":["openstreetmap-power"],"sourceTypes":["community_mapped"],"valueKind":"reported"},"totalUnitCount":0},"operatingCapacityMw":11.25,"operatingCapacityMwByTechnology":{"hydro":11.25},"plannedCapacityCoverage":{"coveragePercent":0.0,"knownUnitCount":0,"method":"unavailable","totalUnitCount":0},"plannedCapacityMw":0.0,"plannedCapacityMwByTechnology":{},"recordCount":1,"recordIds":["wattlas-record-osm-way-610191867"],"sourceIds":["openstreetmap-power"],"sourceUrl":"https://www.openstreetmap.org/way/610191867","technologies":["hydro"],"technologyMixMw":{"hydro":11.25},"unitCount":0,"unitIds":[]},"type":"Feature"},{"geometry":{"coordinates":[29.639155,-1.97843],"type":"Point"},"id":"wattlas-plant-wikidata-q7070771","properties":{"aliases":["Nyabarongo I Hydro Power Plant"],"canonicalAnchor":"wikidata:Q7070771","canonicalCountryKey":"RW","capacityMw":28.0,"country":"RW","externalIds":{"osm":"way/697817600","wikidata":"Q7070771","wikipedia":"en:Nyabarongo Power Station"},"geographyId":"RW-91480417B18399648061901","id":"wattlas-plant-wikidata-q7070771","idAliases":["wattlas-plant-osm-way-697817600","wattlas-plant-wikipedia-en-nyabarongo-power-station"],"lifecycleCounts":{"operational":1},"locationPrecision":"exact","name":"Nyabarongo I Hydro Power Plant","operatingCapacityCoverage":{"coveragePercent":100.0,"knownUnitCount":0,"method":"plant_aggregate","provenance":{"evidenceCount":0,"recordIds":["wattlas-record-osm-way-697817600"],"sourceIds":["openstreetmap-power"],"sourceTypes":["community_mapped"],"valueKind":"reported"},"totalUnitCount":0},"operatingCapacityMw":28.0,"operatingCapacityMwByTechnology":{"hydro":28.0},"plannedCapacityCoverage":{"coveragePercent":0.0,"knownUnitCount":0,"method":"unavailable","totalUnitCount":0},"plannedCapacityMw":0.0,"plannedCapacityMwByTechnology":{},"recordCount":1,"recordIds":["wattlas-record-osm-way-697817600"],"sourceIds":["openstreetmap-power"],"sourceUrl":"https://www.openstreetmap.org/way/697817600","technologies":["hydro"],"technologyMixMw":{"hydro":28.0},"unitCount":0,"unitIds":[]},"type":"Feature"}],"type":"FeatureCollection"}