{"features":[{"geometry":{"coordinates":[32.4686,14.0721],"type":"Point"},"id":"wattlas-plant-gemplant-l100000200015","properties":{"aliases":["3.0","4.0","White Nile Sugar Factory power station"],"canonicalAnchor":"gemplant:L100000200015","canonicalCountryKey":"SD","capacityMw":62.0,"country":"SD","externalIdAliases":{"gemUnit":["G100000200017","G100000201701"]},"externalIds":{"gemPlant":"L100000200015","gemUnit":"G100000201701"},"gemWikiUrl":"https://www.gem.wiki/White_Nile_Sugar_Factory_power_station","geographyId":"SD-86620642B32971775067484","id":"wattlas-plant-gemplant-l100000200015","lifecycleCounts":{"operational":2},"locationPrecision":"exact","name":"White Nile Sugar Factory power station","operatingCapacityCoverage":{"coveragePercent":100.0,"knownUnitCount":2,"method":"complete_unit_sum","provenance":{"evidenceCount":0,"recordIds":["wattlas-record-gemunit-g100000200017","wattlas-record-gemunit-g100000201701"],"sourceIds":["gem-global-integrated-power-tracker"],"sourceTypes":["research_verified"],"valueKind":"reported"},"totalUnitCount":2},"operatingCapacityMw":62.0,"operatingCapacityMwByTechnology":{"biomass":62.0},"plannedCapacityCoverage":{"coveragePercent":0.0,"knownUnitCount":0,"method":"unavailable","totalUnitCount":0},"plannedCapacityMw":0.0,"plannedCapacityMwByTechnology":{},"recordCount":2,"recordIds":["wattlas-record-gemunit-g100000200017","wattlas-record-gemunit-g100000201701"],"sourceIds":["gem-global-integrated-power-tracker"],"sourceUrl":"https://www.gem.wiki/White_Nile_Sugar_Factory_power_station","technologies":["biomass"],"technologyMixMw":{"biomass":62.0},"unitCount":2,"unitIds":["gem-unit-G100000200017","gem-unit-G100000201701"]},"type":"Feature"},{"geometry":{"coordinates":[32.9279,13.0743],"type":"Point"},"id":"wattlas-plant-gemplant-l100000201411","properties":{"aliases":["1.0","Kenana power station"],"canonicalAnchor":"gemplant:L100000201411","canonicalCountryKey":"SD","capacityMw":76.0,"country":"SD","externalIds":{"gemPlant":"L100000201411","gemUnit":"G100000201699"},"gemWikiUrl":"https://www.gem.wiki/Kenana_power_station","geographyId":"SD-86620642B32971775067484","id":"wattlas-plant-gemplant-l100000201411","lifecycleCounts":{"operational":1},"locationPrecision":"exact","name":"Kenana power station","operatingCapacityCoverage":{"coveragePercent":100.0,"knownUnitCount":1,"method":"complete_unit_sum","provenance":{"evidenceCount":0,"recordIds":["wattlas-record-gemunit-g100000201699"],"sourceIds":["gem-global-integrated-power-tracker"],"sourceTypes":["research_verified"],"valueKind":"reported"},"totalUnitCount":1},"operatingCapacityMw":76.0,"operatingCapacityMwByTechnology":{"biomass":76.0},"plannedCapacityCoverage":{"coveragePercent":0.0,"knownUnitCount":0,"method":"unavailable","totalUnitCount":0},"plannedCapacityMw":0.0,"plannedCapacityMwByTechnology":{},"recordCount":1,"recordIds":["wattlas-record-gemunit-g100000201699"],"sourceIds":["gem-global-integrated-power-tracker"],"sourceUrl":"https://www.gem.wiki/Kenana_power_station","technologies":["biomass"],"technologyMixMw":{"biomass":76.0},"unitCount":1,"unitIds":["gem-unit-G100000201699"]},"type":"Feature"},{"geometry":{"coordinates":[37.217713,19.626296],"type":"Point"},"id":"wattlas-plant-gemplant-l100000407693","properties":{"aliases":["1-1","2-1","3-1","Port Sudan power station"],"canonicalAnchor":"gemplant:L100000407693","canonicalCountryKey":"SD","capacityMw":1544.0,"country":"SD","externalIdAliases":{"gemUnit":["G100000410067","G100000410068","G100000410069","G100000411155","G100000411156"]},"externalIds":{"gemPlant":"L100000407693","gemUnit":"G100000411155"},"gemWikiUrl":"https://www.gem.wiki/Port_Sudan_power_station","geographyId":"SD-86620642B7664605185235","id":"wattlas-plant-gemplant-l100000407693","lifecycleCounts":{"announced":2,"operational":2,"under_construction":1},"locationPrecision":"exact","name":"Port Sudan power station","operatingCapacityCoverage":{"coveragePercent":100.0,"knownUnitCount":2,"method":"complete_unit_sum","provenance":{"evidenceCount":0,"recordIds":["wattlas-record-gemunit-g100000410068","wattlas-record-gemunit-g100000410069"],"sourceIds":["gem-global-integrated-power-tracker"],"sourceTypes":["research_verified"],"valueKind":"reported"},"totalUnitCount":2},"operatingCapacityMw":374.0,"operatingCapacityMwByTechnology":{"gas":374.0},"plannedCapacityCoverage":{"coveragePercent":100.0,"knownUnitCount":3,"method":"complete_unit_sum","provenance":{"evidenceCount":0,"recordIds":["wattlas-record-gemunit-g100000410067","wattlas-record-gemunit-g100000411155","wattlas-record-gemunit-g100000411156"],"sourceIds":["gem-global-integrated-power-tracker"],"sourceTypes":["research_verified"],"valueKind":"reported"},"totalUnitCount":3},"plannedCapacityMw":1170.0,"plannedCapacityMwByTechnology":{"gas":1170.0},"recordCount":5,"recordIds":["wattlas-record-gemunit-g100000410067","wattlas-record-gemunit-g100000410068","wattlas-record-gemunit-g100000410069","wattlas-record-gemunit-g100000411155","wattlas-record-gemunit-g100000411156"],"sourceIds":["gem-global-integrated-power-tracker"],"sourceUrl":"https://www.gem.wiki/Port_Sudan_power_station","technologies":["gas"],"technologyMixMw":{"gas":1544.0},"unitCount":5,"unitIds":["gem-unit-G100000410067","gem-unit-G100000410068","gem-unit-G100000410069","gem-unit-G100000411155","gem-unit-G100000411156"]},"type":"Feature"},{"geometry":{"coordinates":[32.697406,16.117383],"type":"Point"},"id":"wattlas-plant-gemplant-l100000408256","properties":{"aliases":["1-1","2-1","3-1","CC","Garri 3 Power Plant"],"canonicalAnchor":"gemplant:L100000408256","canonicalCountryKey":"SD","capacityMw":0.0,"country":"SD","externalIdAliases":{"gemUnit":["G100000411409","G100000411410","G100000411411","G100000413141"]},"externalIds":{"gemPlant":"L100000408256","gemUnit":"G100000413141"},"gemWikiUrl":"https://www.gem.wiki/Garri_3_Power_Plant","geographyId":"SD-86620642B69351377969837","id":"wattlas-plant-gemplant-l100000408256","lifecycleCounts":{"paused":4},"locationPrecision":"exact","name":"Garri 3 Power Plant","operatingCapacityCoverage":{"coveragePercent":0.0,"knownUnitCount":0,"method":"unavailable","totalUnitCount":0},"operatingCapacityMw":0.0,"operatingCapacityMwByTechnology":{},"plannedCapacityCoverage":{"coveragePercent":0.0,"knownUnitCount":0,"method":"unavailable","totalUnitCount":0},"plannedCapacityMw":0.0,"plannedCapacityMwByTechnology":{},"recordCount":4,"recordIds":["wattlas-record-gemunit-g100000411409","wattlas-record-gemunit-g100000411410","wattlas-record-gemunit-g100000411411","wattlas-record-gemunit-g100000413141"],"sourceIds":["gem-global-integrated-power-tracker"],"sourceUrl":"https://www.gem.wiki/Garri_3_Power_Plant","technologies":["gas"],"technologyMixMw":{"gas":0.0},"unitCount":4,"unitIds":["gem-unit-G100000411409","gem-unit-G100000411410","gem-unit-G100000411411","gem-unit-G100000413141"]},"type":"Feature"},{"geometry":{"coordinates":[32.696871,16.119496],"type":"Point"},"id":"wattlas-plant-gemplant-l100000408257","properties":{"aliases":["1-1","2-1","Garri 2 Power Plant"],"canonicalAnchor":"gemplant:L100000408257","canonicalCountryKey":"SD","capacityMw":0.0,"country":"SD","externalIdAliases":{"gemUnit":["G100000411412","G100000411413"]},"externalIds":{"gemPlant":"L100000408257","gemUnit":"G100000411412"},"gemWikiUrl":"https://www.gem.wiki/Garri_2_Power_Plant","geographyId":"SD-86620642B69351377969837","id":"wattlas-plant-gemplant-l100000408257","lifecycleCounts":{"paused":2},"locationPrecision":"exact","name":"Garri 2 Power Plant","operatingCapacityCoverage":{"coveragePercent":0.0,"knownUnitCount":0,"method":"unavailable","totalUnitCount":0},"operatingCapacityMw":0.0,"operatingCapacityMwByTechnology":{},"plannedCapacityCoverage":{"coveragePercent":0.0,"knownUnitCount":0,"method":"unavailable","totalUnitCount":0},"plannedCapacityMw":0.0,"plannedCapacityMwByTechnology":{},"recordCount":2,"recordIds":["wattlas-record-gemunit-g100000411412","wattlas-record-gemunit-g100000411413"],"sourceIds":["gem-global-integrated-power-tracker"],"sourceUrl":"https://www.gem.wiki/Garri_2_Power_Plant","technologies":["gas"],"technologyMixMw":{"gas":0.0},"unitCount":2,"unitIds":["gem-unit-G100000411412","gem-unit-G100000411413"]},"type":"Feature"},{"geometry":{"coordinates":[32.691961,16.120165],"type":"Point"},"id":"wattlas-plant-gemplant-l100000408258","properties":{"aliases":["1-1","2-1","Garri 1 Power Plant"],"canonicalAnchor":"gemplant:L100000408258","canonicalCountryKey":"SD","capacityMw":0.0,"country":"SD","externalIdAliases":{"gemUnit":["G100000411414","G100000411415"]},"externalIds":{"gemPlant":"L100000408258","gemUnit":"G100000411414"},"gemWikiUrl":"https://www.gem.wiki/Garri_1_Power_Plant","geographyId":"SD-86620642B69351377969837","id":"wattlas-plant-gemplant-l100000408258","lifecycleCounts":{"paused":2},"locationPrecision":"exact","name":"Garri 1 Power Plant","operatingCapacityCoverage":{"coveragePercent":0.0,"knownUnitCount":0,"method":"unavailable","totalUnitCount":0},"operatingCapacityMw":0.0,"operatingCapacityMwByTechnology":{},"plannedCapacityCoverage":{"coveragePercent":0.0,"knownUnitCount":0,"method":"unavailable","totalUnitCount":0},"plannedCapacityMw":0.0,"plannedCapacityMwByTechnology":{},"recordCount":2,"recordIds":["wattlas-record-gemunit-g100000411414","wattlas-record-gemunit-g100000411415"],"sourceIds":["gem-global-integrated-power-tracker"],"sourceUrl":"https://www.gem.wiki/Garri_1_Power_Plant","technologies":["gas"],"technologyMixMw":{"gas":0.0},"unitCount":2,"unitIds":["gem-unit-G100000411414","gem-unit-G100000411415"]},"type":"Feature"},{"geometry":{"coordinates":[32.701705,16.117416],"type":"Point"},"id":"wattlas-plant-gemplant-l100000408262","properties":{"aliases":["1-1","2-1","Garri 4 Power Plant"],"canonicalAnchor":"gemplant:L100000408262","canonicalCountryKey":"SD","capacityMw":110.0,"country":"SD","externalIdAliases":{"gemUnit":["G100000411407","G100000411408"]},"externalIds":{"gemPlant":"L100000408262","gemUnit":"G100000411407"},"gemWikiUrl":"https://www.gem.wiki/Garri_4_Power_Plant","geographyId":"SD-86620642B69351377969837","id":"wattlas-plant-gemplant-l100000408262","lifecycleCounts":{"operational":2},"locationPrecision":"exact","name":"Garri 4 Power Plant","operatingCapacityCoverage":{"coveragePercent":100.0,"knownUnitCount":2,"method":"complete_unit_sum","provenance":{"evidenceCount":0,"recordIds":["wattlas-record-gemunit-g100000411407","wattlas-record-gemunit-g100000411408"],"sourceIds":["gem-global-integrated-power-tracker"],"sourceTypes":["research_verified"],"valueKind":"reported"},"totalUnitCount":2},"operatingCapacityMw":110.0,"operatingCapacityMwByTechnology":{"oil":110.0},"plannedCapacityCoverage":{"coveragePercent":0.0,"knownUnitCount":0,"method":"unavailable","totalUnitCount":0},"plannedCapacityMw":0.0,"plannedCapacityMwByTechnology":{},"recordCount":2,"recordIds":["wattlas-record-gemunit-g100000411407","wattlas-record-gemunit-g100000411408"],"sourceIds":["gem-global-integrated-power-tracker"],"sourceUrl":"https://www.gem.wiki/Garri_4_Power_Plant","technologies":["oil"],"technologyMixMw":{"oil":110.0},"unitCount":2,"unitIds":["gem-unit-G100000411407","gem-unit-G100000411408"]},"type":"Feature"},{"geometry":{"coordinates":[32.56277,15.651704],"type":"Point"},"id":"wattlas-plant-gemplant-l100000408263","properties":{"aliases":["1-2","1-3","2-2","2-3","Mahmoud Sharif power station"],"canonicalAnchor":"gemplant:L100000408263","canonicalCountryKey":"SD","capacityMw":0.0,"country":"SD","externalIdAliases":{"gemUnit":["G100000411403","G100000411404","G100000411405","G100000411406"]},"externalIds":{"gemPlant":"L100000408263","gemUnit":"G100000411403"},"gemWikiUrl":"https://www.gem.wiki/Mahmoud_Sharif_power_station","geographyId":"SD-86620642B69351377969837","id":"wattlas-plant-gemplant-l100000408263","lifecycleCounts":{"paused":4},"locationPrecision":"exact","name":"Mahmoud Sharif power station","operatingCapacityCoverage":{"coveragePercent":0.0,"knownUnitCount":0,"method":"unavailable","totalUnitCount":0},"operatingCapacityMw":0.0,"operatingCapacityMwByTechnology":{},"plannedCapacityCoverage":{"coveragePercent":0.0,"knownUnitCount":0,"method":"unavailable","totalUnitCount":0},"plannedCapacityMw":0.0,"plannedCapacityMwByTechnology":{},"recordCount":4,"recordIds":["wattlas-record-gemunit-g100000411403","wattlas-record-gemunit-g100000411404","wattlas-record-gemunit-g100000411405","wattlas-record-gemunit-g100000411406"],"sourceIds":["gem-global-integrated-power-tracker"],"sourceUrl":"https://www.gem.wiki/Mahmoud_Sharif_power_station","technologies":["oil"],"technologyMixMw":{"oil":0.0},"unitCount":4,"unitIds":["gem-unit-G100000411403","gem-unit-G100000411404","gem-unit-G100000411405","gem-unit-G100000411406"]},"type":"Feature"},{"geometry":{"coordinates":[32.823243,13.208986],"type":"Point"},"id":"wattlas-plant-gemplant-l100000408267","properties":{"aliases":["1-1","2-1","3-1","4-1","Kosti power plant"],"canonicalAnchor":"gemplant:L100000408267","canonicalCountryKey":"SD","capacityMw":500.0,"country":"SD","externalIdAliases":{"gemUnit":["G100000411398","G100000411399","G100000411400","G100000411401"]},"externalIds":{"gemPlant":"L100000408267","gemUnit":"G100000411398"},"gemWikiUrl":"https://www.gem.wiki/Kosti_power_plant","geographyId":"SD-86620642B32971775067484","id":"wattlas-plant-gemplant-l100000408267","lifecycleCounts":{"operational":4},"locationPrecision":"exact","name":"Kosti power plant","operatingCapacityCoverage":{"coveragePercent":100.0,"knownUnitCount":4,"method":"complete_unit_sum","provenance":{"evidenceCount":0,"recordIds":["wattlas-record-gemunit-g100000411398","wattlas-record-gemunit-g100000411399","wattlas-record-gemunit-g100000411400","wattlas-record-gemunit-g100000411401"],"sourceIds":["gem-global-integrated-power-tracker"],"sourceTypes":["research_verified"],"valueKind":"reported"},"totalUnitCount":4},"operatingCapacityMw":500.0,"operatingCapacityMwByTechnology":{"oil":500.0},"plannedCapacityCoverage":{"coveragePercent":0.0,"knownUnitCount":0,"method":"unavailable","totalUnitCount":0},"plannedCapacityMw":0.0,"plannedCapacityMwByTechnology":{},"recordCount":4,"recordIds":["wattlas-record-gemunit-g100000411398","wattlas-record-gemunit-g100000411399","wattlas-record-gemunit-g100000411400","wattlas-record-gemunit-g100000411401"],"sourceIds":["gem-global-integrated-power-tracker"],"sourceUrl":"https://www.gem.wiki/Kosti_power_plant","technologies":["oil"],"technologyMixMw":{"oil":500.0},"unitCount":4,"unitIds":["gem-unit-G100000411398","gem-unit-G100000411399","gem-unit-G100000411400","gem-unit-G100000411401"]},"type":"Feature"},{"geometry":{"coordinates":[32.0503,18.6689],"type":"Point"},"id":"wattlas-plant-gemplant-l100000603409","properties":{"aliases":["Merowe Dam hydroelectric plant"],"canonicalAnchor":"gemplant:L100000603409","canonicalCountryKey":"SD","capacityMw":1250.0,"country":"SD","externalIds":{"gemPlant":"L100000603409","gemUnit":"G100000603444"},"gemWikiUrl":"https://www.gem.wiki/Merowe_Dam_hydroelectric_plant","geographyId":"SD-86620642B89646054714247","id":"wattlas-plant-gemplant-l100000603409","lifecycleCounts":{"operational":1},"locationPrecision":"exact","name":"Merowe Dam hydroelectric plant","operatingCapacityCoverage":{"coveragePercent":100.0,"knownUnitCount":1,"method":"complete_unit_sum","provenance":{"evidenceCount":0,"recordIds":["wattlas-record-gemunit-g100000603444"],"sourceIds":["gem-global-integrated-power-tracker"],"sourceTypes":["research_verified"],"valueKind":"reported"},"totalUnitCount":1},"operatingCapacityMw":1250.0,"operatingCapacityMwByTechnology":{"hydro":1250.0},"plannedCapacityCoverage":{"coveragePercent":0.0,"knownUnitCount":0,"method":"unavailable","totalUnitCount":0},"plannedCapacityMw":0.0,"plannedCapacityMwByTechnology":{},"recordCount":1,"recordIds":["wattlas-record-gemunit-g100000603444"],"sourceIds":["gem-global-integrated-power-tracker"],"sourceUrl":"https://www.gem.wiki/Merowe_Dam_hydroelectric_plant","technologies":["hydro"],"technologyMixMw":{"hydro":1250.0},"unitCount":1,"unitIds":["gem-unit-G100000603444"]},"type":"Feature"},{"geometry":{"coordinates":[34.3875,11.7981],"type":"Point"},"id":"wattlas-plant-gemplant-l100000603410","properties":{"aliases":["Roseires Dam hydroelectric plant"],"canonicalAnchor":"gemplant:L100000603410","canonicalCountryKey":"SD","capacityMw":280.0,"country":"SD","externalIds":{"gemPlant":"L100000603410","gemUnit":"G100000603445"},"gemWikiUrl":"https://www.gem.wiki/Roseires_Dam_hydroelectric_plant","geographyId":"SD-86620642B86272532082738","id":"wattlas-plant-gemplant-l100000603410","lifecycleCounts":{"operational":1},"locationPrecision":"exact","name":"Roseires Dam hydroelectric plant","operatingCapacityCoverage":{"coveragePercent":100.0,"knownUnitCount":1,"method":"complete_unit_sum","provenance":{"evidenceCount":0,"recordIds":["wattlas-record-gemunit-g100000603445"],"sourceIds":["gem-global-integrated-power-tracker"],"sourceTypes":["research_verified"],"valueKind":"reported"},"totalUnitCount":1},"operatingCapacityMw":280.0,"operatingCapacityMwByTechnology":{"hydro":280.0},"plannedCapacityCoverage":{"coveragePercent":0.0,"knownUnitCount":0,"method":"unavailable","totalUnitCount":0},"plannedCapacityMw":0.0,"plannedCapacityMwByTechnology":{},"recordCount":1,"recordIds":["wattlas-record-gemunit-g100000603445"],"sourceIds":["gem-global-integrated-power-tracker"],"sourceUrl":"https://www.gem.wiki/Roseires_Dam_hydroelectric_plant","technologies":["hydro"],"technologyMixMw":{"hydro":280.0},"unitCount":1,"unitIds":["gem-unit-G100000603445"]},"type":"Feature"},{"geometry":{"coordinates":[35.8969,14.2767],"type":"Point"},"id":"wattlas-plant-gemplant-l100000603411","properties":{"aliases":["Rumela hydroelectric plant"],"canonicalAnchor":"gemplant:L100000603411","canonicalCountryKey":"SD","capacityMw":320.0,"country":"SD","externalIds":{"gemPlant":"L100000603411","gemUnit":"G100000603446"},"gemWikiUrl":"https://www.gem.wiki/Rumela_hydroelectric_plant","geographyId":"SD-86620642B51630913908628","id":"wattlas-plant-gemplant-l100000603411","lifecycleCounts":{"operational":1},"locationPrecision":"exact","name":"Rumela hydroelectric plant","operatingCapacityCoverage":{"coveragePercent":100.0,"knownUnitCount":1,"method":"complete_unit_sum","provenance":{"evidenceCount":0,"recordIds":["wattlas-record-gemunit-g100000603446"],"sourceIds":["gem-global-integrated-power-tracker"],"sourceTypes":["research_verified"],"valueKind":"reported"},"totalUnitCount":1},"operatingCapacityMw":320.0,"operatingCapacityMwByTechnology":{"hydro":320.0},"plannedCapacityCoverage":{"coveragePercent":0.0,"knownUnitCount":0,"method":"unavailable","totalUnitCount":0},"plannedCapacityMw":0.0,"plannedCapacityMwByTechnology":{},"recordCount":1,"recordIds":["wattlas-record-gemunit-g100000603446"],"sourceIds":["gem-global-integrated-power-tracker"],"sourceUrl":"https://www.gem.wiki/Rumela_hydroelectric_plant","technologies":["hydro"],"technologyMixMw":{"hydro":320.0},"unitCount":1,"unitIds":["gem-unit-G100000603446"]},"type":"Feature"},{"geometry":{"coordinates":[30.3395,19.2009],"type":"Point"},"id":"wattlas-plant-gemplant-l100000900151","properties":{"aliases":["1.0","2.0","Dongola wind farm"],"canonicalAnchor":"gemplant:L100000900151","canonicalCountryKey":"SD","capacityMw":0.0,"country":"SD","externalIdAliases":{"gemUnit":["G100000900195","G100000900196"]},"externalIds":{"gemPlant":"L100000900151","gemUnit":"G100000900196"},"gemWikiUrl":"https://www.gem.wiki/Dongola_wind_farm","geographyId":"SD-86620642B89646054714247","id":"wattlas-plant-gemplant-l100000900151","lifecycleCounts":{"paused":2},"locationPrecision":"exact","name":"Dongola wind farm","operatingCapacityCoverage":{"coveragePercent":0.0,"knownUnitCount":0,"method":"unavailable","totalUnitCount":0},"operatingCapacityMw":0.0,"operatingCapacityMwByTechnology":{},"plannedCapacityCoverage":{"coveragePercent":0.0,"knownUnitCount":0,"method":"unavailable","totalUnitCount":0},"plannedCapacityMw":0.0,"plannedCapacityMwByTechnology":{},"recordCount":2,"recordIds":["wattlas-record-gemunit-g100000900195","wattlas-record-gemunit-g100000900196"],"sourceIds":["gem-global-integrated-power-tracker"],"sourceUrl":"https://www.gem.wiki/Dongola_wind_farm","technologies":["wind"],"technologyMixMw":{"wind":0.0},"unitCount":2,"unitIds":["gem-unit-G100000900195","gem-unit-G100000900196"]},"type":"Feature"},{"geometry":{"coordinates":[24.7811,12.1344],"type":"Point"},"id":"wattlas-plant-gemplant-l100000900153","properties":{"aliases":["--","Nyala wind farm"],"canonicalAnchor":"gemplant:L100000900153","canonicalCountryKey":"SD","capacityMw":20.0,"country":"SD","externalIds":{"gemPlant":"L100000900153","gemUnit":"G100000900201"},"gemWikiUrl":"https://www.gem.wiki/Nyala_wind_farm","geographyId":"SD-86620642B33888251991816","id":"wattlas-plant-gemplant-l100000900153","lifecycleCounts":{"announced":1},"locationPrecision":"exact","name":"Nyala wind farm","operatingCapacityCoverage":{"coveragePercent":0.0,"knownUnitCount":0,"method":"unavailable","totalUnitCount":0},"operatingCapacityMw":0.0,"operatingCapacityMwByTechnology":{},"plannedCapacityCoverage":{"coveragePercent":100.0,"knownUnitCount":1,"method":"complete_unit_sum","provenance":{"evidenceCount":0,"recordIds":["wattlas-record-gemunit-g100000900201"],"sourceIds":["gem-global-integrated-power-tracker"],"sourceTypes":["research_verified"],"valueKind":"reported"},"totalUnitCount":1},"plannedCapacityMw":20.0,"plannedCapacityMwByTechnology":{"wind":20.0},"recordCount":1,"recordIds":["wattlas-record-gemunit-g100000900201"],"sourceIds":["gem-global-integrated-power-tracker"],"sourceUrl":"https://www.gem.wiki/Nyala_wind_farm","technologies":["wind"],"technologyMixMw":{"wind":20.0},"unitCount":1,"unitIds":["gem-unit-G100000900201"]},"type":"Feature"},{"geometry":{"coordinates":[25.463,13.6703],"type":"Point"},"id":"wattlas-plant-gemplant-l100001020052","properties":{"aliases":["--","Al Fashir solar project"],"canonicalAnchor":"gemplant:L100001020052","canonicalCountryKey":"SD","capacityMw":5.6,"country":"SD","externalIds":{"gemPlant":"L100001020052","gemUnit":"G100001022825"},"gemWikiUrl":"https://www.gem.wiki/Al_Fasher_solar_project","geographyId":"SD-86620642B32784125865646","id":"wattlas-plant-gemplant-l100001020052","lifecycleCounts":{"operational":1},"locationPrecision":"exact","name":"Al Fashir solar project","operatingCapacityCoverage":{"coveragePercent":100.0,"knownUnitCount":1,"method":"complete_unit_sum","provenance":{"evidenceCount":0,"recordIds":["wattlas-record-gemunit-g100001022825"],"sourceIds":["gem-global-integrated-power-tracker"],"sourceTypes":["research_verified"],"valueKind":"reported"},"totalUnitCount":1},"operatingCapacityMw":5.6,"operatingCapacityMwByTechnology":{"solar":5.6},"plannedCapacityCoverage":{"coveragePercent":0.0,"knownUnitCount":0,"method":"unavailable","totalUnitCount":0},"plannedCapacityMw":0.0,"plannedCapacityMwByTechnology":{},"recordCount":1,"recordIds":["wattlas-record-gemunit-g100001022825"],"sourceIds":["gem-global-integrated-power-tracker"],"sourceUrl":"https://www.gem.wiki/Al_Fasher_solar_project","technologies":["solar"],"technologyMixMw":{"solar":5.6},"unitCount":1,"unitIds":["gem-unit-G100001022825"]},"type":"Feature"},{"geometry":{"coordinates":[26.2188,11.4548],"type":"Point"},"id":"wattlas-plant-gemplant-l100001020053","properties":{"aliases":["--","El Daein solar project"],"canonicalAnchor":"gemplant:L100001020053","canonicalCountryKey":"SD","capacityMw":5.7,"country":"SD","externalIds":{"gemPlant":"L100001020053","gemUnit":"G100001022826"},"gemWikiUrl":"https://www.gem.wiki/Ad_Da'Ein_solar_project","geographyId":"SD-86620642B42892304507154","id":"wattlas-plant-gemplant-l100001020053","lifecycleCounts":{"operational":1},"locationPrecision":"exact","name":"El Daein solar project","operatingCapacityCoverage":{"coveragePercent":100.0,"knownUnitCount":1,"method":"complete_unit_sum","provenance":{"evidenceCount":0,"recordIds":["wattlas-record-gemunit-g100001022826"],"sourceIds":["gem-global-integrated-power-tracker"],"sourceTypes":["research_verified"],"valueKind":"reported"},"totalUnitCount":1},"operatingCapacityMw":5.7,"operatingCapacityMwByTechnology":{"solar":5.7},"plannedCapacityCoverage":{"coveragePercent":0.0,"knownUnitCount":0,"method":"unavailable","totalUnitCount":0},"plannedCapacityMw":0.0,"plannedCapacityMwByTechnology":{},"recordCount":1,"recordIds":["wattlas-record-gemunit-g100001022826"],"sourceIds":["gem-global-integrated-power-tracker"],"sourceUrl":"https://www.gem.wiki/Ad_Da'Ein_solar_project","technologies":["solar"],"technologyMixMw":{"solar":5.7},"unitCount":1,"unitIds":["gem-unit-G100001022826"]},"type":"Feature"},{"geometry":{"coordinates":[24.899161,12.059319],"type":"Point"},"id":"wattlas-plant-gemplant-l100001025718","properties":{"aliases":["1-1","New Nyala Power Plant"],"canonicalAnchor":"gemplant:L100001025718","canonicalCountryKey":"SD","capacityMw":30.0,"country":"SD","externalIds":{"gemPlant":"L100001025718","gemUnit":"G100001030577"},"gemWikiUrl":"https://www.gem.wiki/New_Nyala_Power_Plant","geographyId":"SD-86620642B33888251991816","id":"wattlas-plant-gemplant-l100001025718","lifecycleCounts":{"operational":1},"locationPrecision":"exact","name":"New Nyala Power Plant","operatingCapacityCoverage":{"coveragePercent":100.0,"knownUnitCount":1,"method":"complete_unit_sum","provenance":{"evidenceCount":0,"recordIds":["wattlas-record-gemunit-g100001030577"],"sourceIds":["gem-global-integrated-power-tracker"],"sourceTypes":["research_verified"],"valueKind":"reported"},"totalUnitCount":1},"operatingCapacityMw":30.0,"operatingCapacityMwByTechnology":{"gas":30.0},"plannedCapacityCoverage":{"coveragePercent":0.0,"knownUnitCount":0,"method":"unavailable","totalUnitCount":0},"plannedCapacityMw":0.0,"plannedCapacityMwByTechnology":{},"recordCount":1,"recordIds":["wattlas-record-gemunit-g100001030577"],"sourceIds":["gem-global-integrated-power-tracker"],"sourceUrl":"https://www.gem.wiki/New_Nyala_Power_Plant","technologies":["gas"],"technologyMixMw":{"gas":30.0},"unitCount":1,"unitIds":["gem-unit-G100001030577"]},"type":"Feature"},{"geometry":{"coordinates":[24.899161,12.059319],"type":"Point"},"id":"wattlas-plant-gemplant-l100001025719","properties":{"aliases":["1-1","2-1","3-1","4-1","Nyala Power Plant"],"canonicalAnchor":"gemplant:L100001025719","canonicalCountryKey":"SD","capacityMw":55.5,"country":"SD","externalIdAliases":{"gemUnit":["G100001030676","G100001030680","G100001030682","G100001030696"]},"externalIds":{"gemPlant":"L100001025719","gemUnit":"G100001030682"},"gemWikiUrl":"https://www.gem.wiki/Nyala_Power_Plant","geographyId":"SD-86620642B33888251991816","id":"wattlas-plant-gemplant-l100001025719","lifecycleCounts":{"operational":2,"under_construction":2},"locationPrecision":"exact","name":"Nyala Power Plant","operatingCapacityCoverage":{"coveragePercent":100.0,"knownUnitCount":2,"method":"complete_unit_sum","provenance":{"evidenceCount":0,"recordIds":["wattlas-record-gemunit-g100001030676","wattlas-record-gemunit-g100001030696"],"sourceIds":["gem-global-integrated-power-tracker"],"sourceTypes":["research_verified"],"valueKind":"reported"},"totalUnitCount":2},"operatingCapacityMw":15.5,"operatingCapacityMwByTechnology":{"oil":15.5},"plannedCapacityCoverage":{"coveragePercent":100.0,"knownUnitCount":2,"method":"complete_unit_sum","provenance":{"evidenceCount":0,"recordIds":["wattlas-record-gemunit-g100001030680","wattlas-record-gemunit-g100001030682"],"sourceIds":["gem-global-integrated-power-tracker"],"sourceTypes":["research_verified"],"valueKind":"reported"},"totalUnitCount":2},"plannedCapacityMw":40.0,"plannedCapacityMwByTechnology":{"gas":40.0},"recordCount":4,"recordIds":["wattlas-record-gemunit-g100001030676","wattlas-record-gemunit-g100001030680","wattlas-record-gemunit-g100001030682","wattlas-record-gemunit-g100001030696"],"sourceIds":["gem-global-integrated-power-tracker"],"sourceUrl":"https://www.gem.wiki/Nyala_Power_Plant","technologies":["gas","oil"],"technologyMixMw":{"gas":40.0,"oil":15.5},"unitCount":4,"unitIds":["gem-unit-G100001030676","gem-unit-G100001030680","gem-unit-G100001030682","gem-unit-G100001030696"]},"type":"Feature"},{"geometry":{"coordinates":[22.465361,13.448166],"type":"Point"},"id":"wattlas-plant-gemplant-l100001025795","properties":{"aliases":["1-1","2-1","3-1","El Geneina Power Plant"],"canonicalAnchor":"gemplant:L100001025795","canonicalCountryKey":"SD","capacityMw":14.4,"country":"SD","externalIdAliases":{"gemUnit":["G100001030692","G100001030693","G100001030694"]},"externalIds":{"gemPlant":"L100001025795","gemUnit":"G100001030694"},"gemWikiUrl":"https://www.gem.wiki/El_Geneina_Power_Plant","geographyId":"SD-86620642B73786067507541","id":"wattlas-plant-gemplant-l100001025795","lifecycleCounts":{"operational":3},"locationPrecision":"exact","name":"El Geneina Power Plant","operatingCapacityCoverage":{"coveragePercent":100.0,"knownUnitCount":3,"method":"complete_unit_sum","provenance":{"evidenceCount":0,"recordIds":["wattlas-record-gemunit-g100001030692","wattlas-record-gemunit-g100001030693","wattlas-record-gemunit-g100001030694"],"sourceIds":["gem-global-integrated-power-tracker"],"sourceTypes":["research_verified"],"valueKind":"reported"},"totalUnitCount":3},"operatingCapacityMw":14.4,"operatingCapacityMwByTechnology":{"gas":8.0,"oil":6.4},"plannedCapacityCoverage":{"coveragePercent":0.0,"knownUnitCount":0,"method":"unavailable","totalUnitCount":0},"plannedCapacityMw":0.0,"plannedCapacityMwByTechnology":{},"recordCount":3,"recordIds":["wattlas-record-gemunit-g100001030692","wattlas-record-gemunit-g100001030693","wattlas-record-gemunit-g100001030694"],"sourceIds":["gem-global-integrated-power-tracker"],"sourceUrl":"https://www.gem.wiki/El_Geneina_Power_Plant","technologies":["gas","oil"],"technologyMixMw":{"gas":8.0,"oil":6.4},"unitCount":3,"unitIds":["gem-unit-G100001030692","gem-unit-G100001030693","gem-unit-G100001030694"]},"type":"Feature"},{"geometry":{"coordinates":[34.0004,17.6131],"type":"Point"},"id":"wattlas-plant-gemplant-l100001046385","properties":{"aliases":["1.0","North Cement Factory Solar Power Plant"],"canonicalAnchor":"gemplant:L100001046385","canonicalCountryKey":"SD","capacityMw":54.0,"country":"SD","externalIds":{"gemPlant":"L100001046385","gemUnit":"G100001052405"},"gemWikiUrl":"https://www.gem.wiki/North_Cement_Factory_Solar_Power_Plant","geographyId":"SD-86620642B58839150544065","id":"wattlas-plant-gemplant-l100001046385","lifecycleCounts":{"operational":1},"locationPrecision":"exact","name":"North Cement Factory Solar Power Plant","operatingCapacityCoverage":{"coveragePercent":100.0,"knownUnitCount":1,"method":"complete_unit_sum","provenance":{"evidenceCount":0,"recordIds":["wattlas-record-gemunit-g100001052405"],"sourceIds":["gem-global-integrated-power-tracker"],"sourceTypes":["research_verified"],"valueKind":"reported"},"totalUnitCount":1},"operatingCapacityMw":54.0,"operatingCapacityMwByTechnology":{"solar":54.0},"plannedCapacityCoverage":{"coveragePercent":0.0,"knownUnitCount":0,"method":"unavailable","totalUnitCount":0},"plannedCapacityMw":0.0,"plannedCapacityMwByTechnology":{},"recordCount":1,"recordIds":["wattlas-record-gemunit-g100001052405"],"sourceIds":["gem-global-integrated-power-tracker"],"sourceUrl":"https://www.gem.wiki/North_Cement_Factory_Solar_Power_Plant","technologies":["solar"],"technologyMixMw":{"solar":54.0},"unitCount":1,"unitIds":["gem-unit-G100001052405"]},"type":"Feature"},{"geometry":{"coordinates":[32.745398,13.257845],"type":"Point"},"id":"wattlas-plant-gemplant-l100001047486","properties":{"aliases":["Assalaya Cogen power plant","Assalaya Factory ST 2","Assalaya Factory ST 4"],"canonicalAnchor":"gemplant:L100001047486","canonicalCountryKey":"SD","capacityMw":19.8,"country":"SD","externalIdAliases":{"gemUnit":["G100001054067","G100001054068"]},"externalIds":{"gemPlant":"L100001047486","gemUnit":"G100001054068"},"gemWikiUrl":"https://www.gem.wiki/Assalaya_Cogen_power_plant","geographyId":"SD-86620642B32971775067484","id":"wattlas-plant-gemplant-l100001047486","lifecycleCounts":{"operational":2},"locationPrecision":"exact","name":"Assalaya Cogen power plant","operatingCapacityCoverage":{"coveragePercent":100.0,"knownUnitCount":2,"method":"complete_unit_sum","provenance":{"evidenceCount":0,"recordIds":["wattlas-record-gemunit-g100001054067","wattlas-record-gemunit-g100001054068"],"sourceIds":["gem-global-integrated-power-tracker"],"sourceTypes":["research_verified"],"valueKind":"reported"},"totalUnitCount":2},"operatingCapacityMw":19.8,"operatingCapacityMwByTechnology":{"biomass":19.8},"plannedCapacityCoverage":{"coveragePercent":0.0,"knownUnitCount":0,"method":"unavailable","totalUnitCount":0},"plannedCapacityMw":0.0,"plannedCapacityMwByTechnology":{},"recordCount":2,"recordIds":["wattlas-record-gemunit-g100001054067","wattlas-record-gemunit-g100001054068"],"sourceIds":["gem-global-integrated-power-tracker"],"sourceUrl":"https://www.gem.wiki/Assalaya_Cogen_power_plant","technologies":["biomass"],"technologyMixMw":{"biomass":19.8},"unitCount":2,"unitIds":["gem-unit-G100001054067","gem-unit-G100001054068"]},"type":"Feature"},{"geometry":{"coordinates":[34.6058,17.2572],"type":"Point"},"id":"wattlas-plant-gemplant-l100001064760","properties":{"aliases":["--","Atbarah solar project"],"canonicalAnchor":"gemplant:L100001064760","canonicalCountryKey":"SD","capacityMw":1.2,"country":"SD","externalIds":{"gemPlant":"L100001064760","gemUnit":"G100001074546"},"gemWikiUrl":"https://www.gem.wiki/Atbarah_solar_project","geographyId":"SD-86620642B58839150544065","id":"wattlas-plant-gemplant-l100001064760","lifecycleCounts":{"operational":1},"locationPrecision":"exact","name":"Atbarah solar project","operatingCapacityCoverage":{"coveragePercent":100.0,"knownUnitCount":1,"method":"complete_unit_sum","provenance":{"evidenceCount":0,"recordIds":["wattlas-record-gemunit-g100001074546"],"sourceIds":["gem-global-integrated-power-tracker"],"sourceTypes":["research_verified"],"valueKind":"reported"},"totalUnitCount":1},"operatingCapacityMw":1.2,"operatingCapacityMwByTechnology":{"solar":1.2},"plannedCapacityCoverage":{"coveragePercent":0.0,"knownUnitCount":0,"method":"unavailable","totalUnitCount":0},"plannedCapacityMw":0.0,"plannedCapacityMwByTechnology":{},"recordCount":1,"recordIds":["wattlas-record-gemunit-g100001074546"],"sourceIds":["gem-global-integrated-power-tracker"],"sourceUrl":"https://www.gem.wiki/Atbarah_solar_project","technologies":["solar"],"technologyMixMw":{"solar":1.2},"unitCount":1,"unitIds":["gem-unit-G100001074546"]},"type":"Feature"},{"geometry":{"coordinates":[34.001093,17.612329],"type":"Point"},"id":"wattlas-plant-osm-way-1223707633","properties":{"aliases":["مشروع ماس للطاقة الشمسية"],"canonicalAnchor":"osm:way/1223707633","canonicalCountryKey":"SD","capacityMw":54.0,"country":"SD","externalIds":{"osm":"way/1223707633"},"geographyId":"SD-86620642B58839150544065","id":"wattlas-plant-osm-way-1223707633","lifecycleCounts":{"operational":1},"locationPrecision":"exact","name":"مشروع ماس للطاقة الشمسية","operatingCapacityCoverage":{"coveragePercent":100.0,"knownUnitCount":0,"method":"plant_aggregate","provenance":{"evidenceCount":0,"recordIds":["wattlas-record-osm-way-1223707633"],"sourceIds":["openstreetmap-power"],"sourceTypes":["community_mapped"],"valueKind":"reported"},"totalUnitCount":0},"operatingCapacityMw":54.0,"operatingCapacityMwByTechnology":{"solar":54.0},"plannedCapacityCoverage":{"coveragePercent":0.0,"knownUnitCount":0,"method":"unavailable","totalUnitCount":0},"plannedCapacityMw":0.0,"plannedCapacityMwByTechnology":{},"recordCount":1,"recordIds":["wattlas-record-osm-way-1223707633"],"sourceIds":["openstreetmap-power"],"sourceUrl":"https://www.openstreetmap.org/way/1223707633","technologies":["solar"],"technologyMixMw":{"solar":54.0},"unitCount":0,"unitIds":[]},"type":"Feature"},{"geometry":{"coordinates":[32.696772,16.118514],"type":"Point"},"id":"wattlas-plant-osm-way-179156186","properties":{"aliases":["محطة قري"],"canonicalAnchor":"osm:way/179156186","canonicalCountryKey":"SD","capacityMw":1111.0,"country":"SD","externalIds":{"osm":"way/179156186"},"geographyId":"SD-86620642B69351377969837","id":"wattlas-plant-osm-way-179156186","lifecycleCounts":{"operational":1},"locationPrecision":"exact","name":"محطة قري","operatingCapacityCoverage":{"coveragePercent":100.0,"knownUnitCount":0,"method":"plant_aggregate","provenance":{"evidenceCount":0,"recordIds":["wattlas-record-osm-way-179156186"],"sourceIds":["openstreetmap-power"],"sourceTypes":["community_mapped"],"valueKind":"reported"},"totalUnitCount":0},"operatingCapacityMw":1111.0,"operatingCapacityMwByTechnology":{"oil":1111.0},"plannedCapacityCoverage":{"coveragePercent":0.0,"knownUnitCount":0,"method":"unavailable","totalUnitCount":0},"plannedCapacityMw":0.0,"plannedCapacityMwByTechnology":{},"recordCount":1,"recordIds":["wattlas-record-osm-way-179156186"],"sourceIds":["openstreetmap-power"],"sourceUrl":"https://www.openstreetmap.org/way/179156186","technologies":["oil"],"technologyMixMw":{"oil":1111.0},"unitCount":0,"unitIds":[]},"type":"Feature"},{"geometry":{"coordinates":[35.906492,14.9259],"type":"Point"},"id":"wattlas-plant-osm-way-261472032","properties":{"aliases":["El Girba"],"canonicalAnchor":"osm:way/261472032","canonicalCountryKey":"SD","capacityMw":10.0,"country":"SD","externalIds":{"osm":"way/261472032"},"geographyId":"SD-86620642B34113093603931","id":"wattlas-plant-osm-way-261472032","lifecycleCounts":{"operational":1},"locationPrecision":"exact","name":"El Girba","operatingCapacityCoverage":{"coveragePercent":100.0,"knownUnitCount":0,"method":"plant_aggregate","provenance":{"evidenceCount":0,"recordIds":["wattlas-record-osm-way-261472032"],"sourceIds":["openstreetmap-power"],"sourceTypes":["community_mapped"],"valueKind":"reported"},"totalUnitCount":0},"operatingCapacityMw":10.0,"operatingCapacityMwByTechnology":{"hydro":10.0},"plannedCapacityCoverage":{"coveragePercent":0.0,"knownUnitCount":0,"method":"unavailable","totalUnitCount":0},"plannedCapacityMw":0.0,"plannedCapacityMwByTechnology":{},"recordCount":1,"recordIds":["wattlas-record-osm-way-261472032"],"sourceIds":["openstreetmap-power"],"sourceUrl":"https://www.openstreetmap.org/way/261472032","technologies":["hydro"],"technologyMixMw":{"hydro":10.0},"unitCount":0,"unitIds":[]},"type":"Feature"},{"geometry":{"coordinates":[37.248881,19.519829],"type":"Point"},"id":"wattlas-plant-osm-way-843330771","properties":{"aliases":["Port Sudan Power Plant"],"canonicalAnchor":"osm:way/843330771","canonicalCountryKey":"SD","capacityMw":0.0,"country":"SD","externalIds":{"osm":"way/843330771"},"geographyId":"SD-86620642B7664605185235","id":"wattlas-plant-osm-way-843330771","lifecycleCounts":{"operational":1},"locationPrecision":"exact","name":"Port Sudan Power Plant","operatingCapacityCoverage":{"coveragePercent":0.0,"knownUnitCount":0,"method":"unavailable","totalUnitCount":0},"operatingCapacityMw":0.0,"operatingCapacityMwByTechnology":{},"plannedCapacityCoverage":{"coveragePercent":0.0,"knownUnitCount":0,"method":"unavailable","totalUnitCount":0},"plannedCapacityMw":0.0,"plannedCapacityMwByTechnology":{},"recordCount":1,"recordIds":["wattlas-record-osm-way-843330771"],"sourceIds":["openstreetmap-power"],"sourceUrl":"https://www.openstreetmap.org/way/843330771","technologies":["gas"],"technologyMixMw":{"gas":0.0},"unitCount":0,"unitIds":[]},"type":"Feature"},{"geometry":{"coordinates":[32.468487,14.072218],"type":"Point"},"id":"wattlas-plant-osm-way-946578910","properties":{"aliases":["White Nile Sugar Co Power Plant"],"canonicalAnchor":"osm:way/946578910","canonicalCountryKey":"SD","capacityMw":0.0,"country":"SD","externalIds":{"osm":"way/946578910"},"geographyId":"SD-86620642B32971775067484","id":"wattlas-plant-osm-way-946578910","lifecycleCounts":{"operational":1},"locationPrecision":"exact","name":"White Nile Sugar Co Power Plant","operatingCapacityCoverage":{"coveragePercent":0.0,"knownUnitCount":0,"method":"unavailable","totalUnitCount":0},"operatingCapacityMw":0.0,"operatingCapacityMwByTechnology":{},"plannedCapacityCoverage":{"coveragePercent":0.0,"knownUnitCount":0,"method":"unavailable","totalUnitCount":0},"plannedCapacityMw":0.0,"plannedCapacityMwByTechnology":{},"recordCount":1,"recordIds":["wattlas-record-osm-way-946578910"],"sourceIds":["openstreetmap-power"],"sourceUrl":"https://www.openstreetmap.org/way/946578910","technologies":["biomass"],"technologyMixMw":{"biomass":0.0},"unitCount":0,"unitIds":[]},"type":"Feature"},{"geometry":{"coordinates":[25.462689,13.670292],"type":"Point"},"id":"wattlas-plant-osm-way-949793839","properties":{"aliases":["Mapped power plant · OSM 949793839"],"canonicalAnchor":"osm:way/949793839","canonicalCountryKey":"SD","capacityMw":0.0,"country":"SD","externalIds":{"osm":"way/949793839"},"geographyId":"SD-86620642B32784125865646","id":"wattlas-plant-osm-way-949793839","lifecycleCounts":{"operational":1},"locationPrecision":"exact","name":"Mapped power plant · OSM 949793839","operatingCapacityCoverage":{"coveragePercent":0.0,"knownUnitCount":0,"method":"unavailable","totalUnitCount":0},"operatingCapacityMw":0.0,"operatingCapacityMwByTechnology":{},"plannedCapacityCoverage":{"coveragePercent":0.0,"knownUnitCount":0,"method":"unavailable","totalUnitCount":0},"plannedCapacityMw":0.0,"plannedCapacityMwByTechnology":{},"recordCount":1,"recordIds":["wattlas-record-osm-way-949793839"],"sourceIds":["openstreetmap-power"],"sourceUrl":"https://www.openstreetmap.org/way/949793839","technologies":["solar"],"technologyMixMw":{"solar":0.0},"unitCount":0,"unitIds":[]},"type":"Feature"},{"geometry":{"coordinates":[34.386721,11.797628],"type":"Point"},"id":"wattlas-plant-wikidata-q1265064","properties":{"aliases":["Roseires Dam Power Station"],"canonicalAnchor":"wikidata:Q1265064","canonicalCountryKey":"SD","capacityMw":250.0,"country":"SD","externalIds":{"osm":"way/306787728","wikidata":"Q1265064"},"geographyId":"SD-86620642B86272532082738","id":"wattlas-plant-wikidata-q1265064","idAliases":["wattlas-plant-osm-way-306787728"],"lifecycleCounts":{"operational":1},"locationPrecision":"exact","name":"Roseires Dam Power Station","operatingCapacityCoverage":{"coveragePercent":100.0,"knownUnitCount":0,"method":"plant_aggregate","provenance":{"evidenceCount":0,"recordIds":["wattlas-record-osm-way-306787728"],"sourceIds":["openstreetmap-power"],"sourceTypes":["community_mapped"],"valueKind":"reported"},"totalUnitCount":0},"operatingCapacityMw":250.0,"operatingCapacityMwByTechnology":{"hydro":250.0},"plannedCapacityCoverage":{"coveragePercent":0.0,"knownUnitCount":0,"method":"unavailable","totalUnitCount":0},"plannedCapacityMw":0.0,"plannedCapacityMwByTechnology":{},"recordCount":1,"recordIds":["wattlas-record-osm-way-306787728"],"sourceIds":["openstreetmap-power"],"sourceUrl":"https://www.openstreetmap.org/way/306787728","technologies":["hydro"],"technologyMixMw":{"hydro":250.0},"unitCount":0,"unitIds":[]},"type":"Feature"},{"geometry":{"coordinates":[32.052989,18.669014],"type":"Point"},"id":"wattlas-plant-wikidata-q1921988","properties":{"aliases":["Merowe-Hamdab High Dam Hydroelectric power plant"],"canonicalAnchor":"wikidata:Q1921988","canonicalCountryKey":"SD","capacityMw":1250.0,"country":"SD","externalIds":{"osm":"way/218610666","wikidata":"Q1921988"},"geographyId":"SD-86620642B89646054714247","id":"wattlas-plant-wikidata-q1921988","idAliases":["wattlas-plant-osm-way-218610666"],"lifecycleCounts":{"operational":1},"locationPrecision":"exact","name":"Merowe-Hamdab High Dam Hydroelectric power plant","operatingCapacityCoverage":{"coveragePercent":100.0,"knownUnitCount":0,"method":"plant_aggregate","provenance":{"evidenceCount":0,"recordIds":["wattlas-record-osm-way-218610666"],"sourceIds":["openstreetmap-power"],"sourceTypes":["community_mapped"],"valueKind":"reported"},"totalUnitCount":0},"operatingCapacityMw":1250.0,"operatingCapacityMwByTechnology":{"hydro":1250.0},"plannedCapacityCoverage":{"coveragePercent":0.0,"knownUnitCount":0,"method":"unavailable","totalUnitCount":0},"plannedCapacityMw":0.0,"plannedCapacityMwByTechnology":{},"recordCount":1,"recordIds":["wattlas-record-osm-way-218610666"],"sourceIds":["openstreetmap-power"],"sourceUrl":"https://www.openstreetmap.org/way/218610666","technologies":["hydro"],"technologyMixMw":{"hydro":1250.0},"unitCount":0,"unitIds":[]},"type":"Feature"},{"geometry":{"coordinates":[32.484928,15.238729],"type":"Point"},"id":"wattlas-plant-wikidata-q2885151","properties":{"aliases":["Jebel Aulia Dam"],"canonicalAnchor":"wikidata:Q2885151","canonicalCountryKey":"SD","capacityMw":30.4,"country":"SD","externalIds":{"osm":"way/157755082","wikidata":"Q2885151"},"geographyId":"SD-86620642B69351377969837","id":"wattlas-plant-wikidata-q2885151","idAliases":["wattlas-plant-osm-way-157755082"],"lifecycleCounts":{"operational":1},"locationPrecision":"exact","name":"Jebel Aulia Dam","operatingCapacityCoverage":{"coveragePercent":100.0,"knownUnitCount":0,"method":"plant_aggregate","provenance":{"evidenceCount":0,"recordIds":["wattlas-record-osm-way-157755082"],"sourceIds":["openstreetmap-power"],"sourceTypes":["community_mapped"],"valueKind":"reported"},"totalUnitCount":0},"operatingCapacityMw":30.4,"operatingCapacityMwByTechnology":{"hydro":30.4},"plannedCapacityCoverage":{"coveragePercent":0.0,"knownUnitCount":0,"method":"unavailable","totalUnitCount":0},"plannedCapacityMw":0.0,"plannedCapacityMwByTechnology":{},"recordCount":1,"recordIds":["wattlas-record-osm-way-157755082"],"sourceIds":["openstreetmap-power"],"sourceUrl":"https://www.openstreetmap.org/way/157755082","technologies":["hydro"],"technologyMixMw":{"hydro":30.4},"unitCount":0,"unitIds":[]},"type":"Feature"},{"geometry":{"coordinates":[35.91804,14.243433],"type":"Point"},"id":"wattlas-plant-wikidata-q3013139","properties":{"aliases":["Mapped power plant · OSM 753188468"],"canonicalAnchor":"wikidata:Q3013139","canonicalCountryKey":"SD","capacityMw":320.0,"country":"SD","externalIds":{"osm":"way/753188468","wikidata":"Q3013139"},"geographyId":"SD-86620642B51630913908628","id":"wattlas-plant-wikidata-q3013139","idAliases":["wattlas-plant-osm-way-753188468"],"lifecycleCounts":{"operational":1},"locationPrecision":"exact","name":"Mapped power plant · OSM 753188468","operatingCapacityCoverage":{"coveragePercent":100.0,"knownUnitCount":0,"method":"plant_aggregate","provenance":{"evidenceCount":0,"recordIds":["wattlas-record-osm-way-753188468"],"sourceIds":["openstreetmap-power"],"sourceTypes":["community_mapped"],"valueKind":"reported"},"totalUnitCount":0},"operatingCapacityMw":320.0,"operatingCapacityMwByTechnology":{"hydro":320.0},"plannedCapacityCoverage":{"coveragePercent":0.0,"knownUnitCount":0,"method":"unavailable","totalUnitCount":0},"plannedCapacityMw":0.0,"plannedCapacityMwByTechnology":{},"recordCount":1,"recordIds":["wattlas-record-osm-way-753188468"],"sourceIds":["openstreetmap-power"],"sourceUrl":"https://www.openstreetmap.org/way/753188468","technologies":["hydro"],"technologyMixMw":{"hydro":320.0},"unitCount":0,"unitIds":[]},"type":"Feature"},{"geometry":{"coordinates":[32.562192,15.650404],"type":"Point"},"id":"wattlas-plant-wikidata-q56373919","properties":{"aliases":["محطة الشهيد د/ محمود شريف الحرارية"],"canonicalAnchor":"wikidata:Q56373919","canonicalCountryKey":"SD","capacityMw":380.0,"country":"SD","externalIds":{"osm":"way/98282348","wikidata":"Q56373919"},"geographyId":"SD-86620642B69351377969837","id":"wattlas-plant-wikidata-q56373919","idAliases":["wattlas-plant-osm-way-98282348"],"lifecycleCounts":{"operational":1},"locationPrecision":"exact","name":"محطة الشهيد د/ محمود شريف الحرارية","operatingCapacityCoverage":{"coveragePercent":100.0,"knownUnitCount":0,"method":"plant_aggregate","provenance":{"evidenceCount":0,"recordIds":["wattlas-record-osm-way-98282348"],"sourceIds":["openstreetmap-power"],"sourceTypes":["community_mapped"],"valueKind":"reported"},"totalUnitCount":0},"operatingCapacityMw":380.0,"operatingCapacityMwByTechnology":{"oil":380.0},"plannedCapacityCoverage":{"coveragePercent":0.0,"knownUnitCount":0,"method":"unavailable","totalUnitCount":0},"plannedCapacityMw":0.0,"plannedCapacityMwByTechnology":{},"recordCount":1,"recordIds":["wattlas-record-osm-way-98282348"],"sourceIds":["openstreetmap-power"],"sourceUrl":"https://www.openstreetmap.org/way/98282348","technologies":["oil"],"technologyMixMw":{"oil":380.0},"unitCount":0,"unitIds":[]},"type":"Feature"},{"geometry":{"coordinates":[32.826666,13.206763],"type":"Point"},"id":"wattlas-plant-wikidata-q56373933","properties":{"aliases":["محطة كهرباء أم دباكر"],"canonicalAnchor":"wikidata:Q56373933","canonicalCountryKey":"SD","capacityMw":500.0,"country":"SD","externalIds":{"osm":"way/237070021","wikidata":"Q56373933"},"geographyId":"SD-86620642B32971775067484","id":"wattlas-plant-wikidata-q56373933","idAliases":["wattlas-plant-osm-way-237070021"],"lifecycleCounts":{"operational":1},"locationPrecision":"exact","name":"محطة كهرباء أم دباكر","operatingCapacityCoverage":{"coveragePercent":100.0,"knownUnitCount":0,"method":"plant_aggregate","provenance":{"evidenceCount":0,"recordIds":["wattlas-record-osm-way-237070021"],"sourceIds":["openstreetmap-power"],"sourceTypes":["community_mapped"],"valueKind":"reported"},"totalUnitCount":0},"operatingCapacityMw":500.0,"operatingCapacityMwByTechnology":{"oil":500.0},"plannedCapacityCoverage":{"coveragePercent":0.0,"knownUnitCount":0,"method":"unavailable","totalUnitCount":0},"plannedCapacityMw":0.0,"plannedCapacityMwByTechnology":{},"recordCount":1,"recordIds":["wattlas-record-osm-way-237070021"],"sourceIds":["openstreetmap-power"],"sourceUrl":"https://www.openstreetmap.org/way/237070021","technologies":["oil"],"technologyMixMw":{"oil":500.0},"unitCount":0,"unitIds":[]},"type":"Feature"}],"type":"FeatureCollection"}