{"features":[{"geometry":{"coordinates":[1.302176,6.15684],"type":"Point"},"id":"wattlas-plant-gemplant-l100000409045","properties":{"aliases":["1-1","Lomé Contour power station"],"canonicalAnchor":"gemplant:L100000409045","canonicalCountryKey":"TG","capacityMw":100.0,"country":"TG","externalIds":{"gemPlant":"L100000409045","gemUnit":"G100000413537"},"gemWikiUrl":"https://www.gem.wiki/Lomé_Contour_power_station","geographyId":"TG-44829518B32493797453601","id":"wattlas-plant-gemplant-l100000409045","lifecycleCounts":{"operational":1},"locationPrecision":"exact","name":"Lomé Contour power station","operatingCapacityCoverage":{"coveragePercent":100.0,"knownUnitCount":1,"method":"complete_unit_sum","provenance":{"evidenceCount":0,"recordIds":["wattlas-record-gemunit-g100000413537"],"sourceIds":["gem-global-integrated-power-tracker"],"sourceTypes":["research_verified"],"valueKind":"reported"},"totalUnitCount":1},"operatingCapacityMw":100.0,"operatingCapacityMwByTechnology":{"gas":100.0},"plannedCapacityCoverage":{"coveragePercent":0.0,"knownUnitCount":0,"method":"unavailable","totalUnitCount":0},"plannedCapacityMw":0.0,"plannedCapacityMwByTechnology":{},"recordCount":1,"recordIds":["wattlas-record-gemunit-g100000413537"],"sourceIds":["gem-global-integrated-power-tracker"],"sourceUrl":"https://www.gem.wiki/Lomé_Contour_power_station","technologies":["gas"],"technologyMixMw":{"gas":100.0},"unitCount":1,"unitIds":["gem-unit-G100000413537"]},"type":"Feature"},{"geometry":{"coordinates":[1.5593,6.9826],"type":"Point"},"id":"wattlas-plant-gemplant-l100000604069","properties":{"aliases":["Adjarala hydroelectric plant"],"canonicalAnchor":"gemplant:L100000604069","canonicalCountryKey":"TG","capacityMw":0.0,"country":"TG","externalIds":{"gemPlant":"L100000604069","gemUnit":"G100000604199"},"gemWikiUrl":"https://www.gem.wiki/Adjarala_hydroelectric_plant","geographyId":"TG-44829518B26250432968900","id":"wattlas-plant-gemplant-l100000604069","lifecycleCounts":{"cancelled":1},"locationPrecision":"exact","name":"Adjarala hydroelectric plant","operatingCapacityCoverage":{"coveragePercent":0.0,"knownUnitCount":0,"method":"unavailable","totalUnitCount":0},"operatingCapacityMw":0.0,"operatingCapacityMwByTechnology":{},"plannedCapacityCoverage":{"coveragePercent":0.0,"knownUnitCount":0,"method":"unavailable","totalUnitCount":0},"plannedCapacityMw":0.0,"plannedCapacityMwByTechnology":{},"recordCount":1,"recordIds":["wattlas-record-gemunit-g100000604199"],"sourceIds":["gem-global-integrated-power-tracker"],"sourceUrl":"https://www.gem.wiki/Adjarala_hydroelectric_plant","technologies":["hydro"],"technologyMixMw":{"hydro":0.0},"unitCount":1,"unitIds":["gem-unit-G100000604199"]},"type":"Feature"},{"geometry":{"coordinates":[1.0103,8.3078],"type":"Point"},"id":"wattlas-plant-gemplant-l100000800292","properties":{"aliases":["1.0","2.0","3.0","Sheikh Mohamed Bin Zayed solar farm","future phases"],"canonicalAnchor":"gemplant:L100000800292","canonicalCountryKey":"TG","capacityMw":100.0,"country":"TG","externalIdAliases":{"gemUnit":["G100000800345","G100000800346","G100000831296","G100001051388"]},"externalIds":{"gemPlant":"L100000800292","gemUnit":"G100001051388"},"gemWikiUrl":"https://www.gem.wiki/Sheikh_Mohamed_Bin_Zayed_solar_farm","geographyId":"TG-44829518B22237151485853","id":"wattlas-plant-gemplant-l100000800292","lifecycleCounts":{"announced":1,"operational":3},"locationPrecision":"exact","name":"Sheikh Mohamed Bin Zayed solar farm","operatingCapacityCoverage":{"coveragePercent":100.0,"knownUnitCount":3,"method":"complete_unit_sum","provenance":{"evidenceCount":0,"recordIds":["wattlas-record-gemunit-g100000800345","wattlas-record-gemunit-g100000800346","wattlas-record-gemunit-g100000831296"],"sourceIds":["gem-global-integrated-power-tracker"],"sourceTypes":["research_verified"],"valueKind":"reported"},"totalUnitCount":3},"operatingCapacityMw":70.0,"operatingCapacityMwByTechnology":{"solar":70.0},"plannedCapacityCoverage":{"coveragePercent":100.0,"knownUnitCount":1,"method":"complete_unit_sum","provenance":{"evidenceCount":0,"recordIds":["wattlas-record-gemunit-g100001051388"],"sourceIds":["gem-global-integrated-power-tracker"],"sourceTypes":["research_verified"],"valueKind":"reported"},"totalUnitCount":1},"plannedCapacityMw":30.0,"plannedCapacityMwByTechnology":{"solar":30.0},"recordCount":4,"recordIds":["wattlas-record-gemunit-g100000800345","wattlas-record-gemunit-g100000800346","wattlas-record-gemunit-g100000831296","wattlas-record-gemunit-g100001051388"],"sourceIds":["gem-global-integrated-power-tracker"],"sourceUrl":"https://www.gem.wiki/Sheikh_Mohamed_Bin_Zayed_solar_farm","technologies":["solar"],"technologyMixMw":{"solar":100.0},"unitCount":4,"unitIds":["gem-unit-G100000800345","gem-unit-G100000800346","gem-unit-G100000831296","gem-unit-G100001051388"]},"type":"Feature"},{"geometry":{"coordinates":[1.3042,6.2064],"type":"Point"},"id":"wattlas-plant-gemplant-l100000900006","properties":{"aliases":["--","Lomé wind farm"],"canonicalAnchor":"gemplant:L100000900006","canonicalCountryKey":"TG","capacityMw":0.0,"country":"TG","externalIds":{"gemPlant":"L100000900006","gemUnit":"G100000900006"},"gemWikiUrl":"https://www.gem.wiki/Lomé_wind_farm","geographyId":"TG-44829518B32493797453601","id":"wattlas-plant-gemplant-l100000900006","lifecycleCounts":{"cancelled":1},"locationPrecision":"exact","name":"Lomé wind farm","operatingCapacityCoverage":{"coveragePercent":0.0,"knownUnitCount":0,"method":"unavailable","totalUnitCount":0},"operatingCapacityMw":0.0,"operatingCapacityMwByTechnology":{},"plannedCapacityCoverage":{"coveragePercent":0.0,"knownUnitCount":0,"method":"unavailable","totalUnitCount":0},"plannedCapacityMw":0.0,"plannedCapacityMwByTechnology":{},"recordCount":1,"recordIds":["wattlas-record-gemunit-g100000900006"],"sourceIds":["gem-global-integrated-power-tracker"],"sourceUrl":"https://www.gem.wiki/Lomé_wind_farm","technologies":["wind"],"technologyMixMw":{"wind":0.0},"unitCount":1,"unitIds":["gem-unit-G100000900006"]},"type":"Feature"},{"geometry":{"coordinates":[1.2272,9.4639],"type":"Point"},"id":"wattlas-plant-gemplant-l100001021049","properties":{"aliases":["--","Kara Kozah solar project"],"canonicalAnchor":"gemplant:L100001021049","canonicalCountryKey":"TG","capacityMw":2.9,"country":"TG","externalIds":{"gemPlant":"L100001021049","gemUnit":"G100001024018"},"gemWikiUrl":"https://www.gem.wiki/Kara_Kozah_solar_project","geographyId":"TG-44829518B37847489557890","id":"wattlas-plant-gemplant-l100001021049","lifecycleCounts":{"operational":1},"locationPrecision":"exact","name":"Kara Kozah solar project","operatingCapacityCoverage":{"coveragePercent":100.0,"knownUnitCount":1,"method":"complete_unit_sum","provenance":{"evidenceCount":0,"recordIds":["wattlas-record-gemunit-g100001024018"],"sourceIds":["gem-global-integrated-power-tracker"],"sourceTypes":["research_verified"],"valueKind":"reported"},"totalUnitCount":1},"operatingCapacityMw":2.9,"operatingCapacityMwByTechnology":{"solar":2.9},"plannedCapacityCoverage":{"coveragePercent":0.0,"knownUnitCount":0,"method":"unavailable","totalUnitCount":0},"plannedCapacityMw":0.0,"plannedCapacityMwByTechnology":{},"recordCount":1,"recordIds":["wattlas-record-gemunit-g100001024018"],"sourceIds":["gem-global-integrated-power-tracker"],"sourceUrl":"https://www.gem.wiki/Kara_Kozah_solar_project","technologies":["solar"],"technologyMixMw":{"solar":2.9},"unitCount":1,"unitIds":["gem-unit-G100001024018"]},"type":"Feature"},{"geometry":{"coordinates":[1.435,7.424],"type":"Point"},"id":"wattlas-plant-gemplant-l100001023284","properties":{"aliases":["Nangbeto hydroelectric plant"],"canonicalAnchor":"gemplant:L100001023284","canonicalCountryKey":"TG","capacityMw":66.0,"country":"TG","externalIds":{"gemPlant":"L100001023284","gemUnit":"G100001027489"},"gemWikiUrl":"https://www.gem.wiki/Nangbeto_hydroelectric_plant","geographyId":"TG-44829518B26250432968900","id":"wattlas-plant-gemplant-l100001023284","lifecycleCounts":{"operational":1},"locationPrecision":"exact","name":"Nangbeto hydroelectric plant","operatingCapacityCoverage":{"coveragePercent":100.0,"knownUnitCount":1,"method":"complete_unit_sum","provenance":{"evidenceCount":0,"recordIds":["wattlas-record-gemunit-g100001027489"],"sourceIds":["gem-global-integrated-power-tracker"],"sourceTypes":["research_verified"],"valueKind":"reported"},"totalUnitCount":1},"operatingCapacityMw":66.0,"operatingCapacityMwByTechnology":{"hydro":66.0},"plannedCapacityCoverage":{"coveragePercent":0.0,"knownUnitCount":0,"method":"unavailable","totalUnitCount":0},"plannedCapacityMw":0.0,"plannedCapacityMwByTechnology":{},"recordCount":1,"recordIds":["wattlas-record-gemunit-g100001027489"],"sourceIds":["gem-global-integrated-power-tracker"],"sourceUrl":"https://www.gem.wiki/Nangbeto_hydroelectric_plant","technologies":["hydro"],"technologyMixMw":{"hydro":66.0},"unitCount":1,"unitIds":["gem-unit-G100001027489"]},"type":"Feature"},{"geometry":{"coordinates":[1.5714,6.6242],"type":"Point"},"id":"wattlas-plant-gemplant-l100001064991","properties":{"aliases":["--","Maritime Region solar project"],"canonicalAnchor":"gemplant:L100001064991","canonicalCountryKey":"TG","capacityMw":8.1,"country":"TG","externalIds":{"gemPlant":"L100001064991","gemUnit":"G100001074777"},"gemWikiUrl":"https://www.gem.wiki/Maritime_Region_solar_project","geographyId":"TG-44829518B32493797453601","id":"wattlas-plant-gemplant-l100001064991","lifecycleCounts":{"operational":1},"locationPrecision":"exact","name":"Maritime Region solar project","operatingCapacityCoverage":{"coveragePercent":100.0,"knownUnitCount":1,"method":"complete_unit_sum","provenance":{"evidenceCount":0,"recordIds":["wattlas-record-gemunit-g100001074777"],"sourceIds":["gem-global-integrated-power-tracker"],"sourceTypes":["research_verified"],"valueKind":"reported"},"totalUnitCount":1},"operatingCapacityMw":8.1,"operatingCapacityMwByTechnology":{"solar":8.1},"plannedCapacityCoverage":{"coveragePercent":0.0,"knownUnitCount":0,"method":"unavailable","totalUnitCount":0},"plannedCapacityMw":0.0,"plannedCapacityMwByTechnology":{},"recordCount":1,"recordIds":["wattlas-record-gemunit-g100001074777"],"sourceIds":["gem-global-integrated-power-tracker"],"sourceUrl":"https://www.gem.wiki/Maritime_Region_solar_project","technologies":["solar"],"technologyMixMw":{"solar":8.1},"unitCount":1,"unitIds":["gem-unit-G100001074777"]},"type":"Feature"},{"geometry":{"coordinates":[0.647165,7.006604],"type":"Point"},"id":"wattlas-plant-osm-way-232409099","properties":{"aliases":["Centrale Hydraulique de Kpimé"],"canonicalAnchor":"osm:way/232409099","canonicalCountryKey":"TG","capacityMw":1.5,"country":"TG","externalIds":{"osm":"way/232409099"},"geographyId":"TG-44829518B26250432968900","id":"wattlas-plant-osm-way-232409099","lifecycleCounts":{"operational":1},"locationPrecision":"exact","name":"Centrale Hydraulique de Kpimé","operatingCapacityCoverage":{"coveragePercent":100.0,"knownUnitCount":0,"method":"plant_aggregate","provenance":{"evidenceCount":0,"recordIds":["wattlas-record-osm-way-232409099"],"sourceIds":["openstreetmap-power"],"sourceTypes":["community_mapped"],"valueKind":"reported"},"totalUnitCount":0},"operatingCapacityMw":1.5,"operatingCapacityMwByTechnology":{"hydro":1.5},"plannedCapacityCoverage":{"coveragePercent":0.0,"knownUnitCount":0,"method":"unavailable","totalUnitCount":0},"plannedCapacityMw":0.0,"plannedCapacityMwByTechnology":{},"recordCount":1,"recordIds":["wattlas-record-osm-way-232409099"],"sourceIds":["openstreetmap-power"],"sourceUrl":"https://www.openstreetmap.org/way/232409099","technologies":["hydro"],"technologyMixMw":{"hydro":1.5},"unitCount":0,"unitIds":[]},"type":"Feature"},{"geometry":{"coordinates":[1.306263,6.155879],"type":"Point"},"id":"wattlas-plant-osm-way-871984937","properties":{"aliases":["Kékéli Efficient Power"],"canonicalAnchor":"osm:way/871984937","canonicalCountryKey":"TG","capacityMw":65.0,"country":"TG","externalIds":{"osm":"way/871984937"},"geographyId":"TG-44829518B32493797453601","id":"wattlas-plant-osm-way-871984937","lifecycleCounts":{"operational":1},"locationPrecision":"exact","name":"Kékéli Efficient Power","operatingCapacityCoverage":{"coveragePercent":100.0,"knownUnitCount":0,"method":"plant_aggregate","provenance":{"evidenceCount":0,"recordIds":["wattlas-record-osm-way-871984937"],"sourceIds":["openstreetmap-power"],"sourceTypes":["community_mapped"],"valueKind":"reported"},"totalUnitCount":0},"operatingCapacityMw":65.0,"operatingCapacityMwByTechnology":{"gas":65.0},"plannedCapacityCoverage":{"coveragePercent":0.0,"knownUnitCount":0,"method":"unavailable","totalUnitCount":0},"plannedCapacityMw":0.0,"plannedCapacityMwByTechnology":{},"recordCount":1,"recordIds":["wattlas-record-osm-way-871984937"],"sourceIds":["openstreetmap-power"],"sourceUrl":"https://www.openstreetmap.org/way/871984937","technologies":["gas"],"technologyMixMw":{"gas":65.0},"unitCount":0,"unitIds":[]},"type":"Feature"},{"geometry":{"coordinates":[1.018683,8.364702],"type":"Point"},"id":"wattlas-plant-osm-way-913557780","properties":{"aliases":["Centrale Solaire Photovoltaïque de Blitta"],"canonicalAnchor":"osm:way/913557780","canonicalCountryKey":"TG","capacityMw":50.0,"country":"TG","externalIds":{"osm":"way/913557780"},"geographyId":"TG-44829518B22237151485853","id":"wattlas-plant-osm-way-913557780","lifecycleCounts":{"operational":1},"locationPrecision":"exact","name":"Centrale Solaire Photovoltaïque de Blitta","operatingCapacityCoverage":{"coveragePercent":100.0,"knownUnitCount":0,"method":"plant_aggregate","provenance":{"evidenceCount":0,"recordIds":["wattlas-record-osm-way-913557780"],"sourceIds":["openstreetmap-power"],"sourceTypes":["community_mapped"],"valueKind":"reported"},"totalUnitCount":0},"operatingCapacityMw":50.0,"operatingCapacityMwByTechnology":{"solar":50.0},"plannedCapacityCoverage":{"coveragePercent":0.0,"knownUnitCount":0,"method":"unavailable","totalUnitCount":0},"plannedCapacityMw":0.0,"plannedCapacityMwByTechnology":{},"recordCount":1,"recordIds":["wattlas-record-osm-way-913557780"],"sourceIds":["openstreetmap-power"],"sourceUrl":"https://www.openstreetmap.org/way/913557780","technologies":["solar"],"technologyMixMw":{"solar":50.0},"unitCount":0,"unitIds":[]},"type":"Feature"},{"geometry":{"coordinates":[1.435319,7.423347],"type":"Point"},"id":"wattlas-plant-wikidata-q56372012","properties":{"aliases":["Centrale hydroélectrique de Nangbéto"],"canonicalAnchor":"wikidata:Q56372012","canonicalCountryKey":"TG","capacityMw":65.6,"country":"TG","externalIds":{"osm":"way/838380160","wikidata":"Q56372012"},"geographyId":"TG-44829518B26250432968900","id":"wattlas-plant-wikidata-q56372012","idAliases":["wattlas-plant-osm-way-838380160"],"lifecycleCounts":{"operational":1},"locationPrecision":"exact","name":"Centrale hydroélectrique de Nangbéto","operatingCapacityCoverage":{"coveragePercent":100.0,"knownUnitCount":0,"method":"plant_aggregate","provenance":{"evidenceCount":0,"recordIds":["wattlas-record-osm-way-838380160"],"sourceIds":["openstreetmap-power"],"sourceTypes":["community_mapped"],"valueKind":"reported"},"totalUnitCount":0},"operatingCapacityMw":65.6,"operatingCapacityMwByTechnology":{"hydro":65.6},"plannedCapacityCoverage":{"coveragePercent":0.0,"knownUnitCount":0,"method":"unavailable","totalUnitCount":0},"plannedCapacityMw":0.0,"plannedCapacityMwByTechnology":{},"recordCount":1,"recordIds":["wattlas-record-osm-way-838380160"],"sourceIds":["openstreetmap-power"],"sourceUrl":"https://www.openstreetmap.org/way/838380160","technologies":["hydro"],"technologyMixMw":{"hydro":65.6},"unitCount":0,"unitIds":[]},"type":"Feature"},{"geometry":{"coordinates":[1.302666,6.158595],"type":"Point"},"id":"wattlas-plant-wikidata-q56372575","properties":{"aliases":["Centrale thermique ContourGlobal"],"canonicalAnchor":"wikidata:Q56372575","canonicalCountryKey":"TG","capacityMw":100.0,"country":"TG","externalIds":{"osm":"way/838378947","wikidata":"Q56372575"},"geographyId":"TG-44829518B32493797453601","id":"wattlas-plant-wikidata-q56372575","idAliases":["wattlas-plant-osm-way-838378947"],"lifecycleCounts":{"operational":1},"locationPrecision":"exact","name":"Centrale thermique ContourGlobal","operatingCapacityCoverage":{"coveragePercent":100.0,"knownUnitCount":0,"method":"plant_aggregate","provenance":{"evidenceCount":0,"recordIds":["wattlas-record-osm-way-838378947"],"sourceIds":["openstreetmap-power"],"sourceTypes":["community_mapped"],"valueKind":"reported"},"totalUnitCount":0},"operatingCapacityMw":100.0,"operatingCapacityMwByTechnology":{"gas":100.0},"plannedCapacityCoverage":{"coveragePercent":0.0,"knownUnitCount":0,"method":"unavailable","totalUnitCount":0},"plannedCapacityMw":0.0,"plannedCapacityMwByTechnology":{},"recordCount":1,"recordIds":["wattlas-record-osm-way-838378947"],"sourceIds":["openstreetmap-power"],"sourceUrl":"https://www.openstreetmap.org/way/838378947","technologies":["gas"],"technologyMixMw":{"gas":100.0},"unitCount":0,"unitIds":[]},"type":"Feature"}],"type":"FeatureCollection"}