{"features":[{"geometry":{"coordinates":[121.298,25.1209],"type":"Point"},"id":"wattlas-plant-gemplant-l100000103544","properties":{"aliases":["Linkou power station","Phase 1 Unit S1","Phase 1 Unit S2","Renewal Unit 1","Renewal Unit 2","Renewal Unit 3"],"canonicalAnchor":"gemplant:L100000103544","canonicalCountryKey":"TW","capacityMw":2400.0,"country":"TW","externalIdAliases":{"gemUnit":["G100000106312","G100000106313","G100000106314","G100000106315","G100000106316"]},"externalIds":{"gemPlant":"L100000103544","gemUnit":"G100000106314"},"gemWikiUrl":"https://www.gem.wiki/Linkou_power_station","geographyId":"TW-90331920B2879670148147","id":"wattlas-plant-gemplant-l100000103544","lifecycleCounts":{"cancelled":2,"operational":3},"locationPrecision":"exact","name":"Linkou power station","operatingCapacityCoverage":{"coveragePercent":100.0,"knownUnitCount":3,"method":"complete_unit_sum","provenance":{"evidenceCount":0,"recordIds":["wattlas-record-gemunit-g100000106312","wattlas-record-gemunit-g100000106313","wattlas-record-gemunit-g100000106314"],"sourceIds":["gem-global-integrated-power-tracker"],"sourceTypes":["research_verified"],"valueKind":"reported"},"totalUnitCount":3},"operatingCapacityMw":2400.0,"operatingCapacityMwByTechnology":{"coal":2400.0},"plannedCapacityCoverage":{"coveragePercent":0.0,"knownUnitCount":0,"method":"unavailable","totalUnitCount":0},"plannedCapacityMw":0.0,"plannedCapacityMwByTechnology":{},"recordCount":5,"recordIds":["wattlas-record-gemunit-g100000106312","wattlas-record-gemunit-g100000106313","wattlas-record-gemunit-g100000106314","wattlas-record-gemunit-g100000106315","wattlas-record-gemunit-g100000106316"],"sourceIds":["gem-global-integrated-power-tracker"],"sourceUrl":"https://www.gem.wiki/Linkou_power_station","technologies":["coal"],"technologyMixMw":{"coal":2400.0},"unitCount":5,"unitIds":["gem-unit-G100000106312","gem-unit-G100000106313","gem-unit-G100000106314","gem-unit-G100000106315","gem-unit-G100000106316"]},"type":"Feature"},{"geometry":{"coordinates":[120.473135,24.219424],"type":"Point"},"id":"wattlas-plant-gemplant-l100000103546","properties":{"aliases":["1-1","2-1","3-1","4-1","CC1-1","CC1-2","CC2-1","CC2-2","CC2-3","CC2-4","Taichung power station","Unit 1","Unit 10","Unit 11","Unit 12","Unit 2","Unit 3","Unit 4","Unit 5","Unit 6","Unit 7","Unit 8","Unit 9"],"canonicalAnchor":"gemplant:L100000103546","canonicalCountryKey":"TW","capacityMw":13580.0,"country":"TW","externalIdAliases":{"gemUnit":["G100000109822","G100000109823","G100000109824","G100000109825","G100000109826","G100000109827","G100000109828","G100000109829","G100000109830","G100000109831","G100000109832","G100000109833","G100000406201","G100000406202","G100000412611","G100000413111","G100000413112","G100000413113","G100000414013","G100000414014","G100001018112","G100001018113"]},"externalIds":{"gemPlant":"L100000103546","gemUnit":"G100000109831"},"gemWikiUrl":"https://www.gem.wiki/Taichung_power_station","geographyId":"TW-90331920B14152728161970","id":"wattlas-plant-gemplant-l100000103546","lifecycleCounts":{"announced":4,"cancelled":2,"operational":14,"under_construction":2},"locationPrecision":"exact","name":"Taichung power station","operatingCapacityCoverage":{"coveragePercent":100.0,"knownUnitCount":14,"method":"complete_unit_sum","provenance":{"evidenceCount":0,"recordIds":["wattlas-record-gemunit-g100000109822","wattlas-record-gemunit-g100000109823","wattlas-record-gemunit-g100000109824","wattlas-record-gemunit-g100000109825","wattlas-record-gemunit-g100000109826","wattlas-record-gemunit-g100000109827","wattlas-record-gemunit-g100000109828","wattlas-record-gemunit-g100000109829","wattlas-record-gemunit-g100000109830","wattlas-record-gemunit-g100000109831","wattlas-record-gemunit-g100000412611","wattlas-record-gemunit-g100000413111","wattlas-record-gemunit-g100000413112","wattlas-record-gemunit-g100000413113"],"sourceIds":["gem-global-integrated-power-tracker"],"sourceTypes":["research_verified"],"valueKind":"reported"},"totalUnitCount":14},"operatingCapacityMw":5780.0,"operatingCapacityMwByTechnology":{"coal":5500.0,"gas":280.0},"plannedCapacityCoverage":{"coveragePercent":100.0,"knownUnitCount":6,"method":"complete_unit_sum","provenance":{"evidenceCount":0,"recordIds":["wattlas-record-gemunit-g100000406201","wattlas-record-gemunit-g100000406202","wattlas-record-gemunit-g100000414013","wattlas-record-gemunit-g100000414014","wattlas-record-gemunit-g100001018112","wattlas-record-gemunit-g100001018113"],"sourceIds":["gem-global-integrated-power-tracker"],"sourceTypes":["research_verified"],"valueKind":"reported"},"totalUnitCount":6},"plannedCapacityMw":7800.0,"plannedCapacityMwByTechnology":{"gas":7800.0},"recordCount":22,"recordIds":["wattlas-record-gemunit-g100000109822","wattlas-record-gemunit-g100000109823","wattlas-record-gemunit-g100000109824","wattlas-record-gemunit-g100000109825","wattlas-record-gemunit-g100000109826","wattlas-record-gemunit-g100000109827","wattlas-record-gemunit-g100000109828","wattlas-record-gemunit-g100000109829","wattlas-record-gemunit-g100000109830","wattlas-record-gemunit-g100000109831","wattlas-record-gemunit-g100000109832","wattlas-record-gemunit-g100000109833","wattlas-record-gemunit-g100000406201","wattlas-record-gemunit-g100000406202","wattlas-record-gemunit-g100000412611","wattlas-record-gemunit-g100000413111","wattlas-record-gemunit-g100000413112","wattlas-record-gemunit-g100000413113","wattlas-record-gemunit-g100000414013","wattlas-record-gemunit-g100000414014","wattlas-record-gemunit-g100001018112","wattlas-record-gemunit-g100001018113"],"sourceIds":["gem-global-integrated-power-tracker"],"sourceUrl":"https://www.gem.wiki/Taichung_power_station","technologies":["coal","gas"],"technologyMixMw":{"coal":5500.0,"gas":8080.0},"unitCount":22,"unitIds":["gem-unit-G100000109822","gem-unit-G100000109823","gem-unit-G100000109824","gem-unit-G100000109825","gem-unit-G100000109826","gem-unit-G100000109827","gem-unit-G100000109828","gem-unit-G100000109829","gem-unit-G100000109830","gem-unit-G100000109831","gem-unit-G100000109832","gem-unit-G100000109833","gem-unit-G100000406201","gem-unit-G100000406202","gem-unit-G100000412611","gem-unit-G100000413111","gem-unit-G100000413112","gem-unit-G100000413113","gem-unit-G100000414013","gem-unit-G100000414014","gem-unit-G100001018112","gem-unit-G100001018113"]},"type":"Feature"},{"geometry":{"coordinates":[121.817221,24.629358],"type":"Point"},"id":"wattlas-plant-gemplant-l100000103554","properties":{"aliases":["Longder power station","Unit LT2","Unit LT3"],"canonicalAnchor":"gemplant:L100000103554","canonicalCountryKey":"TW","capacityMw":324.0,"country":"TW","externalIdAliases":{"gemUnit":["G100000106406","G100000113307"]},"externalIds":{"gemPlant":"L100000103554","gemUnit":"G100000113307"},"gemWikiUrl":"https://www.gem.wiki/Longder_power_station","geographyId":"TW-90331920B81947240122251","id":"wattlas-plant-gemplant-l100000103554","lifecycleCounts":{"operational":2},"locationPrecision":"exact","name":"Longder power station","operatingCapacityCoverage":{"coveragePercent":100.0,"knownUnitCount":2,"method":"complete_unit_sum","provenance":{"evidenceCount":0,"recordIds":["wattlas-record-gemunit-g100000106406","wattlas-record-gemunit-g100000113307"],"sourceIds":["gem-global-integrated-power-tracker"],"sourceTypes":["research_verified"],"valueKind":"reported"},"totalUnitCount":2},"operatingCapacityMw":324.0,"operatingCapacityMwByTechnology":{"coal":324.0},"plannedCapacityCoverage":{"coveragePercent":0.0,"knownUnitCount":0,"method":"unavailable","totalUnitCount":0},"plannedCapacityMw":0.0,"plannedCapacityMwByTechnology":{},"recordCount":2,"recordIds":["wattlas-record-gemunit-g100000106406","wattlas-record-gemunit-g100000113307"],"sourceIds":["gem-global-integrated-power-tracker"],"sourceUrl":"https://www.gem.wiki/Longder_power_station","technologies":["coal"],"technologyMixMw":{"coal":324.0},"unitCount":2,"unitIds":["gem-unit-G100000106406","gem-unit-G100000113307"]},"type":"Feature"},{"geometry":{"coordinates":[121.3687,25.1359],"type":"Point"},"id":"wattlas-plant-gemplant-l100000200046","properties":{"aliases":["1.0","Bali Refuse Incineration power station"],"canonicalAnchor":"gemplant:L100000200046","canonicalCountryKey":"TW","capacityMw":41.0,"country":"TW","externalIds":{"gemPlant":"L100000200046","gemUnit":"G100000200049"},"gemWikiUrl":"https://www.gem.wiki/Bali_Refuse_Incineration_power_station","geographyId":"TW-90331920B2879670148147","id":"wattlas-plant-gemplant-l100000200046","lifecycleCounts":{"operational":1},"locationPrecision":"exact","name":"Bali Refuse Incineration power station","operatingCapacityCoverage":{"coveragePercent":100.0,"knownUnitCount":1,"method":"complete_unit_sum","provenance":{"evidenceCount":0,"recordIds":["wattlas-record-gemunit-g100000200049"],"sourceIds":["gem-global-integrated-power-tracker"],"sourceTypes":["research_verified"],"valueKind":"reported"},"totalUnitCount":1},"operatingCapacityMw":41.0,"operatingCapacityMwByTechnology":{"biomass":41.0},"plannedCapacityCoverage":{"coveragePercent":0.0,"knownUnitCount":0,"method":"unavailable","totalUnitCount":0},"plannedCapacityMw":0.0,"plannedCapacityMwByTechnology":{},"recordCount":1,"recordIds":["wattlas-record-gemunit-g100000200049"],"sourceIds":["gem-global-integrated-power-tracker"],"sourceUrl":"https://www.gem.wiki/Bali_Refuse_Incineration_power_station","technologies":["biomass"],"technologyMixMw":{"biomass":41.0},"unitCount":1,"unitIds":["gem-unit-G100000200049"]},"type":"Feature"},{"geometry":{"coordinates":[121.04822,25.029685],"type":"Point"},"id":"wattlas-plant-gemplant-l100000406335","properties":{"aliases":["1-1","1-7","2-1","2-7","3-1","3-7","4-1","5-1","6-1","8-1","9-1","Datan power station"],"canonicalAnchor":"gemplant:L100000406335","canonicalCountryKey":"TW","capacityMw":6926.0,"country":"TW","externalIdAliases":{"gemUnit":["G100000406182","G100000406183","G100000406184","G100000406185","G100000406186","G100000406187","G100000406188","G100000406189","G100000406190","G100000406191","G100000406192"]},"externalIds":{"gemPlant":"L100000406335","gemUnit":"G100000406192"},"gemWikiUrl":"https://www.gem.wiki/Datan_power_station","geographyId":"TW-90331920B8812801353421","id":"wattlas-plant-gemplant-l100000406335","lifecycleCounts":{"cancelled":2,"operational":8,"under_construction":1},"locationPrecision":"exact","name":"Datan power station","operatingCapacityCoverage":{"coveragePercent":100.0,"knownUnitCount":8,"method":"complete_unit_sum","provenance":{"evidenceCount":0,"recordIds":["wattlas-record-gemunit-g100000406182","wattlas-record-gemunit-g100000406183","wattlas-record-gemunit-g100000406184","wattlas-record-gemunit-g100000406185","wattlas-record-gemunit-g100000406186","wattlas-record-gemunit-g100000406187","wattlas-record-gemunit-g100000406191","wattlas-record-gemunit-g100000406192"],"sourceIds":["gem-global-integrated-power-tracker"],"sourceTypes":["research_verified"],"valueKind":"reported"},"totalUnitCount":8},"operatingCapacityMw":6626.0,"operatingCapacityMwByTechnology":{"gas":6626.0},"plannedCapacityCoverage":{"coveragePercent":100.0,"knownUnitCount":1,"method":"complete_unit_sum","provenance":{"evidenceCount":0,"recordIds":["wattlas-record-gemunit-g100000406190"],"sourceIds":["gem-global-integrated-power-tracker"],"sourceTypes":["research_verified"],"valueKind":"reported"},"totalUnitCount":1},"plannedCapacityMw":300.0,"plannedCapacityMwByTechnology":{"gas":300.0},"recordCount":11,"recordIds":["wattlas-record-gemunit-g100000406182","wattlas-record-gemunit-g100000406183","wattlas-record-gemunit-g100000406184","wattlas-record-gemunit-g100000406185","wattlas-record-gemunit-g100000406186","wattlas-record-gemunit-g100000406187","wattlas-record-gemunit-g100000406188","wattlas-record-gemunit-g100000406189","wattlas-record-gemunit-g100000406190","wattlas-record-gemunit-g100000406191","wattlas-record-gemunit-g100000406192"],"sourceIds":["gem-global-integrated-power-tracker"],"sourceUrl":"https://www.gem.wiki/Datan_power_station","technologies":["gas"],"technologyMixMw":{"gas":6926.0},"unitCount":11,"unitIds":["gem-unit-G100000406182","gem-unit-G100000406183","gem-unit-G100000406184","gem-unit-G100000406185","gem-unit-G100000406186","gem-unit-G100000406187","gem-unit-G100000406188","gem-unit-G100000406189","gem-unit-G100000406190","gem-unit-G100000406191","gem-unit-G100000406192"]},"type":"Feature"},{"geometry":{"coordinates":[120.46985,24.223882],"type":"Point"},"id":"wattlas-plant-gemplant-l100000407867","properties":{"aliases":["1-1","Chungchia power station"],"canonicalAnchor":"gemplant:L100000407867","canonicalCountryKey":"TW","capacityMw":611.0,"country":"TW","externalIds":{"gemPlant":"L100000407867","gemUnit":"G100000410599"},"gemWikiUrl":"https://www.gem.wiki/Chungchia_power_station","geographyId":"TW-90331920B14152728161970","id":"wattlas-plant-gemplant-l100000407867","lifecycleCounts":{"under_construction":1},"locationPrecision":"exact","name":"Chungchia power station","operatingCapacityCoverage":{"coveragePercent":0.0,"knownUnitCount":0,"method":"unavailable","totalUnitCount":0},"operatingCapacityMw":0.0,"operatingCapacityMwByTechnology":{},"plannedCapacityCoverage":{"coveragePercent":100.0,"knownUnitCount":1,"method":"complete_unit_sum","provenance":{"evidenceCount":0,"recordIds":["wattlas-record-gemunit-g100000410599"],"sourceIds":["gem-global-integrated-power-tracker"],"sourceTypes":["research_verified"],"valueKind":"reported"},"totalUnitCount":1},"plannedCapacityMw":611.0,"plannedCapacityMwByTechnology":{"gas":611.0},"recordCount":1,"recordIds":["wattlas-record-gemunit-g100000410599"],"sourceIds":["gem-global-integrated-power-tracker"],"sourceUrl":"https://www.gem.wiki/Chungchia_power_station","technologies":["gas"],"technologyMixMw":{"gas":611.0},"unitCount":1,"unitIds":["gem-unit-G100000410599"]},"type":"Feature"},{"geometry":{"coordinates":[121.6629,25.2025],"type":"Point"},"id":"wattlas-plant-gemplant-l100000500268","properties":{"aliases":["1.0","2.0","Kuosheng nuclear power plant"],"canonicalAnchor":"gemplant:L100000500268","canonicalCountryKey":"TW","capacityMw":0.0,"country":"TW","externalIdAliases":{"gemUnit":["G100000500626","G100000500627"]},"externalIds":{"gemPlant":"L100000500268","gemUnit":"G100000500627"},"gemWikiUrl":"https://www.gem.wiki/Kuosheng_nuclear_power_plant","geographyId":"TW-90331920B2879670148147","id":"wattlas-plant-gemplant-l100000500268","lifecycleCounts":{"cancelled":2},"locationPrecision":"exact","name":"Kuosheng nuclear power plant","operatingCapacityCoverage":{"coveragePercent":0.0,"knownUnitCount":0,"method":"unavailable","totalUnitCount":0},"operatingCapacityMw":0.0,"operatingCapacityMwByTechnology":{},"plannedCapacityCoverage":{"coveragePercent":0.0,"knownUnitCount":0,"method":"unavailable","totalUnitCount":0},"plannedCapacityMw":0.0,"plannedCapacityMwByTechnology":{},"recordCount":2,"recordIds":["wattlas-record-gemunit-g100000500626","wattlas-record-gemunit-g100000500627"],"sourceIds":["gem-global-integrated-power-tracker"],"sourceUrl":"https://www.gem.wiki/Kuosheng_nuclear_power_plant","technologies":["oil"],"technologyMixMw":{"oil":0.0},"unitCount":2,"unitIds":["gem-unit-G100000500626","gem-unit-G100000500627"]},"type":"Feature"},{"geometry":{"coordinates":[121.5858,25.2821],"type":"Point"},"id":"wattlas-plant-gemplant-l100000500271","properties":{"aliases":["1.0","2.0","Jinshan nuclear power plant"],"canonicalAnchor":"gemplant:L100000500271","canonicalCountryKey":"TW","capacityMw":0.0,"country":"TW","externalIdAliases":{"gemUnit":["G100000500633","G100000500634"]},"externalIds":{"gemPlant":"L100000500271","gemUnit":"G100000500634"},"gemWikiUrl":"https://www.gem.wiki/Jinshan_nuclear_power_plant","geographyId":"TW-90331920B2879670148147","id":"wattlas-plant-gemplant-l100000500271","lifecycleCounts":{"cancelled":2},"locationPrecision":"exact","name":"Jinshan nuclear power plant","operatingCapacityCoverage":{"coveragePercent":0.0,"knownUnitCount":0,"method":"unavailable","totalUnitCount":0},"operatingCapacityMw":0.0,"operatingCapacityMwByTechnology":{},"plannedCapacityCoverage":{"coveragePercent":0.0,"knownUnitCount":0,"method":"unavailable","totalUnitCount":0},"plannedCapacityMw":0.0,"plannedCapacityMwByTechnology":{},"recordCount":2,"recordIds":["wattlas-record-gemunit-g100000500633","wattlas-record-gemunit-g100000500634"],"sourceIds":["gem-global-integrated-power-tracker"],"sourceUrl":"https://www.gem.wiki/Jinshan_nuclear_power_plant","technologies":["oil"],"technologyMixMw":{"oil":0.0},"unitCount":2,"unitIds":["gem-unit-G100000500633","gem-unit-G100000500634"]},"type":"Feature"},{"geometry":{"coordinates":[121.924819,25.038943],"type":"Point"},"id":"wattlas-plant-gemplant-l100000500450","properties":{"aliases":["1.0","2.0","Longmen nuclear power plant"],"canonicalAnchor":"gemplant:L100000500450","canonicalCountryKey":"TW","capacityMw":0.0,"country":"TW","externalIdAliases":{"gemUnit":["G100000501296","G100000501297"]},"externalIds":{"gemPlant":"L100000500450","gemUnit":"G100000501297"},"gemWikiUrl":"https://www.gem.wiki/Longmen_nuclear_power_plant","geographyId":"TW-90331920B2879670148147","id":"wattlas-plant-gemplant-l100000500450","lifecycleCounts":{"cancelled":2},"locationPrecision":"exact","name":"Longmen nuclear power plant","operatingCapacityCoverage":{"coveragePercent":0.0,"knownUnitCount":0,"method":"unavailable","totalUnitCount":0},"operatingCapacityMw":0.0,"operatingCapacityMwByTechnology":{},"plannedCapacityCoverage":{"coveragePercent":0.0,"knownUnitCount":0,"method":"unavailable","totalUnitCount":0},"plannedCapacityMw":0.0,"plannedCapacityMwByTechnology":{},"recordCount":2,"recordIds":["wattlas-record-gemunit-g100000501296","wattlas-record-gemunit-g100000501297"],"sourceIds":["gem-global-integrated-power-tracker"],"sourceUrl":"https://www.gem.wiki/Longmen_nuclear_power_plant","technologies":["oil"],"technologyMixMw":{"oil":0.0},"unitCount":2,"unitIds":["gem-unit-G100000501296","gem-unit-G100000501297"]},"type":"Feature"},{"geometry":{"coordinates":[120.4942,24.2088],"type":"Point"},"id":"wattlas-plant-gemplant-l100000831063","properties":{"aliases":["--","Taichung solar project"],"canonicalAnchor":"gemplant:L100000831063","canonicalCountryKey":"TW","capacityMw":11.2,"country":"TW","externalIds":{"gemPlant":"L100000831063","gemUnit":"G100000834965"},"gemWikiUrl":"https://www.gem.wiki/Taichung_solar_project","geographyId":"TW-90331920B14152728161970","id":"wattlas-plant-gemplant-l100000831063","lifecycleCounts":{"operational":1},"locationPrecision":"exact","name":"Taichung solar project","operatingCapacityCoverage":{"coveragePercent":100.0,"knownUnitCount":1,"method":"complete_unit_sum","provenance":{"evidenceCount":0,"recordIds":["wattlas-record-gemunit-g100000834965"],"sourceIds":["gem-global-integrated-power-tracker"],"sourceTypes":["research_verified"],"valueKind":"reported"},"totalUnitCount":1},"operatingCapacityMw":11.2,"operatingCapacityMwByTechnology":{"solar":11.2},"plannedCapacityCoverage":{"coveragePercent":0.0,"knownUnitCount":0,"method":"unavailable","totalUnitCount":0},"plannedCapacityMw":0.0,"plannedCapacityMwByTechnology":{},"recordCount":1,"recordIds":["wattlas-record-gemunit-g100000834965"],"sourceIds":["gem-global-integrated-power-tracker"],"sourceUrl":"https://www.gem.wiki/Taichung_solar_project","technologies":["solar"],"technologyMixMw":{"solar":11.2},"unitCount":1,"unitIds":["gem-unit-G100000834965"]},"type":"Feature"},{"geometry":{"coordinates":[121.0401,25.0238],"type":"Point"},"id":"wattlas-plant-gemplant-l100000901062","properties":{"aliases":["1.0","2.0","3.0","Guanyin wind farm"],"canonicalAnchor":"gemplant:L100000901062","canonicalCountryKey":"TW","capacityMw":48.6,"country":"TW","externalIdAliases":{"gemUnit":["G100000901236","G100000901237","G100001070697"]},"externalIds":{"gemPlant":"L100000901062","gemUnit":"G100001070697"},"gemWikiUrl":"https://www.gem.wiki/Guanyin_wind_farm","geographyId":"TW-90331920B8812801353421","id":"wattlas-plant-gemplant-l100000901062","lifecycleCounts":{"operational":3},"locationPrecision":"exact","name":"Guanyin wind farm","operatingCapacityCoverage":{"coveragePercent":100.0,"knownUnitCount":3,"method":"complete_unit_sum","provenance":{"evidenceCount":0,"recordIds":["wattlas-record-gemunit-g100000901236","wattlas-record-gemunit-g100000901237","wattlas-record-gemunit-g100001070697"],"sourceIds":["gem-global-integrated-power-tracker"],"sourceTypes":["research_verified"],"valueKind":"reported"},"totalUnitCount":3},"operatingCapacityMw":48.6,"operatingCapacityMwByTechnology":{"wind":48.6},"plannedCapacityCoverage":{"coveragePercent":0.0,"knownUnitCount":0,"method":"unavailable","totalUnitCount":0},"plannedCapacityMw":0.0,"plannedCapacityMwByTechnology":{},"recordCount":3,"recordIds":["wattlas-record-gemunit-g100000901236","wattlas-record-gemunit-g100000901237","wattlas-record-gemunit-g100001070697"],"sourceIds":["gem-global-integrated-power-tracker"],"sourceUrl":"https://www.gem.wiki/Guanyin_wind_farm","technologies":["wind"],"technologyMixMw":{"wind":48.6},"unitCount":3,"unitIds":["gem-unit-G100000901236","gem-unit-G100000901237","gem-unit-G100001070697"]},"type":"Feature"},{"geometry":{"coordinates":[120.5867,24.3866],"type":"Point"},"id":"wattlas-plant-gemplant-l100000901065-da0c234f85","properties":{"aliases":["1.0","2.0","Taichung wind farm"],"canonicalAnchor":"gemplant:L100000901065","canonicalCountryKey":"TW","capacityMw":76.0,"country":"TW","externalIdAliases":{"gemUnit":["G100000901240","G100000901241"]},"externalIds":{"gemPlant":"L100000901065","gemUnit":"G100000901241"},"gemWikiUrl":"https://www.gem.wiki/Taichung_wind_farm","geographyId":"TW-90331920B14152728161970","id":"wattlas-plant-gemplant-l100000901065-da0c234f85","lifecycleCounts":{"operational":2},"locationPrecision":"exact","name":"Taichung wind farm","operatingCapacityCoverage":{"coveragePercent":100.0,"knownUnitCount":2,"method":"complete_unit_sum","provenance":{"evidenceCount":0,"recordIds":["wattlas-record-gemunit-g100000901240","wattlas-record-gemunit-g100000901241"],"sourceIds":["gem-global-integrated-power-tracker"],"sourceTypes":["research_verified"],"valueKind":"reported"},"totalUnitCount":2},"operatingCapacityMw":76.0,"operatingCapacityMwByTechnology":{"wind":76.0},"plannedCapacityCoverage":{"coveragePercent":0.0,"knownUnitCount":0,"method":"unavailable","totalUnitCount":0},"plannedCapacityMw":0.0,"plannedCapacityMwByTechnology":{},"recordCount":2,"recordIds":["wattlas-record-gemunit-g100000901240","wattlas-record-gemunit-g100000901241"],"sourceIds":["gem-global-integrated-power-tracker"],"sourceUrl":"https://www.gem.wiki/Taichung_wind_farm","technologies":["wind"],"technologyMixMw":{"wind":76.0},"unitCount":2,"unitIds":["gem-unit-G100000901240","gem-unit-G100000901241"]},"type":"Feature"},{"geometry":{"coordinates":[120.1487,23.6461],"type":"Point"},"id":"wattlas-plant-gemplant-l100000901077","properties":{"aliases":["--","Sihu wind farm"],"canonicalAnchor":"gemplant:L100000901077","canonicalCountryKey":"TW","capacityMw":28.0,"country":"TW","externalIds":{"gemPlant":"L100000901077","gemUnit":"G100000901255"},"gemWikiUrl":"https://www.gem.wiki/Sihu_wind_farm","geographyId":"TW-90331920B31004800433386","id":"wattlas-plant-gemplant-l100000901077","lifecycleCounts":{"operational":1},"locationPrecision":"exact","name":"Sihu wind farm","operatingCapacityCoverage":{"coveragePercent":100.0,"knownUnitCount":1,"method":"complete_unit_sum","provenance":{"evidenceCount":0,"recordIds":["wattlas-record-gemunit-g100000901255"],"sourceIds":["gem-global-integrated-power-tracker"],"sourceTypes":["research_verified"],"valueKind":"reported"},"totalUnitCount":1},"operatingCapacityMw":28.0,"operatingCapacityMwByTechnology":{"wind":28.0},"plannedCapacityCoverage":{"coveragePercent":0.0,"knownUnitCount":0,"method":"unavailable","totalUnitCount":0},"plannedCapacityMw":0.0,"plannedCapacityMwByTechnology":{},"recordCount":1,"recordIds":["wattlas-record-gemunit-g100000901255"],"sourceIds":["gem-global-integrated-power-tracker"],"sourceUrl":"https://www.gem.wiki/Sihu_wind_farm","technologies":["wind"],"technologyMixMw":{"wind":28.0},"unitCount":1,"unitIds":["gem-unit-G100000901255"]},"type":"Feature"},{"geometry":{"coordinates":[120.5441,24.3044],"type":"Point"},"id":"wattlas-plant-gemplant-l100000916940","properties":{"aliases":["--","Taichung Port wind farm"],"canonicalAnchor":"gemplant:L100000916940","canonicalCountryKey":"TW","capacityMw":36.0,"country":"TW","externalIds":{"gemPlant":"L100000916940","gemUnit":"G100000921019"},"gemWikiUrl":"https://www.gem.wiki/Taichung_Port_wind_farm","geographyId":"TW-90331920B14152728161970","id":"wattlas-plant-gemplant-l100000916940","lifecycleCounts":{"operational":1},"locationPrecision":"exact","name":"Taichung Port wind farm","operatingCapacityCoverage":{"coveragePercent":100.0,"knownUnitCount":1,"method":"complete_unit_sum","provenance":{"evidenceCount":0,"recordIds":["wattlas-record-gemunit-g100000921019"],"sourceIds":["gem-global-integrated-power-tracker"],"sourceTypes":["research_verified"],"valueKind":"reported"},"totalUnitCount":1},"operatingCapacityMw":36.0,"operatingCapacityMwByTechnology":{"wind":36.0},"plannedCapacityCoverage":{"coveragePercent":0.0,"knownUnitCount":0,"method":"unavailable","totalUnitCount":0},"plannedCapacityMw":0.0,"plannedCapacityMwByTechnology":{},"recordCount":1,"recordIds":["wattlas-record-gemunit-g100000921019"],"sourceIds":["gem-global-integrated-power-tracker"],"sourceUrl":"https://www.gem.wiki/Taichung_Port_wind_farm","technologies":["wind"],"technologyMixMw":{"wind":36.0},"unitCount":1,"unitIds":["gem-unit-G100000921019"]},"type":"Feature"},{"geometry":{"coordinates":[120.3389,23.984],"type":"Point"},"id":"wattlas-plant-gemplant-l100000922281","properties":{"aliases":["--","Wanggong wind farm"],"canonicalAnchor":"gemplant:L100000922281","canonicalCountryKey":"TW","capacityMw":23.0,"country":"TW","externalIds":{"gemPlant":"L100000922281","gemUnit":"G100000927786"},"gemWikiUrl":"https://www.gem.wiki/Wanggong_wind_farm","geographyId":"TW-90331920B38323674923848","id":"wattlas-plant-gemplant-l100000922281","lifecycleCounts":{"operational":1},"locationPrecision":"exact","name":"Wanggong wind farm","operatingCapacityCoverage":{"coveragePercent":100.0,"knownUnitCount":1,"method":"complete_unit_sum","provenance":{"evidenceCount":0,"recordIds":["wattlas-record-gemunit-g100000927786"],"sourceIds":["gem-global-integrated-power-tracker"],"sourceTypes":["research_verified"],"valueKind":"reported"},"totalUnitCount":1},"operatingCapacityMw":23.0,"operatingCapacityMwByTechnology":{"wind":23.0},"plannedCapacityCoverage":{"coveragePercent":0.0,"knownUnitCount":0,"method":"unavailable","totalUnitCount":0},"plannedCapacityMw":0.0,"plannedCapacityMwByTechnology":{},"recordCount":1,"recordIds":["wattlas-record-gemunit-g100000927786"],"sourceIds":["gem-global-integrated-power-tracker"],"sourceUrl":"https://www.gem.wiki/Wanggong_wind_farm","technologies":["wind"],"technologyMixMw":{"wind":23.0},"unitCount":1,"unitIds":["gem-unit-G100000927786"]},"type":"Feature"},{"geometry":{"coordinates":[120.3364,23.9416],"type":"Point"},"id":"wattlas-plant-gemplant-l100000922296","properties":{"aliases":["--","Fangyuan Hongwei wind farm"],"canonicalAnchor":"gemplant:L100000922296","canonicalCountryKey":"TW","capacityMw":0.0,"country":"TW","externalIds":{"gemPlant":"L100000922296","gemUnit":"G100000927806"},"gemWikiUrl":"https://www.gem.wiki/Fangyuan_Hongwei_wind_farm","geographyId":"TW-90331920B38323674923848","id":"wattlas-plant-gemplant-l100000922296","lifecycleCounts":{"cancelled":1},"locationPrecision":"exact","name":"Fangyuan Hongwei wind farm","operatingCapacityCoverage":{"coveragePercent":0.0,"knownUnitCount":0,"method":"unavailable","totalUnitCount":0},"operatingCapacityMw":0.0,"operatingCapacityMwByTechnology":{},"plannedCapacityCoverage":{"coveragePercent":0.0,"knownUnitCount":0,"method":"unavailable","totalUnitCount":0},"plannedCapacityMw":0.0,"plannedCapacityMwByTechnology":{},"recordCount":1,"recordIds":["wattlas-record-gemunit-g100000927806"],"sourceIds":["gem-global-integrated-power-tracker"],"sourceUrl":"https://www.gem.wiki/Fangyuan_Hongwei_wind_farm","technologies":["wind"],"technologyMixMw":{"wind":0.0},"unitCount":1,"unitIds":["gem-unit-G100000927806"]},"type":"Feature"},{"geometry":{"coordinates":[120.4976,24.2285],"type":"Point"},"id":"wattlas-plant-gemplant-l100001018553-069455728e","properties":{"aliases":["CSC Solar Corp Rooftop solar project","Dragon Steel, CHC Resources, Chung Hung Steel (Taichung & Changhua)"],"canonicalAnchor":"gemplant:L100001018553","canonicalCountryKey":"TW","capacityMw":17.2,"country":"TW","externalIds":{"gemPlant":"L100001018553","gemUnit":"G100001020748"},"gemWikiUrl":"https://www.gem.wiki/CSC_Solar_Corp_Rooftop_solar_project","geographyId":"TW-90331920B14152728161970","id":"wattlas-plant-gemplant-l100001018553-069455728e","idAliases":["wattlas-plant-gemplant-l100001018553"],"lifecycleCounts":{"operational":1},"locationPrecision":"exact","name":"CSC Solar Corp Rooftop solar project","operatingCapacityCoverage":{"coveragePercent":100.0,"knownUnitCount":1,"method":"complete_unit_sum","provenance":{"evidenceCount":0,"recordIds":["wattlas-record-gemunit-g100001020748"],"sourceIds":["gem-global-integrated-power-tracker"],"sourceTypes":["research_verified"],"valueKind":"reported"},"totalUnitCount":1},"operatingCapacityMw":17.2,"operatingCapacityMwByTechnology":{"solar":17.2},"plannedCapacityCoverage":{"coveragePercent":0.0,"knownUnitCount":0,"method":"unavailable","totalUnitCount":0},"plannedCapacityMw":0.0,"plannedCapacityMwByTechnology":{},"recordCount":1,"recordIds":["wattlas-record-gemunit-g100001020748"],"sourceIds":["gem-global-integrated-power-tracker"],"sourceUrl":"https://www.gem.wiki/CSC_Solar_Corp_Rooftop_solar_project","technologies":["solar"],"technologyMixMw":{"solar":17.2},"unitCount":1,"unitIds":["gem-unit-G100001020748"]},"type":"Feature"},{"geometry":{"coordinates":[120.9899,24.93],"type":"Point"},"id":"wattlas-plant-gemplant-l100001024039","properties":{"aliases":["--","Hsinchu County solar project I"],"canonicalAnchor":"gemplant:L100001024039","canonicalCountryKey":"TW","capacityMw":1.9,"country":"TW","externalIds":{"gemPlant":"L100001024039","gemUnit":"G100001028720"},"gemWikiUrl":"https://www.gem.wiki/Hsinchu_County_solar_project_I","geographyId":"TW-90331920B72000317509667","id":"wattlas-plant-gemplant-l100001024039","lifecycleCounts":{"operational":1},"locationPrecision":"exact","name":"Hsinchu County solar project I","operatingCapacityCoverage":{"coveragePercent":100.0,"knownUnitCount":1,"method":"complete_unit_sum","provenance":{"evidenceCount":0,"recordIds":["wattlas-record-gemunit-g100001028720"],"sourceIds":["gem-global-integrated-power-tracker"],"sourceTypes":["research_verified"],"valueKind":"reported"},"totalUnitCount":1},"operatingCapacityMw":1.9,"operatingCapacityMwByTechnology":{"solar":1.9},"plannedCapacityCoverage":{"coveragePercent":0.0,"knownUnitCount":0,"method":"unavailable","totalUnitCount":0},"plannedCapacityMw":0.0,"plannedCapacityMwByTechnology":{},"recordCount":1,"recordIds":["wattlas-record-gemunit-g100001028720"],"sourceIds":["gem-global-integrated-power-tracker"],"sourceUrl":"https://www.gem.wiki/Hsinchu_County_solar_project_I","technologies":["solar"],"technologyMixMw":{"solar":1.9},"unitCount":1,"unitIds":["gem-unit-G100001028720"]},"type":"Feature"},{"geometry":{"coordinates":[120.1474,23.6421],"type":"Point"},"id":"wattlas-plant-gemplant-l100001024043","properties":{"aliases":["--","Yunlin County solar project I"],"canonicalAnchor":"gemplant:L100001024043","canonicalCountryKey":"TW","capacityMw":2.7,"country":"TW","externalIds":{"gemPlant":"L100001024043","gemUnit":"G100001028724"},"gemWikiUrl":"https://www.gem.wiki/Yunlin_County_solar_project_I","geographyId":"TW-90331920B31004800433386","id":"wattlas-plant-gemplant-l100001024043","lifecycleCounts":{"operational":1},"locationPrecision":"exact","name":"Yunlin County solar project I","operatingCapacityCoverage":{"coveragePercent":100.0,"knownUnitCount":1,"method":"complete_unit_sum","provenance":{"evidenceCount":0,"recordIds":["wattlas-record-gemunit-g100001028724"],"sourceIds":["gem-global-integrated-power-tracker"],"sourceTypes":["research_verified"],"valueKind":"reported"},"totalUnitCount":1},"operatingCapacityMw":2.7,"operatingCapacityMwByTechnology":{"solar":2.7},"plannedCapacityCoverage":{"coveragePercent":0.0,"knownUnitCount":0,"method":"unavailable","totalUnitCount":0},"plannedCapacityMw":0.0,"plannedCapacityMwByTechnology":{},"recordCount":1,"recordIds":["wattlas-record-gemunit-g100001028724"],"sourceIds":["gem-global-integrated-power-tracker"],"sourceUrl":"https://www.gem.wiki/Yunlin_County_solar_project_I","technologies":["solar"],"technologyMixMw":{"solar":2.7},"unitCount":1,"unitIds":["gem-unit-G100001028724"]},"type":"Feature"},{"geometry":{"coordinates":[120.408,24.06],"type":"Point"},"id":"wattlas-plant-gemplant-l100001024122","properties":{"aliases":["--","Changhua County solar project II"],"canonicalAnchor":"gemplant:L100001024122","canonicalCountryKey":"TW","capacityMw":1.8,"country":"TW","externalIds":{"gemPlant":"L100001024122","gemUnit":"G100001028803"},"gemWikiUrl":"https://www.gem.wiki/Changhua_County_solar_project_II","geographyId":"TW-90331920B38323674923848","id":"wattlas-plant-gemplant-l100001024122","lifecycleCounts":{"operational":1},"locationPrecision":"exact","name":"Changhua County solar project II","operatingCapacityCoverage":{"coveragePercent":100.0,"knownUnitCount":1,"method":"complete_unit_sum","provenance":{"evidenceCount":0,"recordIds":["wattlas-record-gemunit-g100001028803"],"sourceIds":["gem-global-integrated-power-tracker"],"sourceTypes":["research_verified"],"valueKind":"reported"},"totalUnitCount":1},"operatingCapacityMw":1.8,"operatingCapacityMwByTechnology":{"solar":1.8},"plannedCapacityCoverage":{"coveragePercent":0.0,"knownUnitCount":0,"method":"unavailable","totalUnitCount":0},"plannedCapacityMw":0.0,"plannedCapacityMwByTechnology":{},"recordCount":1,"recordIds":["wattlas-record-gemunit-g100001028803"],"sourceIds":["gem-global-integrated-power-tracker"],"sourceUrl":"https://www.gem.wiki/Changhua_County_solar_project_II","technologies":["solar"],"technologyMixMw":{"solar":1.8},"unitCount":1,"unitIds":["gem-unit-G100001028803"]},"type":"Feature"},{"geometry":{"coordinates":[121.8399,24.6413],"type":"Point"},"id":"wattlas-plant-gemplant-l100001024151","properties":{"aliases":["--","Yilan County solar project I"],"canonicalAnchor":"gemplant:L100001024151","canonicalCountryKey":"TW","capacityMw":8.0,"country":"TW","externalIds":{"gemPlant":"L100001024151","gemUnit":"G100001028832"},"gemWikiUrl":"https://www.gem.wiki/Yilan_County_solar_project_I","geographyId":"TW-90331920B81947240122251","id":"wattlas-plant-gemplant-l100001024151","lifecycleCounts":{"operational":1},"locationPrecision":"exact","name":"Yilan County solar project I","operatingCapacityCoverage":{"coveragePercent":100.0,"knownUnitCount":1,"method":"complete_unit_sum","provenance":{"evidenceCount":0,"recordIds":["wattlas-record-gemunit-g100001028832"],"sourceIds":["gem-global-integrated-power-tracker"],"sourceTypes":["research_verified"],"valueKind":"reported"},"totalUnitCount":1},"operatingCapacityMw":8.0,"operatingCapacityMwByTechnology":{"solar":8.0},"plannedCapacityCoverage":{"coveragePercent":0.0,"knownUnitCount":0,"method":"unavailable","totalUnitCount":0},"plannedCapacityMw":0.0,"plannedCapacityMwByTechnology":{},"recordCount":1,"recordIds":["wattlas-record-gemunit-g100001028832"],"sourceIds":["gem-global-integrated-power-tracker"],"sourceUrl":"https://www.gem.wiki/Yilan_County_solar_project_I","technologies":["solar"],"technologyMixMw":{"solar":8.0},"unitCount":1,"unitIds":["gem-unit-G100001028832"]},"type":"Feature"},{"geometry":{"coordinates":[120.2925,23.8832],"type":"Point"},"id":"wattlas-plant-gemplant-l100001024164","properties":{"aliases":["--","Changhua County solar project III"],"canonicalAnchor":"gemplant:L100001024164","canonicalCountryKey":"TW","capacityMw":3.0,"country":"TW","externalIds":{"gemPlant":"L100001024164","gemUnit":"G100001028845"},"gemWikiUrl":"https://www.gem.wiki/Changhua_County_solar_project_III","geographyId":"TW-90331920B38323674923848","id":"wattlas-plant-gemplant-l100001024164","lifecycleCounts":{"operational":1},"locationPrecision":"exact","name":"Changhua County solar project III","operatingCapacityCoverage":{"coveragePercent":100.0,"knownUnitCount":1,"method":"complete_unit_sum","provenance":{"evidenceCount":0,"recordIds":["wattlas-record-gemunit-g100001028845"],"sourceIds":["gem-global-integrated-power-tracker"],"sourceTypes":["research_verified"],"valueKind":"reported"},"totalUnitCount":1},"operatingCapacityMw":3.0,"operatingCapacityMwByTechnology":{"solar":3.0},"plannedCapacityCoverage":{"coveragePercent":0.0,"knownUnitCount":0,"method":"unavailable","totalUnitCount":0},"plannedCapacityMw":0.0,"plannedCapacityMwByTechnology":{},"recordCount":1,"recordIds":["wattlas-record-gemunit-g100001028845"],"sourceIds":["gem-global-integrated-power-tracker"],"sourceUrl":"https://www.gem.wiki/Changhua_County_solar_project_III","technologies":["solar"],"technologyMixMw":{"solar":3.0},"unitCount":1,"unitIds":["gem-unit-G100001028845"]},"type":"Feature"},{"geometry":{"coordinates":[120.189,23.7144],"type":"Point"},"id":"wattlas-plant-gemplant-l100001024165","properties":{"aliases":["--","Yunlin County solar project VIII"],"canonicalAnchor":"gemplant:L100001024165","canonicalCountryKey":"TW","capacityMw":4.9,"country":"TW","externalIds":{"gemPlant":"L100001024165","gemUnit":"G100001028846"},"gemWikiUrl":"https://www.gem.wiki/Yunlin_County_solar_project_VIII","geographyId":"TW-90331920B31004800433386","id":"wattlas-plant-gemplant-l100001024165","lifecycleCounts":{"operational":1},"locationPrecision":"exact","name":"Yunlin County solar project VIII","operatingCapacityCoverage":{"coveragePercent":100.0,"knownUnitCount":1,"method":"complete_unit_sum","provenance":{"evidenceCount":0,"recordIds":["wattlas-record-gemunit-g100001028846"],"sourceIds":["gem-global-integrated-power-tracker"],"sourceTypes":["research_verified"],"valueKind":"reported"},"totalUnitCount":1},"operatingCapacityMw":4.9,"operatingCapacityMwByTechnology":{"solar":4.9},"plannedCapacityCoverage":{"coveragePercent":0.0,"knownUnitCount":0,"method":"unavailable","totalUnitCount":0},"plannedCapacityMw":0.0,"plannedCapacityMwByTechnology":{},"recordCount":1,"recordIds":["wattlas-record-gemunit-g100001028846"],"sourceIds":["gem-global-integrated-power-tracker"],"sourceUrl":"https://www.gem.wiki/Yunlin_County_solar_project_VIII","technologies":["solar"],"technologyMixMw":{"solar":4.9},"unitCount":1,"unitIds":["gem-unit-G100001028846"]},"type":"Feature"},{"geometry":{"coordinates":[120.3258,23.9236],"type":"Point"},"id":"wattlas-plant-gemplant-l100001024166","properties":{"aliases":["--","Changhua County solar project IV"],"canonicalAnchor":"gemplant:L100001024166","canonicalCountryKey":"TW","capacityMw":8.1,"country":"TW","externalIds":{"gemPlant":"L100001024166","gemUnit":"G100001028847"},"gemWikiUrl":"https://www.gem.wiki/Changhua_County_solar_project_IV","geographyId":"TW-90331920B38323674923848","id":"wattlas-plant-gemplant-l100001024166","lifecycleCounts":{"operational":1},"locationPrecision":"exact","name":"Changhua County solar project IV","operatingCapacityCoverage":{"coveragePercent":100.0,"knownUnitCount":1,"method":"complete_unit_sum","provenance":{"evidenceCount":0,"recordIds":["wattlas-record-gemunit-g100001028847"],"sourceIds":["gem-global-integrated-power-tracker"],"sourceTypes":["research_verified"],"valueKind":"reported"},"totalUnitCount":1},"operatingCapacityMw":8.1,"operatingCapacityMwByTechnology":{"solar":8.1},"plannedCapacityCoverage":{"coveragePercent":0.0,"knownUnitCount":0,"method":"unavailable","totalUnitCount":0},"plannedCapacityMw":0.0,"plannedCapacityMwByTechnology":{},"recordCount":1,"recordIds":["wattlas-record-gemunit-g100001028847"],"sourceIds":["gem-global-integrated-power-tracker"],"sourceUrl":"https://www.gem.wiki/Changhua_County_solar_project_IV","technologies":["solar"],"technologyMixMw":{"solar":8.1},"unitCount":1,"unitIds":["gem-unit-G100001028847"]},"type":"Feature"},{"geometry":{"coordinates":[120.2533,23.8082],"type":"Point"},"id":"wattlas-plant-gemplant-l100001024198","properties":{"aliases":["--","Yunlin County solar project X"],"canonicalAnchor":"gemplant:L100001024198","canonicalCountryKey":"TW","capacityMw":17.5,"country":"TW","externalIds":{"gemPlant":"L100001024198","gemUnit":"G100001028879"},"gemWikiUrl":"https://www.gem.wiki/Yunlin_County_solar_project_X","geographyId":"TW-90331920B31004800433386","id":"wattlas-plant-gemplant-l100001024198","lifecycleCounts":{"operational":1},"locationPrecision":"exact","name":"Yunlin County solar project X","operatingCapacityCoverage":{"coveragePercent":100.0,"knownUnitCount":1,"method":"complete_unit_sum","provenance":{"evidenceCount":0,"recordIds":["wattlas-record-gemunit-g100001028879"],"sourceIds":["gem-global-integrated-power-tracker"],"sourceTypes":["research_verified"],"valueKind":"reported"},"totalUnitCount":1},"operatingCapacityMw":17.5,"operatingCapacityMwByTechnology":{"solar":17.5},"plannedCapacityCoverage":{"coveragePercent":0.0,"knownUnitCount":0,"method":"unavailable","totalUnitCount":0},"plannedCapacityMw":0.0,"plannedCapacityMwByTechnology":{},"recordCount":1,"recordIds":["wattlas-record-gemunit-g100001028879"],"sourceIds":["gem-global-integrated-power-tracker"],"sourceUrl":"https://www.gem.wiki/Yunlin_County_solar_project_X","technologies":["solar"],"technologyMixMw":{"solar":17.5},"unitCount":1,"unitIds":["gem-unit-G100001028879"]},"type":"Feature"},{"geometry":{"coordinates":[121.8334,24.6628],"type":"Point"},"id":"wattlas-plant-gemplant-l100001024212","properties":{"aliases":["--","Yilan County solar project IV"],"canonicalAnchor":"gemplant:L100001024212","canonicalCountryKey":"TW","capacityMw":4.0,"country":"TW","externalIds":{"gemPlant":"L100001024212","gemUnit":"G100001028893"},"gemWikiUrl":"https://www.gem.wiki/Yilan_County_solar_project_IV","geographyId":"TW-90331920B81947240122251","id":"wattlas-plant-gemplant-l100001024212","lifecycleCounts":{"operational":1},"locationPrecision":"exact","name":"Yilan County solar project IV","operatingCapacityCoverage":{"coveragePercent":100.0,"knownUnitCount":1,"method":"complete_unit_sum","provenance":{"evidenceCount":0,"recordIds":["wattlas-record-gemunit-g100001028893"],"sourceIds":["gem-global-integrated-power-tracker"],"sourceTypes":["research_verified"],"valueKind":"reported"},"totalUnitCount":1},"operatingCapacityMw":4.0,"operatingCapacityMwByTechnology":{"solar":4.0},"plannedCapacityCoverage":{"coveragePercent":0.0,"knownUnitCount":0,"method":"unavailable","totalUnitCount":0},"plannedCapacityMw":0.0,"plannedCapacityMwByTechnology":{},"recordCount":1,"recordIds":["wattlas-record-gemunit-g100001028893"],"sourceIds":["gem-global-integrated-power-tracker"],"sourceUrl":"https://www.gem.wiki/Yilan_County_solar_project_IV","technologies":["solar"],"technologyMixMw":{"solar":4.0},"unitCount":1,"unitIds":["gem-unit-G100001028893"]},"type":"Feature"},{"geometry":{"coordinates":[120.501458,24.229357],"type":"Point"},"id":"wattlas-plant-gemplant-l100001047701","properties":{"aliases":["1-1","Dragon Steel power station"],"canonicalAnchor":"gemplant:L100001047701","canonicalCountryKey":"TW","capacityMw":320.0,"country":"TW","externalIds":{"gemPlant":"L100001047701","gemUnit":"G100001054348"},"gemWikiUrl":"https://www.gem.wiki/Dragon_Steel_power_station","geographyId":"TW-90331920B14152728161970","id":"wattlas-plant-gemplant-l100001047701","lifecycleCounts":{"operational":1},"locationPrecision":"exact","name":"Dragon Steel power station","operatingCapacityCoverage":{"coveragePercent":100.0,"knownUnitCount":1,"method":"complete_unit_sum","provenance":{"evidenceCount":0,"recordIds":["wattlas-record-gemunit-g100001054348"],"sourceIds":["gem-global-integrated-power-tracker"],"sourceTypes":["research_verified"],"valueKind":"reported"},"totalUnitCount":1},"operatingCapacityMw":320.0,"operatingCapacityMwByTechnology":{"gas":320.0},"plannedCapacityCoverage":{"coveragePercent":0.0,"knownUnitCount":0,"method":"unavailable","totalUnitCount":0},"plannedCapacityMw":0.0,"plannedCapacityMwByTechnology":{},"recordCount":1,"recordIds":["wattlas-record-gemunit-g100001054348"],"sourceIds":["gem-global-integrated-power-tracker"],"sourceUrl":"https://www.gem.wiki/Dragon_Steel_power_station","technologies":["gas"],"technologyMixMw":{"gas":320.0},"unitCount":1,"unitIds":["gem-unit-G100001054348"]},"type":"Feature"},{"geometry":{"coordinates":[121.835517,24.65992],"type":"Point"},"id":"wattlas-plant-gemplant-l100001048070","properties":{"aliases":["--","Lize Incineration power station"],"canonicalAnchor":"gemplant:L100001048070","canonicalCountryKey":"TW","capacityMw":16.2,"country":"TW","externalIds":{"gemPlant":"L100001048070","gemUnit":"G100001054987"},"gemWikiUrl":"https://www.gem.wiki/Lize_Incineration_power_station","geographyId":"TW-90331920B81947240122251","id":"wattlas-plant-gemplant-l100001048070","lifecycleCounts":{"operational":1},"locationPrecision":"exact","name":"Lize Incineration power station","operatingCapacityCoverage":{"coveragePercent":100.0,"knownUnitCount":1,"method":"complete_unit_sum","provenance":{"evidenceCount":0,"recordIds":["wattlas-record-gemunit-g100001054987"],"sourceIds":["gem-global-integrated-power-tracker"],"sourceTypes":["research_verified"],"valueKind":"reported"},"totalUnitCount":1},"operatingCapacityMw":16.2,"operatingCapacityMwByTechnology":{"biomass":16.2},"plannedCapacityCoverage":{"coveragePercent":0.0,"knownUnitCount":0,"method":"unavailable","totalUnitCount":0},"plannedCapacityMw":0.0,"plannedCapacityMwByTechnology":{},"recordCount":1,"recordIds":["wattlas-record-gemunit-g100001054987"],"sourceIds":["gem-global-integrated-power-tracker"],"sourceUrl":"https://www.gem.wiki/Lize_Incineration_power_station","technologies":["biomass"],"technologyMixMw":{"biomass":16.2},"unitCount":1,"unitIds":["gem-unit-G100001054987"]},"type":"Feature"},{"geometry":{"coordinates":[120.3727,24.0183],"type":"Point"},"id":"wattlas-plant-gemplant-l100001066423","properties":{"aliases":["--","Changhua County solar project IX"],"canonicalAnchor":"gemplant:L100001066423","canonicalCountryKey":"TW","capacityMw":1.3,"country":"TW","externalIds":{"gemPlant":"L100001066423","gemUnit":"G100001076209"},"gemWikiUrl":"https://www.gem.wiki/Changhua_County_solar_project_IX","geographyId":"TW-90331920B38323674923848","id":"wattlas-plant-gemplant-l100001066423","lifecycleCounts":{"operational":1},"locationPrecision":"exact","name":"Changhua County solar project IX","operatingCapacityCoverage":{"coveragePercent":100.0,"knownUnitCount":1,"method":"complete_unit_sum","provenance":{"evidenceCount":0,"recordIds":["wattlas-record-gemunit-g100001076209"],"sourceIds":["gem-global-integrated-power-tracker"],"sourceTypes":["research_verified"],"valueKind":"reported"},"totalUnitCount":1},"operatingCapacityMw":1.3,"operatingCapacityMwByTechnology":{"solar":1.3},"plannedCapacityCoverage":{"coveragePercent":0.0,"knownUnitCount":0,"method":"unavailable","totalUnitCount":0},"plannedCapacityMw":0.0,"plannedCapacityMwByTechnology":{},"recordCount":1,"recordIds":["wattlas-record-gemunit-g100001076209"],"sourceIds":["gem-global-integrated-power-tracker"],"sourceUrl":"https://www.gem.wiki/Changhua_County_solar_project_IX","technologies":["solar"],"technologyMixMw":{"solar":1.3},"unitCount":1,"unitIds":["gem-unit-G100001076209"]},"type":"Feature"},{"geometry":{"coordinates":[120.3651,23.9954],"type":"Point"},"id":"wattlas-plant-gemplant-l100001066476","properties":{"aliases":["--","Changhua County solar project XI"],"canonicalAnchor":"gemplant:L100001066476","canonicalCountryKey":"TW","capacityMw":1.2,"country":"TW","externalIds":{"gemPlant":"L100001066476","gemUnit":"G100001076262"},"gemWikiUrl":"https://www.gem.wiki/Changhua_County_solar_project_XI","geographyId":"TW-90331920B38323674923848","id":"wattlas-plant-gemplant-l100001066476","lifecycleCounts":{"operational":1},"locationPrecision":"exact","name":"Changhua County solar project XI","operatingCapacityCoverage":{"coveragePercent":100.0,"knownUnitCount":1,"method":"complete_unit_sum","provenance":{"evidenceCount":0,"recordIds":["wattlas-record-gemunit-g100001076262"],"sourceIds":["gem-global-integrated-power-tracker"],"sourceTypes":["research_verified"],"valueKind":"reported"},"totalUnitCount":1},"operatingCapacityMw":1.2,"operatingCapacityMwByTechnology":{"solar":1.2},"plannedCapacityCoverage":{"coveragePercent":0.0,"knownUnitCount":0,"method":"unavailable","totalUnitCount":0},"plannedCapacityMw":0.0,"plannedCapacityMwByTechnology":{},"recordCount":1,"recordIds":["wattlas-record-gemunit-g100001076262"],"sourceIds":["gem-global-integrated-power-tracker"],"sourceUrl":"https://www.gem.wiki/Changhua_County_solar_project_XI","technologies":["solar"],"technologyMixMw":{"solar":1.2},"unitCount":1,"unitIds":["gem-unit-G100001076262"]},"type":"Feature"},{"geometry":{"coordinates":[120.5374,24.294],"type":"Point"},"id":"wattlas-plant-gemplant-l100001066506","properties":{"aliases":["--","Taichung solar project XVII"],"canonicalAnchor":"gemplant:L100001066506","canonicalCountryKey":"TW","capacityMw":1.1,"country":"TW","externalIds":{"gemPlant":"L100001066506","gemUnit":"G100001076292"},"gemWikiUrl":"https://www.gem.wiki/Taichung_solar_project_XVII","geographyId":"TW-90331920B14152728161970","id":"wattlas-plant-gemplant-l100001066506","lifecycleCounts":{"operational":1},"locationPrecision":"exact","name":"Taichung solar project XVII","operatingCapacityCoverage":{"coveragePercent":100.0,"knownUnitCount":1,"method":"complete_unit_sum","provenance":{"evidenceCount":0,"recordIds":["wattlas-record-gemunit-g100001076292"],"sourceIds":["gem-global-integrated-power-tracker"],"sourceTypes":["research_verified"],"valueKind":"reported"},"totalUnitCount":1},"operatingCapacityMw":1.1,"operatingCapacityMwByTechnology":{"solar":1.1},"plannedCapacityCoverage":{"coveragePercent":0.0,"knownUnitCount":0,"method":"unavailable","totalUnitCount":0},"plannedCapacityMw":0.0,"plannedCapacityMwByTechnology":{},"recordCount":1,"recordIds":["wattlas-record-gemunit-g100001076292"],"sourceIds":["gem-global-integrated-power-tracker"],"sourceUrl":"https://www.gem.wiki/Taichung_solar_project_XVII","technologies":["solar"],"technologyMixMw":{"solar":1.1},"unitCount":1,"unitIds":["gem-unit-G100001076292"]},"type":"Feature"},{"geometry":{"coordinates":[121.3156,25.0999],"type":"Point"},"id":"wattlas-plant-gemplant-l100001066510","properties":{"aliases":["--","New Taipei solar project V"],"canonicalAnchor":"gemplant:L100001066510","canonicalCountryKey":"TW","capacityMw":1.2,"country":"TW","externalIds":{"gemPlant":"L100001066510","gemUnit":"G100001076296"},"gemWikiUrl":"https://www.gem.wiki/New_Taipei_solar_project_V","geographyId":"TW-90331920B2879670148147","id":"wattlas-plant-gemplant-l100001066510","lifecycleCounts":{"operational":1},"locationPrecision":"exact","name":"New Taipei solar project V","operatingCapacityCoverage":{"coveragePercent":100.0,"knownUnitCount":1,"method":"complete_unit_sum","provenance":{"evidenceCount":0,"recordIds":["wattlas-record-gemunit-g100001076296"],"sourceIds":["gem-global-integrated-power-tracker"],"sourceTypes":["research_verified"],"valueKind":"reported"},"totalUnitCount":1},"operatingCapacityMw":1.2,"operatingCapacityMwByTechnology":{"solar":1.2},"plannedCapacityCoverage":{"coveragePercent":0.0,"knownUnitCount":0,"method":"unavailable","totalUnitCount":0},"plannedCapacityMw":0.0,"plannedCapacityMwByTechnology":{},"recordCount":1,"recordIds":["wattlas-record-gemunit-g100001076296"],"sourceIds":["gem-global-integrated-power-tracker"],"sourceUrl":"https://www.gem.wiki/New_Taipei_solar_project_V","technologies":["solar"],"technologyMixMw":{"solar":1.2},"unitCount":1,"unitIds":["gem-unit-G100001076296"]},"type":"Feature"},{"geometry":{"coordinates":[120.2895,23.8776],"type":"Point"},"id":"wattlas-plant-gemplant-l100001066514","properties":{"aliases":["--","Changhua County solar project XII"],"canonicalAnchor":"gemplant:L100001066514","canonicalCountryKey":"TW","capacityMw":3.1,"country":"TW","externalIds":{"gemPlant":"L100001066514","gemUnit":"G100001076300"},"gemWikiUrl":"https://www.gem.wiki/Changhua_County_solar_project_XII","geographyId":"TW-90331920B38323674923848","id":"wattlas-plant-gemplant-l100001066514","lifecycleCounts":{"operational":1},"locationPrecision":"exact","name":"Changhua County solar project XII","operatingCapacityCoverage":{"coveragePercent":100.0,"knownUnitCount":1,"method":"complete_unit_sum","provenance":{"evidenceCount":0,"recordIds":["wattlas-record-gemunit-g100001076300"],"sourceIds":["gem-global-integrated-power-tracker"],"sourceTypes":["research_verified"],"valueKind":"reported"},"totalUnitCount":1},"operatingCapacityMw":3.1,"operatingCapacityMwByTechnology":{"solar":3.1},"plannedCapacityCoverage":{"coveragePercent":0.0,"knownUnitCount":0,"method":"unavailable","totalUnitCount":0},"plannedCapacityMw":0.0,"plannedCapacityMwByTechnology":{},"recordCount":1,"recordIds":["wattlas-record-gemunit-g100001076300"],"sourceIds":["gem-global-integrated-power-tracker"],"sourceUrl":"https://www.gem.wiki/Changhua_County_solar_project_XII","technologies":["solar"],"technologyMixMw":{"solar":3.1},"unitCount":1,"unitIds":["gem-unit-G100001076300"]},"type":"Feature"},{"geometry":{"coordinates":[120.25539,23.815482],"type":"Point"},"id":"wattlas-plant-osm-relation-13131409","properties":{"aliases":["雲麥風力發電站"],"canonicalAnchor":"osm:relation/13131409","canonicalCountryKey":"TW","capacityMw":46.0,"country":"TW","externalIds":{"osm":"relation/13131409"},"geographyId":"TW-90331920B31004800433386","id":"wattlas-plant-osm-relation-13131409","lifecycleCounts":{"operational":1},"locationPrecision":"exact","name":"雲麥風力發電站","operatingCapacityCoverage":{"coveragePercent":100.0,"knownUnitCount":0,"method":"plant_aggregate","provenance":{"evidenceCount":0,"recordIds":["wattlas-record-osm-relation-13131409"],"sourceIds":["openstreetmap-power"],"sourceTypes":["community_mapped"],"valueKind":"reported"},"totalUnitCount":0},"operatingCapacityMw":46.0,"operatingCapacityMwByTechnology":{"wind":46.0},"plannedCapacityCoverage":{"coveragePercent":0.0,"knownUnitCount":0,"method":"unavailable","totalUnitCount":0},"plannedCapacityMw":0.0,"plannedCapacityMwByTechnology":{},"recordCount":1,"recordIds":["wattlas-record-osm-relation-13131409"],"sourceIds":["openstreetmap-power"],"sourceUrl":"https://www.openstreetmap.org/relation/13131409","technologies":["wind"],"technologyMixMw":{"wind":46.0},"unitCount":0,"unitIds":[]},"type":"Feature"},{"geometry":{"coordinates":[120.334505,23.983243],"type":"Point"},"id":"wattlas-plant-osm-relation-13131410","properties":{"aliases":["王功風力發電站"],"canonicalAnchor":"osm:relation/13131410","canonicalCountryKey":"TW","capacityMw":23.0,"country":"TW","externalIds":{"osm":"relation/13131410"},"geographyId":"TW-90331920B38323674923848","id":"wattlas-plant-osm-relation-13131410","lifecycleCounts":{"operational":1},"locationPrecision":"exact","name":"王功風力發電站","operatingCapacityCoverage":{"coveragePercent":100.0,"knownUnitCount":0,"method":"plant_aggregate","provenance":{"evidenceCount":0,"recordIds":["wattlas-record-osm-relation-13131410"],"sourceIds":["openstreetmap-power"],"sourceTypes":["community_mapped"],"valueKind":"reported"},"totalUnitCount":0},"operatingCapacityMw":23.0,"operatingCapacityMwByTechnology":{"wind":23.0},"plannedCapacityCoverage":{"coveragePercent":0.0,"knownUnitCount":0,"method":"unavailable","totalUnitCount":0},"plannedCapacityMw":0.0,"plannedCapacityMwByTechnology":{},"recordCount":1,"recordIds":["wattlas-record-osm-relation-13131410"],"sourceIds":["openstreetmap-power"],"sourceUrl":"https://www.openstreetmap.org/relation/13131410","technologies":["wind"],"technologyMixMw":{"wind":23.0},"unitCount":0,"unitIds":[]},"type":"Feature"},{"geometry":{"coordinates":[120.535553,24.308252],"type":"Point"},"id":"wattlas-plant-osm-relation-13131411","properties":{"aliases":["臺中港風力發電站"],"canonicalAnchor":"osm:relation/13131411","canonicalCountryKey":"TW","capacityMw":36.0,"country":"TW","externalIds":{"osm":"relation/13131411"},"geographyId":"TW-90331920B14152728161970","id":"wattlas-plant-osm-relation-13131411","lifecycleCounts":{"operational":1},"locationPrecision":"exact","name":"臺中港風力發電站","operatingCapacityCoverage":{"coveragePercent":100.0,"knownUnitCount":0,"method":"plant_aggregate","provenance":{"evidenceCount":0,"recordIds":["wattlas-record-osm-relation-13131411"],"sourceIds":["openstreetmap-power"],"sourceTypes":["community_mapped"],"valueKind":"reported"},"totalUnitCount":0},"operatingCapacityMw":36.0,"operatingCapacityMwByTechnology":{"wind":36.0},"plannedCapacityCoverage":{"coveragePercent":0.0,"knownUnitCount":0,"method":"unavailable","totalUnitCount":0},"plannedCapacityMw":0.0,"plannedCapacityMwByTechnology":{},"recordCount":1,"recordIds":["wattlas-record-osm-relation-13131411"],"sourceIds":["openstreetmap-power"],"sourceUrl":"https://www.openstreetmap.org/relation/13131411","technologies":["wind"],"technologyMixMw":{"wind":36.0},"unitCount":0,"unitIds":[]},"type":"Feature"},{"geometry":{"coordinates":[120.32591,23.923758],"type":"Point"},"id":"wattlas-plant-osm-relation-15258416","properties":{"aliases":["速力綠能芳苑發電廠"],"canonicalAnchor":"osm:relation/15258416","canonicalCountryKey":"TW","capacityMw":8.2,"country":"TW","externalIds":{"osm":"relation/15258416"},"geographyId":"TW-90331920B38323674923848","id":"wattlas-plant-osm-relation-15258416","lifecycleCounts":{"operational":1},"locationPrecision":"exact","name":"速力綠能芳苑發電廠","operatingCapacityCoverage":{"coveragePercent":100.0,"knownUnitCount":0,"method":"plant_aggregate","provenance":{"evidenceCount":0,"recordIds":["wattlas-record-osm-relation-15258416"],"sourceIds":["openstreetmap-power"],"sourceTypes":["community_mapped"],"valueKind":"reported"},"totalUnitCount":0},"operatingCapacityMw":8.2,"operatingCapacityMwByTechnology":{"solar":8.2},"plannedCapacityCoverage":{"coveragePercent":0.0,"knownUnitCount":0,"method":"unavailable","totalUnitCount":0},"plannedCapacityMw":0.0,"plannedCapacityMwByTechnology":{},"recordCount":1,"recordIds":["wattlas-record-osm-relation-15258416"],"sourceIds":["openstreetmap-power"],"sourceUrl":"https://www.openstreetmap.org/relation/15258416","technologies":["solar"],"technologyMixMw":{"solar":8.2},"unitCount":0,"unitIds":[]},"type":"Feature"},{"geometry":{"coordinates":[121.816476,24.62902],"type":"Point"},"id":"wattlas-plant-osm-way-1115327176","properties":{"aliases":["龍德汽電共生廠"],"canonicalAnchor":"osm:way/1115327176","canonicalCountryKey":"TW","capacityMw":324.0,"country":"TW","externalIds":{"osm":"way/1115327176"},"geographyId":"TW-90331920B81947240122251","id":"wattlas-plant-osm-way-1115327176","lifecycleCounts":{"operational":1},"locationPrecision":"exact","name":"龍德汽電共生廠","operatingCapacityCoverage":{"coveragePercent":100.0,"knownUnitCount":0,"method":"plant_aggregate","provenance":{"evidenceCount":0,"recordIds":["wattlas-record-osm-way-1115327176"],"sourceIds":["openstreetmap-power"],"sourceTypes":["community_mapped"],"valueKind":"reported"},"totalUnitCount":0},"operatingCapacityMw":324.0,"operatingCapacityMwByTechnology":{"coal":324.0},"plannedCapacityCoverage":{"coveragePercent":0.0,"knownUnitCount":0,"method":"unavailable","totalUnitCount":0},"plannedCapacityMw":0.0,"plannedCapacityMwByTechnology":{},"recordCount":1,"recordIds":["wattlas-record-osm-way-1115327176"],"sourceIds":["openstreetmap-power"],"sourceUrl":"https://www.openstreetmap.org/way/1115327176","technologies":["coal"],"technologyMixMw":{"coal":324.0},"unitCount":0,"unitIds":[]},"type":"Feature"},{"geometry":{"coordinates":[120.338394,23.98481],"type":"Point"},"id":"wattlas-plant-osm-way-1163837254","properties":{"aliases":["王功風力發電區"],"canonicalAnchor":"osm:way/1163837254","canonicalCountryKey":"TW","capacityMw":0.0,"country":"TW","externalIds":{"osm":"way/1163837254"},"geographyId":"TW-90331920B38323674923848","id":"wattlas-plant-osm-way-1163837254","lifecycleCounts":{"operational":1},"locationPrecision":"exact","name":"王功風力發電區","operatingCapacityCoverage":{"coveragePercent":0.0,"knownUnitCount":0,"method":"unavailable","totalUnitCount":0},"operatingCapacityMw":0.0,"operatingCapacityMwByTechnology":{},"plannedCapacityCoverage":{"coveragePercent":0.0,"knownUnitCount":0,"method":"unavailable","totalUnitCount":0},"plannedCapacityMw":0.0,"plannedCapacityMwByTechnology":{},"recordCount":1,"recordIds":["wattlas-record-osm-way-1163837254"],"sourceIds":["openstreetmap-power"],"sourceUrl":"https://www.openstreetmap.org/way/1163837254","technologies":["wind"],"technologyMixMw":{"wind":0.0},"unitCount":0,"unitIds":[]},"type":"Feature"},{"geometry":{"coordinates":[120.495388,26.365892],"type":"Point"},"id":"wattlas-plant-osm-way-1362560858","properties":{"aliases":["東引發電一廠"],"canonicalAnchor":"osm:way/1362560858","canonicalCountryKey":"TW","capacityMw":0.0,"country":"TW","externalIds":{"osm":"way/1362560858"},"geographyId":"TW-90331920B68512430020187","id":"wattlas-plant-osm-way-1362560858","lifecycleCounts":{"operational":1},"locationPrecision":"exact","name":"東引發電一廠","operatingCapacityCoverage":{"coveragePercent":0.0,"knownUnitCount":0,"method":"unavailable","totalUnitCount":0},"operatingCapacityMw":0.0,"operatingCapacityMwByTechnology":{},"plannedCapacityCoverage":{"coveragePercent":0.0,"knownUnitCount":0,"method":"unavailable","totalUnitCount":0},"plannedCapacityMw":0.0,"plannedCapacityMwByTechnology":{},"recordCount":1,"recordIds":["wattlas-record-osm-way-1362560858"],"sourceIds":["openstreetmap-power"],"sourceUrl":"https://www.openstreetmap.org/way/1362560858","technologies":["other"],"technologyMixMw":{"other":0.0},"unitCount":0,"unitIds":[]},"type":"Feature"},{"geometry":{"coordinates":[120.497536,26.368563],"type":"Point"},"id":"wattlas-plant-osm-way-529638244","properties":{"aliases":["東引發電三廠"],"canonicalAnchor":"osm:way/529638244","canonicalCountryKey":"TW","capacityMw":6.4,"country":"TW","externalIds":{"osm":"way/529638244"},"geographyId":"TW-90331920B68512430020187","id":"wattlas-plant-osm-way-529638244","lifecycleCounts":{"operational":1},"locationPrecision":"exact","name":"東引發電三廠","operatingCapacityCoverage":{"coveragePercent":100.0,"knownUnitCount":0,"method":"plant_aggregate","provenance":{"evidenceCount":0,"recordIds":["wattlas-record-osm-way-529638244"],"sourceIds":["openstreetmap-power"],"sourceTypes":["community_mapped"],"valueKind":"reported"},"totalUnitCount":0},"operatingCapacityMw":6.4,"operatingCapacityMwByTechnology":{"other":6.4},"plannedCapacityCoverage":{"coveragePercent":0.0,"knownUnitCount":0,"method":"unavailable","totalUnitCount":0},"plannedCapacityMw":0.0,"plannedCapacityMwByTechnology":{},"recordCount":1,"recordIds":["wattlas-record-osm-way-529638244"],"sourceIds":["openstreetmap-power"],"sourceUrl":"https://www.openstreetmap.org/way/529638244","technologies":["other"],"technologyMixMw":{"other":6.4},"unitCount":0,"unitIds":[]},"type":"Feature"},{"geometry":{"coordinates":[120.490613,24.213081],"type":"Point"},"id":"wattlas-plant-osm-way-996796344","properties":{"aliases":["台電台中電廠D-E生水池太陽光電發電廠"],"canonicalAnchor":"osm:way/996796344","canonicalCountryKey":"TW","capacityMw":0.0,"country":"TW","externalIds":{"osm":"way/996796344"},"geographyId":"TW-90331920B14152728161970","id":"wattlas-plant-osm-way-996796344","lifecycleCounts":{"operational":1},"locationPrecision":"exact","name":"台電台中電廠D-E生水池太陽光電發電廠","operatingCapacityCoverage":{"coveragePercent":0.0,"knownUnitCount":0,"method":"unavailable","totalUnitCount":0},"operatingCapacityMw":0.0,"operatingCapacityMwByTechnology":{},"plannedCapacityCoverage":{"coveragePercent":0.0,"knownUnitCount":0,"method":"unavailable","totalUnitCount":0},"plannedCapacityMw":0.0,"plannedCapacityMwByTechnology":{},"recordCount":1,"recordIds":["wattlas-record-osm-way-996796344"],"sourceIds":["openstreetmap-power"],"sourceUrl":"https://www.openstreetmap.org/way/996796344","technologies":["solar"],"technologyMixMw":{"solar":0.0},"unitCount":0,"unitIds":[]},"type":"Feature"},{"geometry":{"coordinates":[120.494459,24.208138],"type":"Point"},"id":"wattlas-plant-osm-way-996796345","properties":{"aliases":["台灣電力公司龍井太陽光電"],"canonicalAnchor":"osm:way/996796345","canonicalCountryKey":"TW","capacityMw":0.0,"country":"TW","externalIds":{"osm":"way/996796345"},"geographyId":"TW-90331920B14152728161970","id":"wattlas-plant-osm-way-996796345","lifecycleCounts":{"operational":1},"locationPrecision":"exact","name":"台灣電力公司龍井太陽光電","operatingCapacityCoverage":{"coveragePercent":0.0,"knownUnitCount":0,"method":"unavailable","totalUnitCount":0},"operatingCapacityMw":0.0,"operatingCapacityMwByTechnology":{},"plannedCapacityCoverage":{"coveragePercent":0.0,"knownUnitCount":0,"method":"unavailable","totalUnitCount":0},"plannedCapacityMw":0.0,"plannedCapacityMwByTechnology":{},"recordCount":1,"recordIds":["wattlas-record-osm-way-996796345"],"sourceIds":["openstreetmap-power"],"sourceUrl":"https://www.openstreetmap.org/way/996796345","technologies":["solar"],"technologyMixMw":{"solar":0.0},"unitCount":0,"unitIds":[]},"type":"Feature"},{"geometry":{"coordinates":[121.299116,25.120013],"type":"Point"},"id":"wattlas-plant-wikidata-q11105601","properties":{"aliases":["林口火力發電廠"],"canonicalAnchor":"wikidata:Q11105601","canonicalCountryKey":"TW","capacityMw":2400.0,"country":"TW","externalIds":{"osm":"way/199146681","wikidata":"Q11105601","wikipedia":"zh:林口發電廠"},"geographyId":"TW-90331920B2879670148147","id":"wattlas-plant-wikidata-q11105601","idAliases":["wattlas-plant-osm-way-199146681"],"lifecycleCounts":{"operational":1},"locationPrecision":"exact","name":"林口火力發電廠","operatingCapacityCoverage":{"coveragePercent":100.0,"knownUnitCount":0,"method":"plant_aggregate","provenance":{"evidenceCount":0,"recordIds":["wattlas-record-osm-way-199146681"],"sourceIds":["openstreetmap-power"],"sourceTypes":["community_mapped"],"valueKind":"reported"},"totalUnitCount":0},"operatingCapacityMw":2400.0,"operatingCapacityMwByTechnology":{"coal":2400.0},"plannedCapacityCoverage":{"coveragePercent":0.0,"knownUnitCount":0,"method":"unavailable","totalUnitCount":0},"plannedCapacityMw":0.0,"plannedCapacityMwByTechnology":{},"recordCount":1,"recordIds":["wattlas-record-osm-way-199146681"],"sourceIds":["openstreetmap-power"],"sourceUrl":"https://www.openstreetmap.org/way/199146681","technologies":["coal"],"technologyMixMw":{"coal":2400.0},"unitCount":0,"unitIds":[]},"type":"Feature"},{"geometry":{"coordinates":[121.835953,24.660271],"type":"Point"},"id":"wattlas-plant-wikidata-q22097584","properties":{"aliases":["利澤垃圾焚化廠"],"canonicalAnchor":"wikidata:Q22097584","canonicalCountryKey":"TW","capacityMw":12.6,"country":"TW","externalIds":{"osm":"way/300909125","wikidata":"Q22097584","wikipedia":"zh:利澤垃圾焚化廠"},"geographyId":"TW-90331920B81947240122251","id":"wattlas-plant-wikidata-q22097584","idAliases":["wattlas-plant-osm-way-300909125"],"lifecycleCounts":{"operational":1},"locationPrecision":"exact","name":"利澤垃圾焚化廠","operatingCapacityCoverage":{"coveragePercent":100.0,"knownUnitCount":0,"method":"plant_aggregate","provenance":{"evidenceCount":0,"recordIds":["wattlas-record-osm-way-300909125"],"sourceIds":["openstreetmap-power"],"sourceTypes":["community_mapped"],"valueKind":"reported"},"totalUnitCount":0},"operatingCapacityMw":12.6,"operatingCapacityMwByTechnology":{"other":12.6},"plannedCapacityCoverage":{"coveragePercent":0.0,"knownUnitCount":0,"method":"unavailable","totalUnitCount":0},"plannedCapacityMw":0.0,"plannedCapacityMwByTechnology":{},"recordCount":1,"recordIds":["wattlas-record-osm-way-300909125"],"sourceIds":["openstreetmap-power"],"sourceUrl":"https://www.openstreetmap.org/way/300909125","technologies":["other"],"technologyMixMw":{"other":12.6},"unitCount":0,"unitIds":[]},"type":"Feature"},{"geometry":{"coordinates":[120.157062,23.661596],"type":"Point"},"id":"wattlas-plant-wikidata-q42173665","properties":{"aliases":["四湖風力發電站"],"canonicalAnchor":"wikidata:Q42173665","canonicalCountryKey":"TW","capacityMw":28.0,"country":"TW","externalIds":{"osm":"relation/13131408","wikidata":"Q42173665","wikipedia":"zh:四湖風力發電站"},"geographyId":"TW-90331920B31004800433386","id":"wattlas-plant-wikidata-q42173665","idAliases":["wattlas-plant-osm-relation-13131408"],"lifecycleCounts":{"operational":1},"locationPrecision":"exact","name":"四湖風力發電站","operatingCapacityCoverage":{"coveragePercent":100.0,"knownUnitCount":0,"method":"plant_aggregate","provenance":{"evidenceCount":0,"recordIds":["wattlas-record-osm-relation-13131408"],"sourceIds":["openstreetmap-power"],"sourceTypes":["community_mapped"],"valueKind":"reported"},"totalUnitCount":0},"operatingCapacityMw":28.0,"operatingCapacityMwByTechnology":{"wind":28.0},"plannedCapacityCoverage":{"coveragePercent":0.0,"knownUnitCount":0,"method":"unavailable","totalUnitCount":0},"plannedCapacityMw":0.0,"plannedCapacityMwByTechnology":{},"recordCount":1,"recordIds":["wattlas-record-osm-relation-13131408"],"sourceIds":["openstreetmap-power"],"sourceUrl":"https://www.openstreetmap.org/relation/13131408","technologies":["wind"],"technologyMixMw":{"wind":28.0},"unitCount":0,"unitIds":[]},"type":"Feature"},{"geometry":{"coordinates":[121.367478,25.134262],"type":"Point"},"id":"wattlas-plant-wikidata-q55696434","properties":{"aliases":["八里垃圾焚化爐"],"canonicalAnchor":"wikidata:Q55696434","canonicalCountryKey":"TW","capacityMw":40.881,"country":"TW","externalIds":{"osm":"way/496645448","wikidata":"Q55696434","wikipedia":"zh:八里垃圾焚化廠"},"geographyId":"TW-90331920B2879670148147","id":"wattlas-plant-wikidata-q55696434","idAliases":["wattlas-plant-osm-way-496645448"],"lifecycleCounts":{"operational":1},"locationPrecision":"exact","name":"八里垃圾焚化爐","operatingCapacityCoverage":{"coveragePercent":100.0,"knownUnitCount":0,"method":"plant_aggregate","provenance":{"evidenceCount":0,"recordIds":["wattlas-record-osm-way-496645448"],"sourceIds":["openstreetmap-power"],"sourceTypes":["community_mapped"],"valueKind":"reported"},"totalUnitCount":0},"operatingCapacityMw":40.881,"operatingCapacityMwByTechnology":{"other":40.881},"plannedCapacityCoverage":{"coveragePercent":0.0,"knownUnitCount":0,"method":"unavailable","totalUnitCount":0},"plannedCapacityMw":0.0,"plannedCapacityMwByTechnology":{},"recordCount":1,"recordIds":["wattlas-record-osm-way-496645448"],"sourceIds":["openstreetmap-power"],"sourceUrl":"https://www.openstreetmap.org/way/496645448","technologies":["other"],"technologyMixMw":{"other":40.881},"unitCount":0,"unitIds":[]},"type":"Feature"},{"geometry":{"coordinates":[120.481521,24.215179],"type":"Point"},"id":"wattlas-plant-wikidata-q584095","properties":{"aliases":["台中火力發電廠"],"canonicalAnchor":"wikidata:Q584095","canonicalCountryKey":"TW","capacityMw":5824.0,"country":"TW","externalIds":{"osm":"way/200691649","wikidata":"Q584095","wikipedia":"zh:台中發電廠"},"geographyId":"TW-90331920B14152728161970","id":"wattlas-plant-wikidata-q584095","idAliases":["wattlas-plant-osm-way-200691649"],"lifecycleCounts":{"operational":1},"locationPrecision":"exact","name":"台中火力發電廠","operatingCapacityCoverage":{"coveragePercent":100.0,"knownUnitCount":0,"method":"plant_aggregate","provenance":{"evidenceCount":0,"recordIds":["wattlas-record-osm-way-200691649"],"sourceIds":["openstreetmap-power"],"sourceTypes":["community_mapped"],"valueKind":"reported"},"totalUnitCount":0},"operatingCapacityMw":5824.0,"operatingCapacityMwByTechnology":{"coal":5824.0},"plannedCapacityCoverage":{"coveragePercent":0.0,"knownUnitCount":0,"method":"unavailable","totalUnitCount":0},"plannedCapacityMw":0.0,"plannedCapacityMwByTechnology":{},"recordCount":1,"recordIds":["wattlas-record-osm-way-200691649"],"sourceIds":["openstreetmap-power"],"sourceUrl":"https://www.openstreetmap.org/way/200691649","technologies":["coal"],"technologyMixMw":{"coal":5824.0},"unitCount":0,"unitIds":[]},"type":"Feature"},{"geometry":{"coordinates":[121.045755,25.025326],"type":"Point"},"id":"wattlas-plant-wikidata-q6832032-41fda44487","properties":{"aliases":["台電大潭發電廠"],"canonicalAnchor":"wikidata:Q6832032","canonicalCountryKey":"TW","capacityMw":4984.2,"country":"TW","externalIds":{"osm":"relation/18726493","wikidata":"Q6832032","wikipedia":"zh:大潭發電廠"},"geographyId":"TW-90331920B8812801353421","id":"wattlas-plant-wikidata-q6832032-41fda44487","idAliases":["wattlas-plant-osm-relation-18726493","wattlas-plant-wikidata-q6832032"],"lifecycleCounts":{"operational":1},"locationPrecision":"exact","name":"台電大潭發電廠","operatingCapacityCoverage":{"coveragePercent":100.0,"knownUnitCount":0,"method":"plant_aggregate","provenance":{"evidenceCount":0,"recordIds":["wattlas-record-osm-relation-18726493"],"sourceIds":["openstreetmap-power"],"sourceTypes":["community_mapped"],"valueKind":"reported"},"totalUnitCount":0},"operatingCapacityMw":4984.2,"operatingCapacityMwByTechnology":{"gas":4984.2},"plannedCapacityCoverage":{"coveragePercent":0.0,"knownUnitCount":0,"method":"unavailable","totalUnitCount":0},"plannedCapacityMw":0.0,"plannedCapacityMwByTechnology":{},"recordCount":1,"recordIds":["wattlas-record-osm-relation-18726493"],"sourceIds":["openstreetmap-power"],"sourceUrl":"https://www.openstreetmap.org/relation/18726493","technologies":["gas"],"technologyMixMw":{"gas":4984.2},"unitCount":0,"unitIds":[]},"type":"Feature"},{"geometry":{"coordinates":[121.662655,25.202546],"type":"Point"},"id":"wattlas-plant-wikidata-q711929","properties":{"aliases":["第二核能發電廠"],"canonicalAnchor":"wikidata:Q711929","canonicalCountryKey":"TW","capacityMw":1896.0,"country":"TW","externalIds":{"osm":"way/203381069","wikidata":"Q711929","wikipedia":"de:Kernkraftwerk Kuosheng"},"geographyId":"TW-90331920B2879670148147","id":"wattlas-plant-wikidata-q711929","idAliases":["wattlas-plant-osm-way-203381069","wattlas-plant-wikipedia-de-kernkraftwerk-kuosheng"],"lifecycleCounts":{"operational":1},"locationPrecision":"exact","name":"第二核能發電廠","operatingCapacityCoverage":{"coveragePercent":100.0,"knownUnitCount":0,"method":"plant_aggregate","provenance":{"evidenceCount":0,"recordIds":["wattlas-record-osm-way-203381069"],"sourceIds":["openstreetmap-power"],"sourceTypes":["community_mapped"],"valueKind":"reported"},"totalUnitCount":0},"operatingCapacityMw":1896.0,"operatingCapacityMwByTechnology":{"nuclear":1896.0},"plannedCapacityCoverage":{"coveragePercent":0.0,"knownUnitCount":0,"method":"unavailable","totalUnitCount":0},"plannedCapacityMw":0.0,"plannedCapacityMwByTechnology":{},"recordCount":1,"recordIds":["wattlas-record-osm-way-203381069"],"sourceIds":["openstreetmap-power"],"sourceUrl":"https://www.openstreetmap.org/way/203381069","technologies":["nuclear"],"technologyMixMw":{"nuclear":1896.0},"unitCount":0,"unitIds":[]},"type":"Feature"},{"geometry":{"coordinates":[121.588328,25.285477],"type":"Point"},"id":"wattlas-plant-wikidata-q712574","properties":{"aliases":["第一核能發電廠"],"canonicalAnchor":"wikidata:Q712574","canonicalCountryKey":"TW","capacityMw":1208.0,"country":"TW","externalIds":{"osm":"way/207641187","wikidata":"Q712574","wikipedia":"de:Kernkraftwerk Chin Shan"},"geographyId":"TW-90331920B2879670148147","id":"wattlas-plant-wikidata-q712574","idAliases":["wattlas-plant-osm-way-207641187","wattlas-plant-wikipedia-de-kernkraftwerk-chin-shan"],"lifecycleCounts":{"operational":1},"locationPrecision":"exact","name":"第一核能發電廠","operatingCapacityCoverage":{"coveragePercent":100.0,"knownUnitCount":0,"method":"plant_aggregate","provenance":{"evidenceCount":0,"recordIds":["wattlas-record-osm-way-207641187"],"sourceIds":["openstreetmap-power"],"sourceTypes":["community_mapped"],"valueKind":"reported"},"totalUnitCount":0},"operatingCapacityMw":1208.0,"operatingCapacityMwByTechnology":{"nuclear":1208.0},"plannedCapacityCoverage":{"coveragePercent":0.0,"knownUnitCount":0,"method":"unavailable","totalUnitCount":0},"plannedCapacityMw":0.0,"plannedCapacityMwByTechnology":{},"recordCount":1,"recordIds":["wattlas-record-osm-way-207641187"],"sourceIds":["openstreetmap-power"],"sourceUrl":"https://www.openstreetmap.org/way/207641187","technologies":["nuclear"],"technologyMixMw":{"nuclear":1208.0},"unitCount":0,"unitIds":[]},"type":"Feature"}],"type":"FeatureCollection"}