{"features":[{"geometry":{"coordinates":[33.670349,-9.485085],"type":"Point"},"id":"wattlas-plant-gemplant-l100000103562","properties":{"aliases":["Kiwira Mine-2 power station","Phase II","Unit 1","Unit 2","Unit 3","Unit 4"],"canonicalAnchor":"gemplant:L100000103562","canonicalCountryKey":"TZ","capacityMw":600.0,"country":"TZ","externalIdAliases":{"gemUnit":["G100000105787","G100000105788","G100000105789","G100000105790","G100001022291"]},"externalIds":{"gemPlant":"L100000103562","gemUnit":"G100000105790"},"gemWikiUrl":"https://www.gem.wiki/Kiwira_Mine-2_power_station","geographyId":"TZ-36957248B75876472342648","id":"wattlas-plant-gemplant-l100000103562","lifecycleCounts":{"announced":5},"locationPrecision":"exact","name":"Kiwira Mine-2 power station","operatingCapacityCoverage":{"coveragePercent":0.0,"knownUnitCount":0,"method":"unavailable","totalUnitCount":0},"operatingCapacityMw":0.0,"operatingCapacityMwByTechnology":{},"plannedCapacityCoverage":{"coveragePercent":100.0,"knownUnitCount":5,"method":"complete_unit_sum","provenance":{"evidenceCount":0,"recordIds":["wattlas-record-gemunit-g100000105787","wattlas-record-gemunit-g100000105788","wattlas-record-gemunit-g100000105789","wattlas-record-gemunit-g100000105790","wattlas-record-gemunit-g100001022291"],"sourceIds":["gem-global-integrated-power-tracker"],"sourceTypes":["research_verified"],"valueKind":"reported"},"totalUnitCount":5},"plannedCapacityMw":600.0,"plannedCapacityMwByTechnology":{"coal":600.0},"recordCount":5,"recordIds":["wattlas-record-gemunit-g100000105787","wattlas-record-gemunit-g100000105788","wattlas-record-gemunit-g100000105789","wattlas-record-gemunit-g100000105790","wattlas-record-gemunit-g100001022291"],"sourceIds":["gem-global-integrated-power-tracker"],"sourceUrl":"https://www.gem.wiki/Kiwira_Mine-2_power_station","technologies":["coal"],"technologyMixMw":{"coal":600.0},"unitCount":5,"unitIds":["gem-unit-G100000105787","gem-unit-G100000105788","gem-unit-G100000105789","gem-unit-G100000105790","gem-unit-G100001022291"]},"type":"Feature"},{"geometry":{"coordinates":[35.2911,-8.7283],"type":"Point"},"id":"wattlas-plant-gemplant-l100000200021","properties":{"aliases":["2.0","Mufindi Paper Mills power station"],"canonicalAnchor":"gemplant:L100000200021","canonicalCountryKey":"TZ","capacityMw":0.0,"country":"TZ","externalIds":{"gemPlant":"L100000200021","gemUnit":"G100000200023"},"gemWikiUrl":"https://www.gem.wiki/Mufindi_Paper_Mills_power_station","geographyId":"TZ-36957248B77241623821364","id":"wattlas-plant-gemplant-l100000200021","lifecycleCounts":{"cancelled":1},"locationPrecision":"exact","name":"Mufindi Paper Mills power station","operatingCapacityCoverage":{"coveragePercent":0.0,"knownUnitCount":0,"method":"unavailable","totalUnitCount":0},"operatingCapacityMw":0.0,"operatingCapacityMwByTechnology":{},"plannedCapacityCoverage":{"coveragePercent":0.0,"knownUnitCount":0,"method":"unavailable","totalUnitCount":0},"plannedCapacityMw":0.0,"plannedCapacityMwByTechnology":{},"recordCount":1,"recordIds":["wattlas-record-gemunit-g100000200023"],"sourceIds":["gem-global-integrated-power-tracker"],"sourceUrl":"https://www.gem.wiki/Mufindi_Paper_Mills_power_station","technologies":["biomass"],"technologyMixMw":{"biomass":0.0},"unitCount":1,"unitIds":["gem-unit-G100000200023"]},"type":"Feature"},{"geometry":{"coordinates":[39.150713,-6.857982],"type":"Point"},"id":"wattlas-plant-gemplant-l100000406824","properties":{"aliases":["1-1","Kinyerezi II power station"],"canonicalAnchor":"gemplant:L100000406824","canonicalCountryKey":"TZ","capacityMw":240.0,"country":"TZ","externalIds":{"gemPlant":"L100000406824","gemUnit":"G100000407275"},"gemWikiUrl":"https://www.gem.wiki/Kinyerezi_II_power_station","geographyId":"TZ-36957248B2633782293100","id":"wattlas-plant-gemplant-l100000406824","lifecycleCounts":{"operational":1},"locationPrecision":"exact","name":"Kinyerezi II power station","operatingCapacityCoverage":{"coveragePercent":100.0,"knownUnitCount":1,"method":"complete_unit_sum","provenance":{"evidenceCount":0,"recordIds":["wattlas-record-gemunit-g100000407275"],"sourceIds":["gem-global-integrated-power-tracker"],"sourceTypes":["research_verified"],"valueKind":"reported"},"totalUnitCount":1},"operatingCapacityMw":240.0,"operatingCapacityMwByTechnology":{"gas":240.0},"plannedCapacityCoverage":{"coveragePercent":0.0,"knownUnitCount":0,"method":"unavailable","totalUnitCount":0},"plannedCapacityMw":0.0,"plannedCapacityMwByTechnology":{},"recordCount":1,"recordIds":["wattlas-record-gemunit-g100000407275"],"sourceIds":["gem-global-integrated-power-tracker"],"sourceUrl":"https://www.gem.wiki/Kinyerezi_II_power_station","technologies":["gas"],"technologyMixMw":{"gas":240.0},"unitCount":1,"unitIds":["gem-unit-G100000407275"]},"type":"Feature"},{"geometry":{"coordinates":[39.205716,-6.792184],"type":"Point"},"id":"wattlas-plant-gemplant-l100000409042","properties":{"aliases":["1-1","1-2","2-1","2-2","3-1","3-2","Songas Ubungo power station"],"canonicalAnchor":"gemplant:L100000409042","canonicalCountryKey":"TZ","capacityMw":207.0,"country":"TZ","externalIdAliases":{"gemUnit":["G100000413548","G100000413549","G100000413550","G100000413551","G100000413552","G100000413553"]},"externalIds":{"gemPlant":"L100000409042","gemUnit":"G100000413548"},"gemWikiUrl":"https://www.gem.wiki/Songas_Ubungo_power_station","geographyId":"TZ-36957248B2633782293100","id":"wattlas-plant-gemplant-l100000409042","lifecycleCounts":{"operational":6},"locationPrecision":"exact","name":"Songas Ubungo power station","operatingCapacityCoverage":{"coveragePercent":100.0,"knownUnitCount":6,"method":"complete_unit_sum","provenance":{"evidenceCount":0,"recordIds":["wattlas-record-gemunit-g100000413548","wattlas-record-gemunit-g100000413549","wattlas-record-gemunit-g100000413550","wattlas-record-gemunit-g100000413551","wattlas-record-gemunit-g100000413552","wattlas-record-gemunit-g100000413553"],"sourceIds":["gem-global-integrated-power-tracker"],"sourceTypes":["research_verified"],"valueKind":"reported"},"totalUnitCount":6},"operatingCapacityMw":207.0,"operatingCapacityMwByTechnology":{"gas":207.0},"plannedCapacityCoverage":{"coveragePercent":0.0,"knownUnitCount":0,"method":"unavailable","totalUnitCount":0},"plannedCapacityMw":0.0,"plannedCapacityMwByTechnology":{},"recordCount":6,"recordIds":["wattlas-record-gemunit-g100000413548","wattlas-record-gemunit-g100000413549","wattlas-record-gemunit-g100000413550","wattlas-record-gemunit-g100000413551","wattlas-record-gemunit-g100000413552","wattlas-record-gemunit-g100000413553"],"sourceIds":["gem-global-integrated-power-tracker"],"sourceUrl":"https://www.gem.wiki/Songas_Ubungo_power_station","technologies":["gas"],"technologyMixMw":{"gas":207.0},"unitCount":6,"unitIds":["gem-unit-G100000413548","gem-unit-G100000413549","gem-unit-G100000413550","gem-unit-G100000413551","gem-unit-G100000413552","gem-unit-G100000413553"]},"type":"Feature"},{"geometry":{"coordinates":[39.154039,-6.858545],"type":"Point"},"id":"wattlas-plant-gemplant-l100000409157","properties":{"aliases":["1-1","2-1","3-1","4-1","Kinyerezi I power station"],"canonicalAnchor":"gemplant:L100000409157","canonicalCountryKey":"TZ","capacityMw":152.0,"country":"TZ","externalIdAliases":{"gemUnit":["G100000413919","G100000413920","G100000413921","G100000413922"]},"externalIds":{"gemPlant":"L100000409157","gemUnit":"G100000413919"},"gemWikiUrl":"https://www.gem.wiki/Kinyerezi_I_power_station","geographyId":"TZ-36957248B2633782293100","id":"wattlas-plant-gemplant-l100000409157","lifecycleCounts":{"operational":4},"locationPrecision":"exact","name":"Kinyerezi I power station","operatingCapacityCoverage":{"coveragePercent":100.0,"knownUnitCount":4,"method":"complete_unit_sum","provenance":{"evidenceCount":0,"recordIds":["wattlas-record-gemunit-g100000413919","wattlas-record-gemunit-g100000413920","wattlas-record-gemunit-g100000413921","wattlas-record-gemunit-g100000413922"],"sourceIds":["gem-global-integrated-power-tracker"],"sourceTypes":["research_verified"],"valueKind":"reported"},"totalUnitCount":4},"operatingCapacityMw":152.0,"operatingCapacityMwByTechnology":{"gas":152.0},"plannedCapacityCoverage":{"coveragePercent":0.0,"knownUnitCount":0,"method":"unavailable","totalUnitCount":0},"plannedCapacityMw":0.0,"plannedCapacityMwByTechnology":{},"recordCount":4,"recordIds":["wattlas-record-gemunit-g100000413919","wattlas-record-gemunit-g100000413920","wattlas-record-gemunit-g100000413921","wattlas-record-gemunit-g100000413922"],"sourceIds":["gem-global-integrated-power-tracker"],"sourceUrl":"https://www.gem.wiki/Kinyerezi_I_power_station","technologies":["gas"],"technologyMixMw":{"gas":152.0},"unitCount":4,"unitIds":["gem-unit-G100000413919","gem-unit-G100000413920","gem-unit-G100000413921","gem-unit-G100000413922"]},"type":"Feature"},{"geometry":{"coordinates":[39.18424,-6.67405],"type":"Point"},"id":"wattlas-plant-gemplant-l100000409169","properties":{"aliases":["1-1","Tegeta power station"],"canonicalAnchor":"gemplant:L100000409169","canonicalCountryKey":"TZ","capacityMw":45.0,"country":"TZ","externalIds":{"gemPlant":"L100000409169","gemUnit":"G100000413917"},"gemWikiUrl":"https://www.gem.wiki/Tegeta_power_station","geographyId":"TZ-36957248B2633782293100","id":"wattlas-plant-gemplant-l100000409169","lifecycleCounts":{"operational":1},"locationPrecision":"exact","name":"Tegeta power station","operatingCapacityCoverage":{"coveragePercent":100.0,"knownUnitCount":1,"method":"complete_unit_sum","provenance":{"evidenceCount":0,"recordIds":["wattlas-record-gemunit-g100000413917"],"sourceIds":["gem-global-integrated-power-tracker"],"sourceTypes":["research_verified"],"valueKind":"reported"},"totalUnitCount":1},"operatingCapacityMw":45.0,"operatingCapacityMwByTechnology":{"gas":45.0},"plannedCapacityCoverage":{"coveragePercent":0.0,"knownUnitCount":0,"method":"unavailable","totalUnitCount":0},"plannedCapacityMw":0.0,"plannedCapacityMwByTechnology":{},"recordCount":1,"recordIds":["wattlas-record-gemunit-g100000413917"],"sourceIds":["gem-global-integrated-power-tracker"],"sourceUrl":"https://www.gem.wiki/Tegeta_power_station","technologies":["gas"],"technologyMixMw":{"gas":45.0},"unitCount":1,"unitIds":["gem-unit-G100000413917"]},"type":"Feature"},{"geometry":{"coordinates":[39.18772,-6.67442],"type":"Point"},"id":"wattlas-plant-gemplant-l100000409170","properties":{"aliases":["1-1","Tegeta (Diesel) power station"],"canonicalAnchor":"gemplant:L100000409170","canonicalCountryKey":"TZ","capacityMw":100.0,"country":"TZ","externalIds":{"gemPlant":"L100000409170","gemUnit":"G100000413918"},"gemWikiUrl":"https://www.gem.wiki/Tegeta_(Diesel)_power_station","geographyId":"TZ-36957248B2633782293100","id":"wattlas-plant-gemplant-l100000409170","lifecycleCounts":{"operational":1},"locationPrecision":"exact","name":"Tegeta (Diesel) power station","operatingCapacityCoverage":{"coveragePercent":100.0,"knownUnitCount":1,"method":"complete_unit_sum","provenance":{"evidenceCount":0,"recordIds":["wattlas-record-gemunit-g100000413918"],"sourceIds":["gem-global-integrated-power-tracker"],"sourceTypes":["research_verified"],"valueKind":"reported"},"totalUnitCount":1},"operatingCapacityMw":100.0,"operatingCapacityMwByTechnology":{"gas":100.0},"plannedCapacityCoverage":{"coveragePercent":0.0,"knownUnitCount":0,"method":"unavailable","totalUnitCount":0},"plannedCapacityMw":0.0,"plannedCapacityMwByTechnology":{},"recordCount":1,"recordIds":["wattlas-record-gemunit-g100000413918"],"sourceIds":["gem-global-integrated-power-tracker"],"sourceUrl":"https://www.gem.wiki/Tegeta_(Diesel)_power_station","technologies":["gas"],"technologyMixMw":{"gas":100.0},"unitCount":1,"unitIds":["gem-unit-G100000413918"]},"type":"Feature"},{"geometry":{"coordinates":[37.8511,-7.8032],"type":"Point"},"id":"wattlas-plant-gemplant-l100000603560","properties":{"aliases":["Julius Nyerere hydroelectric plant"],"canonicalAnchor":"gemplant:L100000603560","canonicalCountryKey":"TZ","capacityMw":2115.0,"country":"TZ","externalIds":{"gemPlant":"L100000603560","gemUnit":"G100000603595"},"gemWikiUrl":"https://www.gem.wiki/Julius_Nyerere_hydroelectric_plant","geographyId":"TZ-36957248B51202481578817","id":"wattlas-plant-gemplant-l100000603560","lifecycleCounts":{"operational":1},"locationPrecision":"exact","name":"Julius Nyerere hydroelectric plant","operatingCapacityCoverage":{"coveragePercent":100.0,"knownUnitCount":1,"method":"complete_unit_sum","provenance":{"evidenceCount":0,"recordIds":["wattlas-record-gemunit-g100000603595"],"sourceIds":["gem-global-integrated-power-tracker"],"sourceTypes":["research_verified"],"valueKind":"reported"},"totalUnitCount":1},"operatingCapacityMw":2115.0,"operatingCapacityMwByTechnology":{"hydro":2115.0},"plannedCapacityCoverage":{"coveragePercent":0.0,"knownUnitCount":0,"method":"unavailable","totalUnitCount":0},"plannedCapacityMw":0.0,"plannedCapacityMwByTechnology":{},"recordCount":1,"recordIds":["wattlas-record-gemunit-g100000603595"],"sourceIds":["gem-global-integrated-power-tracker"],"sourceUrl":"https://www.gem.wiki/Julius_Nyerere_hydroelectric_plant","technologies":["hydro"],"technologyMixMw":{"hydro":2115.0},"unitCount":1,"unitIds":["gem-unit-G100000603595"]},"type":"Feature"},{"geometry":{"coordinates":[36.8866,-7.6367],"type":"Point"},"id":"wattlas-plant-gemplant-l100000603561","properties":{"aliases":["Kidatu hydroelectric plant"],"canonicalAnchor":"gemplant:L100000603561","canonicalCountryKey":"TZ","capacityMw":200.0,"country":"TZ","externalIds":{"gemPlant":"L100000603561","gemUnit":"G100000603596"},"gemWikiUrl":"https://www.gem.wiki/Kidatu_hydroelectric_plant","geographyId":"TZ-36957248B77241623821364","id":"wattlas-plant-gemplant-l100000603561","lifecycleCounts":{"operational":1},"locationPrecision":"exact","name":"Kidatu hydroelectric plant","operatingCapacityCoverage":{"coveragePercent":100.0,"knownUnitCount":1,"method":"complete_unit_sum","provenance":{"evidenceCount":0,"recordIds":["wattlas-record-gemunit-g100000603596"],"sourceIds":["gem-global-integrated-power-tracker"],"sourceTypes":["research_verified"],"valueKind":"reported"},"totalUnitCount":1},"operatingCapacityMw":200.0,"operatingCapacityMwByTechnology":{"hydro":200.0},"plannedCapacityCoverage":{"coveragePercent":0.0,"knownUnitCount":0,"method":"unavailable","totalUnitCount":0},"plannedCapacityMw":0.0,"plannedCapacityMwByTechnology":{},"recordCount":1,"recordIds":["wattlas-record-gemunit-g100000603596"],"sourceIds":["gem-global-integrated-power-tracker"],"sourceUrl":"https://www.gem.wiki/Kidatu_hydroelectric_plant","technologies":["hydro"],"technologyMixMw":{"hydro":200.0},"unitCount":1,"unitIds":["gem-unit-G100000603596"]},"type":"Feature"},{"geometry":{"coordinates":[35.8512,-8.5751],"type":"Point"},"id":"wattlas-plant-gemplant-l100000603562","properties":{"aliases":["Kihansi hydroelectric plant"],"canonicalAnchor":"gemplant:L100000603562","canonicalCountryKey":"TZ","capacityMw":180.0,"country":"TZ","externalIds":{"gemPlant":"L100000603562","gemUnit":"G100000603597"},"gemWikiUrl":"https://www.gem.wiki/Kihansi_hydroelectric_plant","geographyId":"TZ-36957248B51202481578817","id":"wattlas-plant-gemplant-l100000603562","lifecycleCounts":{"operational":1},"locationPrecision":"exact","name":"Kihansi hydroelectric plant","operatingCapacityCoverage":{"coveragePercent":100.0,"knownUnitCount":1,"method":"complete_unit_sum","provenance":{"evidenceCount":0,"recordIds":["wattlas-record-gemunit-g100000603597"],"sourceIds":["gem-global-integrated-power-tracker"],"sourceTypes":["research_verified"],"valueKind":"reported"},"totalUnitCount":1},"operatingCapacityMw":180.0,"operatingCapacityMwByTechnology":{"hydro":180.0},"plannedCapacityCoverage":{"coveragePercent":0.0,"knownUnitCount":0,"method":"unavailable","totalUnitCount":0},"plannedCapacityMw":0.0,"plannedCapacityMwByTechnology":{},"recordCount":1,"recordIds":["wattlas-record-gemunit-g100000603597"],"sourceIds":["gem-global-integrated-power-tracker"],"sourceUrl":"https://www.gem.wiki/Kihansi_hydroelectric_plant","technologies":["hydro"],"technologyMixMw":{"hydro":180.0},"unitCount":1,"unitIds":["gem-unit-G100000603597"]},"type":"Feature"},{"geometry":{"coordinates":[34.9856,-10.2682],"type":"Point"},"id":"wattlas-plant-gemplant-l100000603563","properties":{"aliases":["Kikonge hydroelectric plant"],"canonicalAnchor":"gemplant:L100000603563","canonicalCountryKey":"TZ","capacityMw":300.0,"country":"TZ","externalIds":{"gemPlant":"L100000603563","gemUnit":"G100000604514"},"gemWikiUrl":"https://www.gem.wiki/Kikonge_hydroelectric_plant","geographyId":"TZ-36957248B86098654739756","id":"wattlas-plant-gemplant-l100000603563","lifecycleCounts":{"announced":1},"locationPrecision":"exact","name":"Kikonge hydroelectric plant","operatingCapacityCoverage":{"coveragePercent":0.0,"knownUnitCount":0,"method":"unavailable","totalUnitCount":0},"operatingCapacityMw":0.0,"operatingCapacityMwByTechnology":{},"plannedCapacityCoverage":{"coveragePercent":100.0,"knownUnitCount":1,"method":"complete_unit_sum","provenance":{"evidenceCount":0,"recordIds":["wattlas-record-gemunit-g100000604514"],"sourceIds":["gem-global-integrated-power-tracker"],"sourceTypes":["research_verified"],"valueKind":"reported"},"totalUnitCount":1},"plannedCapacityMw":300.0,"plannedCapacityMwByTechnology":{"hydro":300.0},"recordCount":1,"recordIds":["wattlas-record-gemunit-g100000604514"],"sourceIds":["gem-global-integrated-power-tracker"],"sourceUrl":"https://www.gem.wiki/Kikonge_hydroelectric_plant","technologies":["hydro"],"technologyMixMw":{"hydro":300.0},"unitCount":1,"unitIds":["gem-unit-G100000604514"]},"type":"Feature"},{"geometry":{"coordinates":[35.9888,-7.1386],"type":"Point"},"id":"wattlas-plant-gemplant-l100000603564","properties":{"aliases":["Mtera hydroelectric plant"],"canonicalAnchor":"gemplant:L100000603564","canonicalCountryKey":"TZ","capacityMw":80.0,"country":"TZ","externalIds":{"gemPlant":"L100000603564","gemUnit":"G100000603599"},"gemWikiUrl":"https://www.gem.wiki/Mtera_hydroelectric_plant","geographyId":"TZ-36957248B77241623821364","id":"wattlas-plant-gemplant-l100000603564","lifecycleCounts":{"operational":1},"locationPrecision":"exact","name":"Mtera hydroelectric plant","operatingCapacityCoverage":{"coveragePercent":100.0,"knownUnitCount":1,"method":"complete_unit_sum","provenance":{"evidenceCount":0,"recordIds":["wattlas-record-gemunit-g100000603599"],"sourceIds":["gem-global-integrated-power-tracker"],"sourceTypes":["research_verified"],"valueKind":"reported"},"totalUnitCount":1},"operatingCapacityMw":80.0,"operatingCapacityMwByTechnology":{"hydro":80.0},"plannedCapacityCoverage":{"coveragePercent":0.0,"knownUnitCount":0,"method":"unavailable","totalUnitCount":0},"plannedCapacityMw":0.0,"plannedCapacityMwByTechnology":{},"recordCount":1,"recordIds":["wattlas-record-gemunit-g100000603599"],"sourceIds":["gem-global-integrated-power-tracker"],"sourceUrl":"https://www.gem.wiki/Mtera_hydroelectric_plant","technologies":["hydro"],"technologyMixMw":{"hydro":80.0},"unitCount":1,"unitIds":["gem-unit-G100000603599"]},"type":"Feature"},{"geometry":{"coordinates":[35.9471,-8.9328],"type":"Point"},"id":"wattlas-plant-gemplant-l100000603565","properties":{"aliases":["Ruhudji hydroelectric plant"],"canonicalAnchor":"gemplant:L100000603565","canonicalCountryKey":"TZ","capacityMw":358.0,"country":"TZ","externalIds":{"gemPlant":"L100000603565","gemUnit":"G100000603600"},"gemWikiUrl":"https://www.gem.wiki/Ruhudji_hydroelectric_plant","geographyId":"TZ-36957248B51202481578817","id":"wattlas-plant-gemplant-l100000603565","lifecycleCounts":{"announced":1},"locationPrecision":"exact","name":"Ruhudji hydroelectric plant","operatingCapacityCoverage":{"coveragePercent":0.0,"knownUnitCount":0,"method":"unavailable","totalUnitCount":0},"operatingCapacityMw":0.0,"operatingCapacityMwByTechnology":{},"plannedCapacityCoverage":{"coveragePercent":100.0,"knownUnitCount":1,"method":"complete_unit_sum","provenance":{"evidenceCount":0,"recordIds":["wattlas-record-gemunit-g100000603600"],"sourceIds":["gem-global-integrated-power-tracker"],"sourceTypes":["research_verified"],"valueKind":"reported"},"totalUnitCount":1},"plannedCapacityMw":358.0,"plannedCapacityMwByTechnology":{"hydro":358.0},"recordCount":1,"recordIds":["wattlas-record-gemunit-g100000603600"],"sourceIds":["gem-global-integrated-power-tracker"],"sourceUrl":"https://www.gem.wiki/Ruhudji_hydroelectric_plant","technologies":["hydro"],"technologyMixMw":{"hydro":358.0},"unitCount":1,"unitIds":["gem-unit-G100000603600"]},"type":"Feature"},{"geometry":{"coordinates":[30.7832,-2.3823],"type":"Point"},"id":"wattlas-plant-gemplant-l100000604101","properties":{"aliases":["Rusumo hydroelectric plant"],"canonicalAnchor":"gemplant:L100000604101","canonicalCountryKey":"TZ","capacityMw":80.0,"country":"TZ","externalIds":{"gemPlant":"L100000604101","gemUnit":"G100000604140"},"gemWikiUrl":"https://www.gem.wiki/Rusumo_hydroelectric_plant","geographyId":"TZ-36957248B48065738140082","id":"wattlas-plant-gemplant-l100000604101","lifecycleCounts":{"operational":1},"locationPrecision":"exact","name":"Rusumo hydroelectric plant","operatingCapacityCoverage":{"coveragePercent":100.0,"knownUnitCount":1,"method":"complete_unit_sum","provenance":{"evidenceCount":0,"recordIds":["wattlas-record-gemunit-g100000604140"],"sourceIds":["gem-global-integrated-power-tracker"],"sourceTypes":["research_verified"],"valueKind":"reported"},"totalUnitCount":1},"operatingCapacityMw":80.0,"operatingCapacityMwByTechnology":{"hydro":80.0},"plannedCapacityCoverage":{"coveragePercent":0.0,"knownUnitCount":0,"method":"unavailable","totalUnitCount":0},"plannedCapacityMw":0.0,"plannedCapacityMwByTechnology":{},"recordCount":1,"recordIds":["wattlas-record-gemunit-g100000604140"],"sourceIds":["gem-global-integrated-power-tracker"],"sourceUrl":"https://www.gem.wiki/Rusumo_hydroelectric_plant","technologies":["hydro"],"technologyMixMw":{"hydro":80.0},"unitCount":1,"unitIds":["gem-unit-G100000604140"]},"type":"Feature"},{"geometry":{"coordinates":[30.9332,-1.0518],"type":"Point"},"id":"wattlas-plant-gemplant-l100000604253","properties":{"aliases":["Kakono hydroelectric plant"],"canonicalAnchor":"gemplant:L100000604253","canonicalCountryKey":"TZ","capacityMw":88.0,"country":"TZ","externalIds":{"gemPlant":"L100000604253","gemUnit":"G100000604483"},"gemWikiUrl":"https://www.gem.wiki/Kakono_hydroelectric_plant","geographyId":"TZ-36957248B48065738140082","id":"wattlas-plant-gemplant-l100000604253","lifecycleCounts":{"under_construction":1},"locationPrecision":"exact","name":"Kakono hydroelectric plant","operatingCapacityCoverage":{"coveragePercent":0.0,"knownUnitCount":0,"method":"unavailable","totalUnitCount":0},"operatingCapacityMw":0.0,"operatingCapacityMwByTechnology":{},"plannedCapacityCoverage":{"coveragePercent":100.0,"knownUnitCount":1,"method":"complete_unit_sum","provenance":{"evidenceCount":0,"recordIds":["wattlas-record-gemunit-g100000604483"],"sourceIds":["gem-global-integrated-power-tracker"],"sourceTypes":["research_verified"],"valueKind":"reported"},"totalUnitCount":1},"plannedCapacityMw":88.0,"plannedCapacityMwByTechnology":{"hydro":88.0},"recordCount":1,"recordIds":["wattlas-record-gemunit-g100000604483"],"sourceIds":["gem-global-integrated-power-tracker"],"sourceUrl":"https://www.gem.wiki/Kakono_hydroelectric_plant","technologies":["hydro"],"technologyMixMw":{"hydro":88.0},"unitCount":1,"unitIds":["gem-unit-G100000604483"]},"type":"Feature"},{"geometry":{"coordinates":[34.7559,-4.8405],"type":"Point"},"id":"wattlas-plant-gemplant-l100000900135","properties":{"aliases":["--","Singida (Wind East Africa) wind farm"],"canonicalAnchor":"gemplant:L100000900135","canonicalCountryKey":"TZ","capacityMw":0.0,"country":"TZ","externalIds":{"gemPlant":"L100000900135","gemUnit":"G100000900175"},"gemWikiUrl":"https://www.gem.wiki/Singida_(Wind_East_Africa)_wind_farm","geographyId":"TZ-36957248B4897898165843","id":"wattlas-plant-gemplant-l100000900135","lifecycleCounts":{"paused":1},"locationPrecision":"exact","name":"Singida (Wind East Africa) wind farm","operatingCapacityCoverage":{"coveragePercent":0.0,"knownUnitCount":0,"method":"unavailable","totalUnitCount":0},"operatingCapacityMw":0.0,"operatingCapacityMwByTechnology":{},"plannedCapacityCoverage":{"coveragePercent":0.0,"knownUnitCount":0,"method":"unavailable","totalUnitCount":0},"plannedCapacityMw":0.0,"plannedCapacityMwByTechnology":{},"recordCount":1,"recordIds":["wattlas-record-gemunit-g100000900175"],"sourceIds":["gem-global-integrated-power-tracker"],"sourceUrl":"https://www.gem.wiki/Singida_(Wind_East_Africa)_wind_farm","technologies":["wind"],"technologyMixMw":{"wind":0.0},"unitCount":1,"unitIds":["gem-unit-G100000900175"]},"type":"Feature"},{"geometry":{"coordinates":[34.8109,-8.631],"type":"Point"},"id":"wattlas-plant-gemplant-l100000900136","properties":{"aliases":["1.0","2.0","Miombo Hewani wind farm"],"canonicalAnchor":"gemplant:L100000900136","canonicalCountryKey":"TZ","capacityMw":300.0,"country":"TZ","externalIdAliases":{"gemUnit":["G100000900176","G100000900177"]},"externalIds":{"gemPlant":"L100000900136","gemUnit":"G100000900177"},"gemWikiUrl":"https://www.gem.wiki/Miombo_Hewani_wind_farm","geographyId":"TZ-36957248B77241623821364","id":"wattlas-plant-gemplant-l100000900136","lifecycleCounts":{"announced":2},"locationPrecision":"exact","name":"Miombo Hewani wind farm","operatingCapacityCoverage":{"coveragePercent":0.0,"knownUnitCount":0,"method":"unavailable","totalUnitCount":0},"operatingCapacityMw":0.0,"operatingCapacityMwByTechnology":{},"plannedCapacityCoverage":{"coveragePercent":100.0,"knownUnitCount":2,"method":"complete_unit_sum","provenance":{"evidenceCount":0,"recordIds":["wattlas-record-gemunit-g100000900176","wattlas-record-gemunit-g100000900177"],"sourceIds":["gem-global-integrated-power-tracker"],"sourceTypes":["research_verified"],"valueKind":"reported"},"totalUnitCount":2},"plannedCapacityMw":300.0,"plannedCapacityMwByTechnology":{"wind":300.0},"recordCount":2,"recordIds":["wattlas-record-gemunit-g100000900176","wattlas-record-gemunit-g100000900177"],"sourceIds":["gem-global-integrated-power-tracker"],"sourceUrl":"https://www.gem.wiki/Miombo_Hewani_wind_farm","technologies":["wind"],"technologyMixMw":{"wind":300.0},"unitCount":2,"unitIds":["gem-unit-G100000900176","gem-unit-G100000900177"]},"type":"Feature"},{"geometry":{"coordinates":[34.7559,-4.8405],"type":"Point"},"id":"wattlas-plant-gemplant-l100000900158","properties":{"aliases":["--","Singida 2 wind farm"],"canonicalAnchor":"gemplant:L100000900158","canonicalCountryKey":"TZ","capacityMw":100.0,"country":"TZ","externalIds":{"gemPlant":"L100000900158","gemUnit":"G100000900206"},"gemWikiUrl":"https://www.gem.wiki/Singida_Ii_wind_farm","geographyId":"TZ-36957248B4897898165843","id":"wattlas-plant-gemplant-l100000900158","lifecycleCounts":{"announced":1},"locationPrecision":"exact","name":"Singida 2 wind farm","operatingCapacityCoverage":{"coveragePercent":0.0,"knownUnitCount":0,"method":"unavailable","totalUnitCount":0},"operatingCapacityMw":0.0,"operatingCapacityMwByTechnology":{},"plannedCapacityCoverage":{"coveragePercent":100.0,"knownUnitCount":1,"method":"complete_unit_sum","provenance":{"evidenceCount":0,"recordIds":["wattlas-record-gemunit-g100000900206"],"sourceIds":["gem-global-integrated-power-tracker"],"sourceTypes":["research_verified"],"valueKind":"reported"},"totalUnitCount":1},"plannedCapacityMw":100.0,"plannedCapacityMwByTechnology":{"wind":100.0},"recordCount":1,"recordIds":["wattlas-record-gemunit-g100000900206"],"sourceIds":["gem-global-integrated-power-tracker"],"sourceUrl":"https://www.gem.wiki/Singida_Ii_wind_farm","technologies":["wind"],"technologyMixMw":{"wind":100.0},"unitCount":1,"unitIds":["gem-unit-G100000900206"]},"type":"Feature"},{"geometry":{"coordinates":[34.7559,-4.8405],"type":"Point"},"id":"wattlas-plant-gemplant-l100000900159","properties":{"aliases":["--","Singida 3 wind farm"],"canonicalAnchor":"gemplant:L100000900159","canonicalCountryKey":"TZ","capacityMw":200.0,"country":"TZ","externalIds":{"gemPlant":"L100000900159","gemUnit":"G100000900207"},"gemWikiUrl":"https://www.gem.wiki/Singida_Iii_wind_farm","geographyId":"TZ-36957248B4897898165843","id":"wattlas-plant-gemplant-l100000900159","lifecycleCounts":{"announced":1},"locationPrecision":"exact","name":"Singida 3 wind farm","operatingCapacityCoverage":{"coveragePercent":0.0,"knownUnitCount":0,"method":"unavailable","totalUnitCount":0},"operatingCapacityMw":0.0,"operatingCapacityMwByTechnology":{},"plannedCapacityCoverage":{"coveragePercent":100.0,"knownUnitCount":1,"method":"complete_unit_sum","provenance":{"evidenceCount":0,"recordIds":["wattlas-record-gemunit-g100000900207"],"sourceIds":["gem-global-integrated-power-tracker"],"sourceTypes":["research_verified"],"valueKind":"reported"},"totalUnitCount":1},"plannedCapacityMw":200.0,"plannedCapacityMwByTechnology":{"wind":200.0},"recordCount":1,"recordIds":["wattlas-record-gemunit-g100000900207"],"sourceIds":["gem-global-integrated-power-tracker"],"sourceUrl":"https://www.gem.wiki/Singida_Iii_wind_farm","technologies":["wind"],"technologyMixMw":{"wind":200.0},"unitCount":1,"unitIds":["gem-unit-G100000900207"]},"type":"Feature"},{"geometry":{"coordinates":[29.6878,-4.8988],"type":"Point"},"id":"wattlas-plant-gemplant-l100001021047","properties":{"aliases":["--","Kigoma Region solar project"],"canonicalAnchor":"gemplant:L100001021047","canonicalCountryKey":"TZ","capacityMw":5.6,"country":"TZ","externalIds":{"gemPlant":"L100001021047","gemUnit":"G100001024016"},"gemWikiUrl":"https://www.gem.wiki/Kigoma_Region_solar_project","geographyId":"TZ-36957248B11692782910073","id":"wattlas-plant-gemplant-l100001021047","lifecycleCounts":{"operational":1},"locationPrecision":"exact","name":"Kigoma Region solar project","operatingCapacityCoverage":{"coveragePercent":100.0,"knownUnitCount":1,"method":"complete_unit_sum","provenance":{"evidenceCount":0,"recordIds":["wattlas-record-gemunit-g100001024016"],"sourceIds":["gem-global-integrated-power-tracker"],"sourceTypes":["research_verified"],"valueKind":"reported"},"totalUnitCount":1},"operatingCapacityMw":5.6,"operatingCapacityMwByTechnology":{"solar":5.6},"plannedCapacityCoverage":{"coveragePercent":0.0,"knownUnitCount":0,"method":"unavailable","totalUnitCount":0},"plannedCapacityMw":0.0,"plannedCapacityMwByTechnology":{},"recordCount":1,"recordIds":["wattlas-record-gemunit-g100001024016"],"sourceIds":["gem-global-integrated-power-tracker"],"sourceUrl":"https://www.gem.wiki/Kigoma_Region_solar_project","technologies":["solar"],"technologyMixMw":{"solar":5.6},"unitCount":1,"unitIds":["gem-unit-G100001024016"]},"type":"Feature"},{"geometry":{"coordinates":[34.4836,-5.8425],"type":"Point"},"id":"wattlas-plant-gemplant-l100001021048","properties":{"aliases":["--","Mgandu solar project"],"canonicalAnchor":"gemplant:L100001021048","canonicalCountryKey":"TZ","capacityMw":3.8,"country":"TZ","externalIds":{"gemPlant":"L100001021048","gemUnit":"G100001024017"},"gemWikiUrl":"https://www.gem.wiki/Mgandu_solar_project","geographyId":"TZ-36957248B4897898165843","id":"wattlas-plant-gemplant-l100001021048","lifecycleCounts":{"operational":1},"locationPrecision":"exact","name":"Mgandu solar project","operatingCapacityCoverage":{"coveragePercent":100.0,"knownUnitCount":1,"method":"complete_unit_sum","provenance":{"evidenceCount":0,"recordIds":["wattlas-record-gemunit-g100001024017"],"sourceIds":["gem-global-integrated-power-tracker"],"sourceTypes":["research_verified"],"valueKind":"reported"},"totalUnitCount":1},"operatingCapacityMw":3.8,"operatingCapacityMwByTechnology":{"solar":3.8},"plannedCapacityCoverage":{"coveragePercent":0.0,"knownUnitCount":0,"method":"unavailable","totalUnitCount":0},"plannedCapacityMw":0.0,"plannedCapacityMwByTechnology":{},"recordCount":1,"recordIds":["wattlas-record-gemunit-g100001024017"],"sourceIds":["gem-global-integrated-power-tracker"],"sourceUrl":"https://www.gem.wiki/Mgandu_solar_project","technologies":["solar"],"technologyMixMw":{"solar":3.8},"unitCount":1,"unitIds":["gem-unit-G100001024017"]},"type":"Feature"},{"geometry":{"coordinates":[38.6503,-5.3491],"type":"Point"},"id":"wattlas-plant-gemplant-l100001023283","properties":{"aliases":["Pangani Falls hydroelectric plant"],"canonicalAnchor":"gemplant:L100001023283","canonicalCountryKey":"TZ","capacityMw":68.0,"country":"TZ","externalIds":{"gemPlant":"L100001023283","gemUnit":"G100001027488"},"gemWikiUrl":"https://www.gem.wiki/Pangani_Falls_hydroelectric_plant","geographyId":"TZ-36957248B96174950507772","id":"wattlas-plant-gemplant-l100001023283","lifecycleCounts":{"operational":1},"locationPrecision":"exact","name":"Pangani Falls hydroelectric plant","operatingCapacityCoverage":{"coveragePercent":100.0,"knownUnitCount":1,"method":"complete_unit_sum","provenance":{"evidenceCount":0,"recordIds":["wattlas-record-gemunit-g100001027488"],"sourceIds":["gem-global-integrated-power-tracker"],"sourceTypes":["research_verified"],"valueKind":"reported"},"totalUnitCount":1},"operatingCapacityMw":68.0,"operatingCapacityMwByTechnology":{"hydro":68.0},"plannedCapacityCoverage":{"coveragePercent":0.0,"knownUnitCount":0,"method":"unavailable","totalUnitCount":0},"plannedCapacityMw":0.0,"plannedCapacityMwByTechnology":{},"recordCount":1,"recordIds":["wattlas-record-gemunit-g100001027488"],"sourceIds":["gem-global-integrated-power-tracker"],"sourceUrl":"https://www.gem.wiki/Pangani_Falls_hydroelectric_plant","technologies":["hydro"],"technologyMixMw":{"hydro":68.0},"unitCount":1,"unitIds":["gem-unit-G100001027488"]},"type":"Feature"},{"geometry":{"coordinates":[37.327049,-3.532607],"type":"Point"},"id":"wattlas-plant-gemplant-l100001046290","properties":{"aliases":["--","TPC Sugar power station"],"canonicalAnchor":"gemplant:L100001046290","canonicalCountryKey":"TZ","capacityMw":17.5,"country":"TZ","externalIds":{"gemPlant":"L100001046290","gemUnit":"G100001052275"},"gemWikiUrl":"https://www.gem.wiki/TPC_Sugar_power_station","geographyId":"TZ-36957248B99133684808243","id":"wattlas-plant-gemplant-l100001046290","lifecycleCounts":{"operational":1},"locationPrecision":"exact","name":"TPC Sugar power station","operatingCapacityCoverage":{"coveragePercent":100.0,"knownUnitCount":1,"method":"complete_unit_sum","provenance":{"evidenceCount":0,"recordIds":["wattlas-record-gemunit-g100001052275"],"sourceIds":["gem-global-integrated-power-tracker"],"sourceTypes":["research_verified"],"valueKind":"reported"},"totalUnitCount":1},"operatingCapacityMw":17.5,"operatingCapacityMwByTechnology":{"biomass":17.5},"plannedCapacityCoverage":{"coveragePercent":0.0,"knownUnitCount":0,"method":"unavailable","totalUnitCount":0},"plannedCapacityMw":0.0,"plannedCapacityMwByTechnology":{},"recordCount":1,"recordIds":["wattlas-record-gemunit-g100001052275"],"sourceIds":["gem-global-integrated-power-tracker"],"sourceUrl":"https://www.gem.wiki/TPC_Sugar_power_station","technologies":["biomass"],"technologyMixMw":{"biomass":17.5},"unitCount":1,"unitIds":["gem-unit-G100001052275"]},"type":"Feature"},{"geometry":{"coordinates":[35.214729,-8.403471],"type":"Point"},"id":"wattlas-plant-gemplant-l100001046294","properties":{"aliases":["--","Sao Hill power station"],"canonicalAnchor":"gemplant:L100001046294","canonicalCountryKey":"TZ","capacityMw":6.0,"country":"TZ","externalIds":{"gemPlant":"L100001046294","gemUnit":"G100001052279"},"gemWikiUrl":"https://www.gem.wiki/Sao_Hill_power_station","geographyId":"TZ-36957248B77241623821364","id":"wattlas-plant-gemplant-l100001046294","lifecycleCounts":{"operational":1},"locationPrecision":"exact","name":"Sao Hill power station","operatingCapacityCoverage":{"coveragePercent":100.0,"knownUnitCount":1,"method":"complete_unit_sum","provenance":{"evidenceCount":0,"recordIds":["wattlas-record-gemunit-g100001052279"],"sourceIds":["gem-global-integrated-power-tracker"],"sourceTypes":["research_verified"],"valueKind":"reported"},"totalUnitCount":1},"operatingCapacityMw":6.0,"operatingCapacityMwByTechnology":{"biomass":6.0},"plannedCapacityCoverage":{"coveragePercent":0.0,"knownUnitCount":0,"method":"unavailable","totalUnitCount":0},"plannedCapacityMw":0.0,"plannedCapacityMwByTechnology":{},"recordCount":1,"recordIds":["wattlas-record-gemunit-g100001052279"],"sourceIds":["gem-global-integrated-power-tracker"],"sourceUrl":"https://www.gem.wiki/Sao_Hill_power_station","technologies":["biomass"],"technologyMixMw":{"biomass":6.0},"unitCount":1,"unitIds":["gem-unit-G100001052279"]},"type":"Feature"},{"geometry":{"coordinates":[39.753256,-7.881494],"type":"Point"},"id":"wattlas-plant-gemplant-l100001046297","properties":{"aliases":["--","Mafia power station"],"canonicalAnchor":"gemplant:L100001046297","canonicalCountryKey":"TZ","capacityMw":2.5,"country":"TZ","externalIds":{"gemPlant":"L100001046297","gemUnit":"G100001052282"},"gemWikiUrl":"https://www.gem.wiki/Mafia_power_station","geographyId":"TZ-36957248B83801093286412","id":"wattlas-plant-gemplant-l100001046297","lifecycleCounts":{"operational":1},"locationPrecision":"exact","name":"Mafia power station","operatingCapacityCoverage":{"coveragePercent":100.0,"knownUnitCount":1,"method":"complete_unit_sum","provenance":{"evidenceCount":0,"recordIds":["wattlas-record-gemunit-g100001052282"],"sourceIds":["gem-global-integrated-power-tracker"],"sourceTypes":["research_verified"],"valueKind":"reported"},"totalUnitCount":1},"operatingCapacityMw":2.5,"operatingCapacityMwByTechnology":{"gas":2.5},"plannedCapacityCoverage":{"coveragePercent":0.0,"knownUnitCount":0,"method":"unavailable","totalUnitCount":0},"plannedCapacityMw":0.0,"plannedCapacityMwByTechnology":{},"recordCount":1,"recordIds":["wattlas-record-gemunit-g100001052282"],"sourceIds":["gem-global-integrated-power-tracker"],"sourceUrl":"https://www.gem.wiki/Mafia_power_station","technologies":["gas"],"technologyMixMw":{"gas":2.5},"unitCount":1,"unitIds":["gem-unit-G100001052282"]},"type":"Feature"},{"geometry":{"coordinates":[37.637552,-6.171502],"type":"Point"},"id":"wattlas-plant-gemplant-l100001046299","properties":{"aliases":["--","Mtibwa Sugar power station"],"canonicalAnchor":"gemplant:L100001046299","canonicalCountryKey":"TZ","capacityMw":13.0,"country":"TZ","externalIds":{"gemPlant":"L100001046299","gemUnit":"G100001052284"},"gemWikiUrl":"https://www.gem.wiki/Mtibwa_Sugar_power_station","geographyId":"TZ-36957248B51202481578817","id":"wattlas-plant-gemplant-l100001046299","lifecycleCounts":{"operational":1},"locationPrecision":"exact","name":"Mtibwa Sugar power station","operatingCapacityCoverage":{"coveragePercent":100.0,"knownUnitCount":1,"method":"complete_unit_sum","provenance":{"evidenceCount":0,"recordIds":["wattlas-record-gemunit-g100001052284"],"sourceIds":["gem-global-integrated-power-tracker"],"sourceTypes":["research_verified"],"valueKind":"reported"},"totalUnitCount":1},"operatingCapacityMw":13.0,"operatingCapacityMwByTechnology":{"biomass":13.0},"plannedCapacityCoverage":{"coveragePercent":0.0,"knownUnitCount":0,"method":"unavailable","totalUnitCount":0},"plannedCapacityMw":0.0,"plannedCapacityMwByTechnology":{},"recordCount":1,"recordIds":["wattlas-record-gemunit-g100001052284"],"sourceIds":["gem-global-integrated-power-tracker"],"sourceUrl":"https://www.gem.wiki/Mtibwa_Sugar_power_station","technologies":["biomass"],"technologyMixMw":{"biomass":13.0},"unitCount":1,"unitIds":["gem-unit-G100001052284"]},"type":"Feature"},{"geometry":{"coordinates":[33.566958,-9.024749],"type":"Point"},"id":"wattlas-plant-osm-node-11394671409","properties":{"aliases":["Ngozi Geothermal Project"],"canonicalAnchor":"osm:node/11394671409","canonicalCountryKey":"TZ","capacityMw":0.0,"country":"TZ","externalIds":{"osm":"node/11394671409"},"geographyId":"TZ-36957248B75876472342648","id":"wattlas-plant-osm-node-11394671409","lifecycleCounts":{"operational":1},"locationPrecision":"exact","name":"Ngozi Geothermal Project","operatingCapacityCoverage":{"coveragePercent":0.0,"knownUnitCount":0,"method":"unavailable","totalUnitCount":0},"operatingCapacityMw":0.0,"operatingCapacityMwByTechnology":{},"plannedCapacityCoverage":{"coveragePercent":0.0,"knownUnitCount":0,"method":"unavailable","totalUnitCount":0},"plannedCapacityMw":0.0,"plannedCapacityMwByTechnology":{},"recordCount":1,"recordIds":["wattlas-record-osm-node-11394671409"],"sourceIds":["openstreetmap-power"],"sourceUrl":"https://www.openstreetmap.org/node/11394671409","technologies":["geothermal"],"technologyMixMw":{"geothermal":0.0},"unitCount":0,"unitIds":[]},"type":"Feature"},{"geometry":{"coordinates":[33.59106,-3.642312],"type":"Point"},"id":"wattlas-plant-osm-relation-20296752","properties":{"aliases":["Kishapu Solar PV Park"],"canonicalAnchor":"osm:relation/20296752","canonicalCountryKey":"TZ","capacityMw":50.0,"country":"TZ","externalIds":{"osm":"relation/20296752"},"geographyId":"TZ-36957248B79115240070229","id":"wattlas-plant-osm-relation-20296752","lifecycleCounts":{"operational":1},"locationPrecision":"exact","name":"Kishapu Solar PV Park","operatingCapacityCoverage":{"coveragePercent":100.0,"knownUnitCount":0,"method":"plant_aggregate","provenance":{"evidenceCount":0,"recordIds":["wattlas-record-osm-relation-20296752"],"sourceIds":["openstreetmap-power"],"sourceTypes":["community_mapped"],"valueKind":"reported"},"totalUnitCount":0},"operatingCapacityMw":50.0,"operatingCapacityMwByTechnology":{"solar":50.0},"plannedCapacityCoverage":{"coveragePercent":0.0,"knownUnitCount":0,"method":"unavailable","totalUnitCount":0},"plannedCapacityMw":0.0,"plannedCapacityMwByTechnology":{},"recordCount":1,"recordIds":["wattlas-record-osm-relation-20296752"],"sourceIds":["openstreetmap-power"],"sourceUrl":"https://www.openstreetmap.org/relation/20296752","technologies":["solar"],"technologyMixMw":{"solar":50.0},"unitCount":0,"unitIds":[]},"type":"Feature"},{"geometry":{"coordinates":[30.123951,-4.580546],"type":"Point"},"id":"wattlas-plant-osm-way-1081474323","properties":{"aliases":["Kasulu Power Station"],"canonicalAnchor":"osm:way/1081474323","canonicalCountryKey":"TZ","capacityMw":2.5,"country":"TZ","externalIds":{"osm":"way/1081474323"},"geographyId":"TZ-36957248B11692782910073","id":"wattlas-plant-osm-way-1081474323","lifecycleCounts":{"operational":1},"locationPrecision":"exact","name":"Kasulu Power Station","operatingCapacityCoverage":{"coveragePercent":100.0,"knownUnitCount":0,"method":"plant_aggregate","provenance":{"evidenceCount":0,"recordIds":["wattlas-record-osm-way-1081474323"],"sourceIds":["openstreetmap-power"],"sourceTypes":["community_mapped"],"valueKind":"reported"},"totalUnitCount":0},"operatingCapacityMw":2.5,"operatingCapacityMwByTechnology":{"other":2.5},"plannedCapacityCoverage":{"coveragePercent":0.0,"knownUnitCount":0,"method":"unavailable","totalUnitCount":0},"plannedCapacityMw":0.0,"plannedCapacityMwByTechnology":{},"recordCount":1,"recordIds":["wattlas-record-osm-way-1081474323"],"sourceIds":["openstreetmap-power"],"sourceUrl":"https://www.openstreetmap.org/way/1081474323","technologies":["other"],"technologyMixMw":{"other":2.5},"unitCount":0,"unitIds":[]},"type":"Feature"},{"geometry":{"coordinates":[29.622061,-4.88649],"type":"Point"},"id":"wattlas-plant-osm-way-1081492593","properties":{"aliases":["Kigoma Power Station"],"canonicalAnchor":"osm:way/1081492593","canonicalCountryKey":"TZ","capacityMw":6.25,"country":"TZ","externalIds":{"osm":"way/1081492593"},"geographyId":"TZ-36957248B11692782910073","id":"wattlas-plant-osm-way-1081492593","lifecycleCounts":{"operational":1},"locationPrecision":"exact","name":"Kigoma Power Station","operatingCapacityCoverage":{"coveragePercent":100.0,"knownUnitCount":0,"method":"plant_aggregate","provenance":{"evidenceCount":0,"recordIds":["wattlas-record-osm-way-1081492593"],"sourceIds":["openstreetmap-power"],"sourceTypes":["community_mapped"],"valueKind":"reported"},"totalUnitCount":0},"operatingCapacityMw":6.25,"operatingCapacityMwByTechnology":{"other":6.25},"plannedCapacityCoverage":{"coveragePercent":0.0,"knownUnitCount":0,"method":"unavailable","totalUnitCount":0},"plannedCapacityMw":0.0,"plannedCapacityMwByTechnology":{},"recordCount":1,"recordIds":["wattlas-record-osm-way-1081492593"],"sourceIds":["openstreetmap-power"],"sourceUrl":"https://www.openstreetmap.org/way/1081492593","technologies":["other"],"technologyMixMw":{"other":6.25},"unitCount":0,"unitIds":[]},"type":"Feature"},{"geometry":{"coordinates":[32.184411,-2.864475],"type":"Point"},"id":"wattlas-plant-osm-way-1082743614","properties":{"aliases":["Geita Gold Mine Power Plant"],"canonicalAnchor":"osm:way/1082743614","canonicalCountryKey":"TZ","capacityMw":0.0,"country":"TZ","externalIds":{"osm":"way/1082743614"},"geographyId":"TZ-36957248B67527021942185","id":"wattlas-plant-osm-way-1082743614","lifecycleCounts":{"operational":1},"locationPrecision":"exact","name":"Geita Gold Mine Power Plant","operatingCapacityCoverage":{"coveragePercent":0.0,"knownUnitCount":0,"method":"unavailable","totalUnitCount":0},"operatingCapacityMw":0.0,"operatingCapacityMwByTechnology":{},"plannedCapacityCoverage":{"coveragePercent":0.0,"knownUnitCount":0,"method":"unavailable","totalUnitCount":0},"plannedCapacityMw":0.0,"plannedCapacityMwByTechnology":{},"recordCount":1,"recordIds":["wattlas-record-osm-way-1082743614"],"sourceIds":["openstreetmap-power"],"sourceUrl":"https://www.openstreetmap.org/way/1082743614","technologies":["other"],"technologyMixMw":{"other":0.0},"unitCount":0,"unitIds":[]},"type":"Feature"},{"geometry":{"coordinates":[36.966068,-7.663285],"type":"Point"},"id":"wattlas-plant-osm-way-1165360482","properties":{"aliases":["Kidatu Hydro Power Plant"],"canonicalAnchor":"osm:way/1165360482","canonicalCountryKey":"TZ","capacityMw":204.0,"country":"TZ","externalIds":{"osm":"way/1165360482"},"geographyId":"TZ-36957248B51202481578817","id":"wattlas-plant-osm-way-1165360482","lifecycleCounts":{"operational":1},"locationPrecision":"exact","name":"Kidatu Hydro Power Plant","operatingCapacityCoverage":{"coveragePercent":100.0,"knownUnitCount":0,"method":"plant_aggregate","provenance":{"evidenceCount":0,"recordIds":["wattlas-record-osm-way-1165360482"],"sourceIds":["openstreetmap-power"],"sourceTypes":["community_mapped"],"valueKind":"reported"},"totalUnitCount":0},"operatingCapacityMw":204.0,"operatingCapacityMwByTechnology":{"hydro":204.0},"plannedCapacityCoverage":{"coveragePercent":0.0,"knownUnitCount":0,"method":"unavailable","totalUnitCount":0},"plannedCapacityMw":0.0,"plannedCapacityMwByTechnology":{},"recordCount":1,"recordIds":["wattlas-record-osm-way-1165360482"],"sourceIds":["openstreetmap-power"],"sourceUrl":"https://www.openstreetmap.org/way/1165360482","technologies":["hydro"],"technologyMixMw":{"hydro":204.0},"unitCount":0,"unitIds":[]},"type":"Feature"},{"geometry":{"coordinates":[40.046684,-10.255999],"type":"Point"},"id":"wattlas-plant-osm-way-1216343834","properties":{"aliases":["Mapped power plant · OSM 1216343834"],"canonicalAnchor":"osm:way/1216343834","canonicalCountryKey":"TZ","capacityMw":45.0,"country":"TZ","externalIds":{"osm":"way/1216343834","wikipedia":"en:Dangote Industries Tanzania Thermal Power Station"},"geographyId":"TZ-36957248B12364491601158","id":"wattlas-plant-osm-way-1216343834","idAliases":["wattlas-plant-wikipedia-en-dangote-industries-tanzania-thermal-power-sta-b84e2f5104"],"lifecycleCounts":{"operational":1},"locationPrecision":"exact","name":"Mapped power plant · OSM 1216343834","operatingCapacityCoverage":{"coveragePercent":100.0,"knownUnitCount":0,"method":"plant_aggregate","provenance":{"evidenceCount":0,"recordIds":["wattlas-record-osm-way-1216343834"],"sourceIds":["openstreetmap-power"],"sourceTypes":["community_mapped"],"valueKind":"reported"},"totalUnitCount":0},"operatingCapacityMw":45.0,"operatingCapacityMwByTechnology":{"gas":45.0},"plannedCapacityCoverage":{"coveragePercent":0.0,"knownUnitCount":0,"method":"unavailable","totalUnitCount":0},"plannedCapacityMw":0.0,"plannedCapacityMwByTechnology":{},"recordCount":1,"recordIds":["wattlas-record-osm-way-1216343834"],"sourceIds":["openstreetmap-power"],"sourceUrl":"https://www.openstreetmap.org/way/1216343834","technologies":["gas"],"technologyMixMw":{"gas":45.0},"unitCount":0,"unitIds":[]},"type":"Feature"},{"geometry":{"coordinates":[39.205356,-6.793763],"type":"Point"},"id":"wattlas-plant-osm-way-137312935","properties":{"aliases":["Ubungo II Power Plant"],"canonicalAnchor":"osm:way/137312935","canonicalCountryKey":"TZ","capacityMw":0.0,"country":"TZ","externalIds":{"osm":"way/137312935"},"geographyId":"TZ-36957248B2633782293100","id":"wattlas-plant-osm-way-137312935","lifecycleCounts":{"operational":1},"locationPrecision":"exact","name":"Ubungo II Power Plant","operatingCapacityCoverage":{"coveragePercent":0.0,"knownUnitCount":0,"method":"unavailable","totalUnitCount":0},"operatingCapacityMw":0.0,"operatingCapacityMwByTechnology":{},"plannedCapacityCoverage":{"coveragePercent":0.0,"knownUnitCount":0,"method":"unavailable","totalUnitCount":0},"plannedCapacityMw":0.0,"plannedCapacityMwByTechnology":{},"recordCount":1,"recordIds":["wattlas-record-osm-way-137312935"],"sourceIds":["openstreetmap-power"],"sourceUrl":"https://www.openstreetmap.org/way/137312935","technologies":["gas"],"technologyMixMw":{"gas":0.0},"unitCount":0,"unitIds":[]},"type":"Feature"},{"geometry":{"coordinates":[35.856452,-8.614331],"type":"Point"},"id":"wattlas-plant-osm-way-273582579","properties":{"aliases":["Kihansi Hydro Power Plant"],"canonicalAnchor":"osm:way/273582579","canonicalCountryKey":"TZ","capacityMw":180.0,"country":"TZ","externalIds":{"osm":"way/273582579"},"geographyId":"TZ-36957248B51202481578817","id":"wattlas-plant-osm-way-273582579","lifecycleCounts":{"operational":1},"locationPrecision":"exact","name":"Kihansi Hydro Power Plant","operatingCapacityCoverage":{"coveragePercent":100.0,"knownUnitCount":0,"method":"plant_aggregate","provenance":{"evidenceCount":0,"recordIds":["wattlas-record-osm-way-273582579"],"sourceIds":["openstreetmap-power"],"sourceTypes":["community_mapped"],"valueKind":"reported"},"totalUnitCount":0},"operatingCapacityMw":180.0,"operatingCapacityMwByTechnology":{"hydro":180.0},"plannedCapacityCoverage":{"coveragePercent":0.0,"knownUnitCount":0,"method":"unavailable","totalUnitCount":0},"plannedCapacityMw":0.0,"plannedCapacityMwByTechnology":{},"recordCount":1,"recordIds":["wattlas-record-osm-way-273582579"],"sourceIds":["openstreetmap-power"],"sourceUrl":"https://www.openstreetmap.org/way/273582579","technologies":["hydro"],"technologyMixMw":{"hydro":180.0},"unitCount":0,"unitIds":[]},"type":"Feature"},{"geometry":{"coordinates":[38.614531,-5.298112],"type":"Point"},"id":"wattlas-plant-osm-way-361016622","properties":{"aliases":["Hale Hydroelectric Power Station"],"canonicalAnchor":"osm:way/361016622","canonicalCountryKey":"TZ","capacityMw":21.0,"country":"TZ","externalIds":{"osm":"way/361016622"},"geographyId":"TZ-36957248B96174950507772","id":"wattlas-plant-osm-way-361016622","lifecycleCounts":{"operational":1},"locationPrecision":"exact","name":"Hale Hydroelectric Power Station","operatingCapacityCoverage":{"coveragePercent":100.0,"knownUnitCount":0,"method":"plant_aggregate","provenance":{"evidenceCount":0,"recordIds":["wattlas-record-osm-way-361016622"],"sourceIds":["openstreetmap-power"],"sourceTypes":["community_mapped"],"valueKind":"reported"},"totalUnitCount":0},"operatingCapacityMw":21.0,"operatingCapacityMwByTechnology":{"hydro":21.0},"plannedCapacityCoverage":{"coveragePercent":0.0,"knownUnitCount":0,"method":"unavailable","totalUnitCount":0},"plannedCapacityMw":0.0,"plannedCapacityMwByTechnology":{},"recordCount":1,"recordIds":["wattlas-record-osm-way-361016622"],"sourceIds":["openstreetmap-power"],"sourceUrl":"https://www.openstreetmap.org/way/361016622","technologies":["hydro"],"technologyMixMw":{"hydro":21.0},"unitCount":0,"unitIds":[]},"type":"Feature"},{"geometry":{"coordinates":[35.59672,-7.837288],"type":"Point"},"id":"wattlas-plant-osm-way-374716990","properties":{"aliases":["Tosamaganga Hydro Power Plant"],"canonicalAnchor":"osm:way/374716990","canonicalCountryKey":"TZ","capacityMw":1.22,"country":"TZ","externalIds":{"osm":"way/374716990"},"geographyId":"TZ-36957248B77241623821364","id":"wattlas-plant-osm-way-374716990","lifecycleCounts":{"operational":1},"locationPrecision":"exact","name":"Tosamaganga Hydro Power Plant","operatingCapacityCoverage":{"coveragePercent":100.0,"knownUnitCount":0,"method":"plant_aggregate","provenance":{"evidenceCount":0,"recordIds":["wattlas-record-osm-way-374716990"],"sourceIds":["openstreetmap-power"],"sourceTypes":["community_mapped"],"valueKind":"reported"},"totalUnitCount":0},"operatingCapacityMw":1.22,"operatingCapacityMwByTechnology":{"hydro":1.22},"plannedCapacityCoverage":{"coveragePercent":0.0,"knownUnitCount":0,"method":"unavailable","totalUnitCount":0},"plannedCapacityMw":0.0,"plannedCapacityMwByTechnology":{},"recordCount":1,"recordIds":["wattlas-record-osm-way-374716990"],"sourceIds":["openstreetmap-power"],"sourceUrl":"https://www.openstreetmap.org/way/374716990","technologies":["hydro"],"technologyMixMw":{"hydro":1.22},"unitCount":0,"unitIds":[]},"type":"Feature"},{"geometry":{"coordinates":[34.704348,-9.794521],"type":"Point"},"id":"wattlas-plant-osm-way-529617820","properties":{"aliases":["Lugarawa Old Hydropower Plant"],"canonicalAnchor":"osm:way/529617820","canonicalCountryKey":"TZ","capacityMw":0.0,"country":"TZ","externalIds":{"osm":"way/529617820"},"geographyId":"TZ-36957248B16645806994912","id":"wattlas-plant-osm-way-529617820","lifecycleCounts":{"operational":1},"locationPrecision":"exact","name":"Lugarawa Old Hydropower Plant","operatingCapacityCoverage":{"coveragePercent":0.0,"knownUnitCount":0,"method":"unavailable","totalUnitCount":0},"operatingCapacityMw":0.0,"operatingCapacityMwByTechnology":{},"plannedCapacityCoverage":{"coveragePercent":0.0,"knownUnitCount":0,"method":"unavailable","totalUnitCount":0},"plannedCapacityMw":0.0,"plannedCapacityMwByTechnology":{},"recordCount":1,"recordIds":["wattlas-record-osm-way-529617820"],"sourceIds":["openstreetmap-power"],"sourceUrl":"https://www.openstreetmap.org/way/529617820","technologies":["hydro"],"technologyMixMw":{"hydro":0.0},"unitCount":0,"unitIds":[]},"type":"Feature"},{"geometry":{"coordinates":[32.966218,-2.542327],"type":"Point"},"id":"wattlas-plant-osm-way-558673405","properties":{"aliases":["Nyakato Power Plant"],"canonicalAnchor":"osm:way/558673405","canonicalCountryKey":"TZ","capacityMw":63.0,"country":"TZ","externalIds":{"osm":"way/558673405"},"geographyId":"TZ-36957248B97200142584881","id":"wattlas-plant-osm-way-558673405","lifecycleCounts":{"operational":1},"locationPrecision":"exact","name":"Nyakato Power Plant","operatingCapacityCoverage":{"coveragePercent":100.0,"knownUnitCount":0,"method":"plant_aggregate","provenance":{"evidenceCount":0,"recordIds":["wattlas-record-osm-way-558673405"],"sourceIds":["openstreetmap-power"],"sourceTypes":["community_mapped"],"valueKind":"reported"},"totalUnitCount":0},"operatingCapacityMw":63.0,"operatingCapacityMwByTechnology":{"oil":63.0},"plannedCapacityCoverage":{"coveragePercent":0.0,"knownUnitCount":0,"method":"unavailable","totalUnitCount":0},"plannedCapacityMw":0.0,"plannedCapacityMwByTechnology":{},"recordCount":1,"recordIds":["wattlas-record-osm-way-558673405"],"sourceIds":["openstreetmap-power"],"sourceUrl":"https://www.openstreetmap.org/way/558673405","technologies":["oil"],"technologyMixMw":{"oil":63.0},"unitCount":0,"unitIds":[]},"type":"Feature"},{"geometry":{"coordinates":[35.689244,-8.624114],"type":"Point"},"id":"wattlas-plant-osm-way-578493039","properties":{"aliases":["Mwenga Hydroelectric Power Plant"],"canonicalAnchor":"osm:way/578493039","canonicalCountryKey":"TZ","capacityMw":4.0,"country":"TZ","externalIds":{"osm":"way/578493039"},"geographyId":"TZ-36957248B77241623821364","id":"wattlas-plant-osm-way-578493039","lifecycleCounts":{"operational":1},"locationPrecision":"exact","name":"Mwenga Hydroelectric Power Plant","operatingCapacityCoverage":{"coveragePercent":100.0,"knownUnitCount":0,"method":"plant_aggregate","provenance":{"evidenceCount":0,"recordIds":["wattlas-record-osm-way-578493039"],"sourceIds":["openstreetmap-power"],"sourceTypes":["community_mapped"],"valueKind":"reported"},"totalUnitCount":0},"operatingCapacityMw":4.0,"operatingCapacityMwByTechnology":{"hydro":4.0},"plannedCapacityCoverage":{"coveragePercent":0.0,"knownUnitCount":0,"method":"unavailable","totalUnitCount":0},"plannedCapacityMw":0.0,"plannedCapacityMwByTechnology":{},"recordCount":1,"recordIds":["wattlas-record-osm-way-578493039"],"sourceIds":["openstreetmap-power"],"sourceUrl":"https://www.openstreetmap.org/way/578493039","technologies":["hydro"],"technologyMixMw":{"hydro":4.0},"unitCount":0,"unitIds":[]},"type":"Feature"},{"geometry":{"coordinates":[35.27697,-11.094667],"type":"Point"},"id":"wattlas-plant-osm-way-596797821","properties":{"aliases":["Tulila Hydroelectric Power Plant"],"canonicalAnchor":"osm:way/596797821","canonicalCountryKey":"TZ","capacityMw":5.0,"country":"TZ","externalIds":{"osm":"way/596797821"},"geographyId":"TZ-36957248B86098654739756","id":"wattlas-plant-osm-way-596797821","lifecycleCounts":{"operational":1},"locationPrecision":"exact","name":"Tulila Hydroelectric Power Plant","operatingCapacityCoverage":{"coveragePercent":100.0,"knownUnitCount":0,"method":"plant_aggregate","provenance":{"evidenceCount":0,"recordIds":["wattlas-record-osm-way-596797821"],"sourceIds":["openstreetmap-power"],"sourceTypes":["community_mapped"],"valueKind":"reported"},"totalUnitCount":0},"operatingCapacityMw":5.0,"operatingCapacityMwByTechnology":{"hydro":5.0},"plannedCapacityCoverage":{"coveragePercent":0.0,"knownUnitCount":0,"method":"unavailable","totalUnitCount":0},"plannedCapacityMw":0.0,"plannedCapacityMwByTechnology":{},"recordCount":1,"recordIds":["wattlas-record-osm-way-596797821"],"sourceIds":["openstreetmap-power"],"sourceUrl":"https://www.openstreetmap.org/way/596797821","technologies":["hydro"],"technologyMixMw":{"hydro":5.0},"unitCount":0,"unitIds":[]},"type":"Feature"},{"geometry":{"coordinates":[39.204538,-6.792989],"type":"Point"},"id":"wattlas-plant-osm-way-848568639","properties":{"aliases":["Ubungo Power Plant"],"canonicalAnchor":"osm:way/848568639","canonicalCountryKey":"TZ","capacityMw":231.0,"country":"TZ","externalIds":{"osm":"way/848568639"},"geographyId":"TZ-36957248B2633782293100","id":"wattlas-plant-osm-way-848568639","lifecycleCounts":{"operational":1},"locationPrecision":"exact","name":"Ubungo Power Plant","operatingCapacityCoverage":{"coveragePercent":100.0,"knownUnitCount":0,"method":"plant_aggregate","provenance":{"evidenceCount":0,"recordIds":["wattlas-record-osm-way-848568639"],"sourceIds":["openstreetmap-power"],"sourceTypes":["community_mapped"],"valueKind":"reported"},"totalUnitCount":0},"operatingCapacityMw":231.0,"operatingCapacityMwByTechnology":{"gas":231.0},"plannedCapacityCoverage":{"coveragePercent":0.0,"knownUnitCount":0,"method":"unavailable","totalUnitCount":0},"plannedCapacityMw":0.0,"plannedCapacityMwByTechnology":{},"recordCount":1,"recordIds":["wattlas-record-osm-way-848568639"],"sourceIds":["openstreetmap-power"],"sourceUrl":"https://www.openstreetmap.org/way/848568639","technologies":["gas"],"technologyMixMw":{"gas":231.0},"unitCount":0,"unitIds":[]},"type":"Feature"},{"geometry":{"coordinates":[29.688095,-4.898858],"type":"Point"},"id":"wattlas-plant-osm-way-856436718","properties":{"aliases":["Solawazi Kigoma"],"canonicalAnchor":"osm:way/856436718","canonicalCountryKey":"TZ","capacityMw":5.0,"country":"TZ","externalIds":{"osm":"way/856436718"},"geographyId":"TZ-36957248B11692782910073","id":"wattlas-plant-osm-way-856436718","lifecycleCounts":{"operational":1},"locationPrecision":"exact","name":"Solawazi Kigoma","operatingCapacityCoverage":{"coveragePercent":100.0,"knownUnitCount":0,"method":"plant_aggregate","provenance":{"evidenceCount":0,"recordIds":["wattlas-record-osm-way-856436718"],"sourceIds":["openstreetmap-power"],"sourceTypes":["community_mapped"],"valueKind":"reported"},"totalUnitCount":0},"operatingCapacityMw":5.0,"operatingCapacityMwByTechnology":{"solar":5.0},"plannedCapacityCoverage":{"coveragePercent":0.0,"knownUnitCount":0,"method":"unavailable","totalUnitCount":0},"plannedCapacityMw":0.0,"plannedCapacityMwByTechnology":{},"recordCount":1,"recordIds":["wattlas-record-osm-way-856436718"],"sourceIds":["openstreetmap-power"],"sourceUrl":"https://www.openstreetmap.org/way/856436718","technologies":["solar"],"technologyMixMw":{"solar":5.0},"unitCount":0,"unitIds":[]},"type":"Feature"},{"geometry":{"coordinates":[35.988109,-7.137753],"type":"Point"},"id":"wattlas-plant-wikidata-q1131056","properties":{"aliases":["Mtera Hydro Power Plant"],"canonicalAnchor":"wikidata:Q1131056","canonicalCountryKey":"TZ","capacityMw":80.0,"country":"TZ","externalIds":{"osm":"way/668555528","wikidata":"Q1131056","wikipedia":"en:Mtera Dam"},"geographyId":"TZ-36957248B77241623821364","id":"wattlas-plant-wikidata-q1131056","idAliases":["wattlas-plant-osm-way-668555528","wattlas-plant-wikipedia-en-mtera-dam"],"lifecycleCounts":{"operational":1},"locationPrecision":"exact","name":"Mtera Hydro Power Plant","operatingCapacityCoverage":{"coveragePercent":100.0,"knownUnitCount":0,"method":"plant_aggregate","provenance":{"evidenceCount":0,"recordIds":["wattlas-record-osm-way-668555528"],"sourceIds":["openstreetmap-power"],"sourceTypes":["community_mapped"],"valueKind":"reported"},"totalUnitCount":0},"operatingCapacityMw":80.0,"operatingCapacityMwByTechnology":{"hydro":80.0},"plannedCapacityCoverage":{"coveragePercent":0.0,"knownUnitCount":0,"method":"unavailable","totalUnitCount":0},"plannedCapacityMw":0.0,"plannedCapacityMwByTechnology":{},"recordCount":1,"recordIds":["wattlas-record-osm-way-668555528"],"sourceIds":["openstreetmap-power"],"sourceUrl":"https://www.openstreetmap.org/way/668555528","technologies":["hydro"],"technologyMixMw":{"hydro":80.0},"unitCount":0,"unitIds":[]},"type":"Feature"},{"geometry":{"coordinates":[39.209001,-6.7943],"type":"Point"},"id":"wattlas-plant-wikidata-q12008220","properties":{"aliases":["Songas Power Plant"],"canonicalAnchor":"wikidata:Q12008220","canonicalCountryKey":"TZ","capacityMw":189.0,"country":"TZ","externalIds":{"osm":"way/125017883","wikidata":"Q12008220"},"geographyId":"TZ-36957248B2633782293100","id":"wattlas-plant-wikidata-q12008220","idAliases":["wattlas-plant-osm-way-125017883"],"lifecycleCounts":{"operational":1},"locationPrecision":"exact","name":"Songas Power Plant","operatingCapacityCoverage":{"coveragePercent":100.0,"knownUnitCount":0,"method":"plant_aggregate","provenance":{"evidenceCount":0,"recordIds":["wattlas-record-osm-way-125017883"],"sourceIds":["openstreetmap-power"],"sourceTypes":["community_mapped"],"valueKind":"reported"},"totalUnitCount":0},"operatingCapacityMw":189.0,"operatingCapacityMwByTechnology":{"gas":189.0},"plannedCapacityCoverage":{"coveragePercent":0.0,"knownUnitCount":0,"method":"unavailable","totalUnitCount":0},"plannedCapacityMw":0.0,"plannedCapacityMwByTechnology":{},"recordCount":1,"recordIds":["wattlas-record-osm-way-125017883"],"sourceIds":["openstreetmap-power"],"sourceUrl":"https://www.openstreetmap.org/way/125017883","technologies":["gas"],"technologyMixMw":{"gas":189.0},"unitCount":0,"unitIds":[]},"type":"Feature"},{"geometry":{"coordinates":[37.469079,-3.826309],"type":"Point"},"id":"wattlas-plant-wikidata-q16681933","properties":{"aliases":["Nyumba ya Mungu Power station"],"canonicalAnchor":"wikidata:Q16681933","canonicalCountryKey":"TZ","capacityMw":8.0,"country":"TZ","externalIds":{"osm":"way/583433280","wikidata":"Q16681933"},"geographyId":"TZ-36957248B99133684808243","id":"wattlas-plant-wikidata-q16681933","idAliases":["wattlas-plant-osm-way-583433280"],"lifecycleCounts":{"operational":1},"locationPrecision":"exact","name":"Nyumba ya Mungu Power station","operatingCapacityCoverage":{"coveragePercent":100.0,"knownUnitCount":0,"method":"plant_aggregate","provenance":{"evidenceCount":0,"recordIds":["wattlas-record-osm-way-583433280"],"sourceIds":["openstreetmap-power"],"sourceTypes":["community_mapped"],"valueKind":"reported"},"totalUnitCount":0},"operatingCapacityMw":8.0,"operatingCapacityMwByTechnology":{"hydro":8.0},"plannedCapacityCoverage":{"coveragePercent":0.0,"knownUnitCount":0,"method":"unavailable","totalUnitCount":0},"plannedCapacityMw":0.0,"plannedCapacityMwByTechnology":{},"recordCount":1,"recordIds":["wattlas-record-osm-way-583433280"],"sourceIds":["openstreetmap-power"],"sourceUrl":"https://www.openstreetmap.org/way/583433280","technologies":["hydro"],"technologyMixMw":{"hydro":8.0},"unitCount":0,"unitIds":[]},"type":"Feature"},{"geometry":{"coordinates":[39.184245,-6.674051],"type":"Point"},"id":"wattlas-plant-wikidata-q25247677","properties":{"aliases":["Tegeta Thermal Power Station"],"canonicalAnchor":"wikidata:Q25247677","canonicalCountryKey":"TZ","capacityMw":45.0,"country":"TZ","externalIds":{"osm":"way/529767817","wikidata":"Q25247677"},"geographyId":"TZ-36957248B2633782293100","id":"wattlas-plant-wikidata-q25247677","idAliases":["wattlas-plant-osm-way-529767817"],"lifecycleCounts":{"operational":1},"locationPrecision":"exact","name":"Tegeta Thermal Power Station","operatingCapacityCoverage":{"coveragePercent":100.0,"knownUnitCount":0,"method":"plant_aggregate","provenance":{"evidenceCount":0,"recordIds":["wattlas-record-osm-way-529767817"],"sourceIds":["openstreetmap-power"],"sourceTypes":["community_mapped"],"valueKind":"reported"},"totalUnitCount":0},"operatingCapacityMw":45.0,"operatingCapacityMwByTechnology":{"gas":45.0},"plannedCapacityCoverage":{"coveragePercent":0.0,"knownUnitCount":0,"method":"unavailable","totalUnitCount":0},"plannedCapacityMw":0.0,"plannedCapacityMwByTechnology":{},"recordCount":1,"recordIds":["wattlas-record-osm-way-529767817"],"sourceIds":["openstreetmap-power"],"sourceUrl":"https://www.openstreetmap.org/way/529767817","technologies":["gas"],"technologyMixMw":{"gas":45.0},"unitCount":0,"unitIds":[]},"type":"Feature"},{"geometry":{"coordinates":[36.886538,-7.635381],"type":"Point"},"id":"wattlas-plant-wikidata-q3437276","properties":{"aliases":["Kidatu Dam"],"canonicalAnchor":"wikidata:Q3437276","canonicalCountryKey":"TZ","capacityMw":0.0,"country":"TZ","externalIds":{"osm":"way/377454464","wikidata":"Q3437276","wikipedia":"en:Kidatu Dam"},"geographyId":"TZ-36957248B77241623821364","id":"wattlas-plant-wikidata-q3437276","idAliases":["wattlas-plant-osm-way-377454464","wattlas-plant-wikipedia-en-kidatu-dam"],"lifecycleCounts":{"operational":1},"locationPrecision":"exact","name":"Kidatu Dam","operatingCapacityCoverage":{"coveragePercent":0.0,"knownUnitCount":0,"method":"unavailable","totalUnitCount":0},"operatingCapacityMw":0.0,"operatingCapacityMwByTechnology":{},"plannedCapacityCoverage":{"coveragePercent":0.0,"knownUnitCount":0,"method":"unavailable","totalUnitCount":0},"plannedCapacityMw":0.0,"plannedCapacityMwByTechnology":{},"recordCount":1,"recordIds":["wattlas-record-osm-way-377454464"],"sourceIds":["openstreetmap-power"],"sourceUrl":"https://www.openstreetmap.org/way/377454464","technologies":["hydro"],"technologyMixMw":{"hydro":0.0},"unitCount":0,"unitIds":[]},"type":"Feature"},{"geometry":{"coordinates":[38.659296,-5.349933],"type":"Point"},"id":"wattlas-plant-wikidata-q4343898","properties":{"aliases":["New Pangani Falls Hydroelectric Power Station"],"canonicalAnchor":"wikidata:Q4343898","canonicalCountryKey":"TZ","capacityMw":68.0,"country":"TZ","externalIds":{"osm":"way/668319320","wikidata":"Q4343898","wikipedia":"en:Pangani Falls Dam"},"geographyId":"TZ-36957248B96174950507772","id":"wattlas-plant-wikidata-q4343898","idAliases":["wattlas-plant-osm-way-668319320","wattlas-plant-wikipedia-en-pangani-falls-dam"],"lifecycleCounts":{"operational":1},"locationPrecision":"exact","name":"New Pangani Falls Hydroelectric Power Station","operatingCapacityCoverage":{"coveragePercent":100.0,"knownUnitCount":0,"method":"plant_aggregate","provenance":{"evidenceCount":0,"recordIds":["wattlas-record-osm-way-668319320"],"sourceIds":["openstreetmap-power"],"sourceTypes":["community_mapped"],"valueKind":"reported"},"totalUnitCount":0},"operatingCapacityMw":68.0,"operatingCapacityMwByTechnology":{"hydro":68.0},"plannedCapacityCoverage":{"coveragePercent":0.0,"knownUnitCount":0,"method":"unavailable","totalUnitCount":0},"plannedCapacityMw":0.0,"plannedCapacityMwByTechnology":{},"recordCount":1,"recordIds":["wattlas-record-osm-way-668319320"],"sourceIds":["openstreetmap-power"],"sourceUrl":"https://www.openstreetmap.org/way/668319320","technologies":["hydro"],"technologyMixMw":{"hydro":68.0},"unitCount":0,"unitIds":[]},"type":"Feature"},{"geometry":{"coordinates":[39.152502,-6.858532],"type":"Point"},"id":"wattlas-plant-wikidata-q55074861","properties":{"aliases":["Kinyerezi Gas Plant"],"canonicalAnchor":"wikidata:Q55074861","canonicalCountryKey":"TZ","capacityMw":398.0,"country":"TZ","externalIds":{"osm":"way/848568613","wikidata":"Q55074861"},"geographyId":"TZ-36957248B2633782293100","id":"wattlas-plant-wikidata-q55074861","idAliases":["wattlas-plant-osm-way-848568613"],"lifecycleCounts":{"operational":1},"locationPrecision":"exact","name":"Kinyerezi Gas Plant","operatingCapacityCoverage":{"coveragePercent":100.0,"knownUnitCount":0,"method":"plant_aggregate","provenance":{"evidenceCount":0,"recordIds":["wattlas-record-osm-way-848568613"],"sourceIds":["openstreetmap-power"],"sourceTypes":["community_mapped"],"valueKind":"reported"},"totalUnitCount":0},"operatingCapacityMw":398.0,"operatingCapacityMwByTechnology":{"gas":398.0},"plannedCapacityCoverage":{"coveragePercent":0.0,"knownUnitCount":0,"method":"unavailable","totalUnitCount":0},"plannedCapacityMw":0.0,"plannedCapacityMwByTechnology":{},"recordCount":1,"recordIds":["wattlas-record-osm-way-848568613"],"sourceIds":["openstreetmap-power"],"sourceUrl":"https://www.openstreetmap.org/way/848568613","technologies":["gas"],"technologyMixMw":{"gas":398.0},"unitCount":0,"unitIds":[]},"type":"Feature"},{"geometry":{"coordinates":[37.854138,-7.802],"type":"Point"},"id":"wattlas-plant-wikidata-q55634022","properties":{"aliases":["Julius Nyerere Hydropower Station"],"canonicalAnchor":"wikidata:Q55634022","canonicalCountryKey":"TZ","capacityMw":2115.0,"country":"TZ","externalIds":{"osm":"way/895758868","wikidata":"Q55634022"},"geographyId":"TZ-36957248B51202481578817","id":"wattlas-plant-wikidata-q55634022","idAliases":["wattlas-plant-osm-way-895758868"],"lifecycleCounts":{"operational":1},"locationPrecision":"exact","name":"Julius Nyerere Hydropower Station","operatingCapacityCoverage":{"coveragePercent":100.0,"knownUnitCount":0,"method":"plant_aggregate","provenance":{"evidenceCount":0,"recordIds":["wattlas-record-osm-way-895758868"],"sourceIds":["openstreetmap-power"],"sourceTypes":["community_mapped"],"valueKind":"reported"},"totalUnitCount":0},"operatingCapacityMw":2115.0,"operatingCapacityMwByTechnology":{"hydro":2115.0},"plannedCapacityCoverage":{"coveragePercent":0.0,"knownUnitCount":0,"method":"unavailable","totalUnitCount":0},"plannedCapacityMw":0.0,"plannedCapacityMwByTechnology":{},"recordCount":1,"recordIds":["wattlas-record-osm-way-895758868"],"sourceIds":["openstreetmap-power"],"sourceUrl":"https://www.openstreetmap.org/way/895758868","technologies":["hydro"],"technologyMixMw":{"hydro":2115.0},"unitCount":0,"unitIds":[]},"type":"Feature"},{"geometry":{"coordinates":[39.187722,-6.674419],"type":"Point"},"id":"wattlas-plant-wikidata-q56373759","properties":{"aliases":["IPTL Tegeta Diesel Power Station"],"canonicalAnchor":"wikidata:Q56373759","canonicalCountryKey":"TZ","capacityMw":100.0,"country":"TZ","externalIds":{"osm":"way/532819761","wikidata":"Q56373759"},"geographyId":"TZ-36957248B2633782293100","id":"wattlas-plant-wikidata-q56373759","idAliases":["wattlas-plant-osm-way-532819761"],"lifecycleCounts":{"operational":1},"locationPrecision":"exact","name":"IPTL Tegeta Diesel Power Station","operatingCapacityCoverage":{"coveragePercent":100.0,"knownUnitCount":0,"method":"plant_aggregate","provenance":{"evidenceCount":0,"recordIds":["wattlas-record-osm-way-532819761"],"sourceIds":["openstreetmap-power"],"sourceTypes":["community_mapped"],"valueKind":"reported"},"totalUnitCount":0},"operatingCapacityMw":100.0,"operatingCapacityMwByTechnology":{"other":100.0},"plannedCapacityCoverage":{"coveragePercent":0.0,"knownUnitCount":0,"method":"unavailable","totalUnitCount":0},"plannedCapacityMw":0.0,"plannedCapacityMwByTechnology":{},"recordCount":1,"recordIds":["wattlas-record-osm-way-532819761"],"sourceIds":["openstreetmap-power"],"sourceUrl":"https://www.openstreetmap.org/way/532819761","technologies":["other"],"technologyMixMw":{"other":100.0},"unitCount":0,"unitIds":[]},"type":"Feature"},{"geometry":{"coordinates":[30.784258,-2.382923],"type":"Point"},"id":"wattlas-plant-wikidata-q7382684","properties":{"aliases":["Rusumo Hydroelectric Power Station"],"canonicalAnchor":"wikidata:Q7382684","canonicalCountryKey":"TZ","capacityMw":80.0,"country":"TZ","externalIds":{"osm":"way/194699416","wikidata":"Q7382684"},"geographyId":"TZ-36957248B48065738140082","id":"wattlas-plant-wikidata-q7382684","idAliases":["wattlas-plant-osm-way-194699416"],"lifecycleCounts":{"operational":1},"locationPrecision":"exact","name":"Rusumo Hydroelectric Power Station","operatingCapacityCoverage":{"coveragePercent":100.0,"knownUnitCount":0,"method":"plant_aggregate","provenance":{"evidenceCount":0,"recordIds":["wattlas-record-osm-way-194699416"],"sourceIds":["openstreetmap-power"],"sourceTypes":["community_mapped"],"valueKind":"reported"},"totalUnitCount":0},"operatingCapacityMw":80.0,"operatingCapacityMwByTechnology":{"hydro":80.0},"plannedCapacityCoverage":{"coveragePercent":0.0,"knownUnitCount":0,"method":"unavailable","totalUnitCount":0},"plannedCapacityMw":0.0,"plannedCapacityMwByTechnology":{},"recordCount":1,"recordIds":["wattlas-record-osm-way-194699416"],"sourceIds":["openstreetmap-power"],"sourceUrl":"https://www.openstreetmap.org/way/194699416","technologies":["hydro"],"technologyMixMw":{"hydro":80.0},"unitCount":0,"unitIds":[]},"type":"Feature"}],"type":"FeatureCollection"}