{"features":[{"geometry":{"coordinates":[45.7717,15.552],"type":"Point"},"id":"wattlas-plant-gemplant-l100000405600","properties":{"aliases":["1-GT1","1-GT2","1-GT3","2-GT1","2-GT2","2-GT3","2-GT4","Marib power station"],"canonicalAnchor":"gemplant:L100000405600","canonicalCountryKey":"YE","capacityMw":468.0,"country":"YE","externalIdAliases":{"gemUnit":["G100000405086","G100000405087","G100000405088","G100000405089","G100000405090","G100000405091","G100000405092"]},"externalIds":{"gemPlant":"L100000405600","gemUnit":"G100000405092"},"gemWikiUrl":"https://www.gem.wiki/Marib_power_station","geographyId":"YE-18629408B1777518619063","id":"wattlas-plant-gemplant-l100000405600","lifecycleCounts":{"operational":4,"paused":3},"locationPrecision":"exact","name":"Marib power station","operatingCapacityCoverage":{"coveragePercent":100.0,"knownUnitCount":4,"method":"complete_unit_sum","provenance":{"evidenceCount":0,"recordIds":["wattlas-record-gemunit-g100000405086","wattlas-record-gemunit-g100000405087","wattlas-record-gemunit-g100000405088","wattlas-record-gemunit-g100000405089"],"sourceIds":["gem-global-integrated-power-tracker"],"sourceTypes":["research_verified"],"valueKind":"reported"},"totalUnitCount":4},"operatingCapacityMw":468.0,"operatingCapacityMwByTechnology":{"gas":468.0},"plannedCapacityCoverage":{"coveragePercent":0.0,"knownUnitCount":0,"method":"unavailable","totalUnitCount":0},"plannedCapacityMw":0.0,"plannedCapacityMwByTechnology":{},"recordCount":7,"recordIds":["wattlas-record-gemunit-g100000405086","wattlas-record-gemunit-g100000405087","wattlas-record-gemunit-g100000405088","wattlas-record-gemunit-g100000405089","wattlas-record-gemunit-g100000405090","wattlas-record-gemunit-g100000405091","wattlas-record-gemunit-g100000405092"],"sourceIds":["gem-global-integrated-power-tracker"],"sourceUrl":"https://www.gem.wiki/Marib_power_station","technologies":["gas"],"technologyMixMw":{"gas":468.0},"unitCount":7,"unitIds":["gem-unit-G100000405086","gem-unit-G100000405087","gem-unit-G100000405088","gem-unit-G100000405089","gem-unit-G100000405090","gem-unit-G100000405091","gem-unit-G100000405092"]},"type":"Feature"},{"geometry":{"coordinates":[44.919038,12.824678],"type":"Point"},"id":"wattlas-plant-gemplant-l100000407692","properties":{"aliases":["1-1","2-1","Aden power station"],"canonicalAnchor":"gemplant:L100000407692","canonicalCountryKey":"YE","capacityMw":500.0,"country":"YE","externalIdAliases":{"gemUnit":["G100000410063","G100000410064","G100000411090"]},"externalIds":{"gemPlant":"L100000407692","gemUnit":"G100000411090"},"gemWikiUrl":"https://www.gem.wiki/Aden_power_station","geographyId":"YE-18629408B11945654439238","id":"wattlas-plant-gemplant-l100000407692","lifecycleCounts":{"operational":2,"under_construction":1},"locationPrecision":"exact","name":"Aden power station","operatingCapacityCoverage":{"coveragePercent":100.0,"knownUnitCount":2,"method":"complete_unit_sum","provenance":{"evidenceCount":0,"recordIds":["wattlas-record-gemunit-g100000410063","wattlas-record-gemunit-g100000410064"],"sourceIds":["gem-global-integrated-power-tracker"],"sourceTypes":["research_verified"],"valueKind":"reported"},"totalUnitCount":2},"operatingCapacityMw":264.0,"operatingCapacityMwByTechnology":{"gas":264.0},"plannedCapacityCoverage":{"coveragePercent":100.0,"knownUnitCount":1,"method":"complete_unit_sum","provenance":{"evidenceCount":0,"recordIds":["wattlas-record-gemunit-g100000411090"],"sourceIds":["gem-global-integrated-power-tracker"],"sourceTypes":["research_verified"],"valueKind":"reported"},"totalUnitCount":1},"plannedCapacityMw":236.0,"plannedCapacityMwByTechnology":{"gas":236.0},"recordCount":3,"recordIds":["wattlas-record-gemunit-g100000410063","wattlas-record-gemunit-g100000410064","wattlas-record-gemunit-g100000411090"],"sourceIds":["gem-global-integrated-power-tracker"],"sourceUrl":"https://www.gem.wiki/Aden_power_station","technologies":["gas"],"technologyMixMw":{"gas":500.0},"unitCount":3,"unitIds":["gem-unit-G100000410063","gem-unit-G100000410064","gem-unit-G100000411090"]},"type":"Feature"},{"geometry":{"coordinates":[44.919038,12.824678],"type":"Point"},"id":"wattlas-plant-gemplant-l100000407859","properties":{"aliases":["1-1","2-1","UAE-Aden power station"],"canonicalAnchor":"gemplant:L100000407859","canonicalCountryKey":"YE","capacityMw":0.0,"country":"YE","externalIdAliases":{"gemUnit":["G100000410554","G100000410555"]},"externalIds":{"gemPlant":"L100000407859","gemUnit":"G100000410554"},"gemWikiUrl":"https://www.gem.wiki/UAE-Aden_power_station","geographyId":"YE-18629408B11945654439238","id":"wattlas-plant-gemplant-l100000407859","lifecycleCounts":{"cancelled":2},"locationPrecision":"exact","name":"UAE-Aden power station","operatingCapacityCoverage":{"coveragePercent":0.0,"knownUnitCount":0,"method":"unavailable","totalUnitCount":0},"operatingCapacityMw":0.0,"operatingCapacityMwByTechnology":{},"plannedCapacityCoverage":{"coveragePercent":0.0,"knownUnitCount":0,"method":"unavailable","totalUnitCount":0},"plannedCapacityMw":0.0,"plannedCapacityMwByTechnology":{},"recordCount":2,"recordIds":["wattlas-record-gemunit-g100000410554","wattlas-record-gemunit-g100000410555"],"sourceIds":["gem-global-integrated-power-tracker"],"sourceUrl":"https://www.gem.wiki/UAE-Aden_power_station","technologies":["gas"],"technologyMixMw":{"gas":0.0},"unitCount":2,"unitIds":["gem-unit-G100000410554","gem-unit-G100000410555"]},"type":"Feature"},{"geometry":{"coordinates":[48.5333,16.05],"type":"Point"},"id":"wattlas-plant-gemplant-l100000407860","properties":{"aliases":["1-1","Shabwa power station"],"canonicalAnchor":"gemplant:L100000407860","canonicalCountryKey":"YE","capacityMw":60.0,"country":"YE","externalIds":{"gemPlant":"L100000407860","gemUnit":"G100000411089"},"gemWikiUrl":"https://www.gem.wiki/Shabwa_power_station","geographyId":"YE-18629408B49078263925584","id":"wattlas-plant-gemplant-l100000407860","lifecycleCounts":{"under_construction":1},"locationPrecision":"exact","name":"Shabwa power station","operatingCapacityCoverage":{"coveragePercent":0.0,"knownUnitCount":0,"method":"unavailable","totalUnitCount":0},"operatingCapacityMw":0.0,"operatingCapacityMwByTechnology":{},"plannedCapacityCoverage":{"coveragePercent":100.0,"knownUnitCount":1,"method":"complete_unit_sum","provenance":{"evidenceCount":0,"recordIds":["wattlas-record-gemunit-g100000411089"],"sourceIds":["gem-global-integrated-power-tracker"],"sourceTypes":["research_verified"],"valueKind":"reported"},"totalUnitCount":1},"plannedCapacityMw":60.0,"plannedCapacityMwByTechnology":{"gas":60.0},"recordCount":1,"recordIds":["wattlas-record-gemunit-g100000411089"],"sourceIds":["gem-global-integrated-power-tracker"],"sourceUrl":"https://www.gem.wiki/Shabwa_power_station","technologies":["gas"],"technologyMixMw":{"gas":60.0},"unitCount":1,"unitIds":["gem-unit-G100000411089"]},"type":"Feature"},{"geometry":{"coordinates":[44.9227,12.8271],"type":"Point"},"id":"wattlas-plant-gemplant-l100000408269","properties":{"aliases":["1-1","Al-Hiswa 1 power station"],"canonicalAnchor":"gemplant:L100000408269","canonicalCountryKey":"YE","capacityMw":60.0,"country":"YE","externalIds":{"gemPlant":"L100000408269","gemUnit":"G100000411708"},"gemWikiUrl":"https://www.gem.wiki/Al-Hiswa_1_power_station","geographyId":"YE-18629408B11945654439238","id":"wattlas-plant-gemplant-l100000408269","lifecycleCounts":{"operational":1},"locationPrecision":"exact","name":"Al-Hiswa 1 power station","operatingCapacityCoverage":{"coveragePercent":100.0,"knownUnitCount":1,"method":"complete_unit_sum","provenance":{"evidenceCount":0,"recordIds":["wattlas-record-gemunit-g100000411708"],"sourceIds":["gem-global-integrated-power-tracker"],"sourceTypes":["research_verified"],"valueKind":"reported"},"totalUnitCount":1},"operatingCapacityMw":60.0,"operatingCapacityMwByTechnology":{"gas":60.0},"plannedCapacityCoverage":{"coveragePercent":0.0,"knownUnitCount":0,"method":"unavailable","totalUnitCount":0},"plannedCapacityMw":0.0,"plannedCapacityMwByTechnology":{},"recordCount":1,"recordIds":["wattlas-record-gemunit-g100000411708"],"sourceIds":["gem-global-integrated-power-tracker"],"sourceUrl":"https://www.gem.wiki/Al-Hiswa_1_power_station","technologies":["gas"],"technologyMixMw":{"gas":60.0},"unitCount":1,"unitIds":["gem-unit-G100000411708"]},"type":"Feature"},{"geometry":{"coordinates":[44.975476,12.852749],"type":"Point"},"id":"wattlas-plant-gemplant-l100000409292","properties":{"aliases":["1-1","2-1","Al-Mansoura power station"],"canonicalAnchor":"gemplant:L100000409292","canonicalCountryKey":"YE","capacityMw":138.9,"country":"YE","externalIdAliases":{"gemUnit":["G100000414360","G100000414361"]},"externalIds":{"gemPlant":"L100000409292","gemUnit":"G100000414360"},"gemWikiUrl":"https://www.gem.wiki/Al-Mansoura_power_station","geographyId":"YE-18629408B11945654439238","id":"wattlas-plant-gemplant-l100000409292","lifecycleCounts":{"operational":2},"locationPrecision":"exact","name":"Al-Mansoura power station","operatingCapacityCoverage":{"coveragePercent":100.0,"knownUnitCount":2,"method":"complete_unit_sum","provenance":{"evidenceCount":0,"recordIds":["wattlas-record-gemunit-g100000414360","wattlas-record-gemunit-g100000414361"],"sourceIds":["gem-global-integrated-power-tracker"],"sourceTypes":["research_verified"],"valueKind":"reported"},"totalUnitCount":2},"operatingCapacityMw":138.9,"operatingCapacityMwByTechnology":{"oil":138.9},"plannedCapacityCoverage":{"coveragePercent":0.0,"knownUnitCount":0,"method":"unavailable","totalUnitCount":0},"plannedCapacityMw":0.0,"plannedCapacityMwByTechnology":{},"recordCount":2,"recordIds":["wattlas-record-gemunit-g100000414360","wattlas-record-gemunit-g100000414361"],"sourceIds":["gem-global-integrated-power-tracker"],"sourceUrl":"https://www.gem.wiki/Al-Mansoura_power_station","technologies":["oil"],"technologyMixMw":{"oil":138.9},"unitCount":2,"unitIds":["gem-unit-G100000414360","gem-unit-G100000414361"]},"type":"Feature"},{"geometry":{"coordinates":[44.270336,15.24454],"type":"Point"},"id":"wattlas-plant-gemplant-l100000409295","properties":{"aliases":["1.0","2-1","3- Extension","Hezyaz power station"],"canonicalAnchor":"gemplant:L100000409295","canonicalCountryKey":"YE","capacityMw":123.0,"country":"YE","externalIdAliases":{"gemUnit":["G100000414358","G100001051951","G100001051955"]},"externalIds":{"gemPlant":"L100000409295","gemUnit":"G100001051955"},"gemWikiUrl":"https://www.gem.wiki/Hezyaz_power_station","geographyId":"YE-18629408B64822604790923","id":"wattlas-plant-gemplant-l100000409295","lifecycleCounts":{"operational":3},"locationPrecision":"exact","name":"Hezyaz power station","operatingCapacityCoverage":{"coveragePercent":100.0,"knownUnitCount":3,"method":"complete_unit_sum","provenance":{"evidenceCount":0,"recordIds":["wattlas-record-gemunit-g100000414358","wattlas-record-gemunit-g100001051951","wattlas-record-gemunit-g100001051955"],"sourceIds":["gem-global-integrated-power-tracker"],"sourceTypes":["research_verified"],"valueKind":"reported"},"totalUnitCount":3},"operatingCapacityMw":123.0,"operatingCapacityMwByTechnology":{"oil":123.0},"plannedCapacityCoverage":{"coveragePercent":0.0,"knownUnitCount":0,"method":"unavailable","totalUnitCount":0},"plannedCapacityMw":0.0,"plannedCapacityMwByTechnology":{},"recordCount":3,"recordIds":["wattlas-record-gemunit-g100000414358","wattlas-record-gemunit-g100001051951","wattlas-record-gemunit-g100001051955"],"sourceIds":["gem-global-integrated-power-tracker"],"sourceUrl":"https://www.gem.wiki/Hezyaz_power_station","technologies":["oil"],"technologyMixMw":{"oil":123.0},"unitCount":3,"unitIds":["gem-unit-G100000414358","gem-unit-G100001051951","gem-unit-G100001051955"]},"type":"Feature"},{"geometry":{"coordinates":[49.191947,14.596726],"type":"Point"},"id":"wattlas-plant-gemplant-l100000409296","properties":{"aliases":["1-1","Al-Harshiyat power station"],"canonicalAnchor":"gemplant:L100000409296","canonicalCountryKey":"YE","capacityMw":75.0,"country":"YE","externalIds":{"gemPlant":"L100000409296","gemUnit":"G100000414362"},"gemWikiUrl":"https://www.gem.wiki/Al-Harshiyat_power_station","geographyId":"YE-18629408B49078263925584","id":"wattlas-plant-gemplant-l100000409296","lifecycleCounts":{"operational":1},"locationPrecision":"exact","name":"Al-Harshiyat power station","operatingCapacityCoverage":{"coveragePercent":100.0,"knownUnitCount":1,"method":"complete_unit_sum","provenance":{"evidenceCount":0,"recordIds":["wattlas-record-gemunit-g100000414362"],"sourceIds":["gem-global-integrated-power-tracker"],"sourceTypes":["research_verified"],"valueKind":"reported"},"totalUnitCount":1},"operatingCapacityMw":75.0,"operatingCapacityMwByTechnology":{"oil":75.0},"plannedCapacityCoverage":{"coveragePercent":0.0,"knownUnitCount":0,"method":"unavailable","totalUnitCount":0},"plannedCapacityMw":0.0,"plannedCapacityMwByTechnology":{},"recordCount":1,"recordIds":["wattlas-record-gemunit-g100000414362"],"sourceIds":["gem-global-integrated-power-tracker"],"sourceUrl":"https://www.gem.wiki/Al-Harshiyat_power_station","technologies":["oil"],"technologyMixMw":{"oil":75.0},"unitCount":1,"unitIds":["gem-unit-G100000414362"]},"type":"Feature"},{"geometry":{"coordinates":[44.8764,12.8805],"type":"Point"},"id":"wattlas-plant-gemplant-l100000831598","properties":{"aliases":["1.0","2.0","Aden solar farm"],"canonicalAnchor":"gemplant:L100000831598","canonicalCountryKey":"YE","capacityMw":240.0,"country":"YE","externalIdAliases":{"gemUnit":["G100000835553","G100001090287"]},"externalIds":{"gemPlant":"L100000831598","gemUnit":"G100001090287"},"gemWikiUrl":"https://www.gem.wiki/Aden_solar_farm","geographyId":"YE-18629408B11945654439238","id":"wattlas-plant-gemplant-l100000831598","lifecycleCounts":{"operational":1,"under_construction":1},"locationPrecision":"exact","name":"Aden solar farm","operatingCapacityCoverage":{"coveragePercent":100.0,"knownUnitCount":1,"method":"complete_unit_sum","provenance":{"evidenceCount":0,"recordIds":["wattlas-record-gemunit-g100000835553"],"sourceIds":["gem-global-integrated-power-tracker"],"sourceTypes":["research_verified"],"valueKind":"reported"},"totalUnitCount":1},"operatingCapacityMw":120.0,"operatingCapacityMwByTechnology":{"solar":120.0},"plannedCapacityCoverage":{"coveragePercent":100.0,"knownUnitCount":1,"method":"complete_unit_sum","provenance":{"evidenceCount":0,"recordIds":["wattlas-record-gemunit-g100001090287"],"sourceIds":["gem-global-integrated-power-tracker"],"sourceTypes":["research_verified"],"valueKind":"reported"},"totalUnitCount":1},"plannedCapacityMw":120.0,"plannedCapacityMwByTechnology":{"solar":120.0},"recordCount":2,"recordIds":["wattlas-record-gemunit-g100000835553","wattlas-record-gemunit-g100001090287"],"sourceIds":["gem-global-integrated-power-tracker"],"sourceUrl":"https://www.gem.wiki/Aden_solar_farm","technologies":["solar"],"technologyMixMw":{"solar":240.0},"unitCount":2,"unitIds":["gem-unit-G100000835553","gem-unit-G100001090287"]},"type":"Feature"},{"geometry":{"coordinates":[43.2586,13.363],"type":"Point"},"id":"wattlas-plant-gemplant-l100001030446","properties":{"aliases":["--","Ta'Izz Governorate solar project"],"canonicalAnchor":"gemplant:L100001030446","canonicalCountryKey":"YE","capacityMw":9.9,"country":"YE","externalIds":{"gemPlant":"L100001030446","gemUnit":"G100001035717"},"gemWikiUrl":"https://www.gem.wiki/Ta'Izz_Governorate_solar_project","geographyId":"YE-18629408B66245584752084","id":"wattlas-plant-gemplant-l100001030446","lifecycleCounts":{"operational":1},"locationPrecision":"exact","name":"Ta'Izz Governorate solar project","operatingCapacityCoverage":{"coveragePercent":100.0,"knownUnitCount":1,"method":"complete_unit_sum","provenance":{"evidenceCount":0,"recordIds":["wattlas-record-gemunit-g100001035717"],"sourceIds":["gem-global-integrated-power-tracker"],"sourceTypes":["research_verified"],"valueKind":"reported"},"totalUnitCount":1},"operatingCapacityMw":9.9,"operatingCapacityMwByTechnology":{"solar":9.9},"plannedCapacityCoverage":{"coveragePercent":0.0,"knownUnitCount":0,"method":"unavailable","totalUnitCount":0},"plannedCapacityMw":0.0,"plannedCapacityMwByTechnology":{},"recordCount":1,"recordIds":["wattlas-record-gemunit-g100001035717"],"sourceIds":["gem-global-integrated-power-tracker"],"sourceUrl":"https://www.gem.wiki/Ta'Izz_Governorate_solar_project","technologies":["solar"],"technologyMixMw":{"solar":9.9},"unitCount":1,"unitIds":["gem-unit-G100001035717"]},"type":"Feature"},{"geometry":{"coordinates":[49.607522,14.768271],"type":"Point"},"id":"wattlas-plant-gemplant-l100001045995","properties":{"aliases":["1.0","El Saktory power station Yemen"],"canonicalAnchor":"gemplant:L100001045995","canonicalCountryKey":"YE","capacityMw":40.0,"country":"YE","externalIds":{"gemPlant":"L100001045995","gemUnit":"G100001051862"},"gemWikiUrl":"https://www.gem.wiki/El_Saktory_power_station_Yemen","geographyId":"YE-18629408B49078263925584","id":"wattlas-plant-gemplant-l100001045995","lifecycleCounts":{"operational":1},"locationPrecision":"exact","name":"El Saktory power station Yemen","operatingCapacityCoverage":{"coveragePercent":100.0,"knownUnitCount":1,"method":"complete_unit_sum","provenance":{"evidenceCount":0,"recordIds":["wattlas-record-gemunit-g100001051862"],"sourceIds":["gem-global-integrated-power-tracker"],"sourceTypes":["research_verified"],"valueKind":"reported"},"totalUnitCount":1},"operatingCapacityMw":40.0,"operatingCapacityMwByTechnology":{"oil":40.0},"plannedCapacityCoverage":{"coveragePercent":0.0,"knownUnitCount":0,"method":"unavailable","totalUnitCount":0},"plannedCapacityMw":0.0,"plannedCapacityMwByTechnology":{},"recordCount":1,"recordIds":["wattlas-record-gemunit-g100001051862"],"sourceIds":["gem-global-integrated-power-tracker"],"sourceUrl":"https://www.gem.wiki/El_Saktory_power_station_Yemen","technologies":["oil"],"technologyMixMw":{"oil":40.0},"unitCount":1,"unitIds":["gem-unit-G100001051862"]},"type":"Feature"},{"geometry":{"coordinates":[49.333641,14.673473],"type":"Point"},"id":"wattlas-plant-gemplant-l100001045996","properties":{"aliases":["1-1","Al Rayyan power station"],"canonicalAnchor":"gemplant:L100001045996","canonicalCountryKey":"YE","capacityMw":70.0,"country":"YE","externalIds":{"gemPlant":"L100001045996","gemUnit":"G100001051863"},"gemWikiUrl":"https://www.gem.wiki/Al_Rayyan_power_station","geographyId":"YE-18629408B49078263925584","id":"wattlas-plant-gemplant-l100001045996","lifecycleCounts":{"operational":1},"locationPrecision":"exact","name":"Al Rayyan power station","operatingCapacityCoverage":{"coveragePercent":100.0,"knownUnitCount":1,"method":"complete_unit_sum","provenance":{"evidenceCount":0,"recordIds":["wattlas-record-gemunit-g100001051863"],"sourceIds":["gem-global-integrated-power-tracker"],"sourceTypes":["research_verified"],"valueKind":"reported"},"totalUnitCount":1},"operatingCapacityMw":70.0,"operatingCapacityMwByTechnology":{"oil":70.0},"plannedCapacityCoverage":{"coveragePercent":0.0,"knownUnitCount":0,"method":"unavailable","totalUnitCount":0},"plannedCapacityMw":0.0,"plannedCapacityMwByTechnology":{},"recordCount":1,"recordIds":["wattlas-record-gemunit-g100001051863"],"sourceIds":["gem-global-integrated-power-tracker"],"sourceUrl":"https://www.gem.wiki/Al_Rayyan_power_station","technologies":["oil"],"technologyMixMw":{"oil":70.0},"unitCount":1,"unitIds":["gem-unit-G100001051863"]},"type":"Feature"},{"geometry":{"coordinates":[48.804129,15.723291],"type":"Point"},"id":"wattlas-plant-gemplant-l100001045997","properties":{"aliases":["1-1","AlJazeera Power station"],"canonicalAnchor":"gemplant:L100001045997","canonicalCountryKey":"YE","capacityMw":50.0,"country":"YE","externalIds":{"gemPlant":"L100001045997","gemUnit":"G100001051864"},"gemWikiUrl":"https://www.gem.wiki/AlJazeera_Power_station","geographyId":"YE-18629408B49078263925584","id":"wattlas-plant-gemplant-l100001045997","lifecycleCounts":{"operational":1},"locationPrecision":"exact","name":"AlJazeera Power station","operatingCapacityCoverage":{"coveragePercent":100.0,"knownUnitCount":1,"method":"complete_unit_sum","provenance":{"evidenceCount":0,"recordIds":["wattlas-record-gemunit-g100001051864"],"sourceIds":["gem-global-integrated-power-tracker"],"sourceTypes":["research_verified"],"valueKind":"reported"},"totalUnitCount":1},"operatingCapacityMw":50.0,"operatingCapacityMwByTechnology":{"gas":50.0},"plannedCapacityCoverage":{"coveragePercent":0.0,"knownUnitCount":0,"method":"unavailable","totalUnitCount":0},"plannedCapacityMw":0.0,"plannedCapacityMwByTechnology":{},"recordCount":1,"recordIds":["wattlas-record-gemunit-g100001051864"],"sourceIds":["gem-global-integrated-power-tracker"],"sourceUrl":"https://www.gem.wiki/AlJazeera_Power_station","technologies":["gas"],"technologyMixMw":{"gas":50.0},"unitCount":1,"unitIds":["gem-unit-G100001051864"]},"type":"Feature"},{"geometry":{"coordinates":[44.919628,12.825796],"type":"Point"},"id":"wattlas-plant-gemplant-l100001046005","properties":{"aliases":["1.0","2.0","3.0","4-Mobile (aero-derivative)","PetroMasila power station"],"canonicalAnchor":"gemplant:L100001046005","canonicalCountryKey":"YE","capacityMw":109.0,"country":"YE","externalIdAliases":{"gemUnit":["G100001051872","G100001051875","G100001051876","G100001070474"]},"externalIds":{"gemPlant":"L100001046005","gemUnit":"G100001070474"},"gemWikiUrl":"https://www.gem.wiki/PetroMasila_Power_station","geographyId":"YE-18629408B11945654439238","id":"wattlas-plant-gemplant-l100001046005","lifecycleCounts":{"operational":4},"locationPrecision":"exact","name":"PetroMasila power station","operatingCapacityCoverage":{"coveragePercent":100.0,"knownUnitCount":4,"method":"complete_unit_sum","provenance":{"evidenceCount":0,"recordIds":["wattlas-record-gemunit-g100001051872","wattlas-record-gemunit-g100001051875","wattlas-record-gemunit-g100001051876","wattlas-record-gemunit-g100001070474"],"sourceIds":["gem-global-integrated-power-tracker"],"sourceTypes":["research_verified"],"valueKind":"reported"},"totalUnitCount":4},"operatingCapacityMw":109.0,"operatingCapacityMwByTechnology":{"gas":109.0},"plannedCapacityCoverage":{"coveragePercent":0.0,"knownUnitCount":0,"method":"unavailable","totalUnitCount":0},"plannedCapacityMw":0.0,"plannedCapacityMwByTechnology":{},"recordCount":4,"recordIds":["wattlas-record-gemunit-g100001051872","wattlas-record-gemunit-g100001051875","wattlas-record-gemunit-g100001051876","wattlas-record-gemunit-g100001070474"],"sourceIds":["gem-global-integrated-power-tracker"],"sourceUrl":"https://www.gem.wiki/PetroMasila_Power_station","technologies":["gas"],"technologyMixMw":{"gas":109.0},"unitCount":4,"unitIds":["gem-unit-G100001051872","gem-unit-G100001051875","gem-unit-G100001051876","gem-unit-G100001070474"]},"type":"Feature"},{"geometry":{"coordinates":[44.920152,12.831603],"type":"Point"},"id":"wattlas-plant-gemplant-l100001046014","properties":{"aliases":["1.0","2.0","3.0","4.0","5.0","6.0","7-1","Al-Hiswa 2 power station"],"canonicalAnchor":"gemplant:L100001046014","canonicalCountryKey":"YE","capacityMw":210.0,"country":"YE","externalIdAliases":{"gemUnit":["G100001051886","G100001051889","G100001051890","G100001051891","G100001051892","G100001051893","G100001051894"]},"externalIds":{"gemPlant":"L100001046014","gemUnit":"G100001051894"},"gemWikiUrl":"https://www.gem.wiki/Al-Hiswa_2_power_station","geographyId":"YE-18629408B11945654439238","id":"wattlas-plant-gemplant-l100001046014","lifecycleCounts":{"operational":7},"locationPrecision":"exact","name":"Al-Hiswa 2 power station","operatingCapacityCoverage":{"coveragePercent":100.0,"knownUnitCount":7,"method":"complete_unit_sum","provenance":{"evidenceCount":0,"recordIds":["wattlas-record-gemunit-g100001051886","wattlas-record-gemunit-g100001051889","wattlas-record-gemunit-g100001051890","wattlas-record-gemunit-g100001051891","wattlas-record-gemunit-g100001051892","wattlas-record-gemunit-g100001051893","wattlas-record-gemunit-g100001051894"],"sourceIds":["gem-global-integrated-power-tracker"],"sourceTypes":["research_verified"],"valueKind":"reported"},"totalUnitCount":7},"operatingCapacityMw":210.0,"operatingCapacityMwByTechnology":{"oil":210.0},"plannedCapacityCoverage":{"coveragePercent":0.0,"knownUnitCount":0,"method":"unavailable","totalUnitCount":0},"plannedCapacityMw":0.0,"plannedCapacityMwByTechnology":{},"recordCount":7,"recordIds":["wattlas-record-gemunit-g100001051886","wattlas-record-gemunit-g100001051889","wattlas-record-gemunit-g100001051890","wattlas-record-gemunit-g100001051891","wattlas-record-gemunit-g100001051892","wattlas-record-gemunit-g100001051893","wattlas-record-gemunit-g100001051894"],"sourceIds":["gem-global-integrated-power-tracker"],"sourceUrl":"https://www.gem.wiki/Al-Hiswa_2_power_station","technologies":["oil"],"technologyMixMw":{"oil":210.0},"unitCount":7,"unitIds":["gem-unit-G100001051886","gem-unit-G100001051889","gem-unit-G100001051890","gem-unit-G100001051891","gem-unit-G100001051892","gem-unit-G100001051893","gem-unit-G100001051894"]},"type":"Feature"},{"geometry":{"coordinates":[45.028524,12.816683],"type":"Point"},"id":"wattlas-plant-gemplant-l100001046043","properties":{"aliases":["1.0","2.0","Shahynaz power plant"],"canonicalAnchor":"gemplant:L100001046043","canonicalCountryKey":"YE","capacityMw":40.0,"country":"YE","externalIdAliases":{"gemUnit":["G100001051925","G100001051928"]},"externalIds":{"gemPlant":"L100001046043","gemUnit":"G100001051928"},"gemWikiUrl":"https://www.gem.wiki/Shahynaz_power_plant","geographyId":"YE-18629408B11945654439238","id":"wattlas-plant-gemplant-l100001046043","lifecycleCounts":{"operational":2},"locationPrecision":"exact","name":"Shahynaz power plant","operatingCapacityCoverage":{"coveragePercent":100.0,"knownUnitCount":2,"method":"complete_unit_sum","provenance":{"evidenceCount":0,"recordIds":["wattlas-record-gemunit-g100001051925","wattlas-record-gemunit-g100001051928"],"sourceIds":["gem-global-integrated-power-tracker"],"sourceTypes":["research_verified"],"valueKind":"reported"},"totalUnitCount":2},"operatingCapacityMw":40.0,"operatingCapacityMwByTechnology":{"gas":40.0},"plannedCapacityCoverage":{"coveragePercent":0.0,"knownUnitCount":0,"method":"unavailable","totalUnitCount":0},"plannedCapacityMw":0.0,"plannedCapacityMwByTechnology":{},"recordCount":2,"recordIds":["wattlas-record-gemunit-g100001051925","wattlas-record-gemunit-g100001051928"],"sourceIds":["gem-global-integrated-power-tracker"],"sourceUrl":"https://www.gem.wiki/Shahynaz_power_plant","technologies":["gas"],"technologyMixMw":{"gas":40.0},"unitCount":2,"unitIds":["gem-unit-G100001051925","gem-unit-G100001051928"]},"type":"Feature"},{"geometry":{"coordinates":[44.186514,15.430517],"type":"Point"},"id":"wattlas-plant-gemplant-l100001046140","properties":{"aliases":["1-1","Dhahban power station"],"canonicalAnchor":"gemplant:L100001046140","canonicalCountryKey":"YE","capacityMw":96.0,"country":"YE","externalIds":{"gemPlant":"L100001046140","gemUnit":"G100001052061"},"gemWikiUrl":"https://www.gem.wiki/Dhahban_power_station","geographyId":"YE-18629408B48104637123824","id":"wattlas-plant-gemplant-l100001046140","lifecycleCounts":{"operational":1},"locationPrecision":"exact","name":"Dhahban power station","operatingCapacityCoverage":{"coveragePercent":100.0,"knownUnitCount":1,"method":"complete_unit_sum","provenance":{"evidenceCount":0,"recordIds":["wattlas-record-gemunit-g100001052061"],"sourceIds":["gem-global-integrated-power-tracker"],"sourceTypes":["research_verified"],"valueKind":"reported"},"totalUnitCount":1},"operatingCapacityMw":96.0,"operatingCapacityMwByTechnology":{"oil":96.0},"plannedCapacityCoverage":{"coveragePercent":0.0,"knownUnitCount":0,"method":"unavailable","totalUnitCount":0},"plannedCapacityMw":0.0,"plannedCapacityMwByTechnology":{},"recordCount":1,"recordIds":["wattlas-record-gemunit-g100001052061"],"sourceIds":["gem-global-integrated-power-tracker"],"sourceUrl":"https://www.gem.wiki/Dhahban_power_station","technologies":["oil"],"technologyMixMw":{"oil":96.0},"unitCount":1,"unitIds":["gem-unit-G100001052061"]},"type":"Feature"},{"geometry":{"coordinates":[44.015643,13.577604],"type":"Point"},"id":"wattlas-plant-gemplant-l100001061535","properties":{"aliases":["1-1","Osifra power station"],"canonicalAnchor":"gemplant:L100001061535","canonicalCountryKey":"YE","capacityMw":0.0,"country":"YE","externalIds":{"gemPlant":"L100001061535","gemUnit":"G100001070503"},"gemWikiUrl":"https://www.gem.wiki/Osifra_power_station","geographyId":"YE-18629408B66245584752084","id":"wattlas-plant-gemplant-l100001061535","lifecycleCounts":{"paused":1},"locationPrecision":"exact","name":"Osifra power station","operatingCapacityCoverage":{"coveragePercent":0.0,"knownUnitCount":0,"method":"unavailable","totalUnitCount":0},"operatingCapacityMw":0.0,"operatingCapacityMwByTechnology":{},"plannedCapacityCoverage":{"coveragePercent":0.0,"knownUnitCount":0,"method":"unavailable","totalUnitCount":0},"plannedCapacityMw":0.0,"plannedCapacityMwByTechnology":{},"recordCount":1,"recordIds":["wattlas-record-gemunit-g100001070503"],"sourceIds":["gem-global-integrated-power-tracker"],"sourceUrl":"https://www.gem.wiki/Osifra_power_station","technologies":["gas"],"technologyMixMw":{"gas":0.0},"unitCount":1,"unitIds":["gem-unit-G100001070503"]},"type":"Feature"},{"geometry":{"coordinates":[44.7818,16.1963],"type":"Point"},"id":"wattlas-plant-gemplant-l100001069188","properties":{"aliases":["--","Al Jawf Governorate solar project"],"canonicalAnchor":"gemplant:L100001069188","canonicalCountryKey":"YE","capacityMw":1.8,"country":"YE","externalIds":{"gemPlant":"L100001069188","gemUnit":"G100001078974"},"gemWikiUrl":"https://www.gem.wiki/Al_Jawf_Governorate_solar_project","geographyId":"YE-18629408B7407331306690","id":"wattlas-plant-gemplant-l100001069188","lifecycleCounts":{"operational":1},"locationPrecision":"exact","name":"Al Jawf Governorate solar project","operatingCapacityCoverage":{"coveragePercent":100.0,"knownUnitCount":1,"method":"complete_unit_sum","provenance":{"evidenceCount":0,"recordIds":["wattlas-record-gemunit-g100001078974"],"sourceIds":["gem-global-integrated-power-tracker"],"sourceTypes":["research_verified"],"valueKind":"reported"},"totalUnitCount":1},"operatingCapacityMw":1.8,"operatingCapacityMwByTechnology":{"solar":1.8},"plannedCapacityCoverage":{"coveragePercent":0.0,"knownUnitCount":0,"method":"unavailable","totalUnitCount":0},"plannedCapacityMw":0.0,"plannedCapacityMwByTechnology":{},"recordCount":1,"recordIds":["wattlas-record-gemunit-g100001078974"],"sourceIds":["gem-global-integrated-power-tracker"],"sourceUrl":"https://www.gem.wiki/Al_Jawf_Governorate_solar_project","technologies":["solar"],"technologyMixMw":{"solar":1.8},"unitCount":1,"unitIds":["gem-unit-G100001078974"]},"type":"Feature"},{"geometry":{"coordinates":[48.799,15.9335],"type":"Point"},"id":"wattlas-plant-gemplant-l100001069189","properties":{"aliases":["--","Say'Un solar project"],"canonicalAnchor":"gemplant:L100001069189","canonicalCountryKey":"YE","capacityMw":1.1,"country":"YE","externalIds":{"gemPlant":"L100001069189","gemUnit":"G100001078975"},"gemWikiUrl":"https://www.gem.wiki/Say'Un_solar_project","geographyId":"YE-18629408B49078263925584","id":"wattlas-plant-gemplant-l100001069189","lifecycleCounts":{"operational":1},"locationPrecision":"exact","name":"Say'Un solar project","operatingCapacityCoverage":{"coveragePercent":100.0,"knownUnitCount":1,"method":"complete_unit_sum","provenance":{"evidenceCount":0,"recordIds":["wattlas-record-gemunit-g100001078975"],"sourceIds":["gem-global-integrated-power-tracker"],"sourceTypes":["research_verified"],"valueKind":"reported"},"totalUnitCount":1},"operatingCapacityMw":1.1,"operatingCapacityMwByTechnology":{"solar":1.1},"plannedCapacityCoverage":{"coveragePercent":0.0,"knownUnitCount":0,"method":"unavailable","totalUnitCount":0},"plannedCapacityMw":0.0,"plannedCapacityMwByTechnology":{},"recordCount":1,"recordIds":["wattlas-record-gemunit-g100001078975"],"sourceIds":["gem-global-integrated-power-tracker"],"sourceUrl":"https://www.gem.wiki/Say'Un_solar_project","technologies":["solar"],"technologyMixMw":{"solar":1.1},"unitCount":1,"unitIds":["gem-unit-G100001078975"]},"type":"Feature"},{"geometry":{"coordinates":[42.9132,14.9891],"type":"Point"},"id":"wattlas-plant-gemplant-l100001069190","properties":{"aliases":["--","Al Hudaydah Governorate solar project I"],"canonicalAnchor":"gemplant:L100001069190","canonicalCountryKey":"YE","capacityMw":2.1,"country":"YE","externalIds":{"gemPlant":"L100001069190","gemUnit":"G100001078976"},"gemWikiUrl":"https://www.gem.wiki/Al_Hudaydah_Governorate_solar_project_I","geographyId":"YE-18629408B71394624267216","id":"wattlas-plant-gemplant-l100001069190","lifecycleCounts":{"operational":1},"locationPrecision":"exact","name":"Al Hudaydah Governorate solar project I","operatingCapacityCoverage":{"coveragePercent":100.0,"knownUnitCount":1,"method":"complete_unit_sum","provenance":{"evidenceCount":0,"recordIds":["wattlas-record-gemunit-g100001078976"],"sourceIds":["gem-global-integrated-power-tracker"],"sourceTypes":["research_verified"],"valueKind":"reported"},"totalUnitCount":1},"operatingCapacityMw":2.1,"operatingCapacityMwByTechnology":{"solar":2.1},"plannedCapacityCoverage":{"coveragePercent":0.0,"knownUnitCount":0,"method":"unavailable","totalUnitCount":0},"plannedCapacityMw":0.0,"plannedCapacityMwByTechnology":{},"recordCount":1,"recordIds":["wattlas-record-gemunit-g100001078976"],"sourceIds":["gem-global-integrated-power-tracker"],"sourceUrl":"https://www.gem.wiki/Al_Hudaydah_Governorate_solar_project_I","technologies":["solar"],"technologyMixMw":{"solar":2.1},"unitCount":1,"unitIds":["gem-unit-G100001078976"]},"type":"Feature"},{"geometry":{"coordinates":[49.6313,14.774],"type":"Point"},"id":"wattlas-plant-gemplant-l100001069191","properties":{"aliases":["--","Hadramaut Governorate solar project I"],"canonicalAnchor":"gemplant:L100001069191","canonicalCountryKey":"YE","capacityMw":1.4,"country":"YE","externalIds":{"gemPlant":"L100001069191","gemUnit":"G100001078977"},"gemWikiUrl":"https://www.gem.wiki/Hadramaut_Governorate_solar_project_I","geographyId":"YE-18629408B49078263925584","id":"wattlas-plant-gemplant-l100001069191","lifecycleCounts":{"operational":1},"locationPrecision":"exact","name":"Hadramaut Governorate solar project I","operatingCapacityCoverage":{"coveragePercent":100.0,"knownUnitCount":1,"method":"complete_unit_sum","provenance":{"evidenceCount":0,"recordIds":["wattlas-record-gemunit-g100001078977"],"sourceIds":["gem-global-integrated-power-tracker"],"sourceTypes":["research_verified"],"valueKind":"reported"},"totalUnitCount":1},"operatingCapacityMw":1.4,"operatingCapacityMwByTechnology":{"solar":1.4},"plannedCapacityCoverage":{"coveragePercent":0.0,"knownUnitCount":0,"method":"unavailable","totalUnitCount":0},"plannedCapacityMw":0.0,"plannedCapacityMwByTechnology":{},"recordCount":1,"recordIds":["wattlas-record-gemunit-g100001078977"],"sourceIds":["gem-global-integrated-power-tracker"],"sourceUrl":"https://www.gem.wiki/Hadramaut_Governorate_solar_project_I","technologies":["solar"],"technologyMixMw":{"solar":1.4},"unitCount":1,"unitIds":["gem-unit-G100001078977"]},"type":"Feature"},{"geometry":{"coordinates":[42.9257,14.9757],"type":"Point"},"id":"wattlas-plant-gemplant-l100001069192","properties":{"aliases":["--","Al Hudaydah Governorate solar project II"],"canonicalAnchor":"gemplant:L100001069192","canonicalCountryKey":"YE","capacityMw":1.4,"country":"YE","externalIds":{"gemPlant":"L100001069192","gemUnit":"G100001078978"},"gemWikiUrl":"https://www.gem.wiki/Al_Hudaydah_Governorate_solar_project_II","geographyId":"YE-18629408B71394624267216","id":"wattlas-plant-gemplant-l100001069192","lifecycleCounts":{"operational":1},"locationPrecision":"exact","name":"Al Hudaydah Governorate solar project II","operatingCapacityCoverage":{"coveragePercent":100.0,"knownUnitCount":1,"method":"complete_unit_sum","provenance":{"evidenceCount":0,"recordIds":["wattlas-record-gemunit-g100001078978"],"sourceIds":["gem-global-integrated-power-tracker"],"sourceTypes":["research_verified"],"valueKind":"reported"},"totalUnitCount":1},"operatingCapacityMw":1.4,"operatingCapacityMwByTechnology":{"solar":1.4},"plannedCapacityCoverage":{"coveragePercent":0.0,"knownUnitCount":0,"method":"unavailable","totalUnitCount":0},"plannedCapacityMw":0.0,"plannedCapacityMwByTechnology":{},"recordCount":1,"recordIds":["wattlas-record-gemunit-g100001078978"],"sourceIds":["gem-global-integrated-power-tracker"],"sourceUrl":"https://www.gem.wiki/Al_Hudaydah_Governorate_solar_project_II","technologies":["solar"],"technologyMixMw":{"solar":1.4},"unitCount":1,"unitIds":["gem-unit-G100001078978"]},"type":"Feature"},{"geometry":{"coordinates":[54.0613,12.6588],"type":"Point"},"id":"wattlas-plant-gemplant-l100001069193","properties":{"aliases":["--","Socotra Governorate solar project"],"canonicalAnchor":"gemplant:L100001069193","canonicalCountryKey":"YE","capacityMw":2.1,"country":"YE","externalIds":{"gemPlant":"L100001069193","gemUnit":"G100001078979"},"gemWikiUrl":"https://www.gem.wiki/Socotra_Governorate_solar_project","geographyId":"YE-18629408B57175931824869","id":"wattlas-plant-gemplant-l100001069193","lifecycleCounts":{"operational":1},"locationPrecision":"exact","name":"Socotra Governorate solar project","operatingCapacityCoverage":{"coveragePercent":100.0,"knownUnitCount":1,"method":"complete_unit_sum","provenance":{"evidenceCount":0,"recordIds":["wattlas-record-gemunit-g100001078979"],"sourceIds":["gem-global-integrated-power-tracker"],"sourceTypes":["research_verified"],"valueKind":"reported"},"totalUnitCount":1},"operatingCapacityMw":2.1,"operatingCapacityMwByTechnology":{"solar":2.1},"plannedCapacityCoverage":{"coveragePercent":0.0,"knownUnitCount":0,"method":"unavailable","totalUnitCount":0},"plannedCapacityMw":0.0,"plannedCapacityMwByTechnology":{},"recordCount":1,"recordIds":["wattlas-record-gemunit-g100001078979"],"sourceIds":["gem-global-integrated-power-tracker"],"sourceUrl":"https://www.gem.wiki/Socotra_Governorate_solar_project","technologies":["solar"],"technologyMixMw":{"solar":2.1},"unitCount":1,"unitIds":["gem-unit-G100001078979"]},"type":"Feature"},{"geometry":{"coordinates":[43.1851,15.9974],"type":"Point"},"id":"wattlas-plant-gemplant-l100001069194","properties":{"aliases":["--","Hajjah Governorate solar project I"],"canonicalAnchor":"gemplant:L100001069194","canonicalCountryKey":"YE","capacityMw":1.5,"country":"YE","externalIds":{"gemPlant":"L100001069194","gemUnit":"G100001078980"},"gemWikiUrl":"https://www.gem.wiki/Hajjah_Governorate_solar_project_I","geographyId":"YE-18629408B8726373480353","id":"wattlas-plant-gemplant-l100001069194","lifecycleCounts":{"operational":1},"locationPrecision":"exact","name":"Hajjah Governorate solar project I","operatingCapacityCoverage":{"coveragePercent":100.0,"knownUnitCount":1,"method":"complete_unit_sum","provenance":{"evidenceCount":0,"recordIds":["wattlas-record-gemunit-g100001078980"],"sourceIds":["gem-global-integrated-power-tracker"],"sourceTypes":["research_verified"],"valueKind":"reported"},"totalUnitCount":1},"operatingCapacityMw":1.5,"operatingCapacityMwByTechnology":{"solar":1.5},"plannedCapacityCoverage":{"coveragePercent":0.0,"knownUnitCount":0,"method":"unavailable","totalUnitCount":0},"plannedCapacityMw":0.0,"plannedCapacityMwByTechnology":{},"recordCount":1,"recordIds":["wattlas-record-gemunit-g100001078980"],"sourceIds":["gem-global-integrated-power-tracker"],"sourceUrl":"https://www.gem.wiki/Hajjah_Governorate_solar_project_I","technologies":["solar"],"technologyMixMw":{"solar":1.5},"unitCount":1,"unitIds":["gem-unit-G100001078980"]},"type":"Feature"},{"geometry":{"coordinates":[49.1766,14.8001],"type":"Point"},"id":"wattlas-plant-gemplant-l100001069195","properties":{"aliases":["--","Hadramaut Governorate solar project II"],"canonicalAnchor":"gemplant:L100001069195","canonicalCountryKey":"YE","capacityMw":10.1,"country":"YE","externalIds":{"gemPlant":"L100001069195","gemUnit":"G100001078981"},"gemWikiUrl":"https://www.gem.wiki/Hadramaut_Governorate_solar_project_II","geographyId":"YE-18629408B49078263925584","id":"wattlas-plant-gemplant-l100001069195","lifecycleCounts":{"operational":1},"locationPrecision":"exact","name":"Hadramaut Governorate solar project II","operatingCapacityCoverage":{"coveragePercent":100.0,"knownUnitCount":1,"method":"complete_unit_sum","provenance":{"evidenceCount":0,"recordIds":["wattlas-record-gemunit-g100001078981"],"sourceIds":["gem-global-integrated-power-tracker"],"sourceTypes":["research_verified"],"valueKind":"reported"},"totalUnitCount":1},"operatingCapacityMw":10.1,"operatingCapacityMwByTechnology":{"solar":10.1},"plannedCapacityCoverage":{"coveragePercent":0.0,"knownUnitCount":0,"method":"unavailable","totalUnitCount":0},"plannedCapacityMw":0.0,"plannedCapacityMwByTechnology":{},"recordCount":1,"recordIds":["wattlas-record-gemunit-g100001078981"],"sourceIds":["gem-global-integrated-power-tracker"],"sourceUrl":"https://www.gem.wiki/Hadramaut_Governorate_solar_project_II","technologies":["solar"],"technologyMixMw":{"solar":10.1},"unitCount":1,"unitIds":["gem-unit-G100001078981"]},"type":"Feature"},{"geometry":{"coordinates":[43.0767,14.777],"type":"Point"},"id":"wattlas-plant-gemplant-l100001069196","properties":{"aliases":["--","Al Hudaydah Governorate solar project III"],"canonicalAnchor":"gemplant:L100001069196","canonicalCountryKey":"YE","capacityMw":2.1,"country":"YE","externalIds":{"gemPlant":"L100001069196","gemUnit":"G100001078982"},"gemWikiUrl":"https://www.gem.wiki/Al_Hudaydah_Governorate_solar_project_III","geographyId":"YE-18629408B71394624267216","id":"wattlas-plant-gemplant-l100001069196","lifecycleCounts":{"operational":1},"locationPrecision":"exact","name":"Al Hudaydah Governorate solar project III","operatingCapacityCoverage":{"coveragePercent":100.0,"knownUnitCount":1,"method":"complete_unit_sum","provenance":{"evidenceCount":0,"recordIds":["wattlas-record-gemunit-g100001078982"],"sourceIds":["gem-global-integrated-power-tracker"],"sourceTypes":["research_verified"],"valueKind":"reported"},"totalUnitCount":1},"operatingCapacityMw":2.1,"operatingCapacityMwByTechnology":{"solar":2.1},"plannedCapacityCoverage":{"coveragePercent":0.0,"knownUnitCount":0,"method":"unavailable","totalUnitCount":0},"plannedCapacityMw":0.0,"plannedCapacityMwByTechnology":{},"recordCount":1,"recordIds":["wattlas-record-gemunit-g100001078982"],"sourceIds":["gem-global-integrated-power-tracker"],"sourceUrl":"https://www.gem.wiki/Al_Hudaydah_Governorate_solar_project_III","technologies":["solar"],"technologyMixMw":{"solar":2.1},"unitCount":1,"unitIds":["gem-unit-G100001078982"]},"type":"Feature"},{"geometry":{"coordinates":[43.1598,16.0639],"type":"Point"},"id":"wattlas-plant-gemplant-l100001069197","properties":{"aliases":["--","Hajjah Governorate solar project II"],"canonicalAnchor":"gemplant:L100001069197","canonicalCountryKey":"YE","capacityMw":1.6,"country":"YE","externalIds":{"gemPlant":"L100001069197","gemUnit":"G100001078983"},"gemWikiUrl":"https://www.gem.wiki/Hajjah_Governorate_solar_project_II","geographyId":"YE-18629408B8726373480353","id":"wattlas-plant-gemplant-l100001069197","lifecycleCounts":{"operational":1},"locationPrecision":"exact","name":"Hajjah Governorate solar project II","operatingCapacityCoverage":{"coveragePercent":100.0,"knownUnitCount":1,"method":"complete_unit_sum","provenance":{"evidenceCount":0,"recordIds":["wattlas-record-gemunit-g100001078983"],"sourceIds":["gem-global-integrated-power-tracker"],"sourceTypes":["research_verified"],"valueKind":"reported"},"totalUnitCount":1},"operatingCapacityMw":1.6,"operatingCapacityMwByTechnology":{"solar":1.6},"plannedCapacityCoverage":{"coveragePercent":0.0,"knownUnitCount":0,"method":"unavailable","totalUnitCount":0},"plannedCapacityMw":0.0,"plannedCapacityMwByTechnology":{},"recordCount":1,"recordIds":["wattlas-record-gemunit-g100001078983"],"sourceIds":["gem-global-integrated-power-tracker"],"sourceUrl":"https://www.gem.wiki/Hajjah_Governorate_solar_project_II","technologies":["solar"],"technologyMixMw":{"solar":1.6},"unitCount":1,"unitIds":["gem-unit-G100001078983"]},"type":"Feature"},{"geometry":{"coordinates":[42.9878,15.0651],"type":"Point"},"id":"wattlas-plant-gemplant-l100001069198","properties":{"aliases":["--","Al Hudaydah Governorate solar project IV"],"canonicalAnchor":"gemplant:L100001069198","canonicalCountryKey":"YE","capacityMw":2.0,"country":"YE","externalIds":{"gemPlant":"L100001069198","gemUnit":"G100001078984"},"gemWikiUrl":"https://www.gem.wiki/Al_Hudaydah_Governorate_solar_project_IV","geographyId":"YE-18629408B71394624267216","id":"wattlas-plant-gemplant-l100001069198","lifecycleCounts":{"operational":1},"locationPrecision":"exact","name":"Al Hudaydah Governorate solar project IV","operatingCapacityCoverage":{"coveragePercent":100.0,"knownUnitCount":1,"method":"complete_unit_sum","provenance":{"evidenceCount":0,"recordIds":["wattlas-record-gemunit-g100001078984"],"sourceIds":["gem-global-integrated-power-tracker"],"sourceTypes":["research_verified"],"valueKind":"reported"},"totalUnitCount":1},"operatingCapacityMw":2.0,"operatingCapacityMwByTechnology":{"solar":2.0},"plannedCapacityCoverage":{"coveragePercent":0.0,"knownUnitCount":0,"method":"unavailable","totalUnitCount":0},"plannedCapacityMw":0.0,"plannedCapacityMwByTechnology":{},"recordCount":1,"recordIds":["wattlas-record-gemunit-g100001078984"],"sourceIds":["gem-global-integrated-power-tracker"],"sourceUrl":"https://www.gem.wiki/Al_Hudaydah_Governorate_solar_project_IV","technologies":["solar"],"technologyMixMw":{"solar":2.0},"unitCount":1,"unitIds":["gem-unit-G100001078984"]},"type":"Feature"},{"geometry":{"coordinates":[44.923631,12.824969],"type":"Point"},"id":"wattlas-plant-osm-way-121834063","properties":{"aliases":["محطة الحسوة البخارية"],"canonicalAnchor":"osm:way/121834063","canonicalCountryKey":"YE","capacityMw":0.0,"country":"YE","externalIds":{"osm":"way/121834063"},"geographyId":"YE-18629408B11945654439238","id":"wattlas-plant-osm-way-121834063","lifecycleCounts":{"operational":1},"locationPrecision":"exact","name":"محطة الحسوة البخارية","operatingCapacityCoverage":{"coveragePercent":0.0,"knownUnitCount":0,"method":"unavailable","totalUnitCount":0},"operatingCapacityMw":0.0,"operatingCapacityMwByTechnology":{},"plannedCapacityCoverage":{"coveragePercent":0.0,"knownUnitCount":0,"method":"unavailable","totalUnitCount":0},"plannedCapacityMw":0.0,"plannedCapacityMwByTechnology":{},"recordCount":1,"recordIds":["wattlas-record-osm-way-121834063"],"sourceIds":["openstreetmap-power"],"sourceUrl":"https://www.openstreetmap.org/way/121834063","technologies":["other"],"technologyMixMw":{"other":0.0},"unitCount":0,"unitIds":[]},"type":"Feature"},{"geometry":{"coordinates":[44.919926,12.825525],"type":"Point"},"id":"wattlas-plant-osm-way-1250586199","properties":{"aliases":["Aden power station"],"canonicalAnchor":"osm:way/1250586199","canonicalCountryKey":"YE","capacityMw":264.0,"country":"YE","externalIds":{"osm":"way/1250586199"},"geographyId":"YE-18629408B11945654439238","id":"wattlas-plant-osm-way-1250586199","lifecycleCounts":{"operational":1},"locationPrecision":"exact","name":"Aden power station","operatingCapacityCoverage":{"coveragePercent":100.0,"knownUnitCount":0,"method":"plant_aggregate","provenance":{"evidenceCount":0,"recordIds":["wattlas-record-osm-way-1250586199"],"sourceIds":["openstreetmap-power"],"sourceTypes":["community_mapped"],"valueKind":"reported"},"totalUnitCount":0},"operatingCapacityMw":264.0,"operatingCapacityMwByTechnology":{"gas":264.0},"plannedCapacityCoverage":{"coveragePercent":0.0,"knownUnitCount":0,"method":"unavailable","totalUnitCount":0},"plannedCapacityMw":0.0,"plannedCapacityMwByTechnology":{},"recordCount":1,"recordIds":["wattlas-record-osm-way-1250586199"],"sourceIds":["openstreetmap-power"],"sourceUrl":"https://www.openstreetmap.org/way/1250586199","technologies":["gas"],"technologyMixMw":{"gas":264.0},"unitCount":0,"unitIds":[]},"type":"Feature"},{"geometry":{"coordinates":[44.270412,15.244608],"type":"Point"},"id":"wattlas-plant-osm-way-249334707","properties":{"aliases":["محطة حزيز"],"canonicalAnchor":"osm:way/249334707","canonicalCountryKey":"YE","capacityMw":0.0,"country":"YE","externalIds":{"osm":"way/249334707"},"geographyId":"YE-18629408B64822604790923","id":"wattlas-plant-osm-way-249334707","lifecycleCounts":{"operational":1},"locationPrecision":"exact","name":"محطة حزيز","operatingCapacityCoverage":{"coveragePercent":0.0,"knownUnitCount":0,"method":"unavailable","totalUnitCount":0},"operatingCapacityMw":0.0,"operatingCapacityMwByTechnology":{},"plannedCapacityCoverage":{"coveragePercent":0.0,"knownUnitCount":0,"method":"unavailable","totalUnitCount":0},"plannedCapacityMw":0.0,"plannedCapacityMwByTechnology":{},"recordCount":1,"recordIds":["wattlas-record-osm-way-249334707"],"sourceIds":["openstreetmap-power"],"sourceUrl":"https://www.openstreetmap.org/way/249334707","technologies":["oil"],"technologyMixMw":{"oil":0.0},"unitCount":0,"unitIds":[]},"type":"Feature"},{"geometry":{"coordinates":[45.771311,15.552255],"type":"Point"},"id":"wattlas-plant-osm-way-726183976","properties":{"aliases":["Marib Power Plant"],"canonicalAnchor":"osm:way/726183976","canonicalCountryKey":"YE","capacityMw":0.0,"country":"YE","externalIds":{"osm":"way/726183976"},"geographyId":"YE-18629408B1777518619063","id":"wattlas-plant-osm-way-726183976","lifecycleCounts":{"operational":1},"locationPrecision":"exact","name":"Marib Power Plant","operatingCapacityCoverage":{"coveragePercent":0.0,"knownUnitCount":0,"method":"unavailable","totalUnitCount":0},"operatingCapacityMw":0.0,"operatingCapacityMwByTechnology":{},"plannedCapacityCoverage":{"coveragePercent":0.0,"knownUnitCount":0,"method":"unavailable","totalUnitCount":0},"plannedCapacityMw":0.0,"plannedCapacityMwByTechnology":{},"recordCount":1,"recordIds":["wattlas-record-osm-way-726183976"],"sourceIds":["openstreetmap-power"],"sourceUrl":"https://www.openstreetmap.org/way/726183976","technologies":["gas"],"technologyMixMw":{"gas":0.0},"unitCount":0,"unitIds":[]},"type":"Feature"}],"type":"FeatureCollection"}