{"features":[{"geometry":{"coordinates":[28.779202,-13.027011],"type":"Point"},"id":"wattlas-plant-gemplant-l100000104351","properties":{"aliases":["--","Ndola Cement Plant power station"],"canonicalAnchor":"gemplant:L100000104351","canonicalCountryKey":"ZM","capacityMw":30.0,"country":"ZM","externalIds":{"gemPlant":"L100000104351","gemUnit":"G100000107339"},"gemWikiUrl":"https://www.gem.wiki/Ndola_Cement_Plant_power_station","geographyId":"ZM-6923714B61812757118010","id":"wattlas-plant-gemplant-l100000104351","lifecycleCounts":{"operational":1},"locationPrecision":"exact","name":"Ndola Cement Plant power station","operatingCapacityCoverage":{"coveragePercent":100.0,"knownUnitCount":1,"method":"complete_unit_sum","provenance":{"evidenceCount":0,"recordIds":["wattlas-record-gemunit-g100000107339"],"sourceIds":["gem-global-integrated-power-tracker"],"sourceTypes":["research_verified"],"valueKind":"reported"},"totalUnitCount":1},"operatingCapacityMw":30.0,"operatingCapacityMwByTechnology":{"coal":30.0},"plannedCapacityCoverage":{"coveragePercent":0.0,"knownUnitCount":0,"method":"unavailable","totalUnitCount":0},"plannedCapacityMw":0.0,"plannedCapacityMwByTechnology":{},"recordCount":1,"recordIds":["wattlas-record-gemunit-g100000107339"],"sourceIds":["gem-global-integrated-power-tracker"],"sourceUrl":"https://www.gem.wiki/Ndola_Cement_Plant_power_station","technologies":["coal"],"technologyMixMw":{"coal":30.0},"unitCount":1,"unitIds":["gem-unit-G100000107339"]},"type":"Feature"},{"geometry":{"coordinates":[27.18594,-17.352722],"type":"Point"},"id":"wattlas-plant-gemplant-l100000104354","properties":{"aliases":["Maamba power station","Unit 1","Unit 2","Unit 3","Unit 4"],"canonicalAnchor":"gemplant:L100000104354","canonicalCountryKey":"ZM","capacityMw":600.0,"country":"ZM","externalIdAliases":{"gemUnit":["G100000106530","G100000106531","G100000106532","G100000106533"]},"externalIds":{"gemPlant":"L100000104354","gemUnit":"G100000106533"},"gemWikiUrl":"https://www.gem.wiki/Maamba_power_station","geographyId":"ZM-6923714B34072001548912","id":"wattlas-plant-gemplant-l100000104354","lifecycleCounts":{"operational":2,"under_construction":2},"locationPrecision":"exact","name":"Maamba power station","operatingCapacityCoverage":{"coveragePercent":100.0,"knownUnitCount":2,"method":"complete_unit_sum","provenance":{"evidenceCount":0,"recordIds":["wattlas-record-gemunit-g100000106530","wattlas-record-gemunit-g100000106531"],"sourceIds":["gem-global-integrated-power-tracker"],"sourceTypes":["research_verified"],"valueKind":"reported"},"totalUnitCount":2},"operatingCapacityMw":300.0,"operatingCapacityMwByTechnology":{"coal":300.0},"plannedCapacityCoverage":{"coveragePercent":100.0,"knownUnitCount":2,"method":"complete_unit_sum","provenance":{"evidenceCount":0,"recordIds":["wattlas-record-gemunit-g100000106532","wattlas-record-gemunit-g100000106533"],"sourceIds":["gem-global-integrated-power-tracker"],"sourceTypes":["research_verified"],"valueKind":"reported"},"totalUnitCount":2},"plannedCapacityMw":300.0,"plannedCapacityMwByTechnology":{"coal":300.0},"recordCount":4,"recordIds":["wattlas-record-gemunit-g100000106530","wattlas-record-gemunit-g100000106531","wattlas-record-gemunit-g100000106532","wattlas-record-gemunit-g100000106533"],"sourceIds":["gem-global-integrated-power-tracker"],"sourceUrl":"https://www.gem.wiki/Maamba_power_station","technologies":["coal"],"technologyMixMw":{"coal":600.0},"unitCount":4,"unitIds":["gem-unit-G100000106530","gem-unit-G100000106531","gem-unit-G100000106532","gem-unit-G100000106533"]},"type":"Feature"},{"geometry":{"coordinates":[27.7804,-15.8315],"type":"Point"},"id":"wattlas-plant-gemplant-l100000200008","properties":{"aliases":["1.0","Nakambala power station"],"canonicalAnchor":"gemplant:L100000200008","canonicalCountryKey":"ZM","capacityMw":40.0,"country":"ZM","externalIds":{"gemPlant":"L100000200008","gemUnit":"G100000200008"},"gemWikiUrl":"https://www.gem.wiki/Nakambala_power_station","geographyId":"ZM-6923714B34072001548912","id":"wattlas-plant-gemplant-l100000200008","lifecycleCounts":{"operational":1},"locationPrecision":"exact","name":"Nakambala power station","operatingCapacityCoverage":{"coveragePercent":100.0,"knownUnitCount":1,"method":"complete_unit_sum","provenance":{"evidenceCount":0,"recordIds":["wattlas-record-gemunit-g100000200008"],"sourceIds":["gem-global-integrated-power-tracker"],"sourceTypes":["research_verified"],"valueKind":"reported"},"totalUnitCount":1},"operatingCapacityMw":40.0,"operatingCapacityMwByTechnology":{"biomass":40.0},"plannedCapacityCoverage":{"coveragePercent":0.0,"knownUnitCount":0,"method":"unavailable","totalUnitCount":0},"plannedCapacityMw":0.0,"plannedCapacityMwByTechnology":{},"recordCount":1,"recordIds":["wattlas-record-gemunit-g100000200008"],"sourceIds":["gem-global-integrated-power-tracker"],"sourceUrl":"https://www.gem.wiki/Nakambala_power_station","technologies":["biomass"],"technologyMixMw":{"biomass":40.0},"unitCount":1,"unitIds":["gem-unit-G100000200008"]},"type":"Feature"},{"geometry":{"coordinates":[26.0213,-15.7601],"type":"Point"},"id":"wattlas-plant-gemplant-l100000604050","properties":{"aliases":["Itezhi Tezhi hydroelectric plant"],"canonicalAnchor":"gemplant:L100000604050","canonicalCountryKey":"ZM","capacityMw":120.0,"country":"ZM","externalIds":{"gemPlant":"L100000604050","gemUnit":"G100000604089"},"gemWikiUrl":"https://www.gem.wiki/Itezhi_Tezhi_hydroelectric_plant","geographyId":"ZM-6923714B60407914126357","id":"wattlas-plant-gemplant-l100000604050","lifecycleCounts":{"operational":1},"locationPrecision":"exact","name":"Itezhi Tezhi hydroelectric plant","operatingCapacityCoverage":{"coveragePercent":100.0,"knownUnitCount":1,"method":"complete_unit_sum","provenance":{"evidenceCount":0,"recordIds":["wattlas-record-gemunit-g100000604089"],"sourceIds":["gem-global-integrated-power-tracker"],"sourceTypes":["research_verified"],"valueKind":"reported"},"totalUnitCount":1},"operatingCapacityMw":120.0,"operatingCapacityMwByTechnology":{"hydro":120.0},"plannedCapacityCoverage":{"coveragePercent":0.0,"knownUnitCount":0,"method":"unavailable","totalUnitCount":0},"plannedCapacityMw":0.0,"plannedCapacityMwByTechnology":{},"recordCount":1,"recordIds":["wattlas-record-gemunit-g100000604089"],"sourceIds":["gem-global-integrated-power-tracker"],"sourceUrl":"https://www.gem.wiki/Itezhi_Tezhi_hydroelectric_plant","technologies":["hydro"],"technologyMixMw":{"hydro":120.0},"unitCount":1,"unitIds":["gem-unit-G100000604089"]},"type":"Feature"},{"geometry":{"coordinates":[28.5601,-15.8959],"type":"Point"},"id":"wattlas-plant-gemplant-l100000604051","properties":{"aliases":["Kafue Gorge Lower hydroelectric plant"],"canonicalAnchor":"gemplant:L100000604051","canonicalCountryKey":"ZM","capacityMw":750.0,"country":"ZM","externalIds":{"gemPlant":"L100000604051","gemUnit":"G100000604090"},"gemWikiUrl":"https://www.gem.wiki/Kafue_Gorge_Lower_hydroelectric_plant","geographyId":"ZM-6923714B17126467226495","id":"wattlas-plant-gemplant-l100000604051","lifecycleCounts":{"operational":1},"locationPrecision":"exact","name":"Kafue Gorge Lower hydroelectric plant","operatingCapacityCoverage":{"coveragePercent":100.0,"knownUnitCount":1,"method":"complete_unit_sum","provenance":{"evidenceCount":0,"recordIds":["wattlas-record-gemunit-g100000604090"],"sourceIds":["gem-global-integrated-power-tracker"],"sourceTypes":["research_verified"],"valueKind":"reported"},"totalUnitCount":1},"operatingCapacityMw":750.0,"operatingCapacityMwByTechnology":{"hydro":750.0},"plannedCapacityCoverage":{"coveragePercent":0.0,"knownUnitCount":0,"method":"unavailable","totalUnitCount":0},"plannedCapacityMw":0.0,"plannedCapacityMwByTechnology":{},"recordCount":1,"recordIds":["wattlas-record-gemunit-g100000604090"],"sourceIds":["gem-global-integrated-power-tracker"],"sourceUrl":"https://www.gem.wiki/Kafue_Gorge_Lower_hydroelectric_plant","technologies":["hydro"],"technologyMixMw":{"hydro":750.0},"unitCount":1,"unitIds":["gem-unit-G100000604090"]},"type":"Feature"},{"geometry":{"coordinates":[28.4216,-15.8067],"type":"Point"},"id":"wattlas-plant-gemplant-l100000604052","properties":{"aliases":["Kafue Gorge Upper hydroelectric plant"],"canonicalAnchor":"gemplant:L100000604052","canonicalCountryKey":"ZM","capacityMw":990.0,"country":"ZM","externalIds":{"gemPlant":"L100000604052","gemUnit":"G100000604091"},"gemWikiUrl":"https://www.gem.wiki/Kafue_Gorge_Upper_hydroelectric_plant","geographyId":"ZM-6923714B17126467226495","id":"wattlas-plant-gemplant-l100000604052","lifecycleCounts":{"operational":1},"locationPrecision":"exact","name":"Kafue Gorge Upper hydroelectric plant","operatingCapacityCoverage":{"coveragePercent":100.0,"knownUnitCount":1,"method":"complete_unit_sum","provenance":{"evidenceCount":0,"recordIds":["wattlas-record-gemunit-g100000604091"],"sourceIds":["gem-global-integrated-power-tracker"],"sourceTypes":["research_verified"],"valueKind":"reported"},"totalUnitCount":1},"operatingCapacityMw":990.0,"operatingCapacityMwByTechnology":{"hydro":990.0},"plannedCapacityCoverage":{"coveragePercent":0.0,"knownUnitCount":0,"method":"unavailable","totalUnitCount":0},"plannedCapacityMw":0.0,"plannedCapacityMwByTechnology":{},"recordCount":1,"recordIds":["wattlas-record-gemunit-g100000604091"],"sourceIds":["gem-global-integrated-power-tracker"],"sourceUrl":"https://www.gem.wiki/Kafue_Gorge_Upper_hydroelectric_plant","technologies":["hydro"],"technologyMixMw":{"hydro":990.0},"unitCount":1,"unitIds":["gem-unit-G100000604091"]},"type":"Feature"},{"geometry":{"coordinates":[29.2969,-9.1926],"type":"Point"},"id":"wattlas-plant-gemplant-l100000604053","properties":{"aliases":["Kundabwika hydroelectric plant"],"canonicalAnchor":"gemplant:L100000604053","canonicalCountryKey":"ZM","capacityMw":151.0,"country":"ZM","externalIds":{"gemPlant":"L100000604053","gemUnit":"G100000604092"},"gemWikiUrl":"https://www.gem.wiki/Kundabwika_hydroelectric_plant","geographyId":"ZM-6923714B94361964796426","id":"wattlas-plant-gemplant-l100000604053","lifecycleCounts":{"announced":1},"locationPrecision":"exact","name":"Kundabwika hydroelectric plant","operatingCapacityCoverage":{"coveragePercent":0.0,"knownUnitCount":0,"method":"unavailable","totalUnitCount":0},"operatingCapacityMw":0.0,"operatingCapacityMwByTechnology":{},"plannedCapacityCoverage":{"coveragePercent":100.0,"knownUnitCount":1,"method":"complete_unit_sum","provenance":{"evidenceCount":0,"recordIds":["wattlas-record-gemunit-g100000604092"],"sourceIds":["gem-global-integrated-power-tracker"],"sourceTypes":["research_verified"],"valueKind":"reported"},"totalUnitCount":1},"plannedCapacityMw":151.0,"plannedCapacityMwByTechnology":{"hydro":151.0},"recordCount":1,"recordIds":["wattlas-record-gemunit-g100000604092"],"sourceIds":["gem-global-integrated-power-tracker"],"sourceUrl":"https://www.gem.wiki/Kundabwika_hydroelectric_plant","technologies":["hydro"],"technologyMixMw":{"hydro":151.0},"unitCount":1,"unitIds":["gem-unit-G100000604092"]},"type":"Feature"},{"geometry":{"coordinates":[29.1245,-14.2286],"type":"Point"},"id":"wattlas-plant-gemplant-l100000604054","properties":{"aliases":["Muchinga hydroelectric plant"],"canonicalAnchor":"gemplant:L100000604054","canonicalCountryKey":"ZM","capacityMw":0.0,"country":"ZM","externalIds":{"gemPlant":"L100000604054","gemUnit":"G100000604639"},"gemWikiUrl":"https://www.gem.wiki/Muchinga_hydroelectric_plant","geographyId":"ZM-6923714B60407914126357","id":"wattlas-plant-gemplant-l100000604054","lifecycleCounts":{"cancelled":1},"locationPrecision":"exact","name":"Muchinga hydroelectric plant","operatingCapacityCoverage":{"coveragePercent":0.0,"knownUnitCount":0,"method":"unavailable","totalUnitCount":0},"operatingCapacityMw":0.0,"operatingCapacityMwByTechnology":{},"plannedCapacityCoverage":{"coveragePercent":0.0,"knownUnitCount":0,"method":"unavailable","totalUnitCount":0},"plannedCapacityMw":0.0,"plannedCapacityMwByTechnology":{},"recordCount":1,"recordIds":["wattlas-record-gemunit-g100000604639"],"sourceIds":["gem-global-integrated-power-tracker"],"sourceUrl":"https://www.gem.wiki/Muchinga_hydroelectric_plant","technologies":["hydro"],"technologyMixMw":{"hydro":0.0},"unitCount":1,"unitIds":["gem-unit-G100000604639"]},"type":"Feature"},{"geometry":{"coordinates":[30.0773,-13.8635],"type":"Point"},"id":"wattlas-plant-gemplant-l100000604055","properties":{"aliases":["Mulembo Lelya hydroelectric plant"],"canonicalAnchor":"gemplant:L100000604055","canonicalCountryKey":"ZM","capacityMw":106.0,"country":"ZM","externalIds":{"gemPlant":"L100000604055","gemUnit":"G100000604094"},"gemWikiUrl":"https://www.gem.wiki/Mulembo_Lelya_hydroelectric_plant","geographyId":"ZM-6923714B60407914126357","id":"wattlas-plant-gemplant-l100000604055","lifecycleCounts":{"announced":1},"locationPrecision":"exact","name":"Mulembo Lelya hydroelectric plant","operatingCapacityCoverage":{"coveragePercent":0.0,"knownUnitCount":0,"method":"unavailable","totalUnitCount":0},"operatingCapacityMw":0.0,"operatingCapacityMwByTechnology":{},"plannedCapacityCoverage":{"coveragePercent":100.0,"knownUnitCount":1,"method":"complete_unit_sum","provenance":{"evidenceCount":0,"recordIds":["wattlas-record-gemunit-g100000604094"],"sourceIds":["gem-global-integrated-power-tracker"],"sourceTypes":["research_verified"],"valueKind":"reported"},"totalUnitCount":1},"plannedCapacityMw":106.0,"plannedCapacityMwByTechnology":{"hydro":106.0},"recordCount":1,"recordIds":["wattlas-record-gemunit-g100000604094"],"sourceIds":["gem-global-integrated-power-tracker"],"sourceUrl":"https://www.gem.wiki/Mulembo_Lelya_hydroelectric_plant","technologies":["hydro"],"technologyMixMw":{"hydro":106.0},"unitCount":1,"unitIds":["gem-unit-G100000604094"]},"type":"Feature"},{"geometry":{"coordinates":[30.4553,-14.4519],"type":"Point"},"id":"wattlas-plant-gemplant-l100000604056","properties":{"aliases":["Ndevu Gorge hydroelectric plant"],"canonicalAnchor":"gemplant:L100000604056","canonicalCountryKey":"ZM","capacityMw":0.0,"country":"ZM","externalIds":{"gemPlant":"L100000604056","gemUnit":"G100000604661"},"gemWikiUrl":"https://www.gem.wiki/Ndevu_Gorge_hydroelectric_plant","geographyId":"ZM-6923714B50523150920038","id":"wattlas-plant-gemplant-l100000604056","lifecycleCounts":{"cancelled":1},"locationPrecision":"exact","name":"Ndevu Gorge hydroelectric plant","operatingCapacityCoverage":{"coveragePercent":0.0,"knownUnitCount":0,"method":"unavailable","totalUnitCount":0},"operatingCapacityMw":0.0,"operatingCapacityMwByTechnology":{},"plannedCapacityCoverage":{"coveragePercent":0.0,"knownUnitCount":0,"method":"unavailable","totalUnitCount":0},"plannedCapacityMw":0.0,"plannedCapacityMwByTechnology":{},"recordCount":1,"recordIds":["wattlas-record-gemunit-g100000604661"],"sourceIds":["gem-global-integrated-power-tracker"],"sourceUrl":"https://www.gem.wiki/Ndevu_Gorge_hydroelectric_plant","technologies":["hydro"],"technologyMixMw":{"hydro":0.0},"unitCount":1,"unitIds":["gem-unit-G100000604661"]},"type":"Feature"},{"geometry":{"coordinates":[29.1993,-12.3751],"type":"Point"},"id":"wattlas-plant-gemplant-l100000604085","properties":{"aliases":["Mumbotuta CX hydroelectric plant"],"canonicalAnchor":"gemplant:L100000604085","canonicalCountryKey":"ZM","capacityMw":300.0,"country":"ZM","externalIds":{"gemPlant":"L100000604085","gemUnit":"G100000604641"},"gemWikiUrl":"https://www.gem.wiki/Mumbotuta_CX_hydroelectric_plant","geographyId":"ZM-6923714B94361964796426","id":"wattlas-plant-gemplant-l100000604085","lifecycleCounts":{"announced":1},"locationPrecision":"exact","name":"Mumbotuta CX hydroelectric plant","operatingCapacityCoverage":{"coveragePercent":0.0,"knownUnitCount":0,"method":"unavailable","totalUnitCount":0},"operatingCapacityMw":0.0,"operatingCapacityMwByTechnology":{},"plannedCapacityCoverage":{"coveragePercent":100.0,"knownUnitCount":1,"method":"complete_unit_sum","provenance":{"evidenceCount":0,"recordIds":["wattlas-record-gemunit-g100000604641"],"sourceIds":["gem-global-integrated-power-tracker"],"sourceTypes":["research_verified"],"valueKind":"reported"},"totalUnitCount":1},"plannedCapacityMw":300.0,"plannedCapacityMwByTechnology":{"hydro":300.0},"recordCount":1,"recordIds":["wattlas-record-gemunit-g100000604641"],"sourceIds":["gem-global-integrated-power-tracker"],"sourceUrl":"https://www.gem.wiki/Mumbotuta_CX_hydroelectric_plant","technologies":["hydro"],"technologyMixMw":{"hydro":300.0},"unitCount":1,"unitIds":["gem-unit-G100000604641"]},"type":"Feature"},{"geometry":{"coordinates":[26.1081,-17.9274],"type":"Point"},"id":"wattlas-plant-gemplant-l100000604109","properties":{"aliases":["Batoka Gorge hydroelectric plant"],"canonicalAnchor":"gemplant:L100000604109","canonicalCountryKey":"ZM","capacityMw":2400.0,"country":"ZM","externalIds":{"gemPlant":"L100000604109","gemUnit":"G100000604238"},"gemWikiUrl":"https://www.gem.wiki/Batoka_Gorge_hydroelectric_plant","geographyId":"ZM-6923714B34072001548912","id":"wattlas-plant-gemplant-l100000604109","lifecycleCounts":{"announced":1},"locationPrecision":"exact","name":"Batoka Gorge hydroelectric plant","operatingCapacityCoverage":{"coveragePercent":0.0,"knownUnitCount":0,"method":"unavailable","totalUnitCount":0},"operatingCapacityMw":0.0,"operatingCapacityMwByTechnology":{},"plannedCapacityCoverage":{"coveragePercent":100.0,"knownUnitCount":1,"method":"complete_unit_sum","provenance":{"evidenceCount":0,"recordIds":["wattlas-record-gemunit-g100000604238"],"sourceIds":["gem-global-integrated-power-tracker"],"sourceTypes":["research_verified"],"valueKind":"reported"},"totalUnitCount":1},"plannedCapacityMw":2400.0,"plannedCapacityMwByTechnology":{"hydro":2400.0},"recordCount":1,"recordIds":["wattlas-record-gemunit-g100000604238"],"sourceIds":["gem-global-integrated-power-tracker"],"sourceUrl":"https://www.gem.wiki/Batoka_Gorge_hydroelectric_plant","technologies":["hydro"],"technologyMixMw":{"hydro":2400.0},"unitCount":1,"unitIds":["gem-unit-G100000604238"]},"type":"Feature"},{"geometry":{"coordinates":[28.4329,-15.5138],"type":"Point"},"id":"wattlas-plant-gemplant-l100000800030","properties":{"aliases":["--","Bangweulu solar farm"],"canonicalAnchor":"gemplant:L100000800030","canonicalCountryKey":"ZM","capacityMw":54.0,"country":"ZM","externalIds":{"gemPlant":"L100000800030","gemUnit":"G100000800034"},"gemWikiUrl":"https://www.gem.wiki/Bangweulu_solar_farm","geographyId":"ZM-6923714B17126467226495","id":"wattlas-plant-gemplant-l100000800030","lifecycleCounts":{"operational":1},"locationPrecision":"exact","name":"Bangweulu solar farm","operatingCapacityCoverage":{"coveragePercent":100.0,"knownUnitCount":1,"method":"complete_unit_sum","provenance":{"evidenceCount":0,"recordIds":["wattlas-record-gemunit-g100000800034"],"sourceIds":["gem-global-integrated-power-tracker"],"sourceTypes":["research_verified"],"valueKind":"reported"},"totalUnitCount":1},"operatingCapacityMw":54.0,"operatingCapacityMwByTechnology":{"solar":54.0},"plannedCapacityCoverage":{"coveragePercent":0.0,"knownUnitCount":0,"method":"unavailable","totalUnitCount":0},"plannedCapacityMw":0.0,"plannedCapacityMwByTechnology":{},"recordCount":1,"recordIds":["wattlas-record-gemunit-g100000800034"],"sourceIds":["gem-global-integrated-power-tracker"],"sourceUrl":"https://www.gem.wiki/Bangweulu_solar_farm","technologies":["solar"],"technologyMixMw":{"solar":54.0},"unitCount":1,"unitIds":["gem-unit-G100000800034"]},"type":"Feature"},{"geometry":{"coordinates":[28.4286,-15.5169],"type":"Point"},"id":"wattlas-plant-gemplant-l100000800229","properties":{"aliases":["--","Ngonye solar farm"],"canonicalAnchor":"gemplant:L100000800229","canonicalCountryKey":"ZM","capacityMw":34.0,"country":"ZM","externalIds":{"gemPlant":"L100000800229","gemUnit":"G100000800275"},"gemWikiUrl":"https://www.gem.wiki/Ngonye_solar_farm","geographyId":"ZM-6923714B17126467226495","id":"wattlas-plant-gemplant-l100000800229","lifecycleCounts":{"operational":1},"locationPrecision":"exact","name":"Ngonye solar farm","operatingCapacityCoverage":{"coveragePercent":100.0,"knownUnitCount":1,"method":"complete_unit_sum","provenance":{"evidenceCount":0,"recordIds":["wattlas-record-gemunit-g100000800275"],"sourceIds":["gem-global-integrated-power-tracker"],"sourceTypes":["research_verified"],"valueKind":"reported"},"totalUnitCount":1},"operatingCapacityMw":34.0,"operatingCapacityMwByTechnology":{"solar":34.0},"plannedCapacityCoverage":{"coveragePercent":0.0,"knownUnitCount":0,"method":"unavailable","totalUnitCount":0},"plannedCapacityMw":0.0,"plannedCapacityMwByTechnology":{},"recordCount":1,"recordIds":["wattlas-record-gemunit-g100000800275"],"sourceIds":["gem-global-integrated-power-tracker"],"sourceUrl":"https://www.gem.wiki/Ngonye_solar_farm","technologies":["solar"],"technologyMixMw":{"solar":34.0},"unitCount":1,"unitIds":["gem-unit-G100000800275"]},"type":"Feature"},{"geometry":{"coordinates":[30.3986,-13.1473],"type":"Point"},"id":"wattlas-plant-gemplant-l100000800287-8011a51aa0","properties":{"aliases":["1.0","2.0","Serenje solar farm"],"canonicalAnchor":"gemplant:L100000800287","canonicalCountryKey":"ZM","capacityMw":85.0,"country":"ZM","externalIdAliases":{"gemUnit":["G100000800339","G100000800340"]},"externalIds":{"gemPlant":"L100000800287","gemUnit":"G100000800340"},"gemWikiUrl":"https://www.gem.wiki/Serenje_solar_farm","geographyId":"ZM-6923714B60407914126357","id":"wattlas-plant-gemplant-l100000800287-8011a51aa0","lifecycleCounts":{"operational":1,"under_construction":1},"locationPrecision":"exact","name":"Serenje solar farm","operatingCapacityCoverage":{"coveragePercent":100.0,"knownUnitCount":1,"method":"complete_unit_sum","provenance":{"evidenceCount":0,"recordIds":["wattlas-record-gemunit-g100000800339"],"sourceIds":["gem-global-integrated-power-tracker"],"sourceTypes":["research_verified"],"valueKind":"reported"},"totalUnitCount":1},"operatingCapacityMw":25.0,"operatingCapacityMwByTechnology":{"solar":25.0},"plannedCapacityCoverage":{"coveragePercent":100.0,"knownUnitCount":1,"method":"complete_unit_sum","provenance":{"evidenceCount":0,"recordIds":["wattlas-record-gemunit-g100000800340"],"sourceIds":["gem-global-integrated-power-tracker"],"sourceTypes":["research_verified"],"valueKind":"reported"},"totalUnitCount":1},"plannedCapacityMw":60.0,"plannedCapacityMwByTechnology":{"solar":60.0},"recordCount":2,"recordIds":["wattlas-record-gemunit-g100000800339","wattlas-record-gemunit-g100000800340"],"sourceIds":["gem-global-integrated-power-tracker"],"sourceUrl":"https://www.gem.wiki/Serenje_solar_farm","technologies":["solar"],"technologyMixMw":{"solar":85.0},"unitCount":2,"unitIds":["gem-unit-G100000800339","gem-unit-G100000800340"]},"type":"Feature"},{"geometry":{"coordinates":[28.182,-12.6946],"type":"Point"},"id":"wattlas-plant-gemplant-l100000827765","properties":{"aliases":["--","Itimpi solar farm"],"canonicalAnchor":"gemplant:L100000827765","canonicalCountryKey":"ZM","capacityMw":64.0,"country":"ZM","externalIds":{"gemPlant":"L100000827765","gemUnit":"G100000831319"},"gemWikiUrl":"https://www.gem.wiki/Itimpi_solar_farm","geographyId":"ZM-6923714B61812757118010","id":"wattlas-plant-gemplant-l100000827765","lifecycleCounts":{"operational":1},"locationPrecision":"exact","name":"Itimpi solar farm","operatingCapacityCoverage":{"coveragePercent":100.0,"knownUnitCount":1,"method":"complete_unit_sum","provenance":{"evidenceCount":0,"recordIds":["wattlas-record-gemunit-g100000831319"],"sourceIds":["gem-global-integrated-power-tracker"],"sourceTypes":["research_verified"],"valueKind":"reported"},"totalUnitCount":1},"operatingCapacityMw":64.0,"operatingCapacityMwByTechnology":{"solar":64.0},"plannedCapacityCoverage":{"coveragePercent":0.0,"knownUnitCount":0,"method":"unavailable","totalUnitCount":0},"plannedCapacityMw":0.0,"plannedCapacityMwByTechnology":{},"recordCount":1,"recordIds":["wattlas-record-gemunit-g100000831319"],"sourceIds":["gem-global-integrated-power-tracker"],"sourceUrl":"https://www.gem.wiki/Itimpi_solar_farm","technologies":["solar"],"technologyMixMw":{"solar":64.0},"unitCount":1,"unitIds":["gem-unit-G100000831319"]},"type":"Feature"},{"geometry":{"coordinates":[28.2364,-12.8072],"type":"Point"},"id":"wattlas-plant-gemplant-l100000827767","properties":{"aliases":["1.0","2-4","Riverside Solar PV Plant"],"canonicalAnchor":"gemplant:L100000827767","canonicalCountryKey":"ZM","capacityMw":34.0,"country":"ZM","externalIdAliases":{"gemUnit":["G100000831324","G100001055643"]},"externalIds":{"gemPlant":"L100000827767","gemUnit":"G100001055643"},"gemWikiUrl":"https://www.gem.wiki/Riverside_Solar_PV_Plant","geographyId":"ZM-6923714B61812757118010","id":"wattlas-plant-gemplant-l100000827767","lifecycleCounts":{"operational":2},"locationPrecision":"exact","name":"Riverside Solar PV Plant","operatingCapacityCoverage":{"coveragePercent":100.0,"knownUnitCount":2,"method":"complete_unit_sum","provenance":{"evidenceCount":0,"recordIds":["wattlas-record-gemunit-g100000831324","wattlas-record-gemunit-g100001055643"],"sourceIds":["gem-global-integrated-power-tracker"],"sourceTypes":["research_verified"],"valueKind":"reported"},"totalUnitCount":2},"operatingCapacityMw":34.0,"operatingCapacityMwByTechnology":{"solar":34.0},"plannedCapacityCoverage":{"coveragePercent":0.0,"knownUnitCount":0,"method":"unavailable","totalUnitCount":0},"plannedCapacityMw":0.0,"plannedCapacityMwByTechnology":{},"recordCount":2,"recordIds":["wattlas-record-gemunit-g100000831324","wattlas-record-gemunit-g100001055643"],"sourceIds":["gem-global-integrated-power-tracker"],"sourceUrl":"https://www.gem.wiki/Riverside_Solar_PV_Plant","technologies":["solar"],"technologyMixMw":{"solar":34.0},"unitCount":2,"unitIds":["gem-unit-G100000831324","gem-unit-G100001055643"]},"type":"Feature"},{"geometry":{"coordinates":[31.048,-14.4108],"type":"Point"},"id":"wattlas-plant-gemplant-l100000900103","properties":{"aliases":["1.0","2.0","3.0","Unika wind farm"],"canonicalAnchor":"gemplant:L100000900103","canonicalCountryKey":"ZM","capacityMw":500.0,"country":"ZM","externalIdAliases":{"gemUnit":["G100000900135","G100000927439","G100000927440"]},"externalIds":{"gemPlant":"L100000900103","gemUnit":"G100000927440"},"gemWikiUrl":"https://www.gem.wiki/Unika_wind_farm","geographyId":"ZM-6923714B50523150920038","id":"wattlas-plant-gemplant-l100000900103","lifecycleCounts":{"announced":3},"locationPrecision":"exact","name":"Unika wind farm","operatingCapacityCoverage":{"coveragePercent":0.0,"knownUnitCount":0,"method":"unavailable","totalUnitCount":0},"operatingCapacityMw":0.0,"operatingCapacityMwByTechnology":{},"plannedCapacityCoverage":{"coveragePercent":100.0,"knownUnitCount":3,"method":"complete_unit_sum","provenance":{"evidenceCount":0,"recordIds":["wattlas-record-gemunit-g100000900135","wattlas-record-gemunit-g100000927439","wattlas-record-gemunit-g100000927440"],"sourceIds":["gem-global-integrated-power-tracker"],"sourceTypes":["research_verified"],"valueKind":"reported"},"totalUnitCount":3},"plannedCapacityMw":500.0,"plannedCapacityMwByTechnology":{"wind":500.0},"recordCount":3,"recordIds":["wattlas-record-gemunit-g100000900135","wattlas-record-gemunit-g100000927439","wattlas-record-gemunit-g100000927440"],"sourceIds":["gem-global-integrated-power-tracker"],"sourceUrl":"https://www.gem.wiki/Unika_wind_farm","technologies":["wind"],"technologyMixMw":{"wind":500.0},"unitCount":3,"unitIds":["gem-unit-G100000900135","gem-unit-G100000927439","gem-unit-G100000927440"]},"type":"Feature"},{"geometry":{"coordinates":[27.959329,-15.583163],"type":"Point"},"id":"wattlas-plant-gemplant-l100001047473","properties":{"aliases":["--","Kafue power station"],"canonicalAnchor":"gemplant:L100001047473","canonicalCountryKey":"ZM","capacityMw":40.0,"country":"ZM","externalIds":{"gemPlant":"L100001047473","gemUnit":"G100001054046"},"gemWikiUrl":"https://www.gem.wiki/Kafue_power_station","geographyId":"ZM-6923714B60407914126357","id":"wattlas-plant-gemplant-l100001047473","lifecycleCounts":{"announced":1},"locationPrecision":"exact","name":"Kafue power station","operatingCapacityCoverage":{"coveragePercent":0.0,"knownUnitCount":0,"method":"unavailable","totalUnitCount":0},"operatingCapacityMw":0.0,"operatingCapacityMwByTechnology":{},"plannedCapacityCoverage":{"coveragePercent":100.0,"knownUnitCount":1,"method":"complete_unit_sum","provenance":{"evidenceCount":0,"recordIds":["wattlas-record-gemunit-g100001054046"],"sourceIds":["gem-global-integrated-power-tracker"],"sourceTypes":["research_verified"],"valueKind":"reported"},"totalUnitCount":1},"plannedCapacityMw":40.0,"plannedCapacityMwByTechnology":{"biomass":40.0},"recordCount":1,"recordIds":["wattlas-record-gemunit-g100001054046"],"sourceIds":["gem-global-integrated-power-tracker"],"sourceUrl":"https://www.gem.wiki/Kafue_power_station","technologies":["biomass"],"technologyMixMw":{"biomass":40.0},"unitCount":1,"unitIds":["gem-unit-G100001054046"]},"type":"Feature"},{"geometry":{"coordinates":[28.5412,-13.2991],"type":"Point"},"id":"wattlas-plant-gemplant-l100001064993","properties":{"aliases":["--","Copperbelt Province solar project"],"canonicalAnchor":"gemplant:L100001064993","canonicalCountryKey":"ZM","capacityMw":4.6,"country":"ZM","externalIds":{"gemPlant":"L100001064993","gemUnit":"G100001074779"},"gemWikiUrl":"https://www.gem.wiki/Copperbelt_Province_solar_project","geographyId":"ZM-6923714B61812757118010","id":"wattlas-plant-gemplant-l100001064993","lifecycleCounts":{"operational":1},"locationPrecision":"exact","name":"Copperbelt Province solar project","operatingCapacityCoverage":{"coveragePercent":100.0,"knownUnitCount":1,"method":"complete_unit_sum","provenance":{"evidenceCount":0,"recordIds":["wattlas-record-gemunit-g100001074779"],"sourceIds":["gem-global-integrated-power-tracker"],"sourceTypes":["research_verified"],"valueKind":"reported"},"totalUnitCount":1},"operatingCapacityMw":4.6,"operatingCapacityMwByTechnology":{"solar":4.6},"plannedCapacityCoverage":{"coveragePercent":0.0,"knownUnitCount":0,"method":"unavailable","totalUnitCount":0},"plannedCapacityMw":0.0,"plannedCapacityMwByTechnology":{},"recordCount":1,"recordIds":["wattlas-record-gemunit-g100001074779"],"sourceIds":["gem-global-integrated-power-tracker"],"sourceUrl":"https://www.gem.wiki/Copperbelt_Province_solar_project","technologies":["solar"],"technologyMixMw":{"solar":4.6},"unitCount":1,"unitIds":["gem-unit-G100001074779"]},"type":"Feature"},{"geometry":{"coordinates":[28.0359,-15.7769],"type":"Point"},"id":"wattlas-plant-gemplant-l100001064994","properties":{"aliases":["--","Southern Province solar project"],"canonicalAnchor":"gemplant:L100001064994","canonicalCountryKey":"ZM","capacityMw":2.3,"country":"ZM","externalIds":{"gemPlant":"L100001064994","gemUnit":"G100001074780"},"gemWikiUrl":"https://www.gem.wiki/Southern_Province_solar_project","geographyId":"ZM-6923714B17126467226495","id":"wattlas-plant-gemplant-l100001064994","lifecycleCounts":{"operational":1},"locationPrecision":"exact","name":"Southern Province solar project","operatingCapacityCoverage":{"coveragePercent":100.0,"knownUnitCount":1,"method":"complete_unit_sum","provenance":{"evidenceCount":0,"recordIds":["wattlas-record-gemunit-g100001074780"],"sourceIds":["gem-global-integrated-power-tracker"],"sourceTypes":["research_verified"],"valueKind":"reported"},"totalUnitCount":1},"operatingCapacityMw":2.3,"operatingCapacityMwByTechnology":{"solar":2.3},"plannedCapacityCoverage":{"coveragePercent":0.0,"knownUnitCount":0,"method":"unavailable","totalUnitCount":0},"plannedCapacityMw":0.0,"plannedCapacityMwByTechnology":{},"recordCount":1,"recordIds":["wattlas-record-gemunit-g100001074780"],"sourceIds":["gem-global-integrated-power-tracker"],"sourceUrl":"https://www.gem.wiki/Southern_Province_solar_project","technologies":["solar"],"technologyMixMw":{"solar":2.3},"unitCount":1,"unitIds":["gem-unit-G100001074780"]},"type":"Feature"},{"geometry":{"coordinates":[28.821,-14.6989],"type":"Point"},"id":"wattlas-plant-gemplant-l100001081830","properties":{"aliases":["Mulungushi hydroelectric plant"],"canonicalAnchor":"gemplant:L100001081830","canonicalCountryKey":"ZM","capacityMw":30.0,"country":"ZM","externalIds":{"gemPlant":"L100001081830","gemUnit":"G100001092126"},"gemWikiUrl":"https://www.gem.wiki/Mulungushi_hydroelectric_plant","geographyId":"ZM-6923714B60407914126357","id":"wattlas-plant-gemplant-l100001081830","lifecycleCounts":{"operational":1},"locationPrecision":"exact","name":"Mulungushi hydroelectric plant","operatingCapacityCoverage":{"coveragePercent":100.0,"knownUnitCount":1,"method":"complete_unit_sum","provenance":{"evidenceCount":0,"recordIds":["wattlas-record-gemunit-g100001092126"],"sourceIds":["gem-global-integrated-power-tracker"],"sourceTypes":["research_verified"],"valueKind":"reported"},"totalUnitCount":1},"operatingCapacityMw":30.0,"operatingCapacityMwByTechnology":{"hydro":30.0},"plannedCapacityCoverage":{"coveragePercent":0.0,"knownUnitCount":0,"method":"unavailable","totalUnitCount":0},"plannedCapacityMw":0.0,"plannedCapacityMwByTechnology":{},"recordCount":1,"recordIds":["wattlas-record-gemunit-g100001092126"],"sourceIds":["gem-global-integrated-power-tracker"],"sourceUrl":"https://www.gem.wiki/Mulungushi_hydroelectric_plant","technologies":["hydro"],"technologyMixMw":{"hydro":30.0},"unitCount":1,"unitIds":["gem-unit-G100001092126"]},"type":"Feature"},{"geometry":{"coordinates":[28.472024,-15.853238],"type":"Point"},"id":"wattlas-plant-osm-node-7979139377","properties":{"aliases":["Mapped power plant · OSM 7979139377"],"canonicalAnchor":"osm:node/7979139377","canonicalCountryKey":"ZM","capacityMw":900.0,"country":"ZM","externalIds":{"osm":"node/7979139377"},"geographyId":"ZM-6923714B17126467226495","id":"wattlas-plant-osm-node-7979139377","lifecycleCounts":{"operational":1},"locationPrecision":"exact","name":"Mapped power plant · OSM 7979139377","operatingCapacityCoverage":{"coveragePercent":100.0,"knownUnitCount":0,"method":"plant_aggregate","provenance":{"evidenceCount":0,"recordIds":["wattlas-record-osm-node-7979139377"],"sourceIds":["openstreetmap-power"],"sourceTypes":["community_mapped"],"valueKind":"reported"},"totalUnitCount":0},"operatingCapacityMw":900.0,"operatingCapacityMwByTechnology":{"hydro":900.0},"plannedCapacityCoverage":{"coveragePercent":0.0,"knownUnitCount":0,"method":"unavailable","totalUnitCount":0},"plannedCapacityMw":0.0,"plannedCapacityMwByTechnology":{},"recordCount":1,"recordIds":["wattlas-record-osm-node-7979139377"],"sourceIds":["openstreetmap-power"],"sourceUrl":"https://www.openstreetmap.org/node/7979139377","technologies":["hydro"],"technologyMixMw":{"hydro":900.0},"unitCount":0,"unitIds":[]},"type":"Feature"},{"geometry":{"coordinates":[28.806173,-10.710648],"type":"Point"},"id":"wattlas-plant-osm-way-1081672379","properties":{"aliases":["Musando Falls II"],"canonicalAnchor":"osm:way/1081672379","canonicalCountryKey":"ZM","capacityMw":5.0,"country":"ZM","externalIds":{"osm":"way/1081672379"},"geographyId":"ZM-6923714B94361964796426","id":"wattlas-plant-osm-way-1081672379","lifecycleCounts":{"operational":1},"locationPrecision":"exact","name":"Musando Falls II","operatingCapacityCoverage":{"coveragePercent":100.0,"knownUnitCount":0,"method":"plant_aggregate","provenance":{"evidenceCount":0,"recordIds":["wattlas-record-osm-way-1081672379"],"sourceIds":["openstreetmap-power"],"sourceTypes":["community_mapped"],"valueKind":"reported"},"totalUnitCount":0},"operatingCapacityMw":5.0,"operatingCapacityMwByTechnology":{"hydro":5.0},"plannedCapacityCoverage":{"coveragePercent":0.0,"knownUnitCount":0,"method":"unavailable","totalUnitCount":0},"plannedCapacityMw":0.0,"plannedCapacityMwByTechnology":{},"recordCount":1,"recordIds":["wattlas-record-osm-way-1081672379"],"sourceIds":["openstreetmap-power"],"sourceUrl":"https://www.openstreetmap.org/way/1081672379","technologies":["hydro"],"technologyMixMw":{"hydro":5.0},"unitCount":0,"unitIds":[]},"type":"Feature"},{"geometry":{"coordinates":[27.832238,-12.382433],"type":"Point"},"id":"wattlas-plant-osm-way-1112054219","properties":{"aliases":["Mapped power plant · OSM 1112054219"],"canonicalAnchor":"osm:way/1112054219","canonicalCountryKey":"ZM","capacityMw":0.0,"country":"ZM","externalIds":{"osm":"way/1112054219"},"geographyId":"ZM-6923714B61812757118010","id":"wattlas-plant-osm-way-1112054219","lifecycleCounts":{"operational":1},"locationPrecision":"exact","name":"Mapped power plant · OSM 1112054219","operatingCapacityCoverage":{"coveragePercent":0.0,"knownUnitCount":0,"method":"unavailable","totalUnitCount":0},"operatingCapacityMw":0.0,"operatingCapacityMwByTechnology":{},"plannedCapacityCoverage":{"coveragePercent":0.0,"knownUnitCount":0,"method":"unavailable","totalUnitCount":0},"plannedCapacityMw":0.0,"plannedCapacityMwByTechnology":{},"recordCount":1,"recordIds":["wattlas-record-osm-way-1112054219"],"sourceIds":["openstreetmap-power"],"sourceUrl":"https://www.openstreetmap.org/way/1112054219","technologies":["other"],"technologyMixMw":{"other":0.0},"unitCount":0,"unitIds":[]},"type":"Feature"},{"geometry":{"coordinates":[25.86474,-12.251448],"type":"Point"},"id":"wattlas-plant-osm-way-1112354530","properties":{"aliases":["Lumwana Gensets"],"canonicalAnchor":"osm:way/1112354530","canonicalCountryKey":"ZM","capacityMw":0.0,"country":"ZM","externalIds":{"osm":"way/1112354530"},"geographyId":"ZM-6923714B68349750823816","id":"wattlas-plant-osm-way-1112354530","lifecycleCounts":{"operational":1},"locationPrecision":"exact","name":"Lumwana Gensets","operatingCapacityCoverage":{"coveragePercent":0.0,"knownUnitCount":0,"method":"unavailable","totalUnitCount":0},"operatingCapacityMw":0.0,"operatingCapacityMwByTechnology":{},"plannedCapacityCoverage":{"coveragePercent":0.0,"knownUnitCount":0,"method":"unavailable","totalUnitCount":0},"plannedCapacityMw":0.0,"plannedCapacityMwByTechnology":{},"recordCount":1,"recordIds":["wattlas-record-osm-way-1112354530"],"sourceIds":["openstreetmap-power"],"sourceUrl":"https://www.openstreetmap.org/way/1112354530","technologies":["other"],"technologyMixMw":{"other":0.0},"unitCount":0,"unitIds":[]},"type":"Feature"},{"geometry":{"coordinates":[25.298472,-12.28047],"type":"Point"},"id":"wattlas-plant-osm-way-1112360676","properties":{"aliases":["Sentinel Mine Gensets"],"canonicalAnchor":"osm:way/1112360676","canonicalCountryKey":"ZM","capacityMw":0.0,"country":"ZM","externalIds":{"osm":"way/1112360676"},"geographyId":"ZM-6923714B68349750823816","id":"wattlas-plant-osm-way-1112360676","lifecycleCounts":{"operational":1},"locationPrecision":"exact","name":"Sentinel Mine Gensets","operatingCapacityCoverage":{"coveragePercent":0.0,"knownUnitCount":0,"method":"unavailable","totalUnitCount":0},"operatingCapacityMw":0.0,"operatingCapacityMwByTechnology":{},"plannedCapacityCoverage":{"coveragePercent":0.0,"knownUnitCount":0,"method":"unavailable","totalUnitCount":0},"plannedCapacityMw":0.0,"plannedCapacityMwByTechnology":{},"recordCount":1,"recordIds":["wattlas-record-osm-way-1112360676"],"sourceIds":["openstreetmap-power"],"sourceUrl":"https://www.openstreetmap.org/way/1112360676","technologies":["other"],"technologyMixMw":{"other":0.0},"unitCount":0,"unitIds":[]},"type":"Feature"},{"geometry":{"coordinates":[28.23704,-12.807709],"type":"Point"},"id":"wattlas-plant-osm-way-1148408792","properties":{"aliases":["Riverside Pilot Solar Farm"],"canonicalAnchor":"osm:way/1148408792","canonicalCountryKey":"ZM","capacityMw":1.0,"country":"ZM","externalIds":{"osm":"way/1148408792"},"geographyId":"ZM-6923714B61812757118010","id":"wattlas-plant-osm-way-1148408792","lifecycleCounts":{"operational":1},"locationPrecision":"exact","name":"Riverside Pilot Solar Farm","operatingCapacityCoverage":{"coveragePercent":100.0,"knownUnitCount":0,"method":"plant_aggregate","provenance":{"evidenceCount":0,"recordIds":["wattlas-record-osm-way-1148408792"],"sourceIds":["openstreetmap-power"],"sourceTypes":["community_mapped"],"valueKind":"reported"},"totalUnitCount":0},"operatingCapacityMw":1.0,"operatingCapacityMwByTechnology":{"solar":1.0},"plannedCapacityCoverage":{"coveragePercent":0.0,"knownUnitCount":0,"method":"unavailable","totalUnitCount":0},"plannedCapacityMw":0.0,"plannedCapacityMwByTechnology":{},"recordCount":1,"recordIds":["wattlas-record-osm-way-1148408792"],"sourceIds":["openstreetmap-power"],"sourceUrl":"https://www.openstreetmap.org/way/1148408792","technologies":["solar"],"technologyMixMw":{"solar":1.0},"unitCount":0,"unitIds":[]},"type":"Feature"},{"geometry":{"coordinates":[28.10637,-12.656266],"type":"Point"},"id":"wattlas-plant-osm-way-1148977407","properties":{"aliases":["Mapped power plant · OSM 1148977407"],"canonicalAnchor":"osm:way/1148977407","canonicalCountryKey":"ZM","capacityMw":0.0,"country":"ZM","externalIds":{"osm":"way/1148977407"},"geographyId":"ZM-6923714B61812757118010","id":"wattlas-plant-osm-way-1148977407","lifecycleCounts":{"operational":1},"locationPrecision":"exact","name":"Mapped power plant · OSM 1148977407","operatingCapacityCoverage":{"coveragePercent":0.0,"knownUnitCount":0,"method":"unavailable","totalUnitCount":0},"operatingCapacityMw":0.0,"operatingCapacityMwByTechnology":{},"plannedCapacityCoverage":{"coveragePercent":0.0,"knownUnitCount":0,"method":"unavailable","totalUnitCount":0},"plannedCapacityMw":0.0,"plannedCapacityMwByTechnology":{},"recordCount":1,"recordIds":["wattlas-record-osm-way-1148977407"],"sourceIds":["openstreetmap-power"],"sourceUrl":"https://www.openstreetmap.org/way/1148977407","technologies":["other"],"technologyMixMw":{"other":0.0},"unitCount":0,"unitIds":[]},"type":"Feature"},{"geometry":{"coordinates":[28.784055,-13.026946],"type":"Point"},"id":"wattlas-plant-osm-way-1164673172","properties":{"aliases":["Dangote Cement"],"canonicalAnchor":"osm:way/1164673172","canonicalCountryKey":"ZM","capacityMw":30.0,"country":"ZM","externalIds":{"osm":"way/1164673172"},"geographyId":"ZM-6923714B61812757118010","id":"wattlas-plant-osm-way-1164673172","lifecycleCounts":{"operational":1},"locationPrecision":"exact","name":"Dangote Cement","operatingCapacityCoverage":{"coveragePercent":100.0,"knownUnitCount":0,"method":"plant_aggregate","provenance":{"evidenceCount":0,"recordIds":["wattlas-record-osm-way-1164673172"],"sourceIds":["openstreetmap-power"],"sourceTypes":["community_mapped"],"valueKind":"reported"},"totalUnitCount":0},"operatingCapacityMw":30.0,"operatingCapacityMwByTechnology":{"coal":30.0},"plannedCapacityCoverage":{"coveragePercent":0.0,"knownUnitCount":0,"method":"unavailable","totalUnitCount":0},"plannedCapacityMw":0.0,"plannedCapacityMwByTechnology":{},"recordCount":1,"recordIds":["wattlas-record-osm-way-1164673172"],"sourceIds":["openstreetmap-power"],"sourceUrl":"https://www.openstreetmap.org/way/1164673172","technologies":["coal"],"technologyMixMw":{"coal":30.0},"unitCount":0,"unitIds":[]},"type":"Feature"},{"geometry":{"coordinates":[28.186712,-12.69561],"type":"Point"},"id":"wattlas-plant-osm-way-1208861263","properties":{"aliases":["Itimpi"],"canonicalAnchor":"osm:way/1208861263","canonicalCountryKey":"ZM","capacityMw":196.0,"country":"ZM","externalIds":{"osm":"way/1208861263"},"geographyId":"ZM-6923714B61812757118010","id":"wattlas-plant-osm-way-1208861263","lifecycleCounts":{"operational":1},"locationPrecision":"exact","name":"Itimpi","operatingCapacityCoverage":{"coveragePercent":100.0,"knownUnitCount":0,"method":"plant_aggregate","provenance":{"evidenceCount":0,"recordIds":["wattlas-record-osm-way-1208861263"],"sourceIds":["openstreetmap-power"],"sourceTypes":["community_mapped"],"valueKind":"reported"},"totalUnitCount":0},"operatingCapacityMw":196.0,"operatingCapacityMwByTechnology":{"solar":196.0},"plannedCapacityCoverage":{"coveragePercent":0.0,"knownUnitCount":0,"method":"unavailable","totalUnitCount":0},"plannedCapacityMw":0.0,"plannedCapacityMwByTechnology":{},"recordCount":1,"recordIds":["wattlas-record-osm-way-1208861263"],"sourceIds":["openstreetmap-power"],"sourceUrl":"https://www.openstreetmap.org/way/1208861263","technologies":["solar"],"technologyMixMw":{"solar":196.0},"unitCount":0,"unitIds":[]},"type":"Feature"},{"geometry":{"coordinates":[28.23159,-12.799742],"type":"Point"},"id":"wattlas-plant-osm-way-1263409159","properties":{"aliases":["Riverside Solar Farm"],"canonicalAnchor":"osm:way/1263409159","canonicalCountryKey":"ZM","capacityMw":33.0,"country":"ZM","externalIds":{"osm":"way/1263409159"},"geographyId":"ZM-6923714B61812757118010","id":"wattlas-plant-osm-way-1263409159","lifecycleCounts":{"operational":1},"locationPrecision":"exact","name":"Riverside Solar Farm","operatingCapacityCoverage":{"coveragePercent":100.0,"knownUnitCount":0,"method":"plant_aggregate","provenance":{"evidenceCount":0,"recordIds":["wattlas-record-osm-way-1263409159"],"sourceIds":["openstreetmap-power"],"sourceTypes":["community_mapped"],"valueKind":"reported"},"totalUnitCount":0},"operatingCapacityMw":33.0,"operatingCapacityMwByTechnology":{"solar":33.0},"plannedCapacityCoverage":{"coveragePercent":0.0,"knownUnitCount":0,"method":"unavailable","totalUnitCount":0},"plannedCapacityMw":0.0,"plannedCapacityMwByTechnology":{},"recordCount":1,"recordIds":["wattlas-record-osm-way-1263409159"],"sourceIds":["openstreetmap-power"],"sourceUrl":"https://www.openstreetmap.org/way/1263409159","technologies":["solar"],"technologyMixMw":{"solar":33.0},"unitCount":0,"unitIds":[]},"type":"Feature"},{"geometry":{"coordinates":[27.778107,-15.831339],"type":"Point"},"id":"wattlas-plant-osm-way-1418032271","properties":{"aliases":["Nakambala power station"],"canonicalAnchor":"osm:way/1418032271","canonicalCountryKey":"ZM","capacityMw":40.0,"country":"ZM","externalIds":{"osm":"way/1418032271"},"geographyId":"ZM-6923714B34072001548912","id":"wattlas-plant-osm-way-1418032271","lifecycleCounts":{"operational":1},"locationPrecision":"exact","name":"Nakambala power station","operatingCapacityCoverage":{"coveragePercent":100.0,"knownUnitCount":0,"method":"plant_aggregate","provenance":{"evidenceCount":0,"recordIds":["wattlas-record-osm-way-1418032271"],"sourceIds":["openstreetmap-power"],"sourceTypes":["community_mapped"],"valueKind":"reported"},"totalUnitCount":0},"operatingCapacityMw":40.0,"operatingCapacityMwByTechnology":{"biomass":40.0},"plannedCapacityCoverage":{"coveragePercent":0.0,"knownUnitCount":0,"method":"unavailable","totalUnitCount":0},"plannedCapacityMw":0.0,"plannedCapacityMwByTechnology":{},"recordCount":1,"recordIds":["wattlas-record-osm-way-1418032271"],"sourceIds":["openstreetmap-power"],"sourceUrl":"https://www.openstreetmap.org/way/1418032271","technologies":["biomass"],"technologyMixMw":{"biomass":40.0},"unitCount":0,"unitIds":[]},"type":"Feature"},{"geometry":{"coordinates":[28.586945,-12.979332],"type":"Point"},"id":"wattlas-plant-osm-way-1442146965","properties":{"aliases":["Lifesong Solar Plant"],"canonicalAnchor":"osm:way/1442146965","canonicalCountryKey":"ZM","capacityMw":16.0,"country":"ZM","externalIds":{"osm":"way/1442146965"},"geographyId":"ZM-6923714B61812757118010","id":"wattlas-plant-osm-way-1442146965","lifecycleCounts":{"operational":1},"locationPrecision":"exact","name":"Lifesong Solar Plant","operatingCapacityCoverage":{"coveragePercent":100.0,"knownUnitCount":0,"method":"plant_aggregate","provenance":{"evidenceCount":0,"recordIds":["wattlas-record-osm-way-1442146965"],"sourceIds":["openstreetmap-power"],"sourceTypes":["community_mapped"],"valueKind":"reported"},"totalUnitCount":0},"operatingCapacityMw":16.0,"operatingCapacityMwByTechnology":{"solar":16.0},"plannedCapacityCoverage":{"coveragePercent":0.0,"knownUnitCount":0,"method":"unavailable","totalUnitCount":0},"plannedCapacityMw":0.0,"plannedCapacityMwByTechnology":{},"recordCount":1,"recordIds":["wattlas-record-osm-way-1442146965"],"sourceIds":["openstreetmap-power"],"sourceUrl":"https://www.openstreetmap.org/way/1442146965","technologies":["solar"],"technologyMixMw":{"solar":16.0},"unitCount":0,"unitIds":[]},"type":"Feature"},{"geometry":{"coordinates":[28.593276,-14.611115],"type":"Point"},"id":"wattlas-plant-osm-way-1442160345","properties":{"aliases":["Chisamba"],"canonicalAnchor":"osm:way/1442160345","canonicalCountryKey":"ZM","capacityMw":100.0,"country":"ZM","externalIds":{"osm":"way/1442160345"},"geographyId":"ZM-6923714B60407914126357","id":"wattlas-plant-osm-way-1442160345","lifecycleCounts":{"operational":1},"locationPrecision":"exact","name":"Chisamba","operatingCapacityCoverage":{"coveragePercent":100.0,"knownUnitCount":0,"method":"plant_aggregate","provenance":{"evidenceCount":0,"recordIds":["wattlas-record-osm-way-1442160345"],"sourceIds":["openstreetmap-power"],"sourceTypes":["community_mapped"],"valueKind":"reported"},"totalUnitCount":0},"operatingCapacityMw":100.0,"operatingCapacityMwByTechnology":{"solar":100.0},"plannedCapacityCoverage":{"coveragePercent":0.0,"knownUnitCount":0,"method":"unavailable","totalUnitCount":0},"plannedCapacityMw":0.0,"plannedCapacityMwByTechnology":{},"recordCount":1,"recordIds":["wattlas-record-osm-way-1442160345"],"sourceIds":["openstreetmap-power"],"sourceUrl":"https://www.openstreetmap.org/way/1442160345","technologies":["solar"],"technologyMixMw":{"solar":100.0},"unitCount":0,"unitIds":[]},"type":"Feature"},{"geometry":{"coordinates":[28.930444,-11.239822],"type":"Point"},"id":"wattlas-plant-osm-way-1510572941","properties":{"aliases":["Mansa Solar Farm"],"canonicalAnchor":"osm:way/1510572941","canonicalCountryKey":"ZM","capacityMw":50.0,"country":"ZM","externalIds":{"osm":"way/1510572941"},"geographyId":"ZM-6923714B94361964796426","id":"wattlas-plant-osm-way-1510572941","lifecycleCounts":{"operational":1},"locationPrecision":"exact","name":"Mansa Solar Farm","operatingCapacityCoverage":{"coveragePercent":100.0,"knownUnitCount":0,"method":"plant_aggregate","provenance":{"evidenceCount":0,"recordIds":["wattlas-record-osm-way-1510572941"],"sourceIds":["openstreetmap-power"],"sourceTypes":["community_mapped"],"valueKind":"reported"},"totalUnitCount":0},"operatingCapacityMw":50.0,"operatingCapacityMwByTechnology":{"solar":50.0},"plannedCapacityCoverage":{"coveragePercent":0.0,"knownUnitCount":0,"method":"unavailable","totalUnitCount":0},"plannedCapacityMw":0.0,"plannedCapacityMwByTechnology":{},"recordCount":1,"recordIds":["wattlas-record-osm-way-1510572941"],"sourceIds":["openstreetmap-power"],"sourceUrl":"https://www.openstreetmap.org/way/1510572941","technologies":["solar"],"technologyMixMw":{"solar":50.0},"unitCount":0,"unitIds":[]},"type":"Feature"},{"geometry":{"coordinates":[28.842523,-14.738804],"type":"Point"},"id":"wattlas-plant-osm-way-251997955","properties":{"aliases":["Mulungushi Power Station"],"canonicalAnchor":"osm:way/251997955","canonicalCountryKey":"ZM","capacityMw":32.0,"country":"ZM","externalIds":{"osm":"way/251997955"},"geographyId":"ZM-6923714B60407914126357","id":"wattlas-plant-osm-way-251997955","lifecycleCounts":{"operational":1},"locationPrecision":"exact","name":"Mulungushi Power Station","operatingCapacityCoverage":{"coveragePercent":100.0,"knownUnitCount":0,"method":"plant_aggregate","provenance":{"evidenceCount":0,"recordIds":["wattlas-record-osm-way-251997955"],"sourceIds":["openstreetmap-power"],"sourceTypes":["community_mapped"],"valueKind":"reported"},"totalUnitCount":0},"operatingCapacityMw":32.0,"operatingCapacityMwByTechnology":{"hydro":32.0},"plannedCapacityCoverage":{"coveragePercent":0.0,"knownUnitCount":0,"method":"unavailable","totalUnitCount":0},"plannedCapacityMw":0.0,"plannedCapacityMwByTechnology":{},"recordCount":1,"recordIds":["wattlas-record-osm-way-251997955"],"sourceIds":["openstreetmap-power"],"sourceUrl":"https://www.openstreetmap.org/way/251997955","technologies":["hydro"],"technologyMixMw":{"hydro":32.0},"unitCount":0,"unitIds":[]},"type":"Feature"},{"geometry":{"coordinates":[29.120506,-14.510903],"type":"Point"},"id":"wattlas-plant-osm-way-252005997","properties":{"aliases":["Lunsemfwa Power Station"],"canonicalAnchor":"osm:way/252005997","canonicalCountryKey":"ZM","capacityMw":24.0,"country":"ZM","externalIds":{"osm":"way/252005997"},"geographyId":"ZM-6923714B60407914126357","id":"wattlas-plant-osm-way-252005997","lifecycleCounts":{"operational":1},"locationPrecision":"exact","name":"Lunsemfwa Power Station","operatingCapacityCoverage":{"coveragePercent":100.0,"knownUnitCount":0,"method":"plant_aggregate","provenance":{"evidenceCount":0,"recordIds":["wattlas-record-osm-way-252005997"],"sourceIds":["openstreetmap-power"],"sourceTypes":["community_mapped"],"valueKind":"reported"},"totalUnitCount":0},"operatingCapacityMw":24.0,"operatingCapacityMwByTechnology":{"hydro":24.0},"plannedCapacityCoverage":{"coveragePercent":0.0,"knownUnitCount":0,"method":"unavailable","totalUnitCount":0},"plannedCapacityMw":0.0,"plannedCapacityMwByTechnology":{},"recordCount":1,"recordIds":["wattlas-record-osm-way-252005997"],"sourceIds":["openstreetmap-power"],"sourceUrl":"https://www.openstreetmap.org/way/252005997","technologies":["hydro"],"technologyMixMw":{"hydro":24.0},"unitCount":0,"unitIds":[]},"type":"Feature"},{"geometry":{"coordinates":[28.472648,-15.847933],"type":"Point"},"id":"wattlas-plant-osm-way-285901170","properties":{"aliases":["Kafue Gorge Upper Power Station"],"canonicalAnchor":"osm:way/285901170","canonicalCountryKey":"ZM","capacityMw":990.0,"country":"ZM","externalIds":{"osm":"way/285901170"},"geographyId":"ZM-6923714B17126467226495","id":"wattlas-plant-osm-way-285901170","lifecycleCounts":{"operational":1},"locationPrecision":"exact","name":"Kafue Gorge Upper Power Station","operatingCapacityCoverage":{"coveragePercent":100.0,"knownUnitCount":0,"method":"plant_aggregate","provenance":{"evidenceCount":0,"recordIds":["wattlas-record-osm-way-285901170"],"sourceIds":["openstreetmap-power"],"sourceTypes":["community_mapped"],"valueKind":"reported"},"totalUnitCount":0},"operatingCapacityMw":990.0,"operatingCapacityMwByTechnology":{"hydro":990.0},"plannedCapacityCoverage":{"coveragePercent":0.0,"knownUnitCount":0,"method":"unavailable","totalUnitCount":0},"plannedCapacityMw":0.0,"plannedCapacityMwByTechnology":{},"recordCount":1,"recordIds":["wattlas-record-osm-way-285901170"],"sourceIds":["openstreetmap-power"],"sourceUrl":"https://www.openstreetmap.org/way/285901170","technologies":["hydro"],"technologyMixMw":{"hydro":990.0},"unitCount":0,"unitIds":[]},"type":"Feature"},{"geometry":{"coordinates":[28.806444,-10.710972],"type":"Point"},"id":"wattlas-plant-osm-way-316780107","properties":{"aliases":["Musonda Falls I"],"canonicalAnchor":"osm:way/316780107","canonicalCountryKey":"ZM","capacityMw":5.0,"country":"ZM","externalIds":{"osm":"way/316780107"},"geographyId":"ZM-6923714B94361964796426","id":"wattlas-plant-osm-way-316780107","lifecycleCounts":{"operational":1},"locationPrecision":"exact","name":"Musonda Falls I","operatingCapacityCoverage":{"coveragePercent":100.0,"knownUnitCount":0,"method":"plant_aggregate","provenance":{"evidenceCount":0,"recordIds":["wattlas-record-osm-way-316780107"],"sourceIds":["openstreetmap-power"],"sourceTypes":["community_mapped"],"valueKind":"reported"},"totalUnitCount":0},"operatingCapacityMw":5.0,"operatingCapacityMwByTechnology":{"hydro":5.0},"plannedCapacityCoverage":{"coveragePercent":0.0,"knownUnitCount":0,"method":"unavailable","totalUnitCount":0},"plannedCapacityMw":0.0,"plannedCapacityMwByTechnology":{},"recordCount":1,"recordIds":["wattlas-record-osm-way-316780107"],"sourceIds":["openstreetmap-power"],"sourceUrl":"https://www.openstreetmap.org/way/316780107","technologies":["hydro"],"technologyMixMw":{"hydro":5.0},"unitCount":0,"unitIds":[]},"type":"Feature"},{"geometry":{"coordinates":[31.018945,-13.346439],"type":"Point"},"id":"wattlas-plant-osm-way-331516078","properties":{"aliases":["Lusiwasi Lower Hydroelectric Power Station"],"canonicalAnchor":"osm:way/331516078","canonicalCountryKey":"ZM","capacityMw":86.0,"country":"ZM","externalIds":{"osm":"way/331516078"},"geographyId":"ZM-6923714B60407914126357","id":"wattlas-plant-osm-way-331516078","lifecycleCounts":{"operational":1},"locationPrecision":"exact","name":"Lusiwasi Lower Hydroelectric Power Station","operatingCapacityCoverage":{"coveragePercent":100.0,"knownUnitCount":0,"method":"plant_aggregate","provenance":{"evidenceCount":0,"recordIds":["wattlas-record-osm-way-331516078"],"sourceIds":["openstreetmap-power"],"sourceTypes":["community_mapped"],"valueKind":"reported"},"totalUnitCount":0},"operatingCapacityMw":86.0,"operatingCapacityMwByTechnology":{"hydro":86.0},"plannedCapacityCoverage":{"coveragePercent":0.0,"knownUnitCount":0,"method":"unavailable","totalUnitCount":0},"plannedCapacityMw":0.0,"plannedCapacityMwByTechnology":{},"recordCount":1,"recordIds":["wattlas-record-osm-way-331516078"],"sourceIds":["openstreetmap-power"],"sourceUrl":"https://www.openstreetmap.org/way/331516078","technologies":["hydro"],"technologyMixMw":{"hydro":86.0},"unitCount":0,"unitIds":[]},"type":"Feature"},{"geometry":{"coordinates":[30.914437,-10.118843],"type":"Point"},"id":"wattlas-plant-osm-way-576893183","properties":{"aliases":["Chishimba Hydroelectric Power Station"],"canonicalAnchor":"osm:way/576893183","canonicalCountryKey":"ZM","capacityMw":6.2,"country":"ZM","externalIds":{"osm":"way/576893183"},"geographyId":"ZM-6923714B80596734375081","id":"wattlas-plant-osm-way-576893183","lifecycleCounts":{"operational":1},"locationPrecision":"exact","name":"Chishimba Hydroelectric Power Station","operatingCapacityCoverage":{"coveragePercent":100.0,"knownUnitCount":0,"method":"plant_aggregate","provenance":{"evidenceCount":0,"recordIds":["wattlas-record-osm-way-576893183"],"sourceIds":["openstreetmap-power"],"sourceTypes":["community_mapped"],"valueKind":"reported"},"totalUnitCount":0},"operatingCapacityMw":6.2,"operatingCapacityMwByTechnology":{"hydro":6.2},"plannedCapacityCoverage":{"coveragePercent":0.0,"knownUnitCount":0,"method":"unavailable","totalUnitCount":0},"plannedCapacityMw":0.0,"plannedCapacityMwByTechnology":{},"recordCount":1,"recordIds":["wattlas-record-osm-way-576893183"],"sourceIds":["openstreetmap-power"],"sourceUrl":"https://www.openstreetmap.org/way/576893183","technologies":["hydro"],"technologyMixMw":{"hydro":6.2},"unitCount":0,"unitIds":[]},"type":"Feature"},{"geometry":{"coordinates":[31.550541,-11.154436],"type":"Point"},"id":"wattlas-plant-osm-way-577127898","properties":{"aliases":["Shiwa Ng'andu Hydro Power Station"],"canonicalAnchor":"osm:way/577127898","canonicalCountryKey":"ZM","capacityMw":1.0,"country":"ZM","externalIds":{"osm":"way/577127898"},"geographyId":"ZM-6923714B61233419501629","id":"wattlas-plant-osm-way-577127898","lifecycleCounts":{"operational":1},"locationPrecision":"exact","name":"Shiwa Ng'andu Hydro Power Station","operatingCapacityCoverage":{"coveragePercent":100.0,"knownUnitCount":0,"method":"plant_aggregate","provenance":{"evidenceCount":0,"recordIds":["wattlas-record-osm-way-577127898"],"sourceIds":["openstreetmap-power"],"sourceTypes":["community_mapped"],"valueKind":"reported"},"totalUnitCount":0},"operatingCapacityMw":1.0,"operatingCapacityMwByTechnology":{"hydro":1.0},"plannedCapacityCoverage":{"coveragePercent":0.0,"knownUnitCount":0,"method":"unavailable","totalUnitCount":0},"plannedCapacityMw":0.0,"plannedCapacityMwByTechnology":{},"recordCount":1,"recordIds":["wattlas-record-osm-way-577127898"],"sourceIds":["openstreetmap-power"],"sourceUrl":"https://www.openstreetmap.org/way/577127898","technologies":["hydro"],"technologyMixMw":{"hydro":1.0},"unitCount":0,"unitIds":[]},"type":"Feature"},{"geometry":{"coordinates":[31.160053,-8.89888],"type":"Point"},"id":"wattlas-plant-osm-way-855691270","properties":{"aliases":["Lunzua Hydroelectric Power Station"],"canonicalAnchor":"osm:way/855691270","canonicalCountryKey":"ZM","capacityMw":14.8,"country":"ZM","externalIds":{"osm":"way/855691270"},"geographyId":"ZM-6923714B80596734375081","id":"wattlas-plant-osm-way-855691270","lifecycleCounts":{"operational":1},"locationPrecision":"exact","name":"Lunzua Hydroelectric Power Station","operatingCapacityCoverage":{"coveragePercent":100.0,"knownUnitCount":0,"method":"plant_aggregate","provenance":{"evidenceCount":0,"recordIds":["wattlas-record-osm-way-855691270"],"sourceIds":["openstreetmap-power"],"sourceTypes":["community_mapped"],"valueKind":"reported"},"totalUnitCount":0},"operatingCapacityMw":14.8,"operatingCapacityMwByTechnology":{"hydro":14.8},"plannedCapacityCoverage":{"coveragePercent":0.0,"knownUnitCount":0,"method":"unavailable","totalUnitCount":0},"plannedCapacityMw":0.0,"plannedCapacityMwByTechnology":{},"recordCount":1,"recordIds":["wattlas-record-osm-way-855691270"],"sourceIds":["openstreetmap-power"],"sourceUrl":"https://www.openstreetmap.org/way/855691270","technologies":["hydro"],"technologyMixMw":{"hydro":14.8},"unitCount":0,"unitIds":[]},"type":"Feature"},{"geometry":{"coordinates":[28.681439,-13.036207],"type":"Point"},"id":"wattlas-plant-osm-way-855694800","properties":{"aliases":["Ndola Energy"],"canonicalAnchor":"osm:way/855694800","canonicalCountryKey":"ZM","capacityMw":105.0,"country":"ZM","externalIds":{"osm":"way/855694800"},"geographyId":"ZM-6923714B61812757118010","id":"wattlas-plant-osm-way-855694800","lifecycleCounts":{"operational":1},"locationPrecision":"exact","name":"Ndola Energy","operatingCapacityCoverage":{"coveragePercent":100.0,"knownUnitCount":0,"method":"plant_aggregate","provenance":{"evidenceCount":0,"recordIds":["wattlas-record-osm-way-855694800"],"sourceIds":["openstreetmap-power"],"sourceTypes":["community_mapped"],"valueKind":"reported"},"totalUnitCount":0},"operatingCapacityMw":105.0,"operatingCapacityMwByTechnology":{"oil":105.0},"plannedCapacityCoverage":{"coveragePercent":0.0,"knownUnitCount":0,"method":"unavailable","totalUnitCount":0},"plannedCapacityMw":0.0,"plannedCapacityMwByTechnology":{},"recordCount":1,"recordIds":["wattlas-record-osm-way-855694800"],"sourceIds":["openstreetmap-power"],"sourceUrl":"https://www.openstreetmap.org/way/855694800","technologies":["oil"],"technologyMixMw":{"oil":105.0},"unitCount":0,"unitIds":[]},"type":"Feature"},{"geometry":{"coordinates":[31.01996,-13.317272],"type":"Point"},"id":"wattlas-plant-osm-way-993507293","properties":{"aliases":["Lusiwasi Upper Hydroelectric Power Station"],"canonicalAnchor":"osm:way/993507293","canonicalCountryKey":"ZM","capacityMw":15.0,"country":"ZM","externalIds":{"osm":"way/993507293"},"geographyId":"ZM-6923714B60407914126357","id":"wattlas-plant-osm-way-993507293","lifecycleCounts":{"operational":1},"locationPrecision":"exact","name":"Lusiwasi Upper Hydroelectric Power Station","operatingCapacityCoverage":{"coveragePercent":100.0,"knownUnitCount":0,"method":"plant_aggregate","provenance":{"evidenceCount":0,"recordIds":["wattlas-record-osm-way-993507293"],"sourceIds":["openstreetmap-power"],"sourceTypes":["community_mapped"],"valueKind":"reported"},"totalUnitCount":0},"operatingCapacityMw":15.0,"operatingCapacityMwByTechnology":{"hydro":15.0},"plannedCapacityCoverage":{"coveragePercent":0.0,"knownUnitCount":0,"method":"unavailable","totalUnitCount":0},"plannedCapacityMw":0.0,"plannedCapacityMwByTechnology":{},"recordCount":1,"recordIds":["wattlas-record-osm-way-993507293"],"sourceIds":["openstreetmap-power"],"sourceUrl":"https://www.openstreetmap.org/way/993507293","technologies":["hydro"],"technologyMixMw":{"hydro":15.0},"unitCount":0,"unitIds":[]},"type":"Feature"},{"geometry":{"coordinates":[28.431571,-15.513629],"type":"Point"},"id":"wattlas-plant-wikidata-q108673091","properties":{"aliases":["Bangweulu Solar Power Station"],"canonicalAnchor":"wikidata:Q108673091","canonicalCountryKey":"ZM","capacityMw":54.0,"country":"ZM","externalIds":{"osm":"relation/11723214","wikidata":"Q108673091","wikipedia":"en:Bangweulu Solar Power Station"},"geographyId":"ZM-6923714B17126467226495","id":"wattlas-plant-wikidata-q108673091","idAliases":["wattlas-plant-osm-relation-11723214","wattlas-plant-wikipedia-en-bangweulu-solar-power-station"],"lifecycleCounts":{"operational":1},"locationPrecision":"exact","name":"Bangweulu Solar Power Station","operatingCapacityCoverage":{"coveragePercent":100.0,"knownUnitCount":0,"method":"plant_aggregate","provenance":{"evidenceCount":0,"recordIds":["wattlas-record-osm-relation-11723214"],"sourceIds":["openstreetmap-power"],"sourceTypes":["community_mapped"],"valueKind":"reported"},"totalUnitCount":0},"operatingCapacityMw":54.0,"operatingCapacityMwByTechnology":{"solar":54.0},"plannedCapacityCoverage":{"coveragePercent":0.0,"knownUnitCount":0,"method":"unavailable","totalUnitCount":0},"plannedCapacityMw":0.0,"plannedCapacityMwByTechnology":{},"recordCount":1,"recordIds":["wattlas-record-osm-relation-11723214"],"sourceIds":["openstreetmap-power"],"sourceUrl":"https://www.openstreetmap.org/relation/11723214","technologies":["solar"],"technologyMixMw":{"solar":54.0},"unitCount":0,"unitIds":[]},"type":"Feature"},{"geometry":{"coordinates":[28.425725,-15.518076],"type":"Point"},"id":"wattlas-plant-wikidata-q108770726","properties":{"aliases":["Ngonye Solar Power Station"],"canonicalAnchor":"wikidata:Q108770726","canonicalCountryKey":"ZM","capacityMw":34.0,"country":"ZM","externalIds":{"osm":"relation/13672908","wikidata":"Q108770726","wikipedia":"en:Ngonye Solar Power Station"},"geographyId":"ZM-6923714B17126467226495","id":"wattlas-plant-wikidata-q108770726","idAliases":["wattlas-plant-osm-relation-13672908","wattlas-plant-wikipedia-en-ngonye-solar-power-station"],"lifecycleCounts":{"operational":1},"locationPrecision":"exact","name":"Ngonye Solar Power Station","operatingCapacityCoverage":{"coveragePercent":100.0,"knownUnitCount":0,"method":"plant_aggregate","provenance":{"evidenceCount":0,"recordIds":["wattlas-record-osm-relation-13672908"],"sourceIds":["openstreetmap-power"],"sourceTypes":["community_mapped"],"valueKind":"reported"},"totalUnitCount":0},"operatingCapacityMw":34.0,"operatingCapacityMwByTechnology":{"solar":34.0},"plannedCapacityCoverage":{"coveragePercent":0.0,"knownUnitCount":0,"method":"unavailable","totalUnitCount":0},"plannedCapacityMw":0.0,"plannedCapacityMwByTechnology":{},"recordCount":1,"recordIds":["wattlas-record-osm-relation-13672908"],"sourceIds":["openstreetmap-power"],"sourceUrl":"https://www.openstreetmap.org/relation/13672908","technologies":["solar"],"technologyMixMw":{"solar":34.0},"unitCount":0,"unitIds":[]},"type":"Feature"},{"geometry":{"coordinates":[28.762522,-16.519072],"type":"Point"},"id":"wattlas-plant-wikidata-q1367609-5b425212c1","properties":{"aliases":["Kariba North Bank Power Station"],"canonicalAnchor":"wikidata:Q1367609","canonicalCountryKey":"ZM","capacityMw":1080.0,"country":"ZM","externalIds":{"osm":"way/449155821","wikidata":"Q1367609"},"geographyId":"ZM-6923714B34072001548912","id":"wattlas-plant-wikidata-q1367609-5b425212c1","idAliases":["wattlas-plant-osm-way-449155821","wattlas-plant-wikidata-q1367609"],"lifecycleCounts":{"operational":1},"locationPrecision":"exact","name":"Kariba North Bank Power Station","operatingCapacityCoverage":{"coveragePercent":100.0,"knownUnitCount":0,"method":"plant_aggregate","provenance":{"evidenceCount":0,"recordIds":["wattlas-record-osm-way-449155821"],"sourceIds":["openstreetmap-power"],"sourceTypes":["community_mapped"],"valueKind":"reported"},"totalUnitCount":0},"operatingCapacityMw":1080.0,"operatingCapacityMwByTechnology":{"hydro":1080.0},"plannedCapacityCoverage":{"coveragePercent":0.0,"knownUnitCount":0,"method":"unavailable","totalUnitCount":0},"plannedCapacityMw":0.0,"plannedCapacityMwByTechnology":{},"recordCount":1,"recordIds":["wattlas-record-osm-way-449155821"],"sourceIds":["openstreetmap-power"],"sourceUrl":"https://www.openstreetmap.org/way/449155821","technologies":["hydro"],"technologyMixMw":{"hydro":1080.0},"unitCount":0,"unitIds":[]},"type":"Feature"},{"geometry":{"coordinates":[26.022554,-15.769728],"type":"Point"},"id":"wattlas-plant-wikidata-q1461688","properties":{"aliases":["Itezhi-Tezhi Hydroelectric Station"],"canonicalAnchor":"wikidata:Q1461688","canonicalCountryKey":"ZM","capacityMw":120.0,"country":"ZM","externalIds":{"osm":"way/503041676","wikidata":"Q1461688","wikipedia":"en:Itezhi-Tezhi Dam"},"geographyId":"ZM-6923714B60407914126357","id":"wattlas-plant-wikidata-q1461688","idAliases":["wattlas-plant-osm-way-503041676","wattlas-plant-wikipedia-en-itezhi-tezhi-dam"],"lifecycleCounts":{"operational":1},"locationPrecision":"exact","name":"Itezhi-Tezhi Hydroelectric Station","operatingCapacityCoverage":{"coveragePercent":100.0,"knownUnitCount":0,"method":"plant_aggregate","provenance":{"evidenceCount":0,"recordIds":["wattlas-record-osm-way-503041676"],"sourceIds":["openstreetmap-power"],"sourceTypes":["community_mapped"],"valueKind":"reported"},"totalUnitCount":0},"operatingCapacityMw":120.0,"operatingCapacityMwByTechnology":{"hydro":120.0},"plannedCapacityCoverage":{"coveragePercent":0.0,"knownUnitCount":0,"method":"unavailable","totalUnitCount":0},"plannedCapacityMw":0.0,"plannedCapacityMwByTechnology":{},"recordCount":1,"recordIds":["wattlas-record-osm-way-503041676"],"sourceIds":["openstreetmap-power"],"sourceUrl":"https://www.openstreetmap.org/way/503041676","technologies":["hydro"],"technologyMixMw":{"hydro":120.0},"unitCount":0,"unitIds":[]},"type":"Feature"},{"geometry":{"coordinates":[27.184044,-17.351068],"type":"Point"},"id":"wattlas-plant-wikidata-q56373911","properties":{"aliases":["Maamba Power Station"],"canonicalAnchor":"wikidata:Q56373911","canonicalCountryKey":"ZM","capacityMw":300.0,"country":"ZM","externalIds":{"osm":"way/999521670","wikidata":"Q56373911"},"geographyId":"ZM-6923714B34072001548912","id":"wattlas-plant-wikidata-q56373911","idAliases":["wattlas-plant-osm-way-999521670"],"lifecycleCounts":{"operational":1},"locationPrecision":"exact","name":"Maamba Power Station","operatingCapacityCoverage":{"coveragePercent":100.0,"knownUnitCount":0,"method":"plant_aggregate","provenance":{"evidenceCount":0,"recordIds":["wattlas-record-osm-way-999521670"],"sourceIds":["openstreetmap-power"],"sourceTypes":["community_mapped"],"valueKind":"reported"},"totalUnitCount":0},"operatingCapacityMw":300.0,"operatingCapacityMwByTechnology":{"coal":300.0},"plannedCapacityCoverage":{"coveragePercent":0.0,"knownUnitCount":0,"method":"unavailable","totalUnitCount":0},"plannedCapacityMw":0.0,"plannedCapacityMwByTechnology":{},"recordCount":1,"recordIds":["wattlas-record-osm-way-999521670"],"sourceIds":["openstreetmap-power"],"sourceUrl":"https://www.openstreetmap.org/way/999521670","technologies":["coal"],"technologyMixMw":{"coal":300.0},"unitCount":0,"unitIds":[]},"type":"Feature"},{"geometry":{"coordinates":[28.55918,-15.895987],"type":"Point"},"id":"wattlas-plant-wikidata-q56373922","properties":{"aliases":["Kafue Gorge Lower Power Plant"],"canonicalAnchor":"wikidata:Q56373922","canonicalCountryKey":"ZM","capacityMw":750.0,"country":"ZM","externalIds":{"osm":"way/601733444","wikidata":"Q56373922"},"geographyId":"ZM-6923714B17126467226495","id":"wattlas-plant-wikidata-q56373922","idAliases":["wattlas-plant-osm-way-601733444"],"lifecycleCounts":{"operational":1},"locationPrecision":"exact","name":"Kafue Gorge Lower Power Plant","operatingCapacityCoverage":{"coveragePercent":100.0,"knownUnitCount":0,"method":"plant_aggregate","provenance":{"evidenceCount":0,"recordIds":["wattlas-record-osm-way-601733444"],"sourceIds":["openstreetmap-power"],"sourceTypes":["community_mapped"],"valueKind":"reported"},"totalUnitCount":0},"operatingCapacityMw":750.0,"operatingCapacityMwByTechnology":{"hydro":750.0},"plannedCapacityCoverage":{"coveragePercent":0.0,"knownUnitCount":0,"method":"unavailable","totalUnitCount":0},"plannedCapacityMw":0.0,"plannedCapacityMwByTechnology":{},"recordCount":1,"recordIds":["wattlas-record-osm-way-601733444"],"sourceIds":["openstreetmap-power"],"sourceUrl":"https://www.openstreetmap.org/way/601733444","technologies":["hydro"],"technologyMixMw":{"hydro":750.0},"unitCount":0,"unitIds":[]},"type":"Feature"}],"type":"FeatureCollection"}