{"features":[{"geometry":{"coordinates":[28.575278,-20.158611],"type":"Point"},"id":"wattlas-plant-gemplant-l100000104355","properties":{"aliases":["Bulawayo power station","Unit 1","Unit 2","Unit 3"],"canonicalAnchor":"gemplant:L100000104355","canonicalCountryKey":"ZW","capacityMw":90.0,"country":"ZW","externalIdAliases":{"gemUnit":["G100000111962","G100000111963","G100000111964"]},"externalIds":{"gemPlant":"L100000104355","gemUnit":"G100000111964"},"gemWikiUrl":"https://www.gem.wiki/Bulawayo_power_station","geographyId":"ZW-88200057B51719638002761","id":"wattlas-plant-gemplant-l100000104355","lifecycleCounts":{"announced":3},"locationPrecision":"exact","name":"Bulawayo power station","operatingCapacityCoverage":{"coveragePercent":0.0,"knownUnitCount":0,"method":"unavailable","totalUnitCount":0},"operatingCapacityMw":0.0,"operatingCapacityMwByTechnology":{},"plannedCapacityCoverage":{"coveragePercent":100.0,"knownUnitCount":3,"method":"complete_unit_sum","provenance":{"evidenceCount":0,"recordIds":["wattlas-record-gemunit-g100000111962","wattlas-record-gemunit-g100000111963","wattlas-record-gemunit-g100000111964"],"sourceIds":["gem-global-integrated-power-tracker"],"sourceTypes":["research_verified"],"valueKind":"reported"},"totalUnitCount":3},"plannedCapacityMw":90.0,"plannedCapacityMwByTechnology":{"coal":90.0},"recordCount":3,"recordIds":["wattlas-record-gemunit-g100000111962","wattlas-record-gemunit-g100000111963","wattlas-record-gemunit-g100000111964"],"sourceIds":["gem-global-integrated-power-tracker"],"sourceUrl":"https://www.gem.wiki/Bulawayo_power_station","technologies":["coal"],"technologyMixMw":{"coal":90.0},"unitCount":3,"unitIds":["gem-unit-G100000111962","gem-unit-G100000111963","gem-unit-G100000111964"]},"type":"Feature"},{"geometry":{"coordinates":[31.031667,-17.845],"type":"Point"},"id":"wattlas-plant-gemplant-l100000104358","properties":{"aliases":["Harare power station","Unit 2","Unit 3"],"canonicalAnchor":"gemplant:L100000104358","canonicalCountryKey":"ZW","capacityMw":90.0,"country":"ZW","externalIdAliases":{"gemUnit":["G100000103638","G100000103639"]},"externalIds":{"gemPlant":"L100000104358","gemUnit":"G100000103639"},"gemWikiUrl":"https://www.gem.wiki/Harare_power_station","geographyId":"ZW-88200057B87996012089813","id":"wattlas-plant-gemplant-l100000104358","lifecycleCounts":{"announced":1,"operational":1},"locationPrecision":"exact","name":"Harare power station","operatingCapacityCoverage":{"coveragePercent":100.0,"knownUnitCount":1,"method":"complete_unit_sum","provenance":{"evidenceCount":0,"recordIds":["wattlas-record-gemunit-g100000103639"],"sourceIds":["gem-global-integrated-power-tracker"],"sourceTypes":["research_verified"],"valueKind":"reported"},"totalUnitCount":1},"operatingCapacityMw":30.0,"operatingCapacityMwByTechnology":{"coal":30.0},"plannedCapacityCoverage":{"coveragePercent":100.0,"knownUnitCount":1,"method":"complete_unit_sum","provenance":{"evidenceCount":0,"recordIds":["wattlas-record-gemunit-g100000103638"],"sourceIds":["gem-global-integrated-power-tracker"],"sourceTypes":["research_verified"],"valueKind":"reported"},"totalUnitCount":1},"plannedCapacityMw":60.0,"plannedCapacityMwByTechnology":{"coal":60.0},"recordCount":2,"recordIds":["wattlas-record-gemunit-g100000103638","wattlas-record-gemunit-g100000103639"],"sourceIds":["gem-global-integrated-power-tracker"],"sourceUrl":"https://www.gem.wiki/Harare_power_station","technologies":["coal"],"technologyMixMw":{"coal":90.0},"unitCount":2,"unitIds":["gem-unit-G100000103638","gem-unit-G100000103639"]},"type":"Feature"},{"geometry":{"coordinates":[26.469638,-18.383197],"type":"Point"},"id":"wattlas-plant-gemplant-l100000104361","properties":{"aliases":["Hwange power station","Unit 1","Unit 10","Unit 10 (old)","Unit 11","Unit 12","Unit 2","Unit 3","Unit 4","Unit 5","Unit 6","Unit 7","Unit 8","Unit 9","Unit 9 (old)"],"canonicalAnchor":"gemplant:L100000104361","canonicalCountryKey":"ZW","capacityMw":2790.0,"country":"ZW","externalIdAliases":{"gemUnit":["G100000104802","G100000104803","G100000104804","G100000104805","G100000104806","G100000104807","G100000104808","G100000104809","G100001019632","G100001019633","G100001023646","G100001023647","G100001023648","G100001023649"]},"externalIds":{"gemPlant":"L100000104361","gemUnit":"G100001023646"},"gemWikiUrl":"https://www.gem.wiki/Hwange_power_station","geographyId":"ZW-88200057B11544283676020","id":"wattlas-plant-gemplant-l100000104361","lifecycleCounts":{"announced":4,"operational":8,"paused":2},"locationPrecision":"exact","name":"Hwange power station","operatingCapacityCoverage":{"coveragePercent":100.0,"knownUnitCount":8,"method":"complete_unit_sum","provenance":{"evidenceCount":0,"recordIds":["wattlas-record-gemunit-g100000104802","wattlas-record-gemunit-g100000104803","wattlas-record-gemunit-g100000104804","wattlas-record-gemunit-g100000104805","wattlas-record-gemunit-g100000104806","wattlas-record-gemunit-g100000104807","wattlas-record-gemunit-g100000104808","wattlas-record-gemunit-g100000104809"],"sourceIds":["gem-global-integrated-power-tracker"],"sourceTypes":["research_verified"],"valueKind":"reported"},"totalUnitCount":8},"operatingCapacityMw":1590.0,"operatingCapacityMwByTechnology":{"coal":1590.0},"plannedCapacityCoverage":{"coveragePercent":100.0,"knownUnitCount":4,"method":"complete_unit_sum","provenance":{"evidenceCount":0,"recordIds":["wattlas-record-gemunit-g100001023646","wattlas-record-gemunit-g100001023647","wattlas-record-gemunit-g100001023648","wattlas-record-gemunit-g100001023649"],"sourceIds":["gem-global-integrated-power-tracker"],"sourceTypes":["research_verified"],"valueKind":"reported"},"totalUnitCount":4},"plannedCapacityMw":1200.0,"plannedCapacityMwByTechnology":{"coal":1200.0},"recordCount":14,"recordIds":["wattlas-record-gemunit-g100000104802","wattlas-record-gemunit-g100000104803","wattlas-record-gemunit-g100000104804","wattlas-record-gemunit-g100000104805","wattlas-record-gemunit-g100000104806","wattlas-record-gemunit-g100000104807","wattlas-record-gemunit-g100000104808","wattlas-record-gemunit-g100000104809","wattlas-record-gemunit-g100001019632","wattlas-record-gemunit-g100001019633","wattlas-record-gemunit-g100001023646","wattlas-record-gemunit-g100001023647","wattlas-record-gemunit-g100001023648","wattlas-record-gemunit-g100001023649"],"sourceIds":["gem-global-integrated-power-tracker"],"sourceUrl":"https://www.gem.wiki/Hwange_power_station","technologies":["coal"],"technologyMixMw":{"coal":2790.0},"unitCount":14,"unitIds":["gem-unit-G100000104802","gem-unit-G100000104803","gem-unit-G100000104804","gem-unit-G100000104805","gem-unit-G100000104806","gem-unit-G100000104807","gem-unit-G100000104808","gem-unit-G100000104809","gem-unit-G100001019632","gem-unit-G100001019633","gem-unit-G100001023646","gem-unit-G100001023647","gem-unit-G100001023648","gem-unit-G100001023649"]},"type":"Feature"},{"geometry":{"coordinates":[26.404754,-18.328292],"type":"Point"},"id":"wattlas-plant-gemplant-l100000104774","properties":{"aliases":["Unit 1","Unit 2","Unit 3","Unit 4","Unit 5","ZhongXin power station"],"canonicalAnchor":"gemplant:L100000104774","canonicalCountryKey":"ZW","capacityMw":320.0,"country":"ZW","externalIdAliases":{"gemUnit":["G100000114859","G100000114860","G100000114861","G100000115302","G100000115303"]},"externalIds":{"gemPlant":"L100000104774","gemUnit":"G100000115303"},"gemWikiUrl":"https://www.gem.wiki/ZhongXin_power_station","geographyId":"ZW-88200057B11544283676020","id":"wattlas-plant-gemplant-l100000104774","lifecycleCounts":{"operational":1,"paused":2,"under_construction":2},"locationPrecision":"exact","name":"ZhongXin power station","operatingCapacityCoverage":{"coveragePercent":100.0,"knownUnitCount":1,"method":"complete_unit_sum","provenance":{"evidenceCount":0,"recordIds":["wattlas-record-gemunit-g100000114859"],"sourceIds":["gem-global-integrated-power-tracker"],"sourceTypes":["research_verified"],"valueKind":"reported"},"totalUnitCount":1},"operatingCapacityMw":50.0,"operatingCapacityMwByTechnology":{"coal":50.0},"plannedCapacityCoverage":{"coveragePercent":100.0,"knownUnitCount":2,"method":"complete_unit_sum","provenance":{"evidenceCount":0,"recordIds":["wattlas-record-gemunit-g100000114860","wattlas-record-gemunit-g100000114861"],"sourceIds":["gem-global-integrated-power-tracker"],"sourceTypes":["research_verified"],"valueKind":"reported"},"totalUnitCount":2},"plannedCapacityMw":270.0,"plannedCapacityMwByTechnology":{"coal":270.0},"recordCount":5,"recordIds":["wattlas-record-gemunit-g100000114859","wattlas-record-gemunit-g100000114860","wattlas-record-gemunit-g100000114861","wattlas-record-gemunit-g100000115302","wattlas-record-gemunit-g100000115303"],"sourceIds":["gem-global-integrated-power-tracker"],"sourceUrl":"https://www.gem.wiki/ZhongXin_power_station","technologies":["coal"],"technologyMixMw":{"coal":320.0},"unitCount":5,"unitIds":["gem-unit-G100000114859","gem-unit-G100000114860","gem-unit-G100000114861","gem-unit-G100000115302","gem-unit-G100000115303"]},"type":"Feature"},{"geometry":{"coordinates":[32.236248,-20.867665],"type":"Point"},"id":"wattlas-plant-gemplant-l100000201413","properties":{"aliases":["1.0","Chisumbanje Biomass power station"],"canonicalAnchor":"gemplant:L100000201413","canonicalCountryKey":"ZW","capacityMw":0.0,"country":"ZW","externalIds":{"gemPlant":"L100000201413","gemUnit":"G100000201704"},"gemWikiUrl":"https://www.gem.wiki/Chisumbanje_Biomass_power_station","geographyId":"ZW-88200057B32763847551562","id":"wattlas-plant-gemplant-l100000201413","lifecycleCounts":{"paused":1},"locationPrecision":"exact","name":"Chisumbanje Biomass power station","operatingCapacityCoverage":{"coveragePercent":0.0,"knownUnitCount":0,"method":"unavailable","totalUnitCount":0},"operatingCapacityMw":0.0,"operatingCapacityMwByTechnology":{},"plannedCapacityCoverage":{"coveragePercent":0.0,"knownUnitCount":0,"method":"unavailable","totalUnitCount":0},"plannedCapacityMw":0.0,"plannedCapacityMwByTechnology":{},"recordCount":1,"recordIds":["wattlas-record-gemunit-g100000201704"],"sourceIds":["gem-global-integrated-power-tracker"],"sourceUrl":"https://www.gem.wiki/Chisumbanje_Biomass_power_station","technologies":["biomass"],"technologyMixMw":{"biomass":0.0},"unitCount":1,"unitIds":["gem-unit-G100000201704"]},"type":"Feature"},{"geometry":{"coordinates":[31.6471,-21.0708],"type":"Point"},"id":"wattlas-plant-gemplant-l100000201414","properties":{"aliases":["1.0","Hippo Valley Estate power station"],"canonicalAnchor":"gemplant:L100000201414","canonicalCountryKey":"ZW","capacityMw":39.0,"country":"ZW","externalIds":{"gemPlant":"L100000201414","gemUnit":"G100000201705"},"gemWikiUrl":"https://www.gem.wiki/Hippo_Valley_Estate_power_station","geographyId":"ZW-88200057B85209083975104","id":"wattlas-plant-gemplant-l100000201414","lifecycleCounts":{"operational":1},"locationPrecision":"exact","name":"Hippo Valley Estate power station","operatingCapacityCoverage":{"coveragePercent":100.0,"knownUnitCount":1,"method":"complete_unit_sum","provenance":{"evidenceCount":0,"recordIds":["wattlas-record-gemunit-g100000201705"],"sourceIds":["gem-global-integrated-power-tracker"],"sourceTypes":["research_verified"],"valueKind":"reported"},"totalUnitCount":1},"operatingCapacityMw":39.0,"operatingCapacityMwByTechnology":{"biomass":39.0},"plannedCapacityCoverage":{"coveragePercent":0.0,"knownUnitCount":0,"method":"unavailable","totalUnitCount":0},"plannedCapacityMw":0.0,"plannedCapacityMwByTechnology":{},"recordCount":1,"recordIds":["wattlas-record-gemunit-g100000201705"],"sourceIds":["gem-global-integrated-power-tracker"],"sourceUrl":"https://www.gem.wiki/Hippo_Valley_Estate_power_station","technologies":["biomass"],"technologyMixMw":{"biomass":39.0},"unitCount":1,"unitIds":["gem-unit-G100000201705"]},"type":"Feature"},{"geometry":{"coordinates":[31.4423,-21.0223],"type":"Point"},"id":"wattlas-plant-gemplant-l100000201415","properties":{"aliases":["1.0","Triangle power station"],"canonicalAnchor":"gemplant:L100000201415","canonicalCountryKey":"ZW","capacityMw":35.0,"country":"ZW","externalIds":{"gemPlant":"L100000201415","gemUnit":"G100000201706"},"gemWikiUrl":"https://www.gem.wiki/Triangle_power_station","geographyId":"ZW-88200057B85209083975104","id":"wattlas-plant-gemplant-l100000201415","lifecycleCounts":{"operational":1},"locationPrecision":"exact","name":"Triangle power station","operatingCapacityCoverage":{"coveragePercent":100.0,"knownUnitCount":1,"method":"complete_unit_sum","provenance":{"evidenceCount":0,"recordIds":["wattlas-record-gemunit-g100000201706"],"sourceIds":["gem-global-integrated-power-tracker"],"sourceTypes":["research_verified"],"valueKind":"reported"},"totalUnitCount":1},"operatingCapacityMw":35.0,"operatingCapacityMwByTechnology":{"biomass":35.0},"plannedCapacityCoverage":{"coveragePercent":0.0,"knownUnitCount":0,"method":"unavailable","totalUnitCount":0},"plannedCapacityMw":0.0,"plannedCapacityMwByTechnology":{},"recordCount":1,"recordIds":["wattlas-record-gemunit-g100000201706"],"sourceIds":["gem-global-integrated-power-tracker"],"sourceUrl":"https://www.gem.wiki/Triangle_power_station","technologies":["biomass"],"technologyMixMw":{"biomass":35.0},"unitCount":1,"unitIds":["gem-unit-G100000201706"]},"type":"Feature"},{"geometry":{"coordinates":[28.7621,-16.5225],"type":"Point"},"id":"wattlas-plant-gemplant-l100000604110","properties":{"aliases":["Kariba Dam hydroelectric plant"],"canonicalAnchor":"gemplant:L100000604110","canonicalCountryKey":"ZW","capacityMw":2130.0,"country":"ZW","externalIds":{"gemPlant":"L100000604110","gemUnit":"G100000604149"},"gemWikiUrl":"https://www.gem.wiki/Kariba_Dam_hydroelectric_plant","geographyId":"ZW-88200057B70993266842589","id":"wattlas-plant-gemplant-l100000604110","lifecycleCounts":{"operational":1},"locationPrecision":"exact","name":"Kariba Dam hydroelectric plant","operatingCapacityCoverage":{"coveragePercent":100.0,"knownUnitCount":1,"method":"complete_unit_sum","provenance":{"evidenceCount":0,"recordIds":["wattlas-record-gemunit-g100000604149"],"sourceIds":["gem-global-integrated-power-tracker"],"sourceTypes":["research_verified"],"valueKind":"reported"},"totalUnitCount":1},"operatingCapacityMw":2130.0,"operatingCapacityMwByTechnology":{"hydro":2130.0},"plannedCapacityCoverage":{"coveragePercent":0.0,"knownUnitCount":0,"method":"unavailable","totalUnitCount":0},"plannedCapacityMw":0.0,"plannedCapacityMwByTechnology":{},"recordCount":1,"recordIds":["wattlas-record-gemunit-g100000604149"],"sourceIds":["gem-global-integrated-power-tracker"],"sourceUrl":"https://www.gem.wiki/Kariba_Dam_hydroelectric_plant","technologies":["hydro"],"technologyMixMw":{"hydro":2130.0},"unitCount":1,"unitIds":["gem-unit-G100000604149"]},"type":"Feature"},{"geometry":{"coordinates":[31.2449,-18.1101],"type":"Point"},"id":"wattlas-plant-gemplant-l100000800131","properties":{"aliases":["1.0","2.0","Harava solar farm"],"canonicalAnchor":"gemplant:L100000800131","canonicalCountryKey":"ZW","capacityMw":40.0,"country":"ZW","externalIdAliases":{"gemUnit":["G100000800168","G100000800169"]},"externalIds":{"gemPlant":"L100000800131","gemUnit":"G100000800169"},"gemWikiUrl":"https://www.gem.wiki/Harava_solar_farm","geographyId":"ZW-88200057B49508968932773","id":"wattlas-plant-gemplant-l100000800131","lifecycleCounts":{"under_construction":2},"locationPrecision":"exact","name":"Harava solar farm","operatingCapacityCoverage":{"coveragePercent":0.0,"knownUnitCount":0,"method":"unavailable","totalUnitCount":0},"operatingCapacityMw":0.0,"operatingCapacityMwByTechnology":{},"plannedCapacityCoverage":{"coveragePercent":100.0,"knownUnitCount":2,"method":"complete_unit_sum","provenance":{"evidenceCount":0,"recordIds":["wattlas-record-gemunit-g100000800168","wattlas-record-gemunit-g100000800169"],"sourceIds":["gem-global-integrated-power-tracker"],"sourceTypes":["research_verified"],"valueKind":"reported"},"totalUnitCount":2},"plannedCapacityMw":40.0,"plannedCapacityMwByTechnology":{"solar":40.0},"recordCount":2,"recordIds":["wattlas-record-gemunit-g100000800168","wattlas-record-gemunit-g100000800169"],"sourceIds":["gem-global-integrated-power-tracker"],"sourceUrl":"https://www.gem.wiki/Harava_solar_farm","technologies":["solar"],"technologyMixMw":{"solar":40.0},"unitCount":2,"unitIds":["gem-unit-G100000800168","gem-unit-G100000800169"]},"type":"Feature"},{"geometry":{"coordinates":[30.7849,-17.6702],"type":"Point"},"id":"wattlas-plant-gemplant-l100000800252","properties":{"aliases":["1.0","2.0","Nyabira solar farm"],"canonicalAnchor":"gemplant:L100000800252","canonicalCountryKey":"ZW","capacityMw":27.5,"country":"ZW","externalIdAliases":{"gemUnit":["G100000800303","G100000800304"]},"externalIds":{"gemPlant":"L100000800252","gemUnit":"G100000800304"},"gemWikiUrl":"https://www.gem.wiki/Nyabira_solar_farm","geographyId":"ZW-88200057B70993266842589","id":"wattlas-plant-gemplant-l100000800252","lifecycleCounts":{"operational":2},"locationPrecision":"exact","name":"Nyabira solar farm","operatingCapacityCoverage":{"coveragePercent":100.0,"knownUnitCount":2,"method":"complete_unit_sum","provenance":{"evidenceCount":0,"recordIds":["wattlas-record-gemunit-g100000800303","wattlas-record-gemunit-g100000800304"],"sourceIds":["gem-global-integrated-power-tracker"],"sourceTypes":["research_verified"],"valueKind":"reported"},"totalUnitCount":2},"operatingCapacityMw":27.5,"operatingCapacityMwByTechnology":{"solar":27.5},"plannedCapacityCoverage":{"coveragePercent":0.0,"knownUnitCount":0,"method":"unavailable","totalUnitCount":0},"plannedCapacityMw":0.0,"plannedCapacityMwByTechnology":{},"recordCount":2,"recordIds":["wattlas-record-gemunit-g100000800303","wattlas-record-gemunit-g100000800304"],"sourceIds":["gem-global-integrated-power-tracker"],"sourceUrl":"https://www.gem.wiki/Nyabira_solar_farm","technologies":["solar"],"technologyMixMw":{"solar":27.5},"unitCount":2,"unitIds":["gem-unit-G100000800303","gem-unit-G100000800304"]},"type":"Feature"},{"geometry":{"coordinates":[29.7986,-18.798],"type":"Point"},"id":"wattlas-plant-gemplant-l100000800275","properties":{"aliases":["1.0","2.0","3.0","4.0","5.0","6.0","7.0","8.0","Sable solar farm"],"canonicalAnchor":"gemplant:L100000800275","canonicalCountryKey":"ZW","capacityMw":400.0,"country":"ZW","externalIdAliases":{"gemUnit":["G100000800327","G100000831347","G100000831348","G100000831349","G100000831350","G100000831351","G100000831352","G100000831353"]},"externalIds":{"gemPlant":"L100000800275","gemUnit":"G100000831353"},"gemWikiUrl":"https://www.gem.wiki/Sable_solar_farm","geographyId":"ZW-88200057B27236199640876","id":"wattlas-plant-gemplant-l100000800275","lifecycleCounts":{"announced":8},"locationPrecision":"exact","name":"Sable solar farm","operatingCapacityCoverage":{"coveragePercent":0.0,"knownUnitCount":0,"method":"unavailable","totalUnitCount":0},"operatingCapacityMw":0.0,"operatingCapacityMwByTechnology":{},"plannedCapacityCoverage":{"coveragePercent":100.0,"knownUnitCount":8,"method":"complete_unit_sum","provenance":{"evidenceCount":0,"recordIds":["wattlas-record-gemunit-g100000800327","wattlas-record-gemunit-g100000831347","wattlas-record-gemunit-g100000831348","wattlas-record-gemunit-g100000831349","wattlas-record-gemunit-g100000831350","wattlas-record-gemunit-g100000831351","wattlas-record-gemunit-g100000831352","wattlas-record-gemunit-g100000831353"],"sourceIds":["gem-global-integrated-power-tracker"],"sourceTypes":["research_verified"],"valueKind":"reported"},"totalUnitCount":8},"plannedCapacityMw":400.0,"plannedCapacityMwByTechnology":{"solar":400.0},"recordCount":8,"recordIds":["wattlas-record-gemunit-g100000800327","wattlas-record-gemunit-g100000831347","wattlas-record-gemunit-g100000831348","wattlas-record-gemunit-g100000831349","wattlas-record-gemunit-g100000831350","wattlas-record-gemunit-g100000831351","wattlas-record-gemunit-g100000831352","wattlas-record-gemunit-g100000831353"],"sourceIds":["gem-global-integrated-power-tracker"],"sourceUrl":"https://www.gem.wiki/Sable_solar_farm","technologies":["solar"],"technologyMixMw":{"solar":400.0},"unitCount":8,"unitIds":["gem-unit-G100000800327","gem-unit-G100000831347","gem-unit-G100000831348","gem-unit-G100000831349","gem-unit-G100000831350","gem-unit-G100000831351","gem-unit-G100000831352","gem-unit-G100000831353"]},"type":"Feature"},{"geometry":{"coordinates":[29.9679,-18.3056],"type":"Point"},"id":"wattlas-plant-gemplant-l100000811693","properties":{"aliases":["--","Cam and Motor Mine solar farm"],"canonicalAnchor":"gemplant:L100000811693","canonicalCountryKey":"ZW","capacityMw":54.0,"country":"ZW","externalIds":{"gemPlant":"L100000811693","gemUnit":"G100000814255"},"gemWikiUrl":"https://www.gem.wiki/Cam_and_Motor_Mine_solar_farm","geographyId":"ZW-88200057B70993266842589","id":"wattlas-plant-gemplant-l100000811693","lifecycleCounts":{"announced":1},"locationPrecision":"exact","name":"Cam and Motor Mine solar farm","operatingCapacityCoverage":{"coveragePercent":0.0,"knownUnitCount":0,"method":"unavailable","totalUnitCount":0},"operatingCapacityMw":0.0,"operatingCapacityMwByTechnology":{},"plannedCapacityCoverage":{"coveragePercent":100.0,"knownUnitCount":1,"method":"complete_unit_sum","provenance":{"evidenceCount":0,"recordIds":["wattlas-record-gemunit-g100000814255"],"sourceIds":["gem-global-integrated-power-tracker"],"sourceTypes":["research_verified"],"valueKind":"reported"},"totalUnitCount":1},"plannedCapacityMw":54.0,"plannedCapacityMwByTechnology":{"solar":54.0},"recordCount":1,"recordIds":["wattlas-record-gemunit-g100000814255"],"sourceIds":["gem-global-integrated-power-tracker"],"sourceUrl":"https://www.gem.wiki/Cam_and_Motor_Mine_solar_farm","technologies":["solar"],"technologyMixMw":{"solar":54.0},"unitCount":1,"unitIds":["gem-unit-G100000814255"]},"type":"Feature"},{"geometry":{"coordinates":[31.0764,-17.8069],"type":"Point"},"id":"wattlas-plant-gemplant-l100000811696","properties":{"aliases":["--","Murowa Diamonds solar farm"],"canonicalAnchor":"gemplant:L100000811696","canonicalCountryKey":"ZW","capacityMw":0.0,"country":"ZW","externalIds":{"gemPlant":"L100000811696","gemUnit":"G100000814258"},"gemWikiUrl":"https://www.gem.wiki/Murowa_Diamonds_solar_farm","geographyId":"ZW-88200057B87996012089813","id":"wattlas-plant-gemplant-l100000811696","lifecycleCounts":{"paused":1},"locationPrecision":"exact","name":"Murowa Diamonds solar farm","operatingCapacityCoverage":{"coveragePercent":0.0,"knownUnitCount":0,"method":"unavailable","totalUnitCount":0},"operatingCapacityMw":0.0,"operatingCapacityMwByTechnology":{},"plannedCapacityCoverage":{"coveragePercent":0.0,"knownUnitCount":0,"method":"unavailable","totalUnitCount":0},"plannedCapacityMw":0.0,"plannedCapacityMwByTechnology":{},"recordCount":1,"recordIds":["wattlas-record-gemunit-g100000814258"],"sourceIds":["gem-global-integrated-power-tracker"],"sourceUrl":"https://www.gem.wiki/Murowa_Diamonds_solar_farm","technologies":["solar"],"technologyMixMw":{"solar":0.0},"unitCount":1,"unitIds":["gem-unit-G100000814258"]},"type":"Feature"},{"geometry":{"coordinates":[31.1674,-20.6254],"type":"Point"},"id":"wattlas-plant-gemplant-l100000811698","properties":{"aliases":["--","Renco Mine solar farm"],"canonicalAnchor":"gemplant:L100000811698","canonicalCountryKey":"ZW","capacityMw":0.0,"country":"ZW","externalIds":{"gemPlant":"L100000811698","gemUnit":"G100000814261"},"gemWikiUrl":"https://www.gem.wiki/Renco_Mine_solar_farm","geographyId":"ZW-88200057B85209083975104","id":"wattlas-plant-gemplant-l100000811698","lifecycleCounts":{"paused":1},"locationPrecision":"exact","name":"Renco Mine solar farm","operatingCapacityCoverage":{"coveragePercent":0.0,"knownUnitCount":0,"method":"unavailable","totalUnitCount":0},"operatingCapacityMw":0.0,"operatingCapacityMwByTechnology":{},"plannedCapacityCoverage":{"coveragePercent":0.0,"knownUnitCount":0,"method":"unavailable","totalUnitCount":0},"plannedCapacityMw":0.0,"plannedCapacityMwByTechnology":{},"recordCount":1,"recordIds":["wattlas-record-gemunit-g100000814261"],"sourceIds":["gem-global-integrated-power-tracker"],"sourceUrl":"https://www.gem.wiki/Renco_Mine_solar_farm","technologies":["solar"],"technologyMixMw":{"solar":0.0},"unitCount":1,"unitIds":["gem-unit-G100000814261"]},"type":"Feature"},{"geometry":{"coordinates":[28.9125,-20.8537],"type":"Point"},"id":"wattlas-plant-gemplant-l100000827771","properties":{"aliases":["1.0","2.0","Blanket Mine Solar Plant"],"canonicalAnchor":"gemplant:L100000827771","canonicalCountryKey":"ZW","capacityMw":17.5,"country":"ZW","externalIdAliases":{"gemUnit":["G100000831328","G100001022870"]},"externalIds":{"gemPlant":"L100000827771","gemUnit":"G100001022870"},"gemWikiUrl":"https://www.gem.wiki/Blanket_Mine_Solar_Plant","geographyId":"ZW-88200057B5014357533485","id":"wattlas-plant-gemplant-l100000827771","lifecycleCounts":{"operational":1,"under_construction":1},"locationPrecision":"exact","name":"Blanket Mine Solar Plant","operatingCapacityCoverage":{"coveragePercent":100.0,"knownUnitCount":1,"method":"complete_unit_sum","provenance":{"evidenceCount":0,"recordIds":["wattlas-record-gemunit-g100000831328"],"sourceIds":["gem-global-integrated-power-tracker"],"sourceTypes":["research_verified"],"valueKind":"reported"},"totalUnitCount":1},"operatingCapacityMw":12.2,"operatingCapacityMwByTechnology":{"solar":12.2},"plannedCapacityCoverage":{"coveragePercent":100.0,"knownUnitCount":1,"method":"complete_unit_sum","provenance":{"evidenceCount":0,"recordIds":["wattlas-record-gemunit-g100001022870"],"sourceIds":["gem-global-integrated-power-tracker"],"sourceTypes":["research_verified"],"valueKind":"reported"},"totalUnitCount":1},"plannedCapacityMw":5.3,"plannedCapacityMwByTechnology":{"solar":5.3},"recordCount":2,"recordIds":["wattlas-record-gemunit-g100000831328","wattlas-record-gemunit-g100001022870"],"sourceIds":["gem-global-integrated-power-tracker"],"sourceUrl":"https://www.gem.wiki/Blanket_Mine_Solar_Plant","technologies":["solar"],"technologyMixMw":{"solar":17.5},"unitCount":2,"unitIds":["gem-unit-G100000831328","gem-unit-G100001022870"]},"type":"Feature"},{"geometry":{"coordinates":[30.805,-17.6796],"type":"Point"},"id":"wattlas-plant-gemplant-l100000827772","properties":{"aliases":["--","Centragrid Power Station solar project"],"canonicalAnchor":"gemplant:L100000827772","canonicalCountryKey":"ZW","capacityMw":2.0,"country":"ZW","externalIds":{"gemPlant":"L100000827772","gemUnit":"G100000831329"},"gemWikiUrl":"https://www.gem.wiki/Centragrid_Power_Station_solar_project","geographyId":"ZW-88200057B70993266842589","id":"wattlas-plant-gemplant-l100000827772","lifecycleCounts":{"operational":1},"locationPrecision":"exact","name":"Centragrid Power Station solar project","operatingCapacityCoverage":{"coveragePercent":100.0,"knownUnitCount":1,"method":"complete_unit_sum","provenance":{"evidenceCount":0,"recordIds":["wattlas-record-gemunit-g100000831329"],"sourceIds":["gem-global-integrated-power-tracker"],"sourceTypes":["research_verified"],"valueKind":"reported"},"totalUnitCount":1},"operatingCapacityMw":2.0,"operatingCapacityMwByTechnology":{"solar":2.0},"plannedCapacityCoverage":{"coveragePercent":0.0,"knownUnitCount":0,"method":"unavailable","totalUnitCount":0},"plannedCapacityMw":0.0,"plannedCapacityMwByTechnology":{},"recordCount":1,"recordIds":["wattlas-record-gemunit-g100000831329"],"sourceIds":["gem-global-integrated-power-tracker"],"sourceUrl":"https://www.gem.wiki/Centragrid_Power_Station_solar_project","technologies":["solar"],"technologyMixMw":{"solar":2.0},"unitCount":1,"unitIds":["gem-unit-G100000831329"]},"type":"Feature"},{"geometry":{"coordinates":[27.0234,-18.5646],"type":"Point"},"id":"wattlas-plant-gemplant-l100000827774","properties":{"aliases":["--","Cross Mabale Power Plant solar project"],"canonicalAnchor":"gemplant:L100000827774","canonicalCountryKey":"ZW","capacityMw":5.0,"country":"ZW","externalIds":{"gemPlant":"L100000827774","gemUnit":"G100000831331"},"gemWikiUrl":"https://www.gem.wiki/Cross_Mabale_Power_Plant_solar_project","geographyId":"ZW-88200057B11544283676020","id":"wattlas-plant-gemplant-l100000827774","lifecycleCounts":{"operational":1},"locationPrecision":"exact","name":"Cross Mabale Power Plant solar project","operatingCapacityCoverage":{"coveragePercent":100.0,"knownUnitCount":1,"method":"complete_unit_sum","provenance":{"evidenceCount":0,"recordIds":["wattlas-record-gemunit-g100000831331"],"sourceIds":["gem-global-integrated-power-tracker"],"sourceTypes":["research_verified"],"valueKind":"reported"},"totalUnitCount":1},"operatingCapacityMw":5.0,"operatingCapacityMwByTechnology":{"solar":5.0},"plannedCapacityCoverage":{"coveragePercent":0.0,"knownUnitCount":0,"method":"unavailable","totalUnitCount":0},"plannedCapacityMw":0.0,"plannedCapacityMwByTechnology":{},"recordCount":1,"recordIds":["wattlas-record-gemunit-g100000831331"],"sourceIds":["gem-global-integrated-power-tracker"],"sourceUrl":"https://www.gem.wiki/Cross_Mabale_Power_Plant_solar_project","technologies":["solar"],"technologyMixMw":{"solar":5.0},"unitCount":1,"unitIds":["gem-unit-G100000831331"]},"type":"Feature"},{"geometry":{"coordinates":[30.7261,-16.6265],"type":"Point"},"id":"wattlas-plant-gemplant-l100000827775","properties":{"aliases":["1.0","Guruve Solar Park"],"canonicalAnchor":"gemplant:L100000827775","canonicalCountryKey":"ZW","capacityMw":1.2,"country":"ZW","externalIds":{"gemPlant":"L100000827775","gemUnit":"G100000831332"},"gemWikiUrl":"https://www.gem.wiki/Guruve_Solar_Park","geographyId":"ZW-88200057B2601963641625","id":"wattlas-plant-gemplant-l100000827775","lifecycleCounts":{"operational":1},"locationPrecision":"exact","name":"Guruve Solar Park","operatingCapacityCoverage":{"coveragePercent":100.0,"knownUnitCount":1,"method":"complete_unit_sum","provenance":{"evidenceCount":0,"recordIds":["wattlas-record-gemunit-g100000831332"],"sourceIds":["gem-global-integrated-power-tracker"],"sourceTypes":["research_verified"],"valueKind":"reported"},"totalUnitCount":1},"operatingCapacityMw":1.2,"operatingCapacityMwByTechnology":{"solar":1.2},"plannedCapacityCoverage":{"coveragePercent":0.0,"knownUnitCount":0,"method":"unavailable","totalUnitCount":0},"plannedCapacityMw":0.0,"plannedCapacityMwByTechnology":{},"recordCount":1,"recordIds":["wattlas-record-gemunit-g100000831332"],"sourceIds":["gem-global-integrated-power-tracker"],"sourceUrl":"https://www.gem.wiki/Guruve_Solar_Park","technologies":["solar"],"technologyMixMw":{"solar":1.2},"unitCount":1,"unitIds":["gem-unit-G100000831332"]},"type":"Feature"},{"geometry":{"coordinates":[32.6748,-20.5248],"type":"Point"},"id":"wattlas-plant-gemplant-l100000827777","properties":{"aliases":["--","Jersey Estates Solar Plant"],"canonicalAnchor":"gemplant:L100000827777","canonicalCountryKey":"ZW","capacityMw":1.4,"country":"ZW","externalIds":{"gemPlant":"L100000827777","gemUnit":"G100000831334"},"gemWikiUrl":"https://www.gem.wiki/Jersey_Estates_Solar_Plant","geographyId":"ZW-88200057B32763847551562","id":"wattlas-plant-gemplant-l100000827777","lifecycleCounts":{"operational":1},"locationPrecision":"exact","name":"Jersey Estates Solar Plant","operatingCapacityCoverage":{"coveragePercent":100.0,"knownUnitCount":1,"method":"complete_unit_sum","provenance":{"evidenceCount":0,"recordIds":["wattlas-record-gemunit-g100000831334"],"sourceIds":["gem-global-integrated-power-tracker"],"sourceTypes":["research_verified"],"valueKind":"reported"},"totalUnitCount":1},"operatingCapacityMw":1.4,"operatingCapacityMwByTechnology":{"solar":1.4},"plannedCapacityCoverage":{"coveragePercent":0.0,"knownUnitCount":0,"method":"unavailable","totalUnitCount":0},"plannedCapacityMw":0.0,"plannedCapacityMwByTechnology":{},"recordCount":1,"recordIds":["wattlas-record-gemunit-g100000831334"],"sourceIds":["gem-global-integrated-power-tracker"],"sourceUrl":"https://www.gem.wiki/Jersey_Estates_Solar_Plant","technologies":["solar"],"technologyMixMw":{"solar":1.4},"unitCount":1,"unitIds":["gem-unit-G100000831334"]},"type":"Feature"},{"geometry":{"coordinates":[28.8737,-16.5412],"type":"Point"},"id":"wattlas-plant-gemplant-l100000827784","properties":{"aliases":["--","Nyanyana South Solar Plant"],"canonicalAnchor":"gemplant:L100000827784","canonicalCountryKey":"ZW","capacityMw":1.2,"country":"ZW","externalIds":{"gemPlant":"L100000827784","gemUnit":"G100000831342"},"gemWikiUrl":"https://www.gem.wiki/Nyanyana_South_Solar_Plant","geographyId":"ZW-88200057B70993266842589","id":"wattlas-plant-gemplant-l100000827784","lifecycleCounts":{"operational":1},"locationPrecision":"exact","name":"Nyanyana South Solar Plant","operatingCapacityCoverage":{"coveragePercent":100.0,"knownUnitCount":1,"method":"complete_unit_sum","provenance":{"evidenceCount":0,"recordIds":["wattlas-record-gemunit-g100000831342"],"sourceIds":["gem-global-integrated-power-tracker"],"sourceTypes":["research_verified"],"valueKind":"reported"},"totalUnitCount":1},"operatingCapacityMw":1.2,"operatingCapacityMwByTechnology":{"solar":1.2},"plannedCapacityCoverage":{"coveragePercent":0.0,"knownUnitCount":0,"method":"unavailable","totalUnitCount":0},"plannedCapacityMw":0.0,"plannedCapacityMwByTechnology":{},"recordCount":1,"recordIds":["wattlas-record-gemunit-g100000831342"],"sourceIds":["gem-global-integrated-power-tracker"],"sourceUrl":"https://www.gem.wiki/Nyanyana_South_Solar_Plant","technologies":["solar"],"technologyMixMw":{"solar":1.2},"unitCount":1,"unitIds":["gem-unit-G100000831342"]},"type":"Feature"},{"geometry":{"coordinates":[29.6667,-19.5501],"type":"Point"},"id":"wattlas-plant-gemplant-l100000827785","properties":{"aliases":["--","Orient Farm of Somabhula solar farm"],"canonicalAnchor":"gemplant:L100000827785","canonicalCountryKey":"ZW","capacityMw":0.0,"country":"ZW","externalIds":{"gemPlant":"L100000827785","gemUnit":"G100000831343"},"gemWikiUrl":"https://www.gem.wiki/Orient_Farm_of_Somabhula_solar_farm","geographyId":"ZW-88200057B27236199640876","id":"wattlas-plant-gemplant-l100000827785","lifecycleCounts":{"paused":1},"locationPrecision":"exact","name":"Orient Farm of Somabhula solar farm","operatingCapacityCoverage":{"coveragePercent":0.0,"knownUnitCount":0,"method":"unavailable","totalUnitCount":0},"operatingCapacityMw":0.0,"operatingCapacityMwByTechnology":{},"plannedCapacityCoverage":{"coveragePercent":0.0,"knownUnitCount":0,"method":"unavailable","totalUnitCount":0},"plannedCapacityMw":0.0,"plannedCapacityMwByTechnology":{},"recordCount":1,"recordIds":["wattlas-record-gemunit-g100000831343"],"sourceIds":["gem-global-integrated-power-tracker"],"sourceUrl":"https://www.gem.wiki/Orient_Farm_of_Somabhula_solar_farm","technologies":["solar"],"technologyMixMw":{"solar":0.0},"unitCount":1,"unitIds":["gem-unit-G100000831343"]},"type":"Feature"},{"geometry":{"coordinates":[32.2274,-17.412],"type":"Point"},"id":"wattlas-plant-gemplant-l100000827788","properties":{"aliases":["1.0","2.0","Riverside Power Station solar project"],"canonicalAnchor":"gemplant:L100000827788","canonicalCountryKey":"ZW","capacityMw":10.0,"country":"ZW","externalIdAliases":{"gemUnit":["G100000831346","G100001022871"]},"externalIds":{"gemPlant":"L100000827788","gemUnit":"G100001022871"},"gemWikiUrl":"https://www.gem.wiki/Riverside_Power_Station_solar_project","geographyId":"ZW-88200057B49508968932773","id":"wattlas-plant-gemplant-l100000827788","lifecycleCounts":{"announced":1,"operational":1},"locationPrecision":"exact","name":"Riverside Power Station solar project","operatingCapacityCoverage":{"coveragePercent":100.0,"knownUnitCount":1,"method":"complete_unit_sum","provenance":{"evidenceCount":0,"recordIds":["wattlas-record-gemunit-g100000831346"],"sourceIds":["gem-global-integrated-power-tracker"],"sourceTypes":["research_verified"],"valueKind":"reported"},"totalUnitCount":1},"operatingCapacityMw":2.5,"operatingCapacityMwByTechnology":{"solar":2.5},"plannedCapacityCoverage":{"coveragePercent":100.0,"knownUnitCount":1,"method":"complete_unit_sum","provenance":{"evidenceCount":0,"recordIds":["wattlas-record-gemunit-g100001022871"],"sourceIds":["gem-global-integrated-power-tracker"],"sourceTypes":["research_verified"],"valueKind":"reported"},"totalUnitCount":1},"plannedCapacityMw":7.5,"plannedCapacityMwByTechnology":{"solar":7.5},"recordCount":2,"recordIds":["wattlas-record-gemunit-g100000831346","wattlas-record-gemunit-g100001022871"],"sourceIds":["gem-global-integrated-power-tracker"],"sourceUrl":"https://www.gem.wiki/Riverside_Power_Station_solar_project","technologies":["solar"],"technologyMixMw":{"solar":10.0},"unitCount":2,"unitIds":["gem-unit-G100000831346","gem-unit-G100001022871"]},"type":"Feature"},{"geometry":{"coordinates":[30.9827,-17.8767],"type":"Point"},"id":"wattlas-plant-gemplant-l100000827790","properties":{"aliases":["--","Schweppes Harare Solar Plant"],"canonicalAnchor":"gemplant:L100000827790","canonicalCountryKey":"ZW","capacityMw":1.0,"country":"ZW","externalIds":{"gemPlant":"L100000827790","gemUnit":"G100000831355"},"gemWikiUrl":"https://www.gem.wiki/Schweppes_Harare_Solar_Plant","geographyId":"ZW-88200057B87996012089813","id":"wattlas-plant-gemplant-l100000827790","lifecycleCounts":{"operational":1},"locationPrecision":"exact","name":"Schweppes Harare Solar Plant","operatingCapacityCoverage":{"coveragePercent":100.0,"knownUnitCount":1,"method":"complete_unit_sum","provenance":{"evidenceCount":0,"recordIds":["wattlas-record-gemunit-g100000831355"],"sourceIds":["gem-global-integrated-power-tracker"],"sourceTypes":["research_verified"],"valueKind":"reported"},"totalUnitCount":1},"operatingCapacityMw":1.0,"operatingCapacityMwByTechnology":{"solar":1.0},"plannedCapacityCoverage":{"coveragePercent":0.0,"knownUnitCount":0,"method":"unavailable","totalUnitCount":0},"plannedCapacityMw":0.0,"plannedCapacityMwByTechnology":{},"recordCount":1,"recordIds":["wattlas-record-gemunit-g100000831355"],"sourceIds":["gem-global-integrated-power-tracker"],"sourceUrl":"https://www.gem.wiki/Schweppes_Harare_Solar_Plant","technologies":["solar"],"technologyMixMw":{"solar":1.0},"unitCount":1,"unitIds":["gem-unit-G100000831355"]},"type":"Feature"},{"geometry":{"coordinates":[32.7855,-20.1576],"type":"Point"},"id":"wattlas-plant-gemplant-l100000827793","properties":{"aliases":["--","Tanganda- Ratelshoek Solar Plant"],"canonicalAnchor":"gemplant:L100000827793","canonicalCountryKey":"ZW","capacityMw":1.8,"country":"ZW","externalIds":{"gemPlant":"L100000827793","gemUnit":"G100000831358"},"gemWikiUrl":"https://www.gem.wiki/Tanganda-_Ratelshoek_Solar_Plant","geographyId":"ZW-88200057B32763847551562","id":"wattlas-plant-gemplant-l100000827793","lifecycleCounts":{"operational":1},"locationPrecision":"exact","name":"Tanganda- Ratelshoek Solar Plant","operatingCapacityCoverage":{"coveragePercent":100.0,"knownUnitCount":1,"method":"complete_unit_sum","provenance":{"evidenceCount":0,"recordIds":["wattlas-record-gemunit-g100000831358"],"sourceIds":["gem-global-integrated-power-tracker"],"sourceTypes":["research_verified"],"valueKind":"reported"},"totalUnitCount":1},"operatingCapacityMw":1.8,"operatingCapacityMwByTechnology":{"solar":1.8},"plannedCapacityCoverage":{"coveragePercent":0.0,"knownUnitCount":0,"method":"unavailable","totalUnitCount":0},"plannedCapacityMw":0.0,"plannedCapacityMwByTechnology":{},"recordCount":1,"recordIds":["wattlas-record-gemunit-g100000831358"],"sourceIds":["gem-global-integrated-power-tracker"],"sourceUrl":"https://www.gem.wiki/Tanganda-_Ratelshoek_Solar_Plant","technologies":["solar"],"technologyMixMw":{"solar":1.8},"unitCount":1,"unitIds":["gem-unit-G100000831358"]},"type":"Feature"},{"geometry":{"coordinates":[32.7878,-20.159],"type":"Point"},"id":"wattlas-plant-gemplant-l100000827794","properties":{"aliases":["--","Tingamira Estates solar project"],"canonicalAnchor":"gemplant:L100000827794","canonicalCountryKey":"ZW","capacityMw":1.2,"country":"ZW","externalIds":{"gemPlant":"L100000827794","gemUnit":"G100000831359"},"gemWikiUrl":"https://www.gem.wiki/Tingamira_Estates_solar_project","geographyId":"ZW-88200057B32763847551562","id":"wattlas-plant-gemplant-l100000827794","lifecycleCounts":{"operational":1},"locationPrecision":"exact","name":"Tingamira Estates solar project","operatingCapacityCoverage":{"coveragePercent":100.0,"knownUnitCount":1,"method":"complete_unit_sum","provenance":{"evidenceCount":0,"recordIds":["wattlas-record-gemunit-g100000831359"],"sourceIds":["gem-global-integrated-power-tracker"],"sourceTypes":["research_verified"],"valueKind":"reported"},"totalUnitCount":1},"operatingCapacityMw":1.2,"operatingCapacityMwByTechnology":{"solar":1.2},"plannedCapacityCoverage":{"coveragePercent":0.0,"knownUnitCount":0,"method":"unavailable","totalUnitCount":0},"plannedCapacityMw":0.0,"plannedCapacityMwByTechnology":{},"recordCount":1,"recordIds":["wattlas-record-gemunit-g100000831359"],"sourceIds":["gem-global-integrated-power-tracker"],"sourceUrl":"https://www.gem.wiki/Tingamira_Estates_solar_project","technologies":["solar"],"technologyMixMw":{"solar":1.2},"unitCount":1,"unitIds":["gem-unit-G100000831359"]},"type":"Feature"},{"geometry":{"coordinates":[30.6972,-16.662],"type":"Point"},"id":"wattlas-plant-gemplant-l100001016591","properties":{"aliases":["1.0","2.0","Guruve solar farm"],"canonicalAnchor":"gemplant:L100001016591","canonicalCountryKey":"ZW","capacityMw":35.0,"country":"ZW","externalIdAliases":{"gemUnit":["G100001018468","G100001018469"]},"externalIds":{"gemPlant":"L100001016591","gemUnit":"G100001018469"},"gemWikiUrl":"https://www.gem.wiki/Guruve_solar_farm","geographyId":"ZW-88200057B2601963641625","id":"wattlas-plant-gemplant-l100001016591","lifecycleCounts":{"announced":1,"operational":1},"locationPrecision":"exact","name":"Guruve solar farm","operatingCapacityCoverage":{"coveragePercent":100.0,"knownUnitCount":1,"method":"complete_unit_sum","provenance":{"evidenceCount":0,"recordIds":["wattlas-record-gemunit-g100001018468"],"sourceIds":["gem-global-integrated-power-tracker"],"sourceTypes":["research_verified"],"valueKind":"reported"},"totalUnitCount":1},"operatingCapacityMw":5.0,"operatingCapacityMwByTechnology":{"solar":5.0},"plannedCapacityCoverage":{"coveragePercent":100.0,"knownUnitCount":1,"method":"complete_unit_sum","provenance":{"evidenceCount":0,"recordIds":["wattlas-record-gemunit-g100001018469"],"sourceIds":["gem-global-integrated-power-tracker"],"sourceTypes":["research_verified"],"valueKind":"reported"},"totalUnitCount":1},"plannedCapacityMw":30.0,"plannedCapacityMwByTechnology":{"solar":30.0},"recordCount":2,"recordIds":["wattlas-record-gemunit-g100001018468","wattlas-record-gemunit-g100001018469"],"sourceIds":["gem-global-integrated-power-tracker"],"sourceUrl":"https://www.gem.wiki/Guruve_solar_farm","technologies":["solar"],"technologyMixMw":{"solar":35.0},"unitCount":2,"unitIds":["gem-unit-G100001018468","gem-unit-G100001018469"]},"type":"Feature"},{"geometry":{"coordinates":[29.6439,-22.1128],"type":"Point"},"id":"wattlas-plant-gemplant-l100001020071","properties":{"aliases":["--","Nottingham Estates Solar/ Diesel Power Plant"],"canonicalAnchor":"gemplant:L100001020071","canonicalCountryKey":"ZW","capacityMw":2.2,"country":"ZW","externalIds":{"gemPlant":"L100001020071","gemUnit":"G100001022844"},"gemWikiUrl":"https://www.gem.wiki/Nottingham_Estates_Solar/_Diesel_Power_Plant","geographyId":"ZW-88200057B5014357533485","id":"wattlas-plant-gemplant-l100001020071","lifecycleCounts":{"operational":1},"locationPrecision":"exact","name":"Nottingham Estates Solar/ Diesel Power Plant","operatingCapacityCoverage":{"coveragePercent":100.0,"knownUnitCount":1,"method":"complete_unit_sum","provenance":{"evidenceCount":0,"recordIds":["wattlas-record-gemunit-g100001022844"],"sourceIds":["gem-global-integrated-power-tracker"],"sourceTypes":["research_verified"],"valueKind":"reported"},"totalUnitCount":1},"operatingCapacityMw":2.2,"operatingCapacityMwByTechnology":{"solar":2.2},"plannedCapacityCoverage":{"coveragePercent":0.0,"knownUnitCount":0,"method":"unavailable","totalUnitCount":0},"plannedCapacityMw":0.0,"plannedCapacityMwByTechnology":{},"recordCount":1,"recordIds":["wattlas-record-gemunit-g100001022844"],"sourceIds":["gem-global-integrated-power-tracker"],"sourceUrl":"https://www.gem.wiki/Nottingham_Estates_Solar/_Diesel_Power_Plant","technologies":["solar"],"technologyMixMw":{"solar":2.2},"unitCount":1,"unitIds":["gem-unit-G100001022844"]},"type":"Feature"},{"geometry":{"coordinates":[29.1032,-21.0069],"type":"Point"},"id":"wattlas-plant-gemplant-l100001020073","properties":{"aliases":["--","Sunset Technologies Solar Park"],"canonicalAnchor":"gemplant:L100001020073","canonicalCountryKey":"ZW","capacityMw":5.0,"country":"ZW","externalIds":{"gemPlant":"L100001020073","gemUnit":"G100001022846"},"gemWikiUrl":"https://www.gem.wiki/Sunset_Technologies_Solar_Park","geographyId":"ZW-88200057B5014357533485","id":"wattlas-plant-gemplant-l100001020073","lifecycleCounts":{"operational":1},"locationPrecision":"exact","name":"Sunset Technologies Solar Park","operatingCapacityCoverage":{"coveragePercent":100.0,"knownUnitCount":1,"method":"complete_unit_sum","provenance":{"evidenceCount":0,"recordIds":["wattlas-record-gemunit-g100001022846"],"sourceIds":["gem-global-integrated-power-tracker"],"sourceTypes":["research_verified"],"valueKind":"reported"},"totalUnitCount":1},"operatingCapacityMw":5.0,"operatingCapacityMwByTechnology":{"solar":5.0},"plannedCapacityCoverage":{"coveragePercent":0.0,"knownUnitCount":0,"method":"unavailable","totalUnitCount":0},"plannedCapacityMw":0.0,"plannedCapacityMwByTechnology":{},"recordCount":1,"recordIds":["wattlas-record-gemunit-g100001022846"],"sourceIds":["gem-global-integrated-power-tracker"],"sourceUrl":"https://www.gem.wiki/Sunset_Technologies_Solar_Park","technologies":["solar"],"technologyMixMw":{"solar":5.0},"unitCount":1,"unitIds":["gem-unit-G100001022846"]},"type":"Feature"},{"geometry":{"coordinates":[31.877,-18.0012],"type":"Point"},"id":"wattlas-plant-gemplant-l100001020074","properties":{"aliases":["--","Durlstone Farm Solar Plant"],"canonicalAnchor":"gemplant:L100001020074","canonicalCountryKey":"ZW","capacityMw":1.0,"country":"ZW","externalIds":{"gemPlant":"L100001020074","gemUnit":"G100001022847"},"gemWikiUrl":"https://www.gem.wiki/Durlstone_Farm_Solar_Plant","geographyId":"ZW-88200057B49508968932773","id":"wattlas-plant-gemplant-l100001020074","lifecycleCounts":{"operational":1},"locationPrecision":"exact","name":"Durlstone Farm Solar Plant","operatingCapacityCoverage":{"coveragePercent":100.0,"knownUnitCount":1,"method":"complete_unit_sum","provenance":{"evidenceCount":0,"recordIds":["wattlas-record-gemunit-g100001022847"],"sourceIds":["gem-global-integrated-power-tracker"],"sourceTypes":["research_verified"],"valueKind":"reported"},"totalUnitCount":1},"operatingCapacityMw":1.0,"operatingCapacityMwByTechnology":{"solar":1.0},"plannedCapacityCoverage":{"coveragePercent":0.0,"knownUnitCount":0,"method":"unavailable","totalUnitCount":0},"plannedCapacityMw":0.0,"plannedCapacityMwByTechnology":{},"recordCount":1,"recordIds":["wattlas-record-gemunit-g100001022847"],"sourceIds":["gem-global-integrated-power-tracker"],"sourceUrl":"https://www.gem.wiki/Durlstone_Farm_Solar_Plant","technologies":["solar"],"technologyMixMw":{"solar":1.0},"unitCount":1,"unitIds":["gem-unit-G100001022847"]},"type":"Feature"},{"geometry":{"coordinates":[28.7957,-19.7186],"type":"Point"},"id":"wattlas-plant-gemplant-l100001020075","properties":{"aliases":["--","Turk Mine Solar Power Plant"],"canonicalAnchor":"gemplant:L100001020075","canonicalCountryKey":"ZW","capacityMw":4.4,"country":"ZW","externalIds":{"gemPlant":"L100001020075","gemUnit":"G100001022848"},"gemWikiUrl":"https://www.gem.wiki/Turk_Mine_Solar_Power_Plant","geographyId":"ZW-88200057B11544283676020","id":"wattlas-plant-gemplant-l100001020075","lifecycleCounts":{"operational":1},"locationPrecision":"exact","name":"Turk Mine Solar Power Plant","operatingCapacityCoverage":{"coveragePercent":100.0,"knownUnitCount":1,"method":"complete_unit_sum","provenance":{"evidenceCount":0,"recordIds":["wattlas-record-gemunit-g100001022848"],"sourceIds":["gem-global-integrated-power-tracker"],"sourceTypes":["research_verified"],"valueKind":"reported"},"totalUnitCount":1},"operatingCapacityMw":4.4,"operatingCapacityMwByTechnology":{"solar":4.4},"plannedCapacityCoverage":{"coveragePercent":0.0,"knownUnitCount":0,"method":"unavailable","totalUnitCount":0},"plannedCapacityMw":0.0,"plannedCapacityMwByTechnology":{},"recordCount":1,"recordIds":["wattlas-record-gemunit-g100001022848"],"sourceIds":["gem-global-integrated-power-tracker"],"sourceUrl":"https://www.gem.wiki/Turk_Mine_Solar_Power_Plant","technologies":["solar"],"technologyMixMw":{"solar":4.4},"unitCount":1,"unitIds":["gem-unit-G100001022848"]},"type":"Feature"},{"geometry":{"coordinates":[32.920448,-18.3454],"type":"Point"},"id":"wattlas-plant-osm-way-1028372305","properties":{"aliases":["Nyamhingura Hydroelectric Power Station"],"canonicalAnchor":"osm:way/1028372305","canonicalCountryKey":"ZW","capacityMw":1.1,"country":"ZW","externalIds":{"osm":"way/1028372305"},"geographyId":"ZW-88200057B32763847551562","id":"wattlas-plant-osm-way-1028372305","lifecycleCounts":{"operational":1},"locationPrecision":"exact","name":"Nyamhingura Hydroelectric Power Station","operatingCapacityCoverage":{"coveragePercent":100.0,"knownUnitCount":0,"method":"plant_aggregate","provenance":{"evidenceCount":0,"recordIds":["wattlas-record-osm-way-1028372305"],"sourceIds":["openstreetmap-power"],"sourceTypes":["community_mapped"],"valueKind":"reported"},"totalUnitCount":0},"operatingCapacityMw":1.1,"operatingCapacityMwByTechnology":{"hydro":1.1},"plannedCapacityCoverage":{"coveragePercent":0.0,"knownUnitCount":0,"method":"unavailable","totalUnitCount":0},"plannedCapacityMw":0.0,"plannedCapacityMwByTechnology":{},"recordCount":1,"recordIds":["wattlas-record-osm-way-1028372305"],"sourceIds":["openstreetmap-power"],"sourceUrl":"https://www.openstreetmap.org/way/1028372305","technologies":["hydro"],"technologyMixMw":{"hydro":1.1},"unitCount":0,"unitIds":[]},"type":"Feature"},{"geometry":{"coordinates":[32.907094,-18.395489],"type":"Point"},"id":"wattlas-plant-osm-way-1035917796","properties":{"aliases":["Pungwe C Hydroelectric Power Station"],"canonicalAnchor":"osm:way/1035917796","canonicalCountryKey":"ZW","capacityMw":4.3,"country":"ZW","externalIds":{"osm":"way/1035917796"},"geographyId":"ZW-88200057B32763847551562","id":"wattlas-plant-osm-way-1035917796","lifecycleCounts":{"operational":1},"locationPrecision":"exact","name":"Pungwe C Hydroelectric Power Station","operatingCapacityCoverage":{"coveragePercent":100.0,"knownUnitCount":0,"method":"plant_aggregate","provenance":{"evidenceCount":0,"recordIds":["wattlas-record-osm-way-1035917796"],"sourceIds":["openstreetmap-power"],"sourceTypes":["community_mapped"],"valueKind":"reported"},"totalUnitCount":0},"operatingCapacityMw":4.3,"operatingCapacityMwByTechnology":{"hydro":4.3},"plannedCapacityCoverage":{"coveragePercent":0.0,"knownUnitCount":0,"method":"unavailable","totalUnitCount":0},"plannedCapacityMw":0.0,"plannedCapacityMwByTechnology":{},"recordCount":1,"recordIds":["wattlas-record-osm-way-1035917796"],"sourceIds":["openstreetmap-power"],"sourceUrl":"https://www.openstreetmap.org/way/1035917796","technologies":["hydro"],"technologyMixMw":{"hydro":4.3},"unitCount":0,"unitIds":[]},"type":"Feature"},{"geometry":{"coordinates":[30.784669,-17.668741],"type":"Point"},"id":"wattlas-plant-osm-way-1076879888","properties":{"aliases":["Nyabira Solar Plant"],"canonicalAnchor":"osm:way/1076879888","canonicalCountryKey":"ZW","capacityMw":25.0,"country":"ZW","externalIds":{"osm":"way/1076879888"},"geographyId":"ZW-88200057B70993266842589","id":"wattlas-plant-osm-way-1076879888","lifecycleCounts":{"operational":1},"locationPrecision":"exact","name":"Nyabira Solar Plant","operatingCapacityCoverage":{"coveragePercent":100.0,"knownUnitCount":0,"method":"plant_aggregate","provenance":{"evidenceCount":0,"recordIds":["wattlas-record-osm-way-1076879888"],"sourceIds":["openstreetmap-power"],"sourceTypes":["community_mapped"],"valueKind":"reported"},"totalUnitCount":0},"operatingCapacityMw":25.0,"operatingCapacityMwByTechnology":{"solar":25.0},"plannedCapacityCoverage":{"coveragePercent":0.0,"knownUnitCount":0,"method":"unavailable","totalUnitCount":0},"plannedCapacityMw":0.0,"plannedCapacityMwByTechnology":{},"recordCount":1,"recordIds":["wattlas-record-osm-way-1076879888"],"sourceIds":["openstreetmap-power"],"sourceUrl":"https://www.openstreetmap.org/way/1076879888","technologies":["solar"],"technologyMixMw":{"solar":25.0},"unitCount":0,"unitIds":[]},"type":"Feature"},{"geometry":{"coordinates":[32.845786,-18.4375],"type":"Point"},"id":"wattlas-plant-osm-way-1081693696","properties":{"aliases":["Pungwe A Hydroelectric Power Station"],"canonicalAnchor":"osm:way/1081693696","canonicalCountryKey":"ZW","capacityMw":2.1,"country":"ZW","externalIds":{"osm":"way/1081693696"},"geographyId":"ZW-88200057B32763847551562","id":"wattlas-plant-osm-way-1081693696","lifecycleCounts":{"operational":1},"locationPrecision":"exact","name":"Pungwe A Hydroelectric Power Station","operatingCapacityCoverage":{"coveragePercent":100.0,"knownUnitCount":0,"method":"plant_aggregate","provenance":{"evidenceCount":0,"recordIds":["wattlas-record-osm-way-1081693696"],"sourceIds":["openstreetmap-power"],"sourceTypes":["community_mapped"],"valueKind":"reported"},"totalUnitCount":0},"operatingCapacityMw":2.1,"operatingCapacityMwByTechnology":{"hydro":2.1},"plannedCapacityCoverage":{"coveragePercent":0.0,"knownUnitCount":0,"method":"unavailable","totalUnitCount":0},"plannedCapacityMw":0.0,"plannedCapacityMwByTechnology":{},"recordCount":1,"recordIds":["wattlas-record-osm-way-1081693696"],"sourceIds":["openstreetmap-power"],"sourceUrl":"https://www.openstreetmap.org/way/1081693696","technologies":["hydro"],"technologyMixMw":{"hydro":2.1},"unitCount":0,"unitIds":[]},"type":"Feature"},{"geometry":{"coordinates":[32.719793,-18.596851],"type":"Point"},"id":"wattlas-plant-osm-way-1081699037","properties":{"aliases":["Duru Hydroelectric Power Station"],"canonicalAnchor":"osm:way/1081699037","canonicalCountryKey":"ZW","capacityMw":2.2,"country":"ZW","externalIds":{"osm":"way/1081699037"},"geographyId":"ZW-88200057B32763847551562","id":"wattlas-plant-osm-way-1081699037","lifecycleCounts":{"operational":1},"locationPrecision":"exact","name":"Duru Hydroelectric Power Station","operatingCapacityCoverage":{"coveragePercent":100.0,"knownUnitCount":0,"method":"plant_aggregate","provenance":{"evidenceCount":0,"recordIds":["wattlas-record-osm-way-1081699037"],"sourceIds":["openstreetmap-power"],"sourceTypes":["community_mapped"],"valueKind":"reported"},"totalUnitCount":0},"operatingCapacityMw":2.2,"operatingCapacityMwByTechnology":{"hydro":2.2},"plannedCapacityCoverage":{"coveragePercent":0.0,"knownUnitCount":0,"method":"unavailable","totalUnitCount":0},"plannedCapacityMw":0.0,"plannedCapacityMwByTechnology":{},"recordCount":1,"recordIds":["wattlas-record-osm-way-1081699037"],"sourceIds":["openstreetmap-power"],"sourceUrl":"https://www.openstreetmap.org/way/1081699037","technologies":["hydro"],"technologyMixMw":{"hydro":2.2},"unitCount":0,"unitIds":[]},"type":"Feature"},{"geometry":{"coordinates":[32.878321,-18.537403],"type":"Point"},"id":"wattlas-plant-osm-way-1081708909","properties":{"aliases":["Hauna Hydroelectric Power Station"],"canonicalAnchor":"osm:way/1081708909","canonicalCountryKey":"ZW","capacityMw":2.3,"country":"ZW","externalIds":{"osm":"way/1081708909"},"geographyId":"ZW-88200057B32763847551562","id":"wattlas-plant-osm-way-1081708909","lifecycleCounts":{"operational":1},"locationPrecision":"exact","name":"Hauna Hydroelectric Power Station","operatingCapacityCoverage":{"coveragePercent":100.0,"knownUnitCount":0,"method":"plant_aggregate","provenance":{"evidenceCount":0,"recordIds":["wattlas-record-osm-way-1081708909"],"sourceIds":["openstreetmap-power"],"sourceTypes":["community_mapped"],"valueKind":"reported"},"totalUnitCount":0},"operatingCapacityMw":2.3,"operatingCapacityMwByTechnology":{"hydro":2.3},"plannedCapacityCoverage":{"coveragePercent":0.0,"knownUnitCount":0,"method":"unavailable","totalUnitCount":0},"plannedCapacityMw":0.0,"plannedCapacityMwByTechnology":{},"recordCount":1,"recordIds":["wattlas-record-osm-way-1081708909"],"sourceIds":["openstreetmap-power"],"sourceUrl":"https://www.openstreetmap.org/way/1081708909","technologies":["hydro"],"technologyMixMw":{"hydro":2.3},"unitCount":0,"unitIds":[]},"type":"Feature"},{"geometry":{"coordinates":[32.897767,-18.130017],"type":"Point"},"id":"wattlas-plant-osm-way-1081722470","properties":{"aliases":["Tsanga B"],"canonicalAnchor":"osm:way/1081722470","canonicalCountryKey":"ZW","capacityMw":2.8,"country":"ZW","externalIds":{"osm":"way/1081722470"},"geographyId":"ZW-88200057B32763847551562","id":"wattlas-plant-osm-way-1081722470","lifecycleCounts":{"operational":1},"locationPrecision":"exact","name":"Tsanga B","operatingCapacityCoverage":{"coveragePercent":100.0,"knownUnitCount":0,"method":"plant_aggregate","provenance":{"evidenceCount":0,"recordIds":["wattlas-record-osm-way-1081722470"],"sourceIds":["openstreetmap-power"],"sourceTypes":["community_mapped"],"valueKind":"reported"},"totalUnitCount":0},"operatingCapacityMw":2.8,"operatingCapacityMwByTechnology":{"hydro":2.8},"plannedCapacityCoverage":{"coveragePercent":0.0,"knownUnitCount":0,"method":"unavailable","totalUnitCount":0},"plannedCapacityMw":0.0,"plannedCapacityMwByTechnology":{},"recordCount":1,"recordIds":["wattlas-record-osm-way-1081722470"],"sourceIds":["openstreetmap-power"],"sourceUrl":"https://www.openstreetmap.org/way/1081722470","technologies":["hydro"],"technologyMixMw":{"hydro":2.8},"unitCount":0,"unitIds":[]},"type":"Feature"},{"geometry":{"coordinates":[32.191248,-17.410713],"type":"Point"},"id":"wattlas-plant-osm-way-1081724812","properties":{"aliases":["Riverside Solar Park"],"canonicalAnchor":"osm:way/1081724812","canonicalCountryKey":"ZW","capacityMw":2.5,"country":"ZW","externalIds":{"osm":"way/1081724812"},"geographyId":"ZW-88200057B49508968932773","id":"wattlas-plant-osm-way-1081724812","lifecycleCounts":{"operational":1},"locationPrecision":"exact","name":"Riverside Solar Park","operatingCapacityCoverage":{"coveragePercent":100.0,"knownUnitCount":0,"method":"plant_aggregate","provenance":{"evidenceCount":0,"recordIds":["wattlas-record-osm-way-1081724812"],"sourceIds":["openstreetmap-power"],"sourceTypes":["community_mapped"],"valueKind":"reported"},"totalUnitCount":0},"operatingCapacityMw":2.5,"operatingCapacityMwByTechnology":{"solar":2.5},"plannedCapacityCoverage":{"coveragePercent":0.0,"knownUnitCount":0,"method":"unavailable","totalUnitCount":0},"plannedCapacityMw":0.0,"plannedCapacityMwByTechnology":{},"recordCount":1,"recordIds":["wattlas-record-osm-way-1081724812"],"sourceIds":["openstreetmap-power"],"sourceUrl":"https://www.openstreetmap.org/way/1081724812","technologies":["solar"],"technologyMixMw":{"solar":2.5},"unitCount":0,"unitIds":[]},"type":"Feature"},{"geometry":{"coordinates":[32.740056,-20.05497],"type":"Point"},"id":"wattlas-plant-osm-way-1083018583","properties":{"aliases":["Kupinga Hydroelectric Power Station"],"canonicalAnchor":"osm:way/1083018583","canonicalCountryKey":"ZW","capacityMw":1.6,"country":"ZW","externalIds":{"osm":"way/1083018583"},"geographyId":"ZW-88200057B32763847551562","id":"wattlas-plant-osm-way-1083018583","lifecycleCounts":{"operational":1},"locationPrecision":"exact","name":"Kupinga Hydroelectric Power Station","operatingCapacityCoverage":{"coveragePercent":100.0,"knownUnitCount":0,"method":"plant_aggregate","provenance":{"evidenceCount":0,"recordIds":["wattlas-record-osm-way-1083018583"],"sourceIds":["openstreetmap-power"],"sourceTypes":["community_mapped"],"valueKind":"reported"},"totalUnitCount":0},"operatingCapacityMw":1.6,"operatingCapacityMwByTechnology":{"hydro":1.6},"plannedCapacityCoverage":{"coveragePercent":0.0,"knownUnitCount":0,"method":"unavailable","totalUnitCount":0},"plannedCapacityMw":0.0,"plannedCapacityMwByTechnology":{},"recordCount":1,"recordIds":["wattlas-record-osm-way-1083018583"],"sourceIds":["openstreetmap-power"],"sourceUrl":"https://www.openstreetmap.org/way/1083018583","technologies":["hydro"],"technologyMixMw":{"hydro":1.6},"unitCount":0,"unitIds":[]},"type":"Feature"},{"geometry":{"coordinates":[29.645357,-22.112379],"type":"Point"},"id":"wattlas-plant-osm-way-1116868645","properties":{"aliases":["Nottingham Estate"],"canonicalAnchor":"osm:way/1116868645","canonicalCountryKey":"ZW","capacityMw":4.5,"country":"ZW","externalIds":{"osm":"way/1116868645"},"geographyId":"ZW-88200057B5014357533485","id":"wattlas-plant-osm-way-1116868645","lifecycleCounts":{"operational":1},"locationPrecision":"exact","name":"Nottingham Estate","operatingCapacityCoverage":{"coveragePercent":100.0,"knownUnitCount":0,"method":"plant_aggregate","provenance":{"evidenceCount":0,"recordIds":["wattlas-record-osm-way-1116868645"],"sourceIds":["openstreetmap-power"],"sourceTypes":["community_mapped"],"valueKind":"reported"},"totalUnitCount":0},"operatingCapacityMw":4.5,"operatingCapacityMwByTechnology":{"solar":4.5},"plannedCapacityCoverage":{"coveragePercent":0.0,"knownUnitCount":0,"method":"unavailable","totalUnitCount":0},"plannedCapacityMw":0.0,"plannedCapacityMwByTechnology":{},"recordCount":1,"recordIds":["wattlas-record-osm-way-1116868645"],"sourceIds":["openstreetmap-power"],"sourceUrl":"https://www.openstreetmap.org/way/1116868645","technologies":["solar"],"technologyMixMw":{"solar":4.5},"unitCount":0,"unitIds":[]},"type":"Feature"},{"geometry":{"coordinates":[31.245565,-18.109257],"type":"Point"},"id":"wattlas-plant-osm-way-1116980281","properties":{"aliases":["Harava Solar Plant Phase 1"],"canonicalAnchor":"osm:way/1116980281","canonicalCountryKey":"ZW","capacityMw":6.0,"country":"ZW","externalIds":{"osm":"way/1116980281"},"geographyId":"ZW-88200057B49508968932773","id":"wattlas-plant-osm-way-1116980281","lifecycleCounts":{"operational":1},"locationPrecision":"exact","name":"Harava Solar Plant Phase 1","operatingCapacityCoverage":{"coveragePercent":100.0,"knownUnitCount":0,"method":"plant_aggregate","provenance":{"evidenceCount":0,"recordIds":["wattlas-record-osm-way-1116980281"],"sourceIds":["openstreetmap-power"],"sourceTypes":["community_mapped"],"valueKind":"reported"},"totalUnitCount":0},"operatingCapacityMw":6.0,"operatingCapacityMwByTechnology":{"solar":6.0},"plannedCapacityCoverage":{"coveragePercent":0.0,"knownUnitCount":0,"method":"unavailable","totalUnitCount":0},"plannedCapacityMw":0.0,"plannedCapacityMwByTechnology":{},"recordCount":1,"recordIds":["wattlas-record-osm-way-1116980281"],"sourceIds":["openstreetmap-power"],"sourceUrl":"https://www.openstreetmap.org/way/1116980281","technologies":["solar"],"technologyMixMw":{"solar":6.0},"unitCount":0,"unitIds":[]},"type":"Feature"},{"geometry":{"coordinates":[27.031518,-18.567886],"type":"Point"},"id":"wattlas-plant-osm-way-1116981967","properties":{"aliases":["Cross Mabale"],"canonicalAnchor":"osm:way/1116981967","canonicalCountryKey":"ZW","capacityMw":7.5,"country":"ZW","externalIds":{"osm":"way/1116981967"},"geographyId":"ZW-88200057B11544283676020","id":"wattlas-plant-osm-way-1116981967","lifecycleCounts":{"operational":1},"locationPrecision":"exact","name":"Cross Mabale","operatingCapacityCoverage":{"coveragePercent":100.0,"knownUnitCount":0,"method":"plant_aggregate","provenance":{"evidenceCount":0,"recordIds":["wattlas-record-osm-way-1116981967"],"sourceIds":["openstreetmap-power"],"sourceTypes":["community_mapped"],"valueKind":"reported"},"totalUnitCount":0},"operatingCapacityMw":7.5,"operatingCapacityMwByTechnology":{"solar":7.5},"plannedCapacityCoverage":{"coveragePercent":0.0,"knownUnitCount":0,"method":"unavailable","totalUnitCount":0},"plannedCapacityMw":0.0,"plannedCapacityMwByTechnology":{},"recordCount":1,"recordIds":["wattlas-record-osm-way-1116981967"],"sourceIds":["openstreetmap-power"],"sourceUrl":"https://www.openstreetmap.org/way/1116981967","technologies":["solar"],"technologyMixMw":{"solar":7.5},"unitCount":0,"unitIds":[]},"type":"Feature"},{"geometry":{"coordinates":[28.875668,-16.538486],"type":"Point"},"id":"wattlas-plant-osm-way-1116982678","properties":{"aliases":["Kariba Crocodile Farm Solar Plant"],"canonicalAnchor":"osm:way/1116982678","canonicalCountryKey":"ZW","capacityMw":1.2,"country":"ZW","externalIds":{"osm":"way/1116982678"},"geographyId":"ZW-88200057B70993266842589","id":"wattlas-plant-osm-way-1116982678","lifecycleCounts":{"operational":1},"locationPrecision":"exact","name":"Kariba Crocodile Farm Solar Plant","operatingCapacityCoverage":{"coveragePercent":100.0,"knownUnitCount":0,"method":"plant_aggregate","provenance":{"evidenceCount":0,"recordIds":["wattlas-record-osm-way-1116982678"],"sourceIds":["openstreetmap-power"],"sourceTypes":["community_mapped"],"valueKind":"reported"},"totalUnitCount":0},"operatingCapacityMw":1.2,"operatingCapacityMwByTechnology":{"solar":1.2},"plannedCapacityCoverage":{"coveragePercent":0.0,"knownUnitCount":0,"method":"unavailable","totalUnitCount":0},"plannedCapacityMw":0.0,"plannedCapacityMwByTechnology":{},"recordCount":1,"recordIds":["wattlas-record-osm-way-1116982678"],"sourceIds":["openstreetmap-power"],"sourceUrl":"https://www.openstreetmap.org/way/1116982678","technologies":["solar"],"technologyMixMw":{"solar":1.2},"unitCount":0,"unitIds":[]},"type":"Feature"},{"geometry":{"coordinates":[28.913029,-20.855241],"type":"Point"},"id":"wattlas-plant-osm-way-1118438865","properties":{"aliases":["Blanket Mine Solar Farm"],"canonicalAnchor":"osm:way/1118438865","canonicalCountryKey":"ZW","capacityMw":12.0,"country":"ZW","externalIds":{"osm":"way/1118438865"},"geographyId":"ZW-88200057B5014357533485","id":"wattlas-plant-osm-way-1118438865","lifecycleCounts":{"operational":1},"locationPrecision":"exact","name":"Blanket Mine Solar Farm","operatingCapacityCoverage":{"coveragePercent":100.0,"knownUnitCount":0,"method":"plant_aggregate","provenance":{"evidenceCount":0,"recordIds":["wattlas-record-osm-way-1118438865"],"sourceIds":["openstreetmap-power"],"sourceTypes":["community_mapped"],"valueKind":"reported"},"totalUnitCount":0},"operatingCapacityMw":12.0,"operatingCapacityMwByTechnology":{"solar":12.0},"plannedCapacityCoverage":{"coveragePercent":0.0,"knownUnitCount":0,"method":"unavailable","totalUnitCount":0},"plannedCapacityMw":0.0,"plannedCapacityMwByTechnology":{},"recordCount":1,"recordIds":["wattlas-record-osm-way-1118438865"],"sourceIds":["openstreetmap-power"],"sourceUrl":"https://www.openstreetmap.org/way/1118438865","technologies":["solar"],"technologyMixMw":{"solar":12.0},"unitCount":0,"unitIds":[]},"type":"Feature"},{"geometry":{"coordinates":[25.880908,-18.093767],"type":"Point"},"id":"wattlas-plant-osm-way-1158365858","properties":{"aliases":["Victoria Falls Solar Plant - Phase 1"],"canonicalAnchor":"osm:way/1158365858","canonicalCountryKey":"ZW","capacityMw":5.0,"country":"ZW","externalIds":{"osm":"way/1158365858"},"geographyId":"ZW-88200057B11544283676020","id":"wattlas-plant-osm-way-1158365858","lifecycleCounts":{"operational":1},"locationPrecision":"exact","name":"Victoria Falls Solar Plant - Phase 1","operatingCapacityCoverage":{"coveragePercent":100.0,"knownUnitCount":0,"method":"plant_aggregate","provenance":{"evidenceCount":0,"recordIds":["wattlas-record-osm-way-1158365858"],"sourceIds":["openstreetmap-power"],"sourceTypes":["community_mapped"],"valueKind":"reported"},"totalUnitCount":0},"operatingCapacityMw":5.0,"operatingCapacityMwByTechnology":{"solar":5.0},"plannedCapacityCoverage":{"coveragePercent":0.0,"knownUnitCount":0,"method":"unavailable","totalUnitCount":0},"plannedCapacityMw":0.0,"plannedCapacityMwByTechnology":{},"recordCount":1,"recordIds":["wattlas-record-osm-way-1158365858"],"sourceIds":["openstreetmap-power"],"sourceUrl":"https://www.openstreetmap.org/way/1158365858","technologies":["solar"],"technologyMixMw":{"solar":5.0},"unitCount":0,"unitIds":[]},"type":"Feature"},{"geometry":{"coordinates":[32.787294,-20.15918],"type":"Point"},"id":"wattlas-plant-osm-way-1159577486","properties":{"aliases":["Tingamira Solar Plant"],"canonicalAnchor":"osm:way/1159577486","canonicalCountryKey":"ZW","capacityMw":1.2,"country":"ZW","externalIds":{"osm":"way/1159577486"},"geographyId":"ZW-88200057B32763847551562","id":"wattlas-plant-osm-way-1159577486","lifecycleCounts":{"operational":1},"locationPrecision":"exact","name":"Tingamira Solar Plant","operatingCapacityCoverage":{"coveragePercent":100.0,"knownUnitCount":0,"method":"plant_aggregate","provenance":{"evidenceCount":0,"recordIds":["wattlas-record-osm-way-1159577486"],"sourceIds":["openstreetmap-power"],"sourceTypes":["community_mapped"],"valueKind":"reported"},"totalUnitCount":0},"operatingCapacityMw":1.2,"operatingCapacityMwByTechnology":{"solar":1.2},"plannedCapacityCoverage":{"coveragePercent":0.0,"knownUnitCount":0,"method":"unavailable","totalUnitCount":0},"plannedCapacityMw":0.0,"plannedCapacityMwByTechnology":{},"recordCount":1,"recordIds":["wattlas-record-osm-way-1159577486"],"sourceIds":["openstreetmap-power"],"sourceUrl":"https://www.openstreetmap.org/way/1159577486","technologies":["solar"],"technologyMixMw":{"solar":1.2},"unitCount":0,"unitIds":[]},"type":"Feature"},{"geometry":{"coordinates":[32.674749,-20.52518],"type":"Point"},"id":"wattlas-plant-osm-way-1159579189","properties":{"aliases":["Jersey Tea Estate Solar Plant"],"canonicalAnchor":"osm:way/1159579189","canonicalCountryKey":"ZW","capacityMw":1.4,"country":"ZW","externalIds":{"osm":"way/1159579189"},"geographyId":"ZW-88200057B32763847551562","id":"wattlas-plant-osm-way-1159579189","lifecycleCounts":{"operational":1},"locationPrecision":"exact","name":"Jersey Tea Estate Solar Plant","operatingCapacityCoverage":{"coveragePercent":100.0,"knownUnitCount":0,"method":"plant_aggregate","provenance":{"evidenceCount":0,"recordIds":["wattlas-record-osm-way-1159579189"],"sourceIds":["openstreetmap-power"],"sourceTypes":["community_mapped"],"valueKind":"reported"},"totalUnitCount":0},"operatingCapacityMw":1.4,"operatingCapacityMwByTechnology":{"solar":1.4},"plannedCapacityCoverage":{"coveragePercent":0.0,"knownUnitCount":0,"method":"unavailable","totalUnitCount":0},"plannedCapacityMw":0.0,"plannedCapacityMwByTechnology":{},"recordCount":1,"recordIds":["wattlas-record-osm-way-1159579189"],"sourceIds":["openstreetmap-power"],"sourceUrl":"https://www.openstreetmap.org/way/1159579189","technologies":["solar"],"technologyMixMw":{"solar":1.4},"unitCount":0,"unitIds":[]},"type":"Feature"},{"geometry":{"coordinates":[28.795676,-19.71872],"type":"Point"},"id":"wattlas-plant-osm-way-1209198129","properties":{"aliases":["Turk Mine"],"canonicalAnchor":"osm:way/1209198129","canonicalCountryKey":"ZW","capacityMw":4.4,"country":"ZW","externalIds":{"osm":"way/1209198129"},"geographyId":"ZW-88200057B11544283676020","id":"wattlas-plant-osm-way-1209198129","lifecycleCounts":{"operational":1},"locationPrecision":"exact","name":"Turk Mine","operatingCapacityCoverage":{"coveragePercent":100.0,"knownUnitCount":0,"method":"plant_aggregate","provenance":{"evidenceCount":0,"recordIds":["wattlas-record-osm-way-1209198129"],"sourceIds":["openstreetmap-power"],"sourceTypes":["community_mapped"],"valueKind":"reported"},"totalUnitCount":0},"operatingCapacityMw":4.4,"operatingCapacityMwByTechnology":{"solar":4.4},"plannedCapacityCoverage":{"coveragePercent":0.0,"knownUnitCount":0,"method":"unavailable","totalUnitCount":0},"plannedCapacityMw":0.0,"plannedCapacityMwByTechnology":{},"recordCount":1,"recordIds":["wattlas-record-osm-way-1209198129"],"sourceIds":["openstreetmap-power"],"sourceUrl":"https://www.openstreetmap.org/way/1209198129","technologies":["solar"],"technologyMixMw":{"solar":4.4},"unitCount":0,"unitIds":[]},"type":"Feature"},{"geometry":{"coordinates":[26.404036,-18.328789],"type":"Point"},"id":"wattlas-plant-osm-way-1217683320","properties":{"aliases":["ZhongXin Power Station"],"canonicalAnchor":"osm:way/1217683320","canonicalCountryKey":"ZW","capacityMw":50.0,"country":"ZW","externalIds":{"osm":"way/1217683320"},"geographyId":"ZW-88200057B11544283676020","id":"wattlas-plant-osm-way-1217683320","lifecycleCounts":{"operational":1},"locationPrecision":"exact","name":"ZhongXin Power Station","operatingCapacityCoverage":{"coveragePercent":100.0,"knownUnitCount":0,"method":"plant_aggregate","provenance":{"evidenceCount":0,"recordIds":["wattlas-record-osm-way-1217683320"],"sourceIds":["openstreetmap-power"],"sourceTypes":["community_mapped"],"valueKind":"reported"},"totalUnitCount":0},"operatingCapacityMw":50.0,"operatingCapacityMwByTechnology":{"coal":50.0},"plannedCapacityCoverage":{"coveragePercent":0.0,"knownUnitCount":0,"method":"unavailable","totalUnitCount":0},"plannedCapacityMw":0.0,"plannedCapacityMwByTechnology":{},"recordCount":1,"recordIds":["wattlas-record-osm-way-1217683320"],"sourceIds":["openstreetmap-power"],"sourceUrl":"https://www.openstreetmap.org/way/1217683320","technologies":["coal"],"technologyMixMw":{"coal":50.0},"unitCount":0,"unitIds":[]},"type":"Feature"},{"geometry":{"coordinates":[30.750438,-16.666035],"type":"Point"},"id":"wattlas-plant-osm-way-1231562367","properties":{"aliases":["Delta Gold"],"canonicalAnchor":"osm:way/1231562367","canonicalCountryKey":"ZW","capacityMw":12.0,"country":"ZW","externalIds":{"osm":"way/1231562367"},"geographyId":"ZW-88200057B2601963641625","id":"wattlas-plant-osm-way-1231562367","lifecycleCounts":{"operational":1},"locationPrecision":"exact","name":"Delta Gold","operatingCapacityCoverage":{"coveragePercent":100.0,"knownUnitCount":0,"method":"plant_aggregate","provenance":{"evidenceCount":0,"recordIds":["wattlas-record-osm-way-1231562367"],"sourceIds":["openstreetmap-power"],"sourceTypes":["community_mapped"],"valueKind":"reported"},"totalUnitCount":0},"operatingCapacityMw":12.0,"operatingCapacityMwByTechnology":{"other":12.0},"plannedCapacityCoverage":{"coveragePercent":0.0,"knownUnitCount":0,"method":"unavailable","totalUnitCount":0},"plannedCapacityMw":0.0,"plannedCapacityMwByTechnology":{},"recordCount":1,"recordIds":["wattlas-record-osm-way-1231562367"],"sourceIds":["openstreetmap-power"],"sourceUrl":"https://www.openstreetmap.org/way/1231562367","technologies":["other"],"technologyMixMw":{"other":12.0},"unitCount":0,"unitIds":[]},"type":"Feature"},{"geometry":{"coordinates":[29.824241,-18.937815],"type":"Point"},"id":"wattlas-plant-osm-way-1272744744","properties":{"aliases":["Kwekwe General Hospital"],"canonicalAnchor":"osm:way/1272744744","canonicalCountryKey":"ZW","capacityMw":0.0,"country":"ZW","externalIds":{"osm":"way/1272744744"},"geographyId":"ZW-88200057B27236199640876","id":"wattlas-plant-osm-way-1272744744","lifecycleCounts":{"operational":1},"locationPrecision":"exact","name":"Kwekwe General Hospital","operatingCapacityCoverage":{"coveragePercent":0.0,"knownUnitCount":0,"method":"unavailable","totalUnitCount":0},"operatingCapacityMw":0.0,"operatingCapacityMwByTechnology":{},"plannedCapacityCoverage":{"coveragePercent":0.0,"knownUnitCount":0,"method":"unavailable","totalUnitCount":0},"plannedCapacityMw":0.0,"plannedCapacityMwByTechnology":{},"recordCount":1,"recordIds":["wattlas-record-osm-way-1272744744"],"sourceIds":["openstreetmap-power"],"sourceUrl":"https://www.openstreetmap.org/way/1272744744","technologies":["solar"],"technologyMixMw":{"solar":0.0},"unitCount":0,"unitIds":[]},"type":"Feature"},{"geometry":{"coordinates":[30.204775,-17.432398],"type":"Point"},"id":"wattlas-plant-osm-way-1273585788","properties":{"aliases":["Chinoyi"],"canonicalAnchor":"osm:way/1273585788","canonicalCountryKey":"ZW","capacityMw":0.0,"country":"ZW","externalIds":{"osm":"way/1273585788"},"geographyId":"ZW-88200057B70993266842589","id":"wattlas-plant-osm-way-1273585788","lifecycleCounts":{"operational":1},"locationPrecision":"exact","name":"Chinoyi","operatingCapacityCoverage":{"coveragePercent":0.0,"knownUnitCount":0,"method":"unavailable","totalUnitCount":0},"operatingCapacityMw":0.0,"operatingCapacityMwByTechnology":{},"plannedCapacityCoverage":{"coveragePercent":0.0,"knownUnitCount":0,"method":"unavailable","totalUnitCount":0},"plannedCapacityMw":0.0,"plannedCapacityMwByTechnology":{},"recordCount":1,"recordIds":["wattlas-record-osm-way-1273585788"],"sourceIds":["openstreetmap-power"],"sourceUrl":"https://www.openstreetmap.org/way/1273585788","technologies":["solar"],"technologyMixMw":{"solar":0.0},"unitCount":0,"unitIds":[]},"type":"Feature"},{"geometry":{"coordinates":[30.725771,-16.626086],"type":"Point"},"id":"wattlas-plant-osm-way-1274024899","properties":{"aliases":["Guruve Solar"],"canonicalAnchor":"osm:way/1274024899","canonicalCountryKey":"ZW","capacityMw":2.0,"country":"ZW","externalIds":{"osm":"way/1274024899"},"geographyId":"ZW-88200057B2601963641625","id":"wattlas-plant-osm-way-1274024899","lifecycleCounts":{"operational":1},"locationPrecision":"exact","name":"Guruve Solar","operatingCapacityCoverage":{"coveragePercent":100.0,"knownUnitCount":0,"method":"plant_aggregate","provenance":{"evidenceCount":0,"recordIds":["wattlas-record-osm-way-1274024899"],"sourceIds":["openstreetmap-power"],"sourceTypes":["community_mapped"],"valueKind":"reported"},"totalUnitCount":0},"operatingCapacityMw":2.0,"operatingCapacityMwByTechnology":{"solar":2.0},"plannedCapacityCoverage":{"coveragePercent":0.0,"knownUnitCount":0,"method":"unavailable","totalUnitCount":0},"plannedCapacityMw":0.0,"plannedCapacityMwByTechnology":{},"recordCount":1,"recordIds":["wattlas-record-osm-way-1274024899"],"sourceIds":["openstreetmap-power"],"sourceUrl":"https://www.openstreetmap.org/way/1274024899","technologies":["solar"],"technologyMixMw":{"solar":2.0},"unitCount":0,"unitIds":[]},"type":"Feature"},{"geometry":{"coordinates":[31.874934,-18.015716],"type":"Point"},"id":"wattlas-plant-osm-way-1298064104","properties":{"aliases":["Durlstone Estate"],"canonicalAnchor":"osm:way/1298064104","canonicalCountryKey":"ZW","capacityMw":1.0,"country":"ZW","externalIds":{"osm":"way/1298064104"},"geographyId":"ZW-88200057B49508968932773","id":"wattlas-plant-osm-way-1298064104","lifecycleCounts":{"operational":1},"locationPrecision":"exact","name":"Durlstone Estate","operatingCapacityCoverage":{"coveragePercent":100.0,"knownUnitCount":0,"method":"plant_aggregate","provenance":{"evidenceCount":0,"recordIds":["wattlas-record-osm-way-1298064104"],"sourceIds":["openstreetmap-power"],"sourceTypes":["community_mapped"],"valueKind":"reported"},"totalUnitCount":0},"operatingCapacityMw":1.0,"operatingCapacityMwByTechnology":{"solar":1.0},"plannedCapacityCoverage":{"coveragePercent":0.0,"knownUnitCount":0,"method":"unavailable","totalUnitCount":0},"plannedCapacityMw":0.0,"plannedCapacityMwByTechnology":{},"recordCount":1,"recordIds":["wattlas-record-osm-way-1298064104"],"sourceIds":["openstreetmap-power"],"sourceUrl":"https://www.openstreetmap.org/way/1298064104","technologies":["solar"],"technologyMixMw":{"solar":1.0},"unitCount":0,"unitIds":[]},"type":"Feature"},{"geometry":{"coordinates":[29.103243,-21.006881],"type":"Point"},"id":"wattlas-plant-osm-way-1298076185","properties":{"aliases":["Sunset Tech Solar Farm"],"canonicalAnchor":"osm:way/1298076185","canonicalCountryKey":"ZW","capacityMw":1.3,"country":"ZW","externalIds":{"osm":"way/1298076185"},"geographyId":"ZW-88200057B5014357533485","id":"wattlas-plant-osm-way-1298076185","lifecycleCounts":{"operational":1},"locationPrecision":"exact","name":"Sunset Tech Solar Farm","operatingCapacityCoverage":{"coveragePercent":100.0,"knownUnitCount":0,"method":"plant_aggregate","provenance":{"evidenceCount":0,"recordIds":["wattlas-record-osm-way-1298076185"],"sourceIds":["openstreetmap-power"],"sourceTypes":["community_mapped"],"valueKind":"reported"},"totalUnitCount":0},"operatingCapacityMw":1.3,"operatingCapacityMwByTechnology":{"solar":1.3},"plannedCapacityCoverage":{"coveragePercent":0.0,"knownUnitCount":0,"method":"unavailable","totalUnitCount":0},"plannedCapacityMw":0.0,"plannedCapacityMwByTechnology":{},"recordCount":1,"recordIds":["wattlas-record-osm-way-1298076185"],"sourceIds":["openstreetmap-power"],"sourceUrl":"https://www.openstreetmap.org/way/1298076185","technologies":["solar"],"technologyMixMw":{"solar":1.3},"unitCount":0,"unitIds":[]},"type":"Feature"},{"geometry":{"coordinates":[30.423035,-18.040658],"type":"Point"},"id":"wattlas-plant-osm-way-1329364249","properties":{"aliases":["Selous"],"canonicalAnchor":"osm:way/1329364249","canonicalCountryKey":"ZW","capacityMw":35.0,"country":"ZW","externalIds":{"osm":"way/1329364249"},"geographyId":"ZW-88200057B70993266842589","id":"wattlas-plant-osm-way-1329364249","lifecycleCounts":{"operational":1},"locationPrecision":"exact","name":"Selous","operatingCapacityCoverage":{"coveragePercent":100.0,"knownUnitCount":0,"method":"plant_aggregate","provenance":{"evidenceCount":0,"recordIds":["wattlas-record-osm-way-1329364249"],"sourceIds":["openstreetmap-power"],"sourceTypes":["community_mapped"],"valueKind":"reported"},"totalUnitCount":0},"operatingCapacityMw":35.0,"operatingCapacityMwByTechnology":{"solar":35.0},"plannedCapacityCoverage":{"coveragePercent":0.0,"knownUnitCount":0,"method":"unavailable","totalUnitCount":0},"plannedCapacityMw":0.0,"plannedCapacityMwByTechnology":{},"recordCount":1,"recordIds":["wattlas-record-osm-way-1329364249"],"sourceIds":["openstreetmap-power"],"sourceUrl":"https://www.openstreetmap.org/way/1329364249","technologies":["solar"],"technologyMixMw":{"solar":35.0},"unitCount":0,"unitIds":[]},"type":"Feature"},{"geometry":{"coordinates":[32.807283,-18.185781],"type":"Point"},"id":"wattlas-plant-osm-way-1514659228","properties":{"aliases":["Troutbeck Hotel"],"canonicalAnchor":"osm:way/1514659228","canonicalCountryKey":"ZW","capacityMw":0.0,"country":"ZW","externalIds":{"osm":"way/1514659228"},"geographyId":"ZW-88200057B32763847551562","id":"wattlas-plant-osm-way-1514659228","lifecycleCounts":{"operational":1},"locationPrecision":"exact","name":"Troutbeck Hotel","operatingCapacityCoverage":{"coveragePercent":0.0,"knownUnitCount":0,"method":"unavailable","totalUnitCount":0},"operatingCapacityMw":0.0,"operatingCapacityMwByTechnology":{},"plannedCapacityCoverage":{"coveragePercent":0.0,"knownUnitCount":0,"method":"unavailable","totalUnitCount":0},"plannedCapacityMw":0.0,"plannedCapacityMwByTechnology":{},"recordCount":1,"recordIds":["wattlas-record-osm-way-1514659228"],"sourceIds":["openstreetmap-power"],"sourceUrl":"https://www.openstreetmap.org/way/1514659228","technologies":["solar"],"technologyMixMw":{"solar":0.0},"unitCount":0,"unitIds":[]},"type":"Feature"},{"geometry":{"coordinates":[32.877192,-18.131168],"type":"Point"},"id":"wattlas-plant-osm-way-1514659241","properties":{"aliases":["Tsanga A"],"canonicalAnchor":"osm:way/1514659241","canonicalCountryKey":"ZW","capacityMw":3.84,"country":"ZW","externalIds":{"osm":"way/1514659241"},"geographyId":"ZW-88200057B32763847551562","id":"wattlas-plant-osm-way-1514659241","lifecycleCounts":{"operational":1},"locationPrecision":"exact","name":"Tsanga A","operatingCapacityCoverage":{"coveragePercent":100.0,"knownUnitCount":0,"method":"plant_aggregate","provenance":{"evidenceCount":0,"recordIds":["wattlas-record-osm-way-1514659241"],"sourceIds":["openstreetmap-power"],"sourceTypes":["community_mapped"],"valueKind":"reported"},"totalUnitCount":0},"operatingCapacityMw":3.84,"operatingCapacityMwByTechnology":{"hydro":3.84},"plannedCapacityCoverage":{"coveragePercent":0.0,"knownUnitCount":0,"method":"unavailable","totalUnitCount":0},"plannedCapacityMw":0.0,"plannedCapacityMwByTechnology":{},"recordCount":1,"recordIds":["wattlas-record-osm-way-1514659241"],"sourceIds":["openstreetmap-power"],"sourceUrl":"https://www.openstreetmap.org/way/1514659241","technologies":["hydro"],"technologyMixMw":{"hydro":3.84},"unitCount":0,"unitIds":[]},"type":"Feature"},{"geometry":{"coordinates":[32.641303,-18.921481],"type":"Point"},"id":"wattlas-plant-osm-way-1515596134","properties":{"aliases":["Hillcrest College"],"canonicalAnchor":"osm:way/1515596134","canonicalCountryKey":"ZW","capacityMw":0.0,"country":"ZW","externalIds":{"osm":"way/1515596134"},"geographyId":"ZW-88200057B32763847551562","id":"wattlas-plant-osm-way-1515596134","lifecycleCounts":{"operational":1},"locationPrecision":"exact","name":"Hillcrest College","operatingCapacityCoverage":{"coveragePercent":0.0,"knownUnitCount":0,"method":"unavailable","totalUnitCount":0},"operatingCapacityMw":0.0,"operatingCapacityMwByTechnology":{},"plannedCapacityCoverage":{"coveragePercent":0.0,"knownUnitCount":0,"method":"unavailable","totalUnitCount":0},"plannedCapacityMw":0.0,"plannedCapacityMwByTechnology":{},"recordCount":1,"recordIds":["wattlas-record-osm-way-1515596134"],"sourceIds":["openstreetmap-power"],"sourceUrl":"https://www.openstreetmap.org/way/1515596134","technologies":["solar"],"technologyMixMw":{"solar":0.0},"unitCount":0,"unitIds":[]},"type":"Feature"},{"geometry":{"coordinates":[31.442949,-21.022591],"type":"Point"},"id":"wattlas-plant-osm-way-263466533","properties":{"aliases":["Triangle Limited Sugarcane Processing Mill"],"canonicalAnchor":"osm:way/263466533","canonicalCountryKey":"ZW","capacityMw":35.0,"country":"ZW","externalIds":{"osm":"way/263466533"},"geographyId":"ZW-88200057B85209083975104","id":"wattlas-plant-osm-way-263466533","lifecycleCounts":{"operational":1},"locationPrecision":"exact","name":"Triangle Limited Sugarcane Processing Mill","operatingCapacityCoverage":{"coveragePercent":100.0,"knownUnitCount":0,"method":"plant_aggregate","provenance":{"evidenceCount":0,"recordIds":["wattlas-record-osm-way-263466533"],"sourceIds":["openstreetmap-power"],"sourceTypes":["community_mapped"],"valueKind":"reported"},"totalUnitCount":0},"operatingCapacityMw":35.0,"operatingCapacityMwByTechnology":{"biomass":35.0},"plannedCapacityCoverage":{"coveragePercent":0.0,"knownUnitCount":0,"method":"unavailable","totalUnitCount":0},"plannedCapacityMw":0.0,"plannedCapacityMwByTechnology":{},"recordCount":1,"recordIds":["wattlas-record-osm-way-263466533"],"sourceIds":["openstreetmap-power"],"sourceUrl":"https://www.openstreetmap.org/way/263466533","technologies":["biomass"],"technologyMixMw":{"biomass":35.0},"unitCount":0,"unitIds":[]},"type":"Feature"},{"geometry":{"coordinates":[32.84422,-18.430137],"type":"Point"},"id":"wattlas-plant-osm-way-655926528","properties":{"aliases":["Pungwe B Hydroelectric Power Station"],"canonicalAnchor":"osm:way/655926528","canonicalCountryKey":"ZW","capacityMw":15.0,"country":"ZW","externalIds":{"osm":"way/655926528"},"geographyId":"ZW-88200057B32763847551562","id":"wattlas-plant-osm-way-655926528","lifecycleCounts":{"operational":1},"locationPrecision":"exact","name":"Pungwe B Hydroelectric Power Station","operatingCapacityCoverage":{"coveragePercent":100.0,"knownUnitCount":0,"method":"plant_aggregate","provenance":{"evidenceCount":0,"recordIds":["wattlas-record-osm-way-655926528"],"sourceIds":["openstreetmap-power"],"sourceTypes":["community_mapped"],"valueKind":"reported"},"totalUnitCount":0},"operatingCapacityMw":15.0,"operatingCapacityMwByTechnology":{"hydro":15.0},"plannedCapacityCoverage":{"coveragePercent":0.0,"knownUnitCount":0,"method":"unavailable","totalUnitCount":0},"plannedCapacityMw":0.0,"plannedCapacityMwByTechnology":{},"recordCount":1,"recordIds":["wattlas-record-osm-way-655926528"],"sourceIds":["openstreetmap-power"],"sourceUrl":"https://www.openstreetmap.org/way/655926528","technologies":["hydro"],"technologyMixMw":{"hydro":15.0},"unitCount":0,"unitIds":[]},"type":"Feature"},{"geometry":{"coordinates":[31.195924,-18.058137],"type":"Point"},"id":"wattlas-plant-osm-way-936328655","properties":{"aliases":["Dema Power Plant (Defunct)"],"canonicalAnchor":"osm:way/936328655","canonicalCountryKey":"ZW","capacityMw":200.0,"country":"ZW","externalIds":{"osm":"way/936328655"},"geographyId":"ZW-88200057B49508968932773","id":"wattlas-plant-osm-way-936328655","lifecycleCounts":{"operational":1},"locationPrecision":"exact","name":"Dema Power Plant (Defunct)","operatingCapacityCoverage":{"coveragePercent":100.0,"knownUnitCount":0,"method":"plant_aggregate","provenance":{"evidenceCount":0,"recordIds":["wattlas-record-osm-way-936328655"],"sourceIds":["openstreetmap-power"],"sourceTypes":["community_mapped"],"valueKind":"reported"},"totalUnitCount":0},"operatingCapacityMw":200.0,"operatingCapacityMwByTechnology":{"other":200.0},"plannedCapacityCoverage":{"coveragePercent":0.0,"knownUnitCount":0,"method":"unavailable","totalUnitCount":0},"plannedCapacityMw":0.0,"plannedCapacityMwByTechnology":{},"recordCount":1,"recordIds":["wattlas-record-osm-way-936328655"],"sourceIds":["openstreetmap-power"],"sourceUrl":"https://www.openstreetmap.org/way/936328655","technologies":["other"],"technologyMixMw":{"other":200.0},"unitCount":0,"unitIds":[]},"type":"Feature"},{"geometry":{"coordinates":[28.764755,-16.521538],"type":"Point"},"id":"wattlas-plant-wikidata-q1367609-af0fd24d33","properties":{"aliases":["Kariba South Power Station"],"canonicalAnchor":"wikidata:Q1367609","canonicalCountryKey":"ZW","capacityMw":1050.0,"country":"ZW","externalIds":{"osm":"way/449155820","wikidata":"Q1367609"},"geographyId":"ZW-88200057B70993266842589","id":"wattlas-plant-wikidata-q1367609-af0fd24d33","idAliases":["wattlas-plant-osm-way-449155820"],"lifecycleCounts":{"operational":1},"locationPrecision":"exact","name":"Kariba South Power Station","operatingCapacityCoverage":{"coveragePercent":100.0,"knownUnitCount":0,"method":"plant_aggregate","provenance":{"evidenceCount":0,"recordIds":["wattlas-record-osm-way-449155820"],"sourceIds":["openstreetmap-power"],"sourceTypes":["community_mapped"],"valueKind":"reported"},"totalUnitCount":0},"operatingCapacityMw":1050.0,"operatingCapacityMwByTechnology":{"hydro":1050.0},"plannedCapacityCoverage":{"coveragePercent":0.0,"knownUnitCount":0,"method":"unavailable","totalUnitCount":0},"plannedCapacityMw":0.0,"plannedCapacityMwByTechnology":{},"recordCount":1,"recordIds":["wattlas-record-osm-way-449155820"],"sourceIds":["openstreetmap-power"],"sourceUrl":"https://www.openstreetmap.org/way/449155820","technologies":["hydro"],"technologyMixMw":{"hydro":1050.0},"unitCount":0,"unitIds":[]},"type":"Feature"},{"geometry":{"coordinates":[26.470138,-18.384175],"type":"Point"},"id":"wattlas-plant-wikidata-q1657787","properties":{"aliases":["Hwange Thermal Power Station"],"canonicalAnchor":"wikidata:Q1657787","canonicalCountryKey":"ZW","capacityMw":1520.0,"country":"ZW","externalIds":{"osm":"way/170883063","wikidata":"Q1657787","wikipedia":"en:Hwange Thermal Power Station"},"geographyId":"ZW-88200057B11544283676020","id":"wattlas-plant-wikidata-q1657787","idAliases":["wattlas-plant-osm-way-170883063","wattlas-plant-wikipedia-en-hwange-thermal-power-station"],"lifecycleCounts":{"operational":1},"locationPrecision":"exact","name":"Hwange Thermal Power Station","operatingCapacityCoverage":{"coveragePercent":100.0,"knownUnitCount":0,"method":"plant_aggregate","provenance":{"evidenceCount":0,"recordIds":["wattlas-record-osm-way-170883063"],"sourceIds":["openstreetmap-power"],"sourceTypes":["community_mapped"],"valueKind":"reported"},"totalUnitCount":0},"operatingCapacityMw":1520.0,"operatingCapacityMwByTechnology":{"coal":1520.0},"plannedCapacityCoverage":{"coveragePercent":0.0,"knownUnitCount":0,"method":"unavailable","totalUnitCount":0},"plannedCapacityMw":0.0,"plannedCapacityMwByTechnology":{},"recordCount":1,"recordIds":["wattlas-record-osm-way-170883063"],"sourceIds":["openstreetmap-power"],"sourceUrl":"https://www.openstreetmap.org/way/170883063","technologies":["coal"],"technologyMixMw":{"coal":1520.0},"unitCount":0,"unitIds":[]},"type":"Feature"},{"geometry":{"coordinates":[31.031908,-17.845365],"type":"Point"},"id":"wattlas-plant-wikidata-q56373946","properties":{"aliases":["Harare Thermal Power Station"],"canonicalAnchor":"wikidata:Q56373946","canonicalCountryKey":"ZW","capacityMw":50.0,"country":"ZW","externalIds":{"osm":"way/856166247","wikidata":"Q56373946"},"geographyId":"ZW-88200057B87996012089813","id":"wattlas-plant-wikidata-q56373946","idAliases":["wattlas-plant-osm-way-856166247"],"lifecycleCounts":{"operational":1},"locationPrecision":"exact","name":"Harare Thermal Power Station","operatingCapacityCoverage":{"coveragePercent":100.0,"knownUnitCount":0,"method":"plant_aggregate","provenance":{"evidenceCount":0,"recordIds":["wattlas-record-osm-way-856166247"],"sourceIds":["openstreetmap-power"],"sourceTypes":["community_mapped"],"valueKind":"reported"},"totalUnitCount":0},"operatingCapacityMw":50.0,"operatingCapacityMwByTechnology":{"coal":50.0},"plannedCapacityCoverage":{"coveragePercent":0.0,"knownUnitCount":0,"method":"unavailable","totalUnitCount":0},"plannedCapacityMw":0.0,"plannedCapacityMwByTechnology":{},"recordCount":1,"recordIds":["wattlas-record-osm-way-856166247"],"sourceIds":["openstreetmap-power"],"sourceUrl":"https://www.openstreetmap.org/way/856166247","technologies":["coal"],"technologyMixMw":{"coal":50.0},"unitCount":0,"unitIds":[]},"type":"Feature"},{"geometry":{"coordinates":[29.782042,-18.65562],"type":"Point"},"id":"wattlas-plant-wikidata-q56373948","properties":{"aliases":["Munyati Power Station"],"canonicalAnchor":"wikidata:Q56373948","canonicalCountryKey":"ZW","capacityMw":120.0,"country":"ZW","externalIds":{"osm":"way/422483694","wikidata":"Q56373948"},"geographyId":"ZW-88200057B27236199640876","id":"wattlas-plant-wikidata-q56373948","idAliases":["wattlas-plant-osm-way-422483694"],"lifecycleCounts":{"operational":1},"locationPrecision":"exact","name":"Munyati Power Station","operatingCapacityCoverage":{"coveragePercent":100.0,"knownUnitCount":0,"method":"plant_aggregate","provenance":{"evidenceCount":0,"recordIds":["wattlas-record-osm-way-422483694"],"sourceIds":["openstreetmap-power"],"sourceTypes":["community_mapped"],"valueKind":"reported"},"totalUnitCount":0},"operatingCapacityMw":120.0,"operatingCapacityMwByTechnology":{"coal":120.0},"plannedCapacityCoverage":{"coveragePercent":0.0,"knownUnitCount":0,"method":"unavailable","totalUnitCount":0},"plannedCapacityMw":0.0,"plannedCapacityMwByTechnology":{},"recordCount":1,"recordIds":["wattlas-record-osm-way-422483694"],"sourceIds":["openstreetmap-power"],"sourceUrl":"https://www.openstreetmap.org/way/422483694","technologies":["coal"],"technologyMixMw":{"coal":120.0},"unitCount":0,"unitIds":[]},"type":"Feature"},{"geometry":{"coordinates":[28.575674,-20.158731],"type":"Point"},"id":"wattlas-plant-wikidata-q56373952","properties":{"aliases":["Bulawayo Power Station"],"canonicalAnchor":"wikidata:Q56373952","canonicalCountryKey":"ZW","capacityMw":90.0,"country":"ZW","externalIds":{"osm":"way/367681758","wikidata":"Q56373952"},"geographyId":"ZW-88200057B51719638002761","id":"wattlas-plant-wikidata-q56373952","idAliases":["wattlas-plant-osm-way-367681758"],"lifecycleCounts":{"operational":1},"locationPrecision":"exact","name":"Bulawayo Power Station","operatingCapacityCoverage":{"coveragePercent":100.0,"knownUnitCount":0,"method":"plant_aggregate","provenance":{"evidenceCount":0,"recordIds":["wattlas-record-osm-way-367681758"],"sourceIds":["openstreetmap-power"],"sourceTypes":["community_mapped"],"valueKind":"reported"},"totalUnitCount":0},"operatingCapacityMw":90.0,"operatingCapacityMwByTechnology":{"coal":90.0},"plannedCapacityCoverage":{"coveragePercent":0.0,"knownUnitCount":0,"method":"unavailable","totalUnitCount":0},"plannedCapacityMw":0.0,"plannedCapacityMwByTechnology":{},"recordCount":1,"recordIds":["wattlas-record-osm-way-367681758"],"sourceIds":["openstreetmap-power"],"sourceUrl":"https://www.openstreetmap.org/way/367681758","technologies":["coal"],"technologyMixMw":{"coal":90.0},"unitCount":0,"unitIds":[]},"type":"Feature"}],"type":"FeatureCollection"}