{"features":[{"geometry":{"coordinates":[-61.8067,17.6542],"type":"Point"},"id":"wattlas-plant-gemplant-l100001064996","properties":{"aliases":["--","Barbuda solar project"],"canonicalAnchor":"gemplant:L100001064996","canonicalCountryKey":"AG","capacityMw":1.1,"country":"AG","externalIds":{"gemPlant":"L100001064996","gemUnit":"G100001074782"},"geographyId":"AG-74100532B56248932917605","id":"wattlas-plant-gemplant-l100001064996","lifecycleCounts":{"operational":1},"locationPrecision":"exact","name":"Barbuda solar project","operatingCapacityCoverage":{"coveragePercent":100.0,"knownUnitCount":1,"method":"complete_unit_sum","provenance":{"evidenceCount":0,"recordIds":["wattlas-record-gemunit-g100001074782"],"sourceIds":["gem-global-integrated-power-tracker"],"sourceTypes":["research_verified"],"valueKind":"reported"},"totalUnitCount":1},"operatingCapacityMw":1.1,"operatingCapacityMwByTechnology":{"solar":1.1},"plannedCapacityCoverage":{"coveragePercent":0.0,"knownUnitCount":0,"method":"unavailable","totalUnitCount":0},"plannedCapacityMw":0.0,"plannedCapacityMwByTechnology":{},"recordCount":1,"recordIds":["wattlas-record-gemunit-g100001074782"],"sourceIds":["gem-global-integrated-power-tracker"],"technologies":["solar"],"technologyMixMw":{"solar":1.1},"unitCount":1,"unitIds":["gem-unit-G100001074782"]},"type":"Feature"}],"type":"FeatureCollection"}