{"features":[{"geometry":{"coordinates":[20.0431,42.2514],"type":"Point"},"id":"wattlas-plant-gemplant-l100000600004","properties":{"aliases":["Fierza hydroelectric plant"],"canonicalAnchor":"gemplant:L100000600004","canonicalCountryKey":"AL","capacityMw":500.0,"country":"AL","externalIds":{"gemPlant":"L100000600004","gemUnit":"G100000600004"},"geographyId":"AL-10019604B40645538692706","id":"wattlas-plant-gemplant-l100000600004","lifecycleCounts":{"operational":1},"locationPrecision":"exact","name":"Fierza hydroelectric plant","operatingCapacityCoverage":{"coveragePercent":100.0,"knownUnitCount":1,"method":"complete_unit_sum","provenance":{"evidenceCount":0,"recordIds":["wattlas-record-gemunit-g100000600004"],"sourceIds":["gem-global-integrated-power-tracker"],"sourceTypes":["research_verified"],"valueKind":"reported"},"totalUnitCount":1},"operatingCapacityMw":500.0,"operatingCapacityMwByTechnology":{"hydro":500.0},"plannedCapacityCoverage":{"coveragePercent":0.0,"knownUnitCount":0,"method":"unavailable","totalUnitCount":0},"plannedCapacityMw":0.0,"plannedCapacityMwByTechnology":{},"recordCount":1,"recordIds":["wattlas-record-gemunit-g100000600004"],"sourceIds":["gem-global-integrated-power-tracker"],"technologies":["hydro"],"technologyMixMw":{"hydro":500.0},"unitCount":1,"unitIds":["gem-unit-G100000600004"]},"type":"Feature"},{"geometry":{"coordinates":[19.7988,40.4006],"type":"Point"},"id":"wattlas-plant-gemplant-l100000600005","properties":{"aliases":["Kalivaci hydroelectric plant"],"canonicalAnchor":"gemplant:L100000600005","canonicalCountryKey":"AL","capacityMw":0.0,"country":"AL","externalIds":{"gemPlant":"L100000600005","gemUnit":"G100000604491"},"geographyId":"AL-10019604B29738820438867","id":"wattlas-plant-gemplant-l100000600005","lifecycleCounts":{"cancelled":1},"locationPrecision":"exact","name":"Kalivaci hydroelectric plant","operatingCapacityCoverage":{"coveragePercent":0.0,"knownUnitCount":0,"method":"unavailable","totalUnitCount":0},"operatingCapacityMw":0.0,"operatingCapacityMwByTechnology":{},"plannedCapacityCoverage":{"coveragePercent":0.0,"knownUnitCount":0,"method":"unavailable","totalUnitCount":0},"plannedCapacityMw":0.0,"plannedCapacityMwByTechnology":{},"recordCount":1,"recordIds":["wattlas-record-gemunit-g100000604491"],"sourceIds":["gem-global-integrated-power-tracker"],"technologies":["hydro"],"technologyMixMw":{"hydro":0.0},"unitCount":1,"unitIds":["gem-unit-G100000604491"]},"type":"Feature"},{"geometry":{"coordinates":[19.8224,42.1033],"type":"Point"},"id":"wattlas-plant-gemplant-l100000600006","properties":{"aliases":["Komani hydroelectric plant"],"canonicalAnchor":"gemplant:L100000600006","canonicalCountryKey":"AL","capacityMw":600.0,"country":"AL","externalIds":{"gemPlant":"L100000600006","gemUnit":"G100000600006"},"geographyId":"AL-10019604B9428140626415","id":"wattlas-plant-gemplant-l100000600006","lifecycleCounts":{"operational":1},"locationPrecision":"exact","name":"Komani hydroelectric plant","operatingCapacityCoverage":{"coveragePercent":100.0,"knownUnitCount":1,"method":"complete_unit_sum","provenance":{"evidenceCount":0,"recordIds":["wattlas-record-gemunit-g100000600006"],"sourceIds":["gem-global-integrated-power-tracker"],"sourceTypes":["research_verified"],"valueKind":"reported"},"totalUnitCount":1},"operatingCapacityMw":600.0,"operatingCapacityMwByTechnology":{"hydro":600.0},"plannedCapacityCoverage":{"coveragePercent":0.0,"knownUnitCount":0,"method":"unavailable","totalUnitCount":0},"plannedCapacityMw":0.0,"plannedCapacityMwByTechnology":{},"recordCount":1,"recordIds":["wattlas-record-gemunit-g100000600006"],"sourceIds":["gem-global-integrated-power-tracker"],"technologies":["hydro"],"technologyMixMw":{"hydro":600.0},"unitCount":1,"unitIds":["gem-unit-G100000600006"]},"type":"Feature"},{"geometry":{"coordinates":[20.4406,40.6928],"type":"Point"},"id":"wattlas-plant-gemplant-l100000600007","properties":{"aliases":["Moglicë hydroelectric plant"],"canonicalAnchor":"gemplant:L100000600007","canonicalCountryKey":"AL","capacityMw":197.0,"country":"AL","externalIds":{"gemPlant":"L100000600007","gemUnit":"G100000600007"},"geographyId":"AL-10019604B11091570243697","id":"wattlas-plant-gemplant-l100000600007","lifecycleCounts":{"operational":1},"locationPrecision":"exact","name":"Moglicë hydroelectric plant","operatingCapacityCoverage":{"coveragePercent":100.0,"knownUnitCount":1,"method":"complete_unit_sum","provenance":{"evidenceCount":0,"recordIds":["wattlas-record-gemunit-g100000600007"],"sourceIds":["gem-global-integrated-power-tracker"],"sourceTypes":["research_verified"],"valueKind":"reported"},"totalUnitCount":1},"operatingCapacityMw":197.0,"operatingCapacityMwByTechnology":{"hydro":197.0},"plannedCapacityCoverage":{"coveragePercent":0.0,"knownUnitCount":0,"method":"unavailable","totalUnitCount":0},"plannedCapacityMw":0.0,"plannedCapacityMwByTechnology":{},"recordCount":1,"recordIds":["wattlas-record-gemunit-g100000600007"],"sourceIds":["gem-global-integrated-power-tracker"],"technologies":["hydro"],"technologyMixMw":{"hydro":197.0},"unitCount":1,"unitIds":["gem-unit-G100000600007"]},"type":"Feature"},{"geometry":{"coordinates":[19.973,40.3515],"type":"Point"},"id":"wattlas-plant-gemplant-l100000600008","properties":{"aliases":["Poçem hydroelectric plant"],"canonicalAnchor":"gemplant:L100000600008","canonicalCountryKey":"AL","capacityMw":0.0,"country":"AL","externalIds":{"gemPlant":"L100000600008","gemUnit":"G100000604735"},"geographyId":"AL-10019604B29738820438867","id":"wattlas-plant-gemplant-l100000600008","lifecycleCounts":{"cancelled":1},"locationPrecision":"exact","name":"Poçem hydroelectric plant","operatingCapacityCoverage":{"coveragePercent":0.0,"knownUnitCount":0,"method":"unavailable","totalUnitCount":0},"operatingCapacityMw":0.0,"operatingCapacityMwByTechnology":{},"plannedCapacityCoverage":{"coveragePercent":0.0,"knownUnitCount":0,"method":"unavailable","totalUnitCount":0},"plannedCapacityMw":0.0,"plannedCapacityMwByTechnology":{},"recordCount":1,"recordIds":["wattlas-record-gemunit-g100000604735"],"sourceIds":["gem-global-integrated-power-tracker"],"technologies":["hydro"],"technologyMixMw":{"hydro":0.0},"unitCount":1,"unitIds":["gem-unit-G100000604735"]},"type":"Feature"},{"geometry":{"coordinates":[19.7992,42.2829],"type":"Point"},"id":"wattlas-plant-gemplant-l100000600009","properties":{"aliases":["Lekaj Vajvishti hydroelectric plant"],"canonicalAnchor":"gemplant:L100000600009","canonicalCountryKey":"AL","capacityMw":0.0,"country":"AL","externalIds":{"gemPlant":"L100000600009","gemUnit":"G100000600009"},"geographyId":"AL-10019604B9428140626415","id":"wattlas-plant-gemplant-l100000600009","lifecycleCounts":{"paused":1},"locationPrecision":"exact","name":"Lekaj Vajvishti hydroelectric plant","operatingCapacityCoverage":{"coveragePercent":0.0,"knownUnitCount":0,"method":"unavailable","totalUnitCount":0},"operatingCapacityMw":0.0,"operatingCapacityMwByTechnology":{},"plannedCapacityCoverage":{"coveragePercent":0.0,"knownUnitCount":0,"method":"unavailable","totalUnitCount":0},"plannedCapacityMw":0.0,"plannedCapacityMwByTechnology":{},"recordCount":1,"recordIds":["wattlas-record-gemunit-g100000600009"],"sourceIds":["gem-global-integrated-power-tracker"],"technologies":["hydro"],"technologyMixMw":{"hydro":0.0},"unitCount":1,"unitIds":["gem-unit-G100000600009"]},"type":"Feature"},{"geometry":{"coordinates":[20.3653,41.9433],"type":"Point"},"id":"wattlas-plant-gemplant-l100000600010","properties":{"aliases":["Skavica hydroelectric plant"],"canonicalAnchor":"gemplant:L100000600010","canonicalCountryKey":"AL","capacityMw":0.0,"country":"AL","externalIds":{"gemPlant":"L100000600010","gemUnit":"G100000600010"},"geographyId":"AL-10019604B40645538692706","id":"wattlas-plant-gemplant-l100000600010","lifecycleCounts":{"paused":1},"locationPrecision":"exact","name":"Skavica hydroelectric plant","operatingCapacityCoverage":{"coveragePercent":0.0,"knownUnitCount":0,"method":"unavailable","totalUnitCount":0},"operatingCapacityMw":0.0,"operatingCapacityMwByTechnology":{},"plannedCapacityCoverage":{"coveragePercent":0.0,"knownUnitCount":0,"method":"unavailable","totalUnitCount":0},"plannedCapacityMw":0.0,"plannedCapacityMwByTechnology":{},"recordCount":1,"recordIds":["wattlas-record-gemunit-g100000600010"],"sourceIds":["gem-global-integrated-power-tracker"],"technologies":["hydro"],"technologyMixMw":{"hydro":0.0},"unitCount":1,"unitIds":["gem-unit-G100000600010"]},"type":"Feature"},{"geometry":{"coordinates":[19.6358,42.0136],"type":"Point"},"id":"wattlas-plant-gemplant-l100000600011","properties":{"aliases":["Vau i Dejës hydroelectric plant"],"canonicalAnchor":"gemplant:L100000600011","canonicalCountryKey":"AL","capacityMw":250.0,"country":"AL","externalIds":{"gemPlant":"L100000600011","gemUnit":"G100000600011"},"geographyId":"AL-10019604B9428140626415","id":"wattlas-plant-gemplant-l100000600011","lifecycleCounts":{"operational":1},"locationPrecision":"exact","name":"Vau i Dejës hydroelectric plant","operatingCapacityCoverage":{"coveragePercent":100.0,"knownUnitCount":1,"method":"complete_unit_sum","provenance":{"evidenceCount":0,"recordIds":["wattlas-record-gemunit-g100000600011"],"sourceIds":["gem-global-integrated-power-tracker"],"sourceTypes":["research_verified"],"valueKind":"reported"},"totalUnitCount":1},"operatingCapacityMw":250.0,"operatingCapacityMwByTechnology":{"hydro":250.0},"plannedCapacityCoverage":{"coveragePercent":0.0,"knownUnitCount":0,"method":"unavailable","totalUnitCount":0},"plannedCapacityMw":0.0,"plannedCapacityMwByTechnology":{},"recordCount":1,"recordIds":["wattlas-record-gemunit-g100000600011"],"sourceIds":["gem-global-integrated-power-tracker"],"technologies":["hydro"],"technologyMixMw":{"hydro":250.0},"unitCount":1,"unitIds":["gem-unit-G100000600011"]},"type":"Feature"},{"geometry":{"coordinates":[20.5031,41.4934],"type":"Point"},"id":"wattlas-plant-gemplant-l100000602879","properties":{"aliases":["Spilje hydroelectric plant"],"canonicalAnchor":"gemplant:L100000602879","canonicalCountryKey":"AL","capacityMw":84.0,"country":"AL","externalIds":{"gemPlant":"L100000602879","gemUnit":"G100000602912"},"geographyId":"AL-10019604B38416360860341","id":"wattlas-plant-gemplant-l100000602879","lifecycleCounts":{"operational":1},"locationPrecision":"exact","name":"Spilje hydroelectric plant","operatingCapacityCoverage":{"coveragePercent":100.0,"knownUnitCount":1,"method":"complete_unit_sum","provenance":{"evidenceCount":0,"recordIds":["wattlas-record-gemunit-g100000602912"],"sourceIds":["gem-global-integrated-power-tracker"],"sourceTypes":["research_verified"],"valueKind":"reported"},"totalUnitCount":1},"operatingCapacityMw":84.0,"operatingCapacityMwByTechnology":{"hydro":84.0},"plannedCapacityCoverage":{"coveragePercent":0.0,"knownUnitCount":0,"method":"unavailable","totalUnitCount":0},"plannedCapacityMw":0.0,"plannedCapacityMwByTechnology":{},"recordCount":1,"recordIds":["wattlas-record-gemunit-g100000602912"],"sourceIds":["gem-global-integrated-power-tracker"],"technologies":["hydro"],"technologyMixMw":{"hydro":84.0},"unitCount":1,"unitIds":["gem-unit-G100000602912"]},"type":"Feature"},{"geometry":{"coordinates":[19.3912,40.7617],"type":"Point"},"id":"wattlas-plant-gemplant-l100000806005","properties":{"aliases":["--","Project Blue 1 solar farm"],"canonicalAnchor":"gemplant:L100000806005","canonicalCountryKey":"AL","capacityMw":58.0,"country":"AL","externalIds":{"gemPlant":"L100000806005","gemUnit":"G100000806914"},"geographyId":"AL-10019604B18588012879070","id":"wattlas-plant-gemplant-l100000806005","lifecycleCounts":{"operational":1},"locationPrecision":"exact","name":"Project Blue 1 solar farm","operatingCapacityCoverage":{"coveragePercent":100.0,"knownUnitCount":1,"method":"complete_unit_sum","provenance":{"evidenceCount":0,"recordIds":["wattlas-record-gemunit-g100000806914"],"sourceIds":["gem-global-integrated-power-tracker"],"sourceTypes":["research_verified"],"valueKind":"reported"},"totalUnitCount":1},"operatingCapacityMw":58.0,"operatingCapacityMwByTechnology":{"solar":58.0},"plannedCapacityCoverage":{"coveragePercent":0.0,"knownUnitCount":0,"method":"unavailable","totalUnitCount":0},"plannedCapacityMw":0.0,"plannedCapacityMwByTechnology":{},"recordCount":1,"recordIds":["wattlas-record-gemunit-g100000806914"],"sourceIds":["gem-global-integrated-power-tracker"],"technologies":["solar"],"technologyMixMw":{"solar":58.0},"unitCount":1,"unitIds":["gem-unit-G100000806914"]},"type":"Feature"},{"geometry":{"coordinates":[19.4535,40.8491],"type":"Point"},"id":"wattlas-plant-gemplant-l100000806022","properties":{"aliases":["--","Karavasta solar farm"],"canonicalAnchor":"gemplant:L100000806022","canonicalCountryKey":"AL","capacityMw":140.0,"country":"AL","externalIds":{"gemPlant":"L100000806022","gemUnit":"G100000806933"},"geographyId":"AL-10019604B18588012879070","id":"wattlas-plant-gemplant-l100000806022","lifecycleCounts":{"operational":1},"locationPrecision":"exact","name":"Karavasta solar farm","operatingCapacityCoverage":{"coveragePercent":100.0,"knownUnitCount":1,"method":"complete_unit_sum","provenance":{"evidenceCount":0,"recordIds":["wattlas-record-gemunit-g100000806933"],"sourceIds":["gem-global-integrated-power-tracker"],"sourceTypes":["research_verified"],"valueKind":"reported"},"totalUnitCount":1},"operatingCapacityMw":140.0,"operatingCapacityMwByTechnology":{"solar":140.0},"plannedCapacityCoverage":{"coveragePercent":0.0,"knownUnitCount":0,"method":"unavailable","totalUnitCount":0},"plannedCapacityMw":0.0,"plannedCapacityMwByTechnology":{},"recordCount":1,"recordIds":["wattlas-record-gemunit-g100000806933"],"sourceIds":["gem-global-integrated-power-tracker"],"technologies":["solar"],"technologyMixMw":{"solar":140.0},"unitCount":1,"unitIds":["gem-unit-G100000806933"]},"type":"Feature"},{"geometry":{"coordinates":[19.39,40.779],"type":"Point"},"id":"wattlas-plant-gemplant-l100001005381","properties":{"aliases":["--","Gryka solar project"],"canonicalAnchor":"gemplant:L100001005381","canonicalCountryKey":"AL","capacityMw":18.0,"country":"AL","externalIds":{"gemPlant":"L100001005381","gemUnit":"G100001006418"},"geographyId":"AL-10019604B18588012879070","id":"wattlas-plant-gemplant-l100001005381","lifecycleCounts":{"operational":1},"locationPrecision":"exact","name":"Gryka solar project","operatingCapacityCoverage":{"coveragePercent":100.0,"knownUnitCount":1,"method":"complete_unit_sum","provenance":{"evidenceCount":0,"recordIds":["wattlas-record-gemunit-g100001006418"],"sourceIds":["gem-global-integrated-power-tracker"],"sourceTypes":["research_verified"],"valueKind":"reported"},"totalUnitCount":1},"operatingCapacityMw":18.0,"operatingCapacityMwByTechnology":{"solar":18.0},"plannedCapacityCoverage":{"coveragePercent":0.0,"knownUnitCount":0,"method":"unavailable","totalUnitCount":0},"plannedCapacityMw":0.0,"plannedCapacityMwByTechnology":{},"recordCount":1,"recordIds":["wattlas-record-gemunit-g100001006418"],"sourceIds":["gem-global-integrated-power-tracker"],"technologies":["solar"],"technologyMixMw":{"solar":18.0},"unitCount":1,"unitIds":["gem-unit-G100001006418"]},"type":"Feature"},{"geometry":{"coordinates":[20.9747,40.6595],"type":"Point"},"id":"wattlas-plant-gemplant-l100001005383","properties":{"aliases":["--","Qendër Bilisht Korçë County solar project"],"canonicalAnchor":"gemplant:L100001005383","canonicalCountryKey":"AL","capacityMw":16.3,"country":"AL","externalIds":{"gemPlant":"L100001005383","gemUnit":"G100001006420"},"geographyId":"AL-10019604B11091570243697","id":"wattlas-plant-gemplant-l100001005383","lifecycleCounts":{"operational":1},"locationPrecision":"exact","name":"Qendër Bilisht Korçë County solar project","operatingCapacityCoverage":{"coveragePercent":100.0,"knownUnitCount":1,"method":"complete_unit_sum","provenance":{"evidenceCount":0,"recordIds":["wattlas-record-gemunit-g100001006420"],"sourceIds":["gem-global-integrated-power-tracker"],"sourceTypes":["research_verified"],"valueKind":"reported"},"totalUnitCount":1},"operatingCapacityMw":16.3,"operatingCapacityMwByTechnology":{"solar":16.3},"plannedCapacityCoverage":{"coveragePercent":0.0,"knownUnitCount":0,"method":"unavailable","totalUnitCount":0},"plannedCapacityMw":0.0,"plannedCapacityMwByTechnology":{},"recordCount":1,"recordIds":["wattlas-record-gemunit-g100001006420"],"sourceIds":["gem-global-integrated-power-tracker"],"technologies":["solar"],"technologyMixMw":{"solar":16.3},"unitCount":1,"unitIds":["gem-unit-G100001006420"]},"type":"Feature"},{"geometry":{"coordinates":[20.7846,40.6406],"type":"Point"},"id":"wattlas-plant-gemplant-l100001005384","properties":{"aliases":["--","Qendër Bulgarec Korçë County solar project"],"canonicalAnchor":"gemplant:L100001005384","canonicalCountryKey":"AL","capacityMw":1.8,"country":"AL","externalIds":{"gemPlant":"L100001005384","gemUnit":"G100001006421"},"geographyId":"AL-10019604B11091570243697","id":"wattlas-plant-gemplant-l100001005384","lifecycleCounts":{"operational":1},"locationPrecision":"exact","name":"Qendër Bulgarec Korçë County solar project","operatingCapacityCoverage":{"coveragePercent":100.0,"knownUnitCount":1,"method":"complete_unit_sum","provenance":{"evidenceCount":0,"recordIds":["wattlas-record-gemunit-g100001006421"],"sourceIds":["gem-global-integrated-power-tracker"],"sourceTypes":["research_verified"],"valueKind":"reported"},"totalUnitCount":1},"operatingCapacityMw":1.8,"operatingCapacityMwByTechnology":{"solar":1.8},"plannedCapacityCoverage":{"coveragePercent":0.0,"knownUnitCount":0,"method":"unavailable","totalUnitCount":0},"plannedCapacityMw":0.0,"plannedCapacityMwByTechnology":{},"recordCount":1,"recordIds":["wattlas-record-gemunit-g100001006421"],"sourceIds":["gem-global-integrated-power-tracker"],"technologies":["solar"],"technologyMixMw":{"solar":1.8},"unitCount":1,"unitIds":["gem-unit-G100001006421"]},"type":"Feature"},{"geometry":{"coordinates":[19.393,40.7688],"type":"Point"},"id":"wattlas-plant-gemplant-l100001005386","properties":{"aliases":["--","Topojë Fier County solar project II"],"canonicalAnchor":"gemplant:L100001005386","canonicalCountryKey":"AL","capacityMw":3.0,"country":"AL","externalIds":{"gemPlant":"L100001005386","gemUnit":"G100001006423"},"geographyId":"AL-10019604B18588012879070","id":"wattlas-plant-gemplant-l100001005386","lifecycleCounts":{"operational":1},"locationPrecision":"exact","name":"Topojë Fier County solar project II","operatingCapacityCoverage":{"coveragePercent":100.0,"knownUnitCount":1,"method":"complete_unit_sum","provenance":{"evidenceCount":0,"recordIds":["wattlas-record-gemunit-g100001006423"],"sourceIds":["gem-global-integrated-power-tracker"],"sourceTypes":["research_verified"],"valueKind":"reported"},"totalUnitCount":1},"operatingCapacityMw":3.0,"operatingCapacityMwByTechnology":{"solar":3.0},"plannedCapacityCoverage":{"coveragePercent":0.0,"knownUnitCount":0,"method":"unavailable","totalUnitCount":0},"plannedCapacityMw":0.0,"plannedCapacityMwByTechnology":{},"recordCount":1,"recordIds":["wattlas-record-gemunit-g100001006423"],"sourceIds":["gem-global-integrated-power-tracker"],"technologies":["solar"],"technologyMixMw":{"solar":3.0},"unitCount":1,"unitIds":["gem-unit-G100001006423"]},"type":"Feature"},{"geometry":{"coordinates":[19.3824,40.7866],"type":"Point"},"id":"wattlas-plant-gemplant-l100001005387","properties":{"aliases":["--","Topojë Fier County solar project III"],"canonicalAnchor":"gemplant:L100001005387","canonicalCountryKey":"AL","capacityMw":1.8,"country":"AL","externalIds":{"gemPlant":"L100001005387","gemUnit":"G100001006424"},"geographyId":"AL-10019604B18588012879070","id":"wattlas-plant-gemplant-l100001005387","lifecycleCounts":{"operational":1},"locationPrecision":"exact","name":"Topojë Fier County solar project III","operatingCapacityCoverage":{"coveragePercent":100.0,"knownUnitCount":1,"method":"complete_unit_sum","provenance":{"evidenceCount":0,"recordIds":["wattlas-record-gemunit-g100001006424"],"sourceIds":["gem-global-integrated-power-tracker"],"sourceTypes":["research_verified"],"valueKind":"reported"},"totalUnitCount":1},"operatingCapacityMw":1.8,"operatingCapacityMwByTechnology":{"solar":1.8},"plannedCapacityCoverage":{"coveragePercent":0.0,"knownUnitCount":0,"method":"unavailable","totalUnitCount":0},"plannedCapacityMw":0.0,"plannedCapacityMwByTechnology":{},"recordCount":1,"recordIds":["wattlas-record-gemunit-g100001006424"],"sourceIds":["gem-global-integrated-power-tracker"],"technologies":["solar"],"technologyMixMw":{"solar":1.8},"unitCount":1,"unitIds":["gem-unit-G100001006424"]},"type":"Feature"},{"geometry":{"coordinates":[19.4721,41.4016],"type":"Point"},"id":"wattlas-plant-gemplant-l100001005388","properties":{"aliases":["--","Bashkia Durrës Durrës County solar project"],"canonicalAnchor":"gemplant:L100001005388","canonicalCountryKey":"AL","capacityMw":2.1,"country":"AL","externalIds":{"gemPlant":"L100001005388","gemUnit":"G100001006425"},"geographyId":"AL-10019604B56812167051250","id":"wattlas-plant-gemplant-l100001005388","lifecycleCounts":{"operational":1},"locationPrecision":"exact","name":"Bashkia Durrës Durrës County solar project","operatingCapacityCoverage":{"coveragePercent":100.0,"knownUnitCount":1,"method":"complete_unit_sum","provenance":{"evidenceCount":0,"recordIds":["wattlas-record-gemunit-g100001006425"],"sourceIds":["gem-global-integrated-power-tracker"],"sourceTypes":["research_verified"],"valueKind":"reported"},"totalUnitCount":1},"operatingCapacityMw":2.1,"operatingCapacityMwByTechnology":{"solar":2.1},"plannedCapacityCoverage":{"coveragePercent":0.0,"knownUnitCount":0,"method":"unavailable","totalUnitCount":0},"plannedCapacityMw":0.0,"plannedCapacityMwByTechnology":{},"recordCount":1,"recordIds":["wattlas-record-gemunit-g100001006425"],"sourceIds":["gem-global-integrated-power-tracker"],"technologies":["solar"],"technologyMixMw":{"solar":2.1},"unitCount":1,"unitIds":["gem-unit-G100001006425"]},"type":"Feature"},{"geometry":{"coordinates":[19.4221,40.7158],"type":"Point"},"id":"wattlas-plant-gemplant-l100001005389","properties":{"aliases":["--","Dërmenas Fier County solar project I"],"canonicalAnchor":"gemplant:L100001005389","canonicalCountryKey":"AL","capacityMw":7.7,"country":"AL","externalIds":{"gemPlant":"L100001005389","gemUnit":"G100001006426"},"geographyId":"AL-10019604B18588012879070","id":"wattlas-plant-gemplant-l100001005389","lifecycleCounts":{"operational":1},"locationPrecision":"exact","name":"Dërmenas Fier County solar project I","operatingCapacityCoverage":{"coveragePercent":100.0,"knownUnitCount":1,"method":"complete_unit_sum","provenance":{"evidenceCount":0,"recordIds":["wattlas-record-gemunit-g100001006426"],"sourceIds":["gem-global-integrated-power-tracker"],"sourceTypes":["research_verified"],"valueKind":"reported"},"totalUnitCount":1},"operatingCapacityMw":7.7,"operatingCapacityMwByTechnology":{"solar":7.7},"plannedCapacityCoverage":{"coveragePercent":0.0,"knownUnitCount":0,"method":"unavailable","totalUnitCount":0},"plannedCapacityMw":0.0,"plannedCapacityMwByTechnology":{},"recordCount":1,"recordIds":["wattlas-record-gemunit-g100001006426"],"sourceIds":["gem-global-integrated-power-tracker"],"technologies":["solar"],"technologyMixMw":{"solar":7.7},"unitCount":1,"unitIds":["gem-unit-G100001006426"]},"type":"Feature"},{"geometry":{"coordinates":[19.4151,40.7113],"type":"Point"},"id":"wattlas-plant-gemplant-l100001005390","properties":{"aliases":["--","Dërmenas Fier County solar project II"],"canonicalAnchor":"gemplant:L100001005390","canonicalCountryKey":"AL","capacityMw":7.0,"country":"AL","externalIds":{"gemPlant":"L100001005390","gemUnit":"G100001006427"},"geographyId":"AL-10019604B18588012879070","id":"wattlas-plant-gemplant-l100001005390","lifecycleCounts":{"operational":1},"locationPrecision":"exact","name":"Dërmenas Fier County solar project II","operatingCapacityCoverage":{"coveragePercent":100.0,"knownUnitCount":1,"method":"complete_unit_sum","provenance":{"evidenceCount":0,"recordIds":["wattlas-record-gemunit-g100001006427"],"sourceIds":["gem-global-integrated-power-tracker"],"sourceTypes":["research_verified"],"valueKind":"reported"},"totalUnitCount":1},"operatingCapacityMw":7.0,"operatingCapacityMwByTechnology":{"solar":7.0},"plannedCapacityCoverage":{"coveragePercent":0.0,"knownUnitCount":0,"method":"unavailable","totalUnitCount":0},"plannedCapacityMw":0.0,"plannedCapacityMwByTechnology":{},"recordCount":1,"recordIds":["wattlas-record-gemunit-g100001006427"],"sourceIds":["gem-global-integrated-power-tracker"],"technologies":["solar"],"technologyMixMw":{"solar":7.0},"unitCount":1,"unitIds":["gem-unit-G100001006427"]},"type":"Feature"},{"geometry":{"coordinates":[20.4113,42.0273],"type":"Point"},"id":"wattlas-plant-gemplant-l100001005391","properties":{"aliases":["--","Kukës County solar project"],"canonicalAnchor":"gemplant:L100001005391","canonicalCountryKey":"AL","capacityMw":4.7,"country":"AL","externalIds":{"gemPlant":"L100001005391","gemUnit":"G100001006428"},"geographyId":"AL-10019604B40645538692706","id":"wattlas-plant-gemplant-l100001005391","lifecycleCounts":{"operational":1},"locationPrecision":"exact","name":"Kukës County solar project","operatingCapacityCoverage":{"coveragePercent":100.0,"knownUnitCount":1,"method":"complete_unit_sum","provenance":{"evidenceCount":0,"recordIds":["wattlas-record-gemunit-g100001006428"],"sourceIds":["gem-global-integrated-power-tracker"],"sourceTypes":["research_verified"],"valueKind":"reported"},"totalUnitCount":1},"operatingCapacityMw":4.7,"operatingCapacityMwByTechnology":{"solar":4.7},"plannedCapacityCoverage":{"coveragePercent":0.0,"knownUnitCount":0,"method":"unavailable","totalUnitCount":0},"plannedCapacityMw":0.0,"plannedCapacityMwByTechnology":{},"recordCount":1,"recordIds":["wattlas-record-gemunit-g100001006428"],"sourceIds":["gem-global-integrated-power-tracker"],"technologies":["solar"],"technologyMixMw":{"solar":4.7},"unitCount":1,"unitIds":["gem-unit-G100001006428"]},"type":"Feature"},{"geometry":{"coordinates":[20.4404,40.6929],"type":"Point"},"id":"wattlas-plant-gemplant-l100001025620","properties":{"aliases":["Moglicë Pumped Storage hydroelectric plant"],"canonicalAnchor":"gemplant:L100001025620","canonicalCountryKey":"AL","capacityMw":1200.0,"country":"AL","externalIds":{"gemPlant":"L100001025620","gemUnit":"G100001030375"},"geographyId":"AL-10019604B11091570243697","id":"wattlas-plant-gemplant-l100001025620","lifecycleCounts":{"announced":1},"locationPrecision":"exact","name":"Moglicë Pumped Storage hydroelectric plant","operatingCapacityCoverage":{"coveragePercent":0.0,"knownUnitCount":0,"method":"unavailable","totalUnitCount":0},"operatingCapacityMw":0.0,"operatingCapacityMwByTechnology":{},"plannedCapacityCoverage":{"coveragePercent":100.0,"knownUnitCount":1,"method":"complete_unit_sum","provenance":{"evidenceCount":0,"recordIds":["wattlas-record-gemunit-g100001030375"],"sourceIds":["gem-global-integrated-power-tracker"],"sourceTypes":["research_verified"],"valueKind":"reported"},"totalUnitCount":1},"plannedCapacityMw":1200.0,"plannedCapacityMwByTechnology":{"hydro":1200.0},"recordCount":1,"recordIds":["wattlas-record-gemunit-g100001030375"],"sourceIds":["gem-global-integrated-power-tracker"],"technologies":["hydro"],"technologyMixMw":{"hydro":1200.0},"unitCount":1,"unitIds":["gem-unit-G100001030375"]},"type":"Feature"},{"geometry":{"coordinates":[20.067,40.9649],"type":"Point"},"id":"wattlas-plant-gemplant-l100001025621","properties":{"aliases":["Banjë hydroelectric plant"],"canonicalAnchor":"gemplant:L100001025621","canonicalCountryKey":"AL","capacityMw":72.0,"country":"AL","externalIds":{"gemPlant":"L100001025621","gemUnit":"G100001030376"},"geographyId":"AL-10019604B8832247678249","id":"wattlas-plant-gemplant-l100001025621","lifecycleCounts":{"operational":1},"locationPrecision":"exact","name":"Banjë hydroelectric plant","operatingCapacityCoverage":{"coveragePercent":100.0,"knownUnitCount":1,"method":"complete_unit_sum","provenance":{"evidenceCount":0,"recordIds":["wattlas-record-gemunit-g100001030376"],"sourceIds":["gem-global-integrated-power-tracker"],"sourceTypes":["research_verified"],"valueKind":"reported"},"totalUnitCount":1},"operatingCapacityMw":72.0,"operatingCapacityMwByTechnology":{"hydro":72.0},"plannedCapacityCoverage":{"coveragePercent":0.0,"knownUnitCount":0,"method":"unavailable","totalUnitCount":0},"plannedCapacityMw":0.0,"plannedCapacityMwByTechnology":{},"recordCount":1,"recordIds":["wattlas-record-gemunit-g100001030376"],"sourceIds":["gem-global-integrated-power-tracker"],"technologies":["hydro"],"technologyMixMw":{"hydro":72.0},"unitCount":1,"unitIds":["gem-unit-G100001030376"]},"type":"Feature"},{"geometry":{"coordinates":[19.5515,42.0112],"type":"Point"},"id":"wattlas-plant-gemplant-l100001025651","properties":{"aliases":["Ashta 2 hydroelectric plant"],"canonicalAnchor":"gemplant:L100001025651","canonicalCountryKey":"AL","capacityMw":45.0,"country":"AL","externalIds":{"gemPlant":"L100001025651","gemUnit":"G100001030436"},"geographyId":"AL-10019604B9428140626415","id":"wattlas-plant-gemplant-l100001025651","lifecycleCounts":{"operational":1},"locationPrecision":"exact","name":"Ashta 2 hydroelectric plant","operatingCapacityCoverage":{"coveragePercent":100.0,"knownUnitCount":1,"method":"complete_unit_sum","provenance":{"evidenceCount":0,"recordIds":["wattlas-record-gemunit-g100001030436"],"sourceIds":["gem-global-integrated-power-tracker"],"sourceTypes":["research_verified"],"valueKind":"reported"},"totalUnitCount":1},"operatingCapacityMw":45.0,"operatingCapacityMwByTechnology":{"hydro":45.0},"plannedCapacityCoverage":{"coveragePercent":0.0,"knownUnitCount":0,"method":"unavailable","totalUnitCount":0},"plannedCapacityMw":0.0,"plannedCapacityMwByTechnology":{},"recordCount":1,"recordIds":["wattlas-record-gemunit-g100001030436"],"sourceIds":["gem-global-integrated-power-tracker"],"technologies":["hydro"],"technologyMixMw":{"hydro":45.0},"unitCount":1,"unitIds":["gem-unit-G100001030436"]},"type":"Feature"},{"geometry":{"coordinates":[19.7852,41.7385],"type":"Point"},"id":"wattlas-plant-gemplant-l100001025652","properties":{"aliases":["Fang hydroelectric plant"],"canonicalAnchor":"gemplant:L100001025652","canonicalCountryKey":"AL","capacityMw":72.0,"country":"AL","externalIds":{"gemPlant":"L100001025652","gemUnit":"G100001030437"},"geographyId":"AL-10019604B99204019868502","id":"wattlas-plant-gemplant-l100001025652","lifecycleCounts":{"operational":1},"locationPrecision":"exact","name":"Fang hydroelectric plant","operatingCapacityCoverage":{"coveragePercent":100.0,"knownUnitCount":1,"method":"complete_unit_sum","provenance":{"evidenceCount":0,"recordIds":["wattlas-record-gemunit-g100001030437"],"sourceIds":["gem-global-integrated-power-tracker"],"sourceTypes":["research_verified"],"valueKind":"reported"},"totalUnitCount":1},"operatingCapacityMw":72.0,"operatingCapacityMwByTechnology":{"hydro":72.0},"plannedCapacityCoverage":{"coveragePercent":0.0,"knownUnitCount":0,"method":"unavailable","totalUnitCount":0},"plannedCapacityMw":0.0,"plannedCapacityMwByTechnology":{},"recordCount":1,"recordIds":["wattlas-record-gemunit-g100001030437"],"sourceIds":["gem-global-integrated-power-tracker"],"technologies":["hydro"],"technologyMixMw":{"hydro":72.0},"unitCount":1,"unitIds":["gem-unit-G100001030437"]},"type":"Feature"},{"geometry":{"coordinates":[19.4236,40.7292],"type":"Point"},"id":"wattlas-plant-gemplant-l100001052673","properties":{"aliases":["--","Fier County solar project I"],"canonicalAnchor":"gemplant:L100001052673","canonicalCountryKey":"AL","capacityMw":1.5,"country":"AL","externalIds":{"gemPlant":"L100001052673","gemUnit":"G100001060467"},"geographyId":"AL-10019604B18588012879070","id":"wattlas-plant-gemplant-l100001052673","lifecycleCounts":{"operational":1},"locationPrecision":"exact","name":"Fier County solar project I","operatingCapacityCoverage":{"coveragePercent":100.0,"knownUnitCount":1,"method":"complete_unit_sum","provenance":{"evidenceCount":0,"recordIds":["wattlas-record-gemunit-g100001060467"],"sourceIds":["gem-global-integrated-power-tracker"],"sourceTypes":["research_verified"],"valueKind":"reported"},"totalUnitCount":1},"operatingCapacityMw":1.5,"operatingCapacityMwByTechnology":{"solar":1.5},"plannedCapacityCoverage":{"coveragePercent":0.0,"knownUnitCount":0,"method":"unavailable","totalUnitCount":0},"plannedCapacityMw":0.0,"plannedCapacityMwByTechnology":{},"recordCount":1,"recordIds":["wattlas-record-gemunit-g100001060467"],"sourceIds":["gem-global-integrated-power-tracker"],"technologies":["solar"],"technologyMixMw":{"solar":1.5},"unitCount":1,"unitIds":["gem-unit-G100001060467"]},"type":"Feature"},{"geometry":{"coordinates":[19.5162,41.3561],"type":"Point"},"id":"wattlas-plant-gemplant-l100001052674","properties":{"aliases":["--","Xhafzotaj Durrës County solar project"],"canonicalAnchor":"gemplant:L100001052674","canonicalCountryKey":"AL","capacityMw":1.3,"country":"AL","externalIds":{"gemPlant":"L100001052674","gemUnit":"G100001060468"},"geographyId":"AL-10019604B56812167051250","id":"wattlas-plant-gemplant-l100001052674","lifecycleCounts":{"operational":1},"locationPrecision":"exact","name":"Xhafzotaj Durrës County solar project","operatingCapacityCoverage":{"coveragePercent":100.0,"knownUnitCount":1,"method":"complete_unit_sum","provenance":{"evidenceCount":0,"recordIds":["wattlas-record-gemunit-g100001060468"],"sourceIds":["gem-global-integrated-power-tracker"],"sourceTypes":["research_verified"],"valueKind":"reported"},"totalUnitCount":1},"operatingCapacityMw":1.3,"operatingCapacityMwByTechnology":{"solar":1.3},"plannedCapacityCoverage":{"coveragePercent":0.0,"knownUnitCount":0,"method":"unavailable","totalUnitCount":0},"plannedCapacityMw":0.0,"plannedCapacityMwByTechnology":{},"recordCount":1,"recordIds":["wattlas-record-gemunit-g100001060468"],"sourceIds":["gem-global-integrated-power-tracker"],"technologies":["solar"],"technologyMixMw":{"solar":1.3},"unitCount":1,"unitIds":["gem-unit-G100001060468"]},"type":"Feature"},{"geometry":{"coordinates":[20.8004,40.6368],"type":"Point"},"id":"wattlas-plant-gemplant-l100001052675","properties":{"aliases":["--","Qendër Bulgarec Korçë County solar project I"],"canonicalAnchor":"gemplant:L100001052675","canonicalCountryKey":"AL","capacityMw":2.4,"country":"AL","externalIds":{"gemPlant":"L100001052675","gemUnit":"G100001060469"},"geographyId":"AL-10019604B11091570243697","id":"wattlas-plant-gemplant-l100001052675","lifecycleCounts":{"operational":1},"locationPrecision":"exact","name":"Qendër Bulgarec Korçë County solar project I","operatingCapacityCoverage":{"coveragePercent":100.0,"knownUnitCount":1,"method":"complete_unit_sum","provenance":{"evidenceCount":0,"recordIds":["wattlas-record-gemunit-g100001060469"],"sourceIds":["gem-global-integrated-power-tracker"],"sourceTypes":["research_verified"],"valueKind":"reported"},"totalUnitCount":1},"operatingCapacityMw":2.4,"operatingCapacityMwByTechnology":{"solar":2.4},"plannedCapacityCoverage":{"coveragePercent":0.0,"knownUnitCount":0,"method":"unavailable","totalUnitCount":0},"plannedCapacityMw":0.0,"plannedCapacityMwByTechnology":{},"recordCount":1,"recordIds":["wattlas-record-gemunit-g100001060469"],"sourceIds":["gem-global-integrated-power-tracker"],"technologies":["solar"],"technologyMixMw":{"solar":2.4},"unitCount":1,"unitIds":["gem-unit-G100001060469"]},"type":"Feature"},{"geometry":{"coordinates":[19.6225,40.9625],"type":"Point"},"id":"wattlas-plant-gemplant-l100001052676","properties":{"aliases":["--","Fier County solar project II"],"canonicalAnchor":"gemplant:L100001052676","canonicalCountryKey":"AL","capacityMw":2.4,"country":"AL","externalIds":{"gemPlant":"L100001052676","gemUnit":"G100001060470"},"geographyId":"AL-10019604B18588012879070","id":"wattlas-plant-gemplant-l100001052676","lifecycleCounts":{"operational":1},"locationPrecision":"exact","name":"Fier County solar project II","operatingCapacityCoverage":{"coveragePercent":100.0,"knownUnitCount":1,"method":"complete_unit_sum","provenance":{"evidenceCount":0,"recordIds":["wattlas-record-gemunit-g100001060470"],"sourceIds":["gem-global-integrated-power-tracker"],"sourceTypes":["research_verified"],"valueKind":"reported"},"totalUnitCount":1},"operatingCapacityMw":2.4,"operatingCapacityMwByTechnology":{"solar":2.4},"plannedCapacityCoverage":{"coveragePercent":0.0,"knownUnitCount":0,"method":"unavailable","totalUnitCount":0},"plannedCapacityMw":0.0,"plannedCapacityMwByTechnology":{},"recordCount":1,"recordIds":["wattlas-record-gemunit-g100001060470"],"sourceIds":["gem-global-integrated-power-tracker"],"technologies":["solar"],"technologyMixMw":{"solar":2.4},"unitCount":1,"unitIds":["gem-unit-G100001060470"]},"type":"Feature"},{"geometry":{"coordinates":[19.6978,40.9648],"type":"Point"},"id":"wattlas-plant-gemplant-l100001052677","properties":{"aliases":["--","Fier County solar project III"],"canonicalAnchor":"gemplant:L100001052677","canonicalCountryKey":"AL","capacityMw":2.7,"country":"AL","externalIds":{"gemPlant":"L100001052677","gemUnit":"G100001060471"},"geographyId":"AL-10019604B18588012879070","id":"wattlas-plant-gemplant-l100001052677","lifecycleCounts":{"operational":1},"locationPrecision":"exact","name":"Fier County solar project III","operatingCapacityCoverage":{"coveragePercent":100.0,"knownUnitCount":1,"method":"complete_unit_sum","provenance":{"evidenceCount":0,"recordIds":["wattlas-record-gemunit-g100001060471"],"sourceIds":["gem-global-integrated-power-tracker"],"sourceTypes":["research_verified"],"valueKind":"reported"},"totalUnitCount":1},"operatingCapacityMw":2.7,"operatingCapacityMwByTechnology":{"solar":2.7},"plannedCapacityCoverage":{"coveragePercent":0.0,"knownUnitCount":0,"method":"unavailable","totalUnitCount":0},"plannedCapacityMw":0.0,"plannedCapacityMwByTechnology":{},"recordCount":1,"recordIds":["wattlas-record-gemunit-g100001060471"],"sourceIds":["gem-global-integrated-power-tracker"],"technologies":["solar"],"technologyMixMw":{"solar":2.7},"unitCount":1,"unitIds":["gem-unit-G100001060471"]},"type":"Feature"},{"geometry":{"coordinates":[19.41,40.7192],"type":"Point"},"id":"wattlas-plant-gemplant-l100001052678","properties":{"aliases":["--","Fier County solar project IV"],"canonicalAnchor":"gemplant:L100001052678","canonicalCountryKey":"AL","capacityMw":3.5,"country":"AL","externalIds":{"gemPlant":"L100001052678","gemUnit":"G100001060472"},"geographyId":"AL-10019604B18588012879070","id":"wattlas-plant-gemplant-l100001052678","lifecycleCounts":{"operational":1},"locationPrecision":"exact","name":"Fier County solar project IV","operatingCapacityCoverage":{"coveragePercent":100.0,"knownUnitCount":1,"method":"complete_unit_sum","provenance":{"evidenceCount":0,"recordIds":["wattlas-record-gemunit-g100001060472"],"sourceIds":["gem-global-integrated-power-tracker"],"sourceTypes":["research_verified"],"valueKind":"reported"},"totalUnitCount":1},"operatingCapacityMw":3.5,"operatingCapacityMwByTechnology":{"solar":3.5},"plannedCapacityCoverage":{"coveragePercent":0.0,"knownUnitCount":0,"method":"unavailable","totalUnitCount":0},"plannedCapacityMw":0.0,"plannedCapacityMwByTechnology":{},"recordCount":1,"recordIds":["wattlas-record-gemunit-g100001060472"],"sourceIds":["gem-global-integrated-power-tracker"],"technologies":["solar"],"technologyMixMw":{"solar":3.5},"unitCount":1,"unitIds":["gem-unit-G100001060472"]},"type":"Feature"},{"geometry":{"coordinates":[19.390249,40.742412],"type":"Point"},"id":"wattlas-plant-osm-relation-20640138","properties":{"aliases":["Sunny Side"],"canonicalAnchor":"osm:relation/20640138","canonicalCountryKey":"AL","capacityMw":120.0,"country":"AL","externalIds":{"osm":"relation/20640138"},"geographyId":"AL-10019604B18588012879070","id":"wattlas-plant-osm-relation-20640138","lifecycleCounts":{"operational":1},"locationPrecision":"exact","name":"Sunny Side","operatingCapacityCoverage":{"coveragePercent":100.0,"knownUnitCount":0,"method":"plant_aggregate","provenance":{"evidenceCount":0,"recordIds":["wattlas-record-osm-relation-20640138"],"sourceIds":["openstreetmap-power"],"sourceTypes":["community_mapped"],"valueKind":"reported"},"totalUnitCount":0},"operatingCapacityMw":120.0,"operatingCapacityMwByTechnology":{"solar":120.0},"plannedCapacityCoverage":{"coveragePercent":0.0,"knownUnitCount":0,"method":"unavailable","totalUnitCount":0},"plannedCapacityMw":0.0,"plannedCapacityMwByTechnology":{},"recordCount":1,"recordIds":["wattlas-record-osm-relation-20640138"],"sourceIds":["openstreetmap-power"],"technologies":["solar"],"technologyMixMw":{"solar":120.0},"unitCount":0,"unitIds":[]},"type":"Feature"},{"geometry":{"coordinates":[20.309687,41.738998],"type":"Point"},"id":"wattlas-plant-osm-way-1158431597","properties":{"aliases":["HEC SETA 4"],"canonicalAnchor":"osm:way/1158431597","canonicalCountryKey":"AL","capacityMw":0.0,"country":"AL","externalIds":{"osm":"way/1158431597"},"geographyId":"AL-10019604B38416360860341","id":"wattlas-plant-osm-way-1158431597","lifecycleCounts":{"operational":1},"locationPrecision":"exact","name":"HEC SETA 4","operatingCapacityCoverage":{"coveragePercent":0.0,"knownUnitCount":0,"method":"unavailable","totalUnitCount":0},"operatingCapacityMw":0.0,"operatingCapacityMwByTechnology":{},"plannedCapacityCoverage":{"coveragePercent":0.0,"knownUnitCount":0,"method":"unavailable","totalUnitCount":0},"plannedCapacityMw":0.0,"plannedCapacityMwByTechnology":{},"recordCount":1,"recordIds":["wattlas-record-osm-way-1158431597"],"sourceIds":["openstreetmap-power"],"technologies":["hydro"],"technologyMixMw":{"hydro":0.0},"unitCount":0,"unitIds":[]},"type":"Feature"},{"geometry":{"coordinates":[19.451079,40.845684],"type":"Point"},"id":"wattlas-plant-osm-way-1292960841","properties":{"aliases":["Karavasta Solar"],"canonicalAnchor":"osm:way/1292960841","canonicalCountryKey":"AL","capacityMw":140.0,"country":"AL","externalIds":{"osm":"way/1292960841"},"geographyId":"AL-10019604B18588012879070","id":"wattlas-plant-osm-way-1292960841","lifecycleCounts":{"operational":1},"locationPrecision":"exact","name":"Karavasta Solar","operatingCapacityCoverage":{"coveragePercent":100.0,"knownUnitCount":0,"method":"plant_aggregate","provenance":{"evidenceCount":0,"recordIds":["wattlas-record-osm-way-1292960841"],"sourceIds":["openstreetmap-power"],"sourceTypes":["community_mapped"],"valueKind":"reported"},"totalUnitCount":0},"operatingCapacityMw":140.0,"operatingCapacityMwByTechnology":{"solar":140.0},"plannedCapacityCoverage":{"coveragePercent":0.0,"knownUnitCount":0,"method":"unavailable","totalUnitCount":0},"plannedCapacityMw":0.0,"plannedCapacityMwByTechnology":{},"recordCount":1,"recordIds":["wattlas-record-osm-way-1292960841"],"sourceIds":["openstreetmap-power"],"technologies":["solar"],"technologyMixMw":{"solar":140.0},"unitCount":0,"unitIds":[]},"type":"Feature"},{"geometry":{"coordinates":[20.303928,41.219437],"type":"Point"},"id":"wattlas-plant-osm-way-1321482072","properties":{"aliases":["Qarrishta 1"],"canonicalAnchor":"osm:way/1321482072","canonicalCountryKey":"AL","capacityMw":0.0,"country":"AL","externalIds":{"osm":"way/1321482072"},"geographyId":"AL-10019604B8832247678249","id":"wattlas-plant-osm-way-1321482072","lifecycleCounts":{"operational":1},"locationPrecision":"exact","name":"Qarrishta 1","operatingCapacityCoverage":{"coveragePercent":0.0,"knownUnitCount":0,"method":"unavailable","totalUnitCount":0},"operatingCapacityMw":0.0,"operatingCapacityMwByTechnology":{},"plannedCapacityCoverage":{"coveragePercent":0.0,"knownUnitCount":0,"method":"unavailable","totalUnitCount":0},"plannedCapacityMw":0.0,"plannedCapacityMwByTechnology":{},"recordCount":1,"recordIds":["wattlas-record-osm-way-1321482072"],"sourceIds":["openstreetmap-power"],"technologies":["hydro"],"technologyMixMw":{"hydro":0.0},"unitCount":0,"unitIds":[]},"type":"Feature"},{"geometry":{"coordinates":[20.530504,42.028584],"type":"Point"},"id":"wattlas-plant-osm-way-1337573202","properties":{"aliases":["Oresheke"],"canonicalAnchor":"osm:way/1337573202","canonicalCountryKey":"AL","capacityMw":0.0,"country":"AL","externalIds":{"osm":"way/1337573202"},"geographyId":"AL-10019604B40645538692706","id":"wattlas-plant-osm-way-1337573202","lifecycleCounts":{"operational":1},"locationPrecision":"exact","name":"Oresheke","operatingCapacityCoverage":{"coveragePercent":0.0,"knownUnitCount":0,"method":"unavailable","totalUnitCount":0},"operatingCapacityMw":0.0,"operatingCapacityMwByTechnology":{},"plannedCapacityCoverage":{"coveragePercent":0.0,"knownUnitCount":0,"method":"unavailable","totalUnitCount":0},"plannedCapacityMw":0.0,"plannedCapacityMwByTechnology":{},"recordCount":1,"recordIds":["wattlas-record-osm-way-1337573202"],"sourceIds":["openstreetmap-power"],"technologies":["hydro"],"technologyMixMw":{"hydro":0.0},"unitCount":0,"unitIds":[]},"type":"Feature"},{"geometry":{"coordinates":[20.2987,41.191593],"type":"Point"},"id":"wattlas-plant-osm-way-1382520242","properties":{"aliases":["Hidrocentrali i Rrapunit"],"canonicalAnchor":"osm:way/1382520242","canonicalCountryKey":"AL","capacityMw":9.0,"country":"AL","externalIds":{"osm":"way/1382520242"},"geographyId":"AL-10019604B8832247678249","id":"wattlas-plant-osm-way-1382520242","lifecycleCounts":{"operational":1},"locationPrecision":"exact","name":"Hidrocentrali i Rrapunit","operatingCapacityCoverage":{"coveragePercent":100.0,"knownUnitCount":0,"method":"plant_aggregate","provenance":{"evidenceCount":0,"recordIds":["wattlas-record-osm-way-1382520242"],"sourceIds":["openstreetmap-power"],"sourceTypes":["community_mapped"],"valueKind":"reported"},"totalUnitCount":0},"operatingCapacityMw":9.0,"operatingCapacityMwByTechnology":{"hydro":9.0},"plannedCapacityCoverage":{"coveragePercent":0.0,"knownUnitCount":0,"method":"unavailable","totalUnitCount":0},"plannedCapacityMw":0.0,"plannedCapacityMwByTechnology":{},"recordCount":1,"recordIds":["wattlas-record-osm-way-1382520242"],"sourceIds":["openstreetmap-power"],"technologies":["hydro"],"technologyMixMw":{"hydro":9.0},"unitCount":0,"unitIds":[]},"type":"Feature"},{"geometry":{"coordinates":[20.384443,40.777594],"type":"Point"},"id":"wattlas-plant-osm-way-1453188823","properties":{"aliases":["HEC Grabovë 2"],"canonicalAnchor":"osm:way/1453188823","canonicalCountryKey":"AL","capacityMw":0.0,"country":"AL","externalIds":{"osm":"way/1453188823"},"geographyId":"AL-10019604B8832247678249","id":"wattlas-plant-osm-way-1453188823","lifecycleCounts":{"operational":1},"locationPrecision":"exact","name":"HEC Grabovë 2","operatingCapacityCoverage":{"coveragePercent":0.0,"knownUnitCount":0,"method":"unavailable","totalUnitCount":0},"operatingCapacityMw":0.0,"operatingCapacityMwByTechnology":{},"plannedCapacityCoverage":{"coveragePercent":0.0,"knownUnitCount":0,"method":"unavailable","totalUnitCount":0},"plannedCapacityMw":0.0,"plannedCapacityMwByTechnology":{},"recordCount":1,"recordIds":["wattlas-record-osm-way-1453188823"],"sourceIds":["openstreetmap-power"],"technologies":["hydro"],"technologyMixMw":{"hydro":0.0},"unitCount":0,"unitIds":[]},"type":"Feature"},{"geometry":{"coordinates":[20.013721,41.693933],"type":"Point"},"id":"wattlas-plant-osm-way-1509747931","properties":{"aliases":["Prelle"],"canonicalAnchor":"osm:way/1509747931","canonicalCountryKey":"AL","capacityMw":0.0,"country":"AL","externalIds":{"osm":"way/1509747931"},"geographyId":"AL-10019604B38416360860341","id":"wattlas-plant-osm-way-1509747931","lifecycleCounts":{"operational":1},"locationPrecision":"exact","name":"Prelle","operatingCapacityCoverage":{"coveragePercent":0.0,"knownUnitCount":0,"method":"unavailable","totalUnitCount":0},"operatingCapacityMw":0.0,"operatingCapacityMwByTechnology":{},"plannedCapacityCoverage":{"coveragePercent":0.0,"knownUnitCount":0,"method":"unavailable","totalUnitCount":0},"plannedCapacityMw":0.0,"plannedCapacityMwByTechnology":{},"recordCount":1,"recordIds":["wattlas-record-osm-way-1509747931"],"sourceIds":["openstreetmap-power"],"technologies":["hydro"],"technologyMixMw":{"hydro":0.0},"unitCount":0,"unitIds":[]},"type":"Feature"},{"geometry":{"coordinates":[19.778883,40.115497],"type":"Point"},"id":"wattlas-plant-osm-way-1509936764","properties":{"aliases":["Nova Prospect"],"canonicalAnchor":"osm:way/1509936764","canonicalCountryKey":"AL","capacityMw":0.0,"country":"AL","externalIds":{"osm":"way/1509936764"},"geographyId":"AL-10019604B59649873769490","id":"wattlas-plant-osm-way-1509936764","lifecycleCounts":{"operational":1},"locationPrecision":"exact","name":"Nova Prospect","operatingCapacityCoverage":{"coveragePercent":0.0,"knownUnitCount":0,"method":"unavailable","totalUnitCount":0},"operatingCapacityMw":0.0,"operatingCapacityMwByTechnology":{},"plannedCapacityCoverage":{"coveragePercent":0.0,"knownUnitCount":0,"method":"unavailable","totalUnitCount":0},"plannedCapacityMw":0.0,"plannedCapacityMwByTechnology":{},"recordCount":1,"recordIds":["wattlas-record-osm-way-1509936764"],"sourceIds":["openstreetmap-power"],"technologies":["solar"],"technologyMixMw":{"solar":0.0},"unitCount":0,"unitIds":[]},"type":"Feature"},{"geometry":{"coordinates":[20.415434,42.030153],"type":"Point"},"id":"wattlas-plant-osm-way-1523050375","properties":{"aliases":["International Airport Zayed"],"canonicalAnchor":"osm:way/1523050375","canonicalCountryKey":"AL","capacityMw":0.0,"country":"AL","externalIds":{"osm":"way/1523050375"},"geographyId":"AL-10019604B40645538692706","id":"wattlas-plant-osm-way-1523050375","lifecycleCounts":{"operational":1},"locationPrecision":"exact","name":"International Airport Zayed","operatingCapacityCoverage":{"coveragePercent":0.0,"knownUnitCount":0,"method":"unavailable","totalUnitCount":0},"operatingCapacityMw":0.0,"operatingCapacityMwByTechnology":{},"plannedCapacityCoverage":{"coveragePercent":0.0,"knownUnitCount":0,"method":"unavailable","totalUnitCount":0},"plannedCapacityMw":0.0,"plannedCapacityMwByTechnology":{},"recordCount":1,"recordIds":["wattlas-record-osm-way-1523050375"],"sourceIds":["openstreetmap-power"],"technologies":["solar"],"technologyMixMw":{"solar":0.0},"unitCount":0,"unitIds":[]},"type":"Feature"},{"geometry":{"coordinates":[20.416637,42.032262],"type":"Point"},"id":"wattlas-plant-osm-way-1523050376","properties":{"aliases":["International Airport Zayed"],"canonicalAnchor":"osm:way/1523050376","canonicalCountryKey":"AL","capacityMw":0.0,"country":"AL","externalIds":{"osm":"way/1523050376"},"geographyId":"AL-10019604B40645538692706","id":"wattlas-plant-osm-way-1523050376","lifecycleCounts":{"operational":1},"locationPrecision":"exact","name":"International Airport Zayed","operatingCapacityCoverage":{"coveragePercent":0.0,"knownUnitCount":0,"method":"unavailable","totalUnitCount":0},"operatingCapacityMw":0.0,"operatingCapacityMwByTechnology":{},"plannedCapacityCoverage":{"coveragePercent":0.0,"knownUnitCount":0,"method":"unavailable","totalUnitCount":0},"plannedCapacityMw":0.0,"plannedCapacityMwByTechnology":{},"recordCount":1,"recordIds":["wattlas-record-osm-way-1523050376"],"sourceIds":["openstreetmap-power"],"technologies":["solar"],"technologyMixMw":{"solar":0.0},"unitCount":0,"unitIds":[]},"type":"Feature"},{"geometry":{"coordinates":[20.416992,42.033759],"type":"Point"},"id":"wattlas-plant-osm-way-1523050377","properties":{"aliases":["International Airport Zayed"],"canonicalAnchor":"osm:way/1523050377","canonicalCountryKey":"AL","capacityMw":0.0,"country":"AL","externalIds":{"osm":"way/1523050377"},"geographyId":"AL-10019604B40645538692706","id":"wattlas-plant-osm-way-1523050377","lifecycleCounts":{"operational":1},"locationPrecision":"exact","name":"International Airport Zayed","operatingCapacityCoverage":{"coveragePercent":0.0,"knownUnitCount":0,"method":"unavailable","totalUnitCount":0},"operatingCapacityMw":0.0,"operatingCapacityMwByTechnology":{},"plannedCapacityCoverage":{"coveragePercent":0.0,"knownUnitCount":0,"method":"unavailable","totalUnitCount":0},"plannedCapacityMw":0.0,"plannedCapacityMwByTechnology":{},"recordCount":1,"recordIds":["wattlas-record-osm-way-1523050377"],"sourceIds":["openstreetmap-power"],"technologies":["solar"],"technologyMixMw":{"solar":0.0},"unitCount":0,"unitIds":[]},"type":"Feature"},{"geometry":{"coordinates":[20.413736,42.032837],"type":"Point"},"id":"wattlas-plant-osm-way-1523050378","properties":{"aliases":["International Airport Zayed"],"canonicalAnchor":"osm:way/1523050378","canonicalCountryKey":"AL","capacityMw":0.0,"country":"AL","externalIds":{"osm":"way/1523050378"},"geographyId":"AL-10019604B40645538692706","id":"wattlas-plant-osm-way-1523050378","lifecycleCounts":{"operational":1},"locationPrecision":"exact","name":"International Airport Zayed","operatingCapacityCoverage":{"coveragePercent":0.0,"knownUnitCount":0,"method":"unavailable","totalUnitCount":0},"operatingCapacityMw":0.0,"operatingCapacityMwByTechnology":{},"plannedCapacityCoverage":{"coveragePercent":0.0,"knownUnitCount":0,"method":"unavailable","totalUnitCount":0},"plannedCapacityMw":0.0,"plannedCapacityMwByTechnology":{},"recordCount":1,"recordIds":["wattlas-record-osm-way-1523050378"],"sourceIds":["openstreetmap-power"],"technologies":["solar"],"technologyMixMw":{"solar":0.0},"unitCount":0,"unitIds":[]},"type":"Feature"},{"geometry":{"coordinates":[20.411186,42.027427],"type":"Point"},"id":"wattlas-plant-osm-way-1523050379","properties":{"aliases":["International Airport Zayed"],"canonicalAnchor":"osm:way/1523050379","canonicalCountryKey":"AL","capacityMw":0.0,"country":"AL","externalIds":{"osm":"way/1523050379"},"geographyId":"AL-10019604B40645538692706","id":"wattlas-plant-osm-way-1523050379","lifecycleCounts":{"operational":1},"locationPrecision":"exact","name":"International Airport Zayed","operatingCapacityCoverage":{"coveragePercent":0.0,"knownUnitCount":0,"method":"unavailable","totalUnitCount":0},"operatingCapacityMw":0.0,"operatingCapacityMwByTechnology":{},"plannedCapacityCoverage":{"coveragePercent":0.0,"knownUnitCount":0,"method":"unavailable","totalUnitCount":0},"plannedCapacityMw":0.0,"plannedCapacityMwByTechnology":{},"recordCount":1,"recordIds":["wattlas-record-osm-way-1523050379"],"sourceIds":["openstreetmap-power"],"technologies":["solar"],"technologyMixMw":{"solar":0.0},"unitCount":0,"unitIds":[]},"type":"Feature"},{"geometry":{"coordinates":[20.411567,42.027011],"type":"Point"},"id":"wattlas-plant-osm-way-1523050380","properties":{"aliases":["International Airport Zayed"],"canonicalAnchor":"osm:way/1523050380","canonicalCountryKey":"AL","capacityMw":0.0,"country":"AL","externalIds":{"osm":"way/1523050380"},"geographyId":"AL-10019604B40645538692706","id":"wattlas-plant-osm-way-1523050380","lifecycleCounts":{"operational":1},"locationPrecision":"exact","name":"International Airport Zayed","operatingCapacityCoverage":{"coveragePercent":0.0,"knownUnitCount":0,"method":"unavailable","totalUnitCount":0},"operatingCapacityMw":0.0,"operatingCapacityMwByTechnology":{},"plannedCapacityCoverage":{"coveragePercent":0.0,"knownUnitCount":0,"method":"unavailable","totalUnitCount":0},"plannedCapacityMw":0.0,"plannedCapacityMwByTechnology":{},"recordCount":1,"recordIds":["wattlas-record-osm-way-1523050380"],"sourceIds":["openstreetmap-power"],"technologies":["solar"],"technologyMixMw":{"solar":0.0},"unitCount":0,"unitIds":[]},"type":"Feature"},{"geometry":{"coordinates":[19.781214,42.358341],"type":"Point"},"id":"wattlas-plant-osm-way-241407322","properties":{"aliases":["Hidrocentrali Nderlysaj"],"canonicalAnchor":"osm:way/241407322","canonicalCountryKey":"AL","capacityMw":0.0,"country":"AL","externalIds":{"osm":"way/241407322"},"geographyId":"AL-10019604B9428140626415","id":"wattlas-plant-osm-way-241407322","lifecycleCounts":{"operational":1},"locationPrecision":"exact","name":"Hidrocentrali Nderlysaj","operatingCapacityCoverage":{"coveragePercent":0.0,"knownUnitCount":0,"method":"unavailable","totalUnitCount":0},"operatingCapacityMw":0.0,"operatingCapacityMwByTechnology":{},"plannedCapacityCoverage":{"coveragePercent":0.0,"knownUnitCount":0,"method":"unavailable","totalUnitCount":0},"plannedCapacityMw":0.0,"plannedCapacityMwByTechnology":{},"recordCount":1,"recordIds":["wattlas-record-osm-way-241407322"],"sourceIds":["openstreetmap-power"],"technologies":["hydro"],"technologyMixMw":{"hydro":0.0},"unitCount":0,"unitIds":[]},"type":"Feature"},{"geometry":{"coordinates":[19.945348,42.299521],"type":"Point"},"id":"wattlas-plant-osm-way-242174111","properties":{"aliases":["Hydroelectric power station Curraj Poshtëm"],"canonicalAnchor":"osm:way/242174111","canonicalCountryKey":"AL","capacityMw":0.0,"country":"AL","externalIds":{"osm":"way/242174111"},"geographyId":"AL-10019604B40645538692706","id":"wattlas-plant-osm-way-242174111","lifecycleCounts":{"operational":1},"locationPrecision":"exact","name":"Hydroelectric power station Curraj Poshtëm","operatingCapacityCoverage":{"coveragePercent":0.0,"knownUnitCount":0,"method":"unavailable","totalUnitCount":0},"operatingCapacityMw":0.0,"operatingCapacityMwByTechnology":{},"plannedCapacityCoverage":{"coveragePercent":0.0,"knownUnitCount":0,"method":"unavailable","totalUnitCount":0},"plannedCapacityMw":0.0,"plannedCapacityMwByTechnology":{},"recordCount":1,"recordIds":["wattlas-record-osm-way-242174111"],"sourceIds":["openstreetmap-power"],"technologies":["hydro"],"technologyMixMw":{"hydro":0.0},"unitCount":0,"unitIds":[]},"type":"Feature"},{"geometry":{"coordinates":[19.896774,41.34246],"type":"Point"},"id":"wattlas-plant-osm-way-478504025","properties":{"aliases":["HEC Lanabregas"],"canonicalAnchor":"osm:way/478504025","canonicalCountryKey":"AL","capacityMw":0.0,"country":"AL","externalIds":{"osm":"way/478504025"},"geographyId":"AL-10019604B30424798991477","id":"wattlas-plant-osm-way-478504025","lifecycleCounts":{"operational":1},"locationPrecision":"exact","name":"HEC Lanabregas","operatingCapacityCoverage":{"coveragePercent":0.0,"knownUnitCount":0,"method":"unavailable","totalUnitCount":0},"operatingCapacityMw":0.0,"operatingCapacityMwByTechnology":{},"plannedCapacityCoverage":{"coveragePercent":0.0,"knownUnitCount":0,"method":"unavailable","totalUnitCount":0},"plannedCapacityMw":0.0,"plannedCapacityMwByTechnology":{},"recordCount":1,"recordIds":["wattlas-record-osm-way-478504025"],"sourceIds":["openstreetmap-power"],"technologies":["hydro"],"technologyMixMw":{"hydro":0.0},"unitCount":0,"unitIds":[]},"type":"Feature"},{"geometry":{"coordinates":[19.598935,42.507796],"type":"Point"},"id":"wattlas-plant-osm-way-609905420","properties":{"aliases":["Stacion Elektrik"],"canonicalAnchor":"osm:way/609905420","canonicalCountryKey":"AL","capacityMw":0.0,"country":"AL","externalIds":{"osm":"way/609905420"},"geographyId":"AL-10019604B9428140626415","id":"wattlas-plant-osm-way-609905420","lifecycleCounts":{"operational":1},"locationPrecision":"exact","name":"Stacion Elektrik","operatingCapacityCoverage":{"coveragePercent":0.0,"knownUnitCount":0,"method":"unavailable","totalUnitCount":0},"operatingCapacityMw":0.0,"operatingCapacityMwByTechnology":{},"plannedCapacityCoverage":{"coveragePercent":0.0,"knownUnitCount":0,"method":"unavailable","totalUnitCount":0},"plannedCapacityMw":0.0,"plannedCapacityMwByTechnology":{},"recordCount":1,"recordIds":["wattlas-record-osm-way-609905420"],"sourceIds":["openstreetmap-power"],"technologies":["hydro"],"technologyMixMw":{"hydro":0.0},"unitCount":0,"unitIds":[]},"type":"Feature"},{"geometry":{"coordinates":[20.416134,41.894442],"type":"Point"},"id":"wattlas-plant-osm-way-659758255","properties":{"aliases":["Hidrocentrali Lapaj"],"canonicalAnchor":"osm:way/659758255","canonicalCountryKey":"AL","capacityMw":13.6,"country":"AL","externalIds":{"osm":"way/659758255"},"geographyId":"AL-10019604B40645538692706","id":"wattlas-plant-osm-way-659758255","lifecycleCounts":{"operational":1},"locationPrecision":"exact","name":"Hidrocentrali Lapaj","operatingCapacityCoverage":{"coveragePercent":100.0,"knownUnitCount":0,"method":"plant_aggregate","provenance":{"evidenceCount":0,"recordIds":["wattlas-record-osm-way-659758255"],"sourceIds":["openstreetmap-power"],"sourceTypes":["community_mapped"],"valueKind":"reported"},"totalUnitCount":0},"operatingCapacityMw":13.6,"operatingCapacityMwByTechnology":{"hydro":13.6},"plannedCapacityCoverage":{"coveragePercent":0.0,"knownUnitCount":0,"method":"unavailable","totalUnitCount":0},"plannedCapacityMw":0.0,"plannedCapacityMwByTechnology":{},"recordCount":1,"recordIds":["wattlas-record-osm-way-659758255"],"sourceIds":["openstreetmap-power"],"technologies":["hydro"],"technologyMixMw":{"hydro":13.6},"unitCount":0,"unitIds":[]},"type":"Feature"},{"geometry":{"coordinates":[20.137269,39.916837],"type":"Point"},"id":"wattlas-plant-osm-way-663790655","properties":{"aliases":["Bistrica 1 Power Station"],"canonicalAnchor":"osm:way/663790655","canonicalCountryKey":"AL","capacityMw":22.5,"country":"AL","externalIds":{"osm":"way/663790655"},"geographyId":"AL-10019604B59649873769490","id":"wattlas-plant-osm-way-663790655","lifecycleCounts":{"operational":1},"locationPrecision":"exact","name":"Bistrica 1 Power Station","operatingCapacityCoverage":{"coveragePercent":100.0,"knownUnitCount":0,"method":"plant_aggregate","provenance":{"evidenceCount":0,"recordIds":["wattlas-record-osm-way-663790655"],"sourceIds":["openstreetmap-power"],"sourceTypes":["community_mapped"],"valueKind":"reported"},"totalUnitCount":0},"operatingCapacityMw":22.5,"operatingCapacityMwByTechnology":{"hydro":22.5},"plannedCapacityCoverage":{"coveragePercent":0.0,"knownUnitCount":0,"method":"unavailable","totalUnitCount":0},"plannedCapacityMw":0.0,"plannedCapacityMwByTechnology":{},"recordCount":1,"recordIds":["wattlas-record-osm-way-663790655"],"sourceIds":["openstreetmap-power"],"technologies":["hydro"],"technologyMixMw":{"hydro":22.5},"unitCount":0,"unitIds":[]},"type":"Feature"},{"geometry":{"coordinates":[19.959677,41.867834],"type":"Point"},"id":"wattlas-plant-osm-way-663945299","properties":{"aliases":["Peshqesh Hydroelectric Power Station"],"canonicalAnchor":"osm:way/663945299","canonicalCountryKey":"AL","capacityMw":28.0,"country":"AL","externalIds":{"osm":"way/663945299"},"geographyId":"AL-10019604B99204019868502","id":"wattlas-plant-osm-way-663945299","lifecycleCounts":{"operational":1},"locationPrecision":"exact","name":"Peshqesh Hydroelectric Power Station","operatingCapacityCoverage":{"coveragePercent":100.0,"knownUnitCount":0,"method":"plant_aggregate","provenance":{"evidenceCount":0,"recordIds":["wattlas-record-osm-way-663945299"],"sourceIds":["openstreetmap-power"],"sourceTypes":["community_mapped"],"valueKind":"reported"},"totalUnitCount":0},"operatingCapacityMw":28.0,"operatingCapacityMwByTechnology":{"hydro":28.0},"plannedCapacityCoverage":{"coveragePercent":0.0,"knownUnitCount":0,"method":"unavailable","totalUnitCount":0},"plannedCapacityMw":0.0,"plannedCapacityMwByTechnology":{},"recordCount":1,"recordIds":["wattlas-record-osm-way-663945299"],"sourceIds":["openstreetmap-power"],"technologies":["hydro"],"technologyMixMw":{"hydro":28.0},"unitCount":0,"unitIds":[]},"type":"Feature"},{"geometry":{"coordinates":[20.415096,41.511326],"type":"Point"},"id":"wattlas-plant-osm-way-909312006","properties":{"aliases":["Gjorice Hydro Power Station"],"canonicalAnchor":"osm:way/909312006","canonicalCountryKey":"AL","capacityMw":25.0,"country":"AL","externalIds":{"osm":"way/909312006"},"geographyId":"AL-10019604B38416360860341","id":"wattlas-plant-osm-way-909312006","lifecycleCounts":{"operational":1},"locationPrecision":"exact","name":"Gjorice Hydro Power Station","operatingCapacityCoverage":{"coveragePercent":100.0,"knownUnitCount":0,"method":"plant_aggregate","provenance":{"evidenceCount":0,"recordIds":["wattlas-record-osm-way-909312006"],"sourceIds":["openstreetmap-power"],"sourceTypes":["community_mapped"],"valueKind":"reported"},"totalUnitCount":0},"operatingCapacityMw":25.0,"operatingCapacityMwByTechnology":{"hydro":25.0},"plannedCapacityCoverage":{"coveragePercent":0.0,"knownUnitCount":0,"method":"unavailable","totalUnitCount":0},"plannedCapacityMw":0.0,"plannedCapacityMwByTechnology":{},"recordCount":1,"recordIds":["wattlas-record-osm-way-909312006"],"sourceIds":["openstreetmap-power"],"technologies":["hydro"],"technologyMixMw":{"hydro":25.0},"unitCount":0,"unitIds":[]},"type":"Feature"},{"geometry":{"coordinates":[20.104623,39.911606],"type":"Point"},"id":"wattlas-plant-osm-way-909312008","properties":{"aliases":["Bistrica 2 Power Station"],"canonicalAnchor":"osm:way/909312008","canonicalCountryKey":"AL","capacityMw":5.0,"country":"AL","externalIds":{"osm":"way/909312008"},"geographyId":"AL-10019604B59649873769490","id":"wattlas-plant-osm-way-909312008","lifecycleCounts":{"operational":1},"locationPrecision":"exact","name":"Bistrica 2 Power Station","operatingCapacityCoverage":{"coveragePercent":100.0,"knownUnitCount":0,"method":"plant_aggregate","provenance":{"evidenceCount":0,"recordIds":["wattlas-record-osm-way-909312008"],"sourceIds":["openstreetmap-power"],"sourceTypes":["community_mapped"],"valueKind":"reported"},"totalUnitCount":0},"operatingCapacityMw":5.0,"operatingCapacityMwByTechnology":{"hydro":5.0},"plannedCapacityCoverage":{"coveragePercent":0.0,"knownUnitCount":0,"method":"unavailable","totalUnitCount":0},"plannedCapacityMw":0.0,"plannedCapacityMwByTechnology":{},"recordCount":1,"recordIds":["wattlas-record-osm-way-909312008"],"sourceIds":["openstreetmap-power"],"technologies":["hydro"],"technologyMixMw":{"hydro":5.0},"unitCount":0,"unitIds":[]},"type":"Feature"},{"geometry":{"coordinates":[19.861455,41.796435],"type":"Point"},"id":"wattlas-plant-osm-way-909312011","properties":{"aliases":["Fang Dam Residual Flow"],"canonicalAnchor":"osm:way/909312011","canonicalCountryKey":"AL","capacityMw":1.11,"country":"AL","externalIds":{"osm":"way/909312011"},"geographyId":"AL-10019604B99204019868502","id":"wattlas-plant-osm-way-909312011","lifecycleCounts":{"operational":1},"locationPrecision":"exact","name":"Fang Dam Residual Flow","operatingCapacityCoverage":{"coveragePercent":100.0,"knownUnitCount":0,"method":"plant_aggregate","provenance":{"evidenceCount":0,"recordIds":["wattlas-record-osm-way-909312011"],"sourceIds":["openstreetmap-power"],"sourceTypes":["community_mapped"],"valueKind":"reported"},"totalUnitCount":0},"operatingCapacityMw":1.11,"operatingCapacityMwByTechnology":{"hydro":1.11},"plannedCapacityCoverage":{"coveragePercent":0.0,"knownUnitCount":0,"method":"unavailable","totalUnitCount":0},"plannedCapacityMw":0.0,"plannedCapacityMwByTechnology":{},"recordCount":1,"recordIds":["wattlas-record-osm-way-909312011"],"sourceIds":["openstreetmap-power"],"technologies":["hydro"],"technologyMixMw":{"hydro":1.11},"unitCount":0,"unitIds":[]},"type":"Feature"},{"geometry":{"coordinates":[19.822211,42.10325],"type":"Point"},"id":"wattlas-plant-wikidata-q1127602","properties":{"aliases":["Koman Hydroelectric Power Station"],"canonicalAnchor":"wikidata:Q1127602","canonicalCountryKey":"AL","capacityMw":600.0,"country":"AL","externalIds":{"osm":"way/337011902","wikidata":"Q1127602","wikipedia":"en:Koman Hydroelectric Power Station"},"geographyId":"AL-10019604B9428140626415","id":"wattlas-plant-wikidata-q1127602","idAliases":["wattlas-plant-osm-way-337011902","wattlas-plant-wikipedia-en-koman-hydroelectric-power-station"],"lifecycleCounts":{"operational":1},"locationPrecision":"exact","name":"Koman Hydroelectric Power Station","operatingCapacityCoverage":{"coveragePercent":100.0,"knownUnitCount":0,"method":"plant_aggregate","provenance":{"evidenceCount":0,"recordIds":["wattlas-record-osm-way-337011902"],"sourceIds":["openstreetmap-power"],"sourceTypes":["community_mapped"],"valueKind":"reported"},"totalUnitCount":0},"operatingCapacityMw":600.0,"operatingCapacityMwByTechnology":{"hydro":600.0},"plannedCapacityCoverage":{"coveragePercent":0.0,"knownUnitCount":0,"method":"unavailable","totalUnitCount":0},"plannedCapacityMw":0.0,"plannedCapacityMwByTechnology":{},"recordCount":1,"recordIds":["wattlas-record-osm-way-337011902"],"sourceIds":["openstreetmap-power"],"technologies":["hydro"],"technologyMixMw":{"hydro":600.0},"unitCount":0,"unitIds":[]},"type":"Feature"},{"geometry":{"coordinates":[19.635991,42.01363],"type":"Point"},"id":"wattlas-plant-wikidata-q1143176","properties":{"aliases":["Vau i Dejës Hydroelectric Power Station"],"canonicalAnchor":"wikidata:Q1143176","canonicalCountryKey":"AL","capacityMw":260.0,"country":"AL","externalIds":{"osm":"way/433413661","wikidata":"Q1143176","wikipedia":"en:Vau i Dejës Hydroelectric Power Station"},"geographyId":"AL-10019604B9428140626415","id":"wattlas-plant-wikidata-q1143176","idAliases":["wattlas-plant-osm-way-433413661","wattlas-plant-wikipedia-en-vau-i-dej-s-hydroelectric-power-station"],"lifecycleCounts":{"operational":1},"locationPrecision":"exact","name":"Vau i Dejës Hydroelectric Power Station","operatingCapacityCoverage":{"coveragePercent":100.0,"knownUnitCount":0,"method":"plant_aggregate","provenance":{"evidenceCount":0,"recordIds":["wattlas-record-osm-way-433413661"],"sourceIds":["openstreetmap-power"],"sourceTypes":["community_mapped"],"valueKind":"reported"},"totalUnitCount":0},"operatingCapacityMw":260.0,"operatingCapacityMwByTechnology":{"hydro":260.0},"plannedCapacityCoverage":{"coveragePercent":0.0,"knownUnitCount":0,"method":"unavailable","totalUnitCount":0},"plannedCapacityMw":0.0,"plannedCapacityMwByTechnology":{},"recordCount":1,"recordIds":["wattlas-record-osm-way-433413661"],"sourceIds":["openstreetmap-power"],"technologies":["hydro"],"technologyMixMw":{"hydro":260.0},"unitCount":0,"unitIds":[]},"type":"Feature"},{"geometry":{"coordinates":[19.785249,41.738484],"type":"Point"},"id":"wattlas-plant-wikidata-q116669757","properties":{"aliases":["Fang Hydroelectric Power Station"],"canonicalAnchor":"wikidata:Q116669757","canonicalCountryKey":"AL","capacityMw":72.0,"country":"AL","externalIds":{"osm":"way/909312017","wikidata":"Q116669757"},"geographyId":"AL-10019604B99204019868502","id":"wattlas-plant-wikidata-q116669757","idAliases":["wattlas-plant-osm-way-909312017"],"lifecycleCounts":{"operational":1},"locationPrecision":"exact","name":"Fang Hydroelectric Power Station","operatingCapacityCoverage":{"coveragePercent":100.0,"knownUnitCount":0,"method":"plant_aggregate","provenance":{"evidenceCount":0,"recordIds":["wattlas-record-osm-way-909312017"],"sourceIds":["openstreetmap-power"],"sourceTypes":["community_mapped"],"valueKind":"reported"},"totalUnitCount":0},"operatingCapacityMw":72.0,"operatingCapacityMwByTechnology":{"hydro":72.0},"plannedCapacityCoverage":{"coveragePercent":0.0,"knownUnitCount":0,"method":"unavailable","totalUnitCount":0},"plannedCapacityMw":0.0,"plannedCapacityMwByTechnology":{},"recordCount":1,"recordIds":["wattlas-record-osm-way-909312017"],"sourceIds":["openstreetmap-power"],"technologies":["hydro"],"technologyMixMw":{"hydro":72.0},"unitCount":0,"unitIds":[]},"type":"Feature"},{"geometry":{"coordinates":[20.335581,40.744018],"type":"Point"},"id":"wattlas-plant-wikidata-q24911224","properties":{"aliases":["Hidrocentrali i Moglicës"],"canonicalAnchor":"wikidata:Q24911224","canonicalCountryKey":"AL","capacityMw":197.0,"country":"AL","externalIds":{"osm":"way/1382488895","wikidata":"Q24911224"},"geographyId":"AL-10019604B8832247678249","id":"wattlas-plant-wikidata-q24911224","idAliases":["wattlas-plant-osm-way-1382488895"],"lifecycleCounts":{"operational":1},"locationPrecision":"exact","name":"Hidrocentrali i Moglicës","operatingCapacityCoverage":{"coveragePercent":100.0,"knownUnitCount":0,"method":"plant_aggregate","provenance":{"evidenceCount":0,"recordIds":["wattlas-record-osm-way-1382488895"],"sourceIds":["openstreetmap-power"],"sourceTypes":["community_mapped"],"valueKind":"reported"},"totalUnitCount":0},"operatingCapacityMw":197.0,"operatingCapacityMwByTechnology":{"hydro":197.0},"plannedCapacityCoverage":{"coveragePercent":0.0,"knownUnitCount":0,"method":"unavailable","totalUnitCount":0},"plannedCapacityMw":0.0,"plannedCapacityMwByTechnology":{},"recordCount":1,"recordIds":["wattlas-record-osm-way-1382488895"],"sourceIds":["openstreetmap-power"],"technologies":["hydro"],"technologyMixMw":{"hydro":197.0},"unitCount":0,"unitIds":[]},"type":"Feature"},{"geometry":{"coordinates":[19.551542,42.011217],"type":"Point"},"id":"wattlas-plant-wikidata-q2551088-101a3d3d5c","properties":{"aliases":["Ashta 2 hydro power plant"],"canonicalAnchor":"wikidata:Q2551088","canonicalCountryKey":"AL","capacityMw":26.5,"country":"AL","externalIds":{"osm":"way/247154123","wikidata":"Q2551088"},"geographyId":"AL-10019604B9428140626415","id":"wattlas-plant-wikidata-q2551088-101a3d3d5c","idAliases":["wattlas-plant-osm-way-247154123","wattlas-plant-wikidata-q2551088"],"lifecycleCounts":{"operational":1},"locationPrecision":"exact","name":"Ashta 2 hydro power plant","operatingCapacityCoverage":{"coveragePercent":100.0,"knownUnitCount":0,"method":"plant_aggregate","provenance":{"evidenceCount":0,"recordIds":["wattlas-record-osm-way-247154123"],"sourceIds":["openstreetmap-power"],"sourceTypes":["community_mapped"],"valueKind":"reported"},"totalUnitCount":0},"operatingCapacityMw":26.5,"operatingCapacityMwByTechnology":{"hydro":26.5},"plannedCapacityCoverage":{"coveragePercent":0.0,"knownUnitCount":0,"method":"unavailable","totalUnitCount":0},"plannedCapacityMw":0.0,"plannedCapacityMwByTechnology":{},"recordCount":1,"recordIds":["wattlas-record-osm-way-247154123"],"sourceIds":["openstreetmap-power"],"technologies":["hydro"],"technologyMixMw":{"hydro":26.5},"unitCount":0,"unitIds":[]},"type":"Feature"},{"geometry":{"coordinates":[19.601612,42.001799],"type":"Point"},"id":"wattlas-plant-wikidata-q2551088-2e62585736","properties":{"aliases":["Ashta 1 hydro power plant"],"canonicalAnchor":"wikidata:Q2551088","canonicalCountryKey":"AL","capacityMw":26.5,"country":"AL","externalIds":{"osm":"way/247154129","wikidata":"Q2551088"},"geographyId":"AL-10019604B9428140626415","id":"wattlas-plant-wikidata-q2551088-2e62585736","idAliases":["wattlas-plant-osm-way-247154129"],"lifecycleCounts":{"operational":1},"locationPrecision":"exact","name":"Ashta 1 hydro power plant","operatingCapacityCoverage":{"coveragePercent":100.0,"knownUnitCount":0,"method":"plant_aggregate","provenance":{"evidenceCount":0,"recordIds":["wattlas-record-osm-way-247154129"],"sourceIds":["openstreetmap-power"],"sourceTypes":["community_mapped"],"valueKind":"reported"},"totalUnitCount":0},"operatingCapacityMw":26.5,"operatingCapacityMwByTechnology":{"hydro":26.5},"plannedCapacityCoverage":{"coveragePercent":0.0,"knownUnitCount":0,"method":"unavailable","totalUnitCount":0},"plannedCapacityMw":0.0,"plannedCapacityMwByTechnology":{},"recordCount":1,"recordIds":["wattlas-record-osm-way-247154129"],"sourceIds":["openstreetmap-power"],"technologies":["hydro"],"technologyMixMw":{"hydro":26.5},"unitCount":0,"unitIds":[]},"type":"Feature"},{"geometry":{"coordinates":[20.060763,40.96607],"type":"Point"},"id":"wattlas-plant-wikidata-q4958017","properties":{"aliases":["Banjë Hydro Power Plant"],"canonicalAnchor":"wikidata:Q4958017","canonicalCountryKey":"AL","capacityMw":72.0,"country":"AL","externalIds":{"osm":"way/689854692","wikidata":"Q4958017"},"geographyId":"AL-10019604B8832247678249","id":"wattlas-plant-wikidata-q4958017","idAliases":["wattlas-plant-osm-way-689854692"],"lifecycleCounts":{"operational":1},"locationPrecision":"exact","name":"Banjë Hydro Power Plant","operatingCapacityCoverage":{"coveragePercent":100.0,"knownUnitCount":0,"method":"plant_aggregate","provenance":{"evidenceCount":0,"recordIds":["wattlas-record-osm-way-689854692"],"sourceIds":["openstreetmap-power"],"sourceTypes":["community_mapped"],"valueKind":"reported"},"totalUnitCount":0},"operatingCapacityMw":72.0,"operatingCapacityMwByTechnology":{"hydro":72.0},"plannedCapacityCoverage":{"coveragePercent":0.0,"knownUnitCount":0,"method":"unavailable","totalUnitCount":0},"plannedCapacityMw":0.0,"plannedCapacityMwByTechnology":{},"recordCount":1,"recordIds":["wattlas-record-osm-way-689854692"],"sourceIds":["openstreetmap-power"],"technologies":["hydro"],"technologyMixMw":{"hydro":72.0},"unitCount":0,"unitIds":[]},"type":"Feature"},{"geometry":{"coordinates":[20.038256,42.251655],"type":"Point"},"id":"wattlas-plant-wikidata-q696290","properties":{"aliases":["Fierza Hydroelectric Power Station"],"canonicalAnchor":"wikidata:Q696290","canonicalCountryKey":"AL","capacityMw":500.0,"country":"AL","externalIds":{"osm":"way/449926364","wikidata":"Q696290","wikipedia":"en:Fierzë Hydroelectric Power Station"},"geographyId":"AL-10019604B40645538692706","id":"wattlas-plant-wikidata-q696290","idAliases":["wattlas-plant-osm-way-449926364","wattlas-plant-wikipedia-en-fierz-hydroelectric-power-station"],"lifecycleCounts":{"operational":1},"locationPrecision":"exact","name":"Fierza Hydroelectric Power Station","operatingCapacityCoverage":{"coveragePercent":100.0,"knownUnitCount":0,"method":"plant_aggregate","provenance":{"evidenceCount":0,"recordIds":["wattlas-record-osm-way-449926364"],"sourceIds":["openstreetmap-power"],"sourceTypes":["community_mapped"],"valueKind":"reported"},"totalUnitCount":0},"operatingCapacityMw":500.0,"operatingCapacityMwByTechnology":{"hydro":500.0},"plannedCapacityCoverage":{"coveragePercent":0.0,"knownUnitCount":0,"method":"unavailable","totalUnitCount":0},"plannedCapacityMw":0.0,"plannedCapacityMwByTechnology":{},"recordCount":1,"recordIds":["wattlas-record-osm-way-449926364"],"sourceIds":["openstreetmap-power"],"technologies":["hydro"],"technologyMixMw":{"hydro":500.0},"unitCount":0,"unitIds":[]},"type":"Feature"},{"geometry":{"coordinates":[20.503007,41.49343],"type":"Point"},"id":"wattlas-plant-wikidata-q7353184","properties":{"aliases":["ХЕЦ Шпилје"],"canonicalAnchor":"wikidata:Q7353184","canonicalCountryKey":"AL","capacityMw":84.0,"country":"AL","externalIds":{"osm":"way/909467756","wikidata":"Q7353184"},"geographyId":"AL-10019604B38416360860341","id":"wattlas-plant-wikidata-q7353184","idAliases":["wattlas-plant-osm-way-909467756"],"lifecycleCounts":{"operational":1},"locationPrecision":"exact","name":"ХЕЦ Шпилје","operatingCapacityCoverage":{"coveragePercent":100.0,"knownUnitCount":0,"method":"plant_aggregate","provenance":{"evidenceCount":0,"recordIds":["wattlas-record-osm-way-909467756"],"sourceIds":["openstreetmap-power"],"sourceTypes":["community_mapped"],"valueKind":"reported"},"totalUnitCount":0},"operatingCapacityMw":84.0,"operatingCapacityMwByTechnology":{"hydro":84.0},"plannedCapacityCoverage":{"coveragePercent":0.0,"knownUnitCount":0,"method":"unavailable","totalUnitCount":0},"plannedCapacityMw":0.0,"plannedCapacityMwByTechnology":{},"recordCount":1,"recordIds":["wattlas-record-osm-way-909467756"],"sourceIds":["openstreetmap-power"],"technologies":["hydro"],"technologyMixMw":{"hydro":84.0},"unitCount":0,"unitIds":[]},"type":"Feature"},{"geometry":{"coordinates":[19.828107,41.694022],"type":"Point"},"id":"wattlas-plant-wikidata-q7499532","properties":{"aliases":["Hidrocentrali Shkopet"],"canonicalAnchor":"wikidata:Q7499532","canonicalCountryKey":"AL","capacityMw":24.0,"country":"AL","externalIds":{"osm":"way/617592429","wikidata":"Q7499532"},"geographyId":"AL-10019604B38416360860341","id":"wattlas-plant-wikidata-q7499532","idAliases":["wattlas-plant-osm-way-617592429"],"lifecycleCounts":{"operational":1},"locationPrecision":"exact","name":"Hidrocentrali Shkopet","operatingCapacityCoverage":{"coveragePercent":100.0,"knownUnitCount":0,"method":"plant_aggregate","provenance":{"evidenceCount":0,"recordIds":["wattlas-record-osm-way-617592429"],"sourceIds":["openstreetmap-power"],"sourceTypes":["community_mapped"],"valueKind":"reported"},"totalUnitCount":0},"operatingCapacityMw":24.0,"operatingCapacityMwByTechnology":{"hydro":24.0},"plannedCapacityCoverage":{"coveragePercent":0.0,"knownUnitCount":0,"method":"unavailable","totalUnitCount":0},"plannedCapacityMw":0.0,"plannedCapacityMwByTechnology":{},"recordCount":1,"recordIds":["wattlas-record-osm-way-617592429"],"sourceIds":["openstreetmap-power"],"technologies":["hydro"],"technologyMixMw":{"hydro":24.0},"unitCount":0,"unitIds":[]},"type":"Feature"},{"geometry":{"coordinates":[19.89283,41.679867],"type":"Point"},"id":"wattlas-plant-wikidata-q7880959","properties":{"aliases":["Ulëz Hydroelectric Power Station"],"canonicalAnchor":"wikidata:Q7880959","canonicalCountryKey":"AL","capacityMw":25.0,"country":"AL","externalIds":{"osm":"way/485404310","wikidata":"Q7880959"},"geographyId":"AL-10019604B38416360860341","id":"wattlas-plant-wikidata-q7880959","idAliases":["wattlas-plant-osm-way-485404310"],"lifecycleCounts":{"operational":1},"locationPrecision":"exact","name":"Ulëz Hydroelectric Power Station","operatingCapacityCoverage":{"coveragePercent":100.0,"knownUnitCount":0,"method":"plant_aggregate","provenance":{"evidenceCount":0,"recordIds":["wattlas-record-osm-way-485404310"],"sourceIds":["openstreetmap-power"],"sourceTypes":["community_mapped"],"valueKind":"reported"},"totalUnitCount":0},"operatingCapacityMw":25.0,"operatingCapacityMwByTechnology":{"hydro":25.0},"plannedCapacityCoverage":{"coveragePercent":0.0,"knownUnitCount":0,"method":"unavailable","totalUnitCount":0},"plannedCapacityMw":0.0,"plannedCapacityMwByTechnology":{},"recordCount":1,"recordIds":["wattlas-record-osm-way-485404310"],"sourceIds":["openstreetmap-power"],"technologies":["hydro"],"technologyMixMw":{"hydro":25.0},"unitCount":0,"unitIds":[]},"type":"Feature"}],"type":"FeatureCollection"}