{"features":[{"geometry":{"coordinates":[9.520954,0.314482],"type":"Point"},"id":"wattlas-plant-gemplant-l100000409146","properties":{"aliases":["1-1","Alenakiri power plant"],"canonicalAnchor":"gemplant:L100000409146","canonicalCountryKey":"GA","capacityMw":120.0,"country":"GA","externalIds":{"gemPlant":"L100000409146","gemUnit":"G100000413986"},"geographyId":"GA-98808126B6174087794558","id":"wattlas-plant-gemplant-l100000409146","lifecycleCounts":{"operational":1},"locationPrecision":"exact","name":"Alenakiri power plant","operatingCapacityCoverage":{"coveragePercent":100.0,"knownUnitCount":1,"method":"complete_unit_sum","provenance":{"evidenceCount":0,"recordIds":["wattlas-record-gemunit-g100000413986"],"sourceIds":["gem-global-integrated-power-tracker"],"sourceTypes":["research_verified"],"valueKind":"reported"},"totalUnitCount":1},"operatingCapacityMw":120.0,"operatingCapacityMwByTechnology":{"gas":120.0},"plannedCapacityCoverage":{"coveragePercent":0.0,"knownUnitCount":0,"method":"unavailable","totalUnitCount":0},"plannedCapacityMw":0.0,"plannedCapacityMwByTechnology":{},"recordCount":1,"recordIds":["wattlas-record-gemunit-g100000413986"],"sourceIds":["gem-global-integrated-power-tracker"],"technologies":["gas"],"technologyMixMw":{"gas":120.0},"unitCount":1,"unitIds":["gem-unit-G100000413986"]},"type":"Feature"},{"geometry":{"coordinates":[13.552,-1.7732],"type":"Point"},"id":"wattlas-plant-gemplant-l100000601694","properties":{"aliases":["Grand Poubara hydroelectric plant"],"canonicalAnchor":"gemplant:L100000601694","canonicalCountryKey":"GA","capacityMw":160.0,"country":"GA","externalIds":{"gemPlant":"L100000601694","gemUnit":"G100000601713"},"geographyId":"GA-98808126B76399587683442","id":"wattlas-plant-gemplant-l100000601694","lifecycleCounts":{"operational":1},"locationPrecision":"exact","name":"Grand Poubara hydroelectric plant","operatingCapacityCoverage":{"coveragePercent":100.0,"knownUnitCount":1,"method":"complete_unit_sum","provenance":{"evidenceCount":0,"recordIds":["wattlas-record-gemunit-g100000601713"],"sourceIds":["gem-global-integrated-power-tracker"],"sourceTypes":["research_verified"],"valueKind":"reported"},"totalUnitCount":1},"operatingCapacityMw":160.0,"operatingCapacityMwByTechnology":{"hydro":160.0},"plannedCapacityCoverage":{"coveragePercent":0.0,"knownUnitCount":0,"method":"unavailable","totalUnitCount":0},"plannedCapacityMw":0.0,"plannedCapacityMwByTechnology":{},"recordCount":1,"recordIds":["wattlas-record-gemunit-g100000601713"],"sourceIds":["gem-global-integrated-power-tracker"],"technologies":["hydro"],"technologyMixMw":{"hydro":160.0},"unitCount":1,"unitIds":["gem-unit-G100000601713"]},"type":"Feature"},{"geometry":{"coordinates":[10.5946,-1.1691],"type":"Point"},"id":"wattlas-plant-gemplant-l100000601695","properties":{"aliases":["Impératrice Eugénie hydroelectric plant"],"canonicalAnchor":"gemplant:L100000601695","canonicalCountryKey":"GA","capacityMw":0.0,"country":"GA","externalIds":{"gemPlant":"L100000601695","gemUnit":"G100000604445"},"geographyId":"GA-98808126B87109284652443","id":"wattlas-plant-gemplant-l100000601695","lifecycleCounts":{"paused":1},"locationPrecision":"exact","name":"Impératrice Eugénie hydroelectric plant","operatingCapacityCoverage":{"coveragePercent":0.0,"knownUnitCount":0,"method":"unavailable","totalUnitCount":0},"operatingCapacityMw":0.0,"operatingCapacityMwByTechnology":{},"plannedCapacityCoverage":{"coveragePercent":0.0,"knownUnitCount":0,"method":"unavailable","totalUnitCount":0},"plannedCapacityMw":0.0,"plannedCapacityMwByTechnology":{},"recordCount":1,"recordIds":["wattlas-record-gemunit-g100000604445"],"sourceIds":["gem-global-integrated-power-tracker"],"technologies":["hydro"],"technologyMixMw":{"hydro":0.0},"unitCount":1,"unitIds":["gem-unit-G100000604445"]},"type":"Feature"},{"geometry":{"coordinates":[10.1481,0.1803],"type":"Point"},"id":"wattlas-plant-gemplant-l100000604294","properties":{"aliases":["Ngoulmendjim hydroelectric plant"],"canonicalAnchor":"gemplant:L100000604294","canonicalCountryKey":"GA","capacityMw":82.0,"country":"GA","externalIds":{"gemPlant":"L100000604294","gemUnit":"G100000604666"},"geographyId":"GA-98808126B6174087794558","id":"wattlas-plant-gemplant-l100000604294","lifecycleCounts":{"announced":1},"locationPrecision":"exact","name":"Ngoulmendjim hydroelectric plant","operatingCapacityCoverage":{"coveragePercent":0.0,"knownUnitCount":0,"method":"unavailable","totalUnitCount":0},"operatingCapacityMw":0.0,"operatingCapacityMwByTechnology":{},"plannedCapacityCoverage":{"coveragePercent":100.0,"knownUnitCount":1,"method":"complete_unit_sum","provenance":{"evidenceCount":0,"recordIds":["wattlas-record-gemunit-g100000604666"],"sourceIds":["gem-global-integrated-power-tracker"],"sourceTypes":["research_verified"],"valueKind":"reported"},"totalUnitCount":1},"plannedCapacityMw":82.0,"plannedCapacityMwByTechnology":{"hydro":82.0},"recordCount":1,"recordIds":["wattlas-record-gemunit-g100000604666"],"sourceIds":["gem-global-integrated-power-tracker"],"technologies":["hydro"],"technologyMixMw":{"hydro":82.0},"unitCount":1,"unitIds":["gem-unit-G100000604666"]},"type":"Feature"},{"geometry":{"coordinates":[10.281,0.455],"type":"Point"},"id":"wattlas-plant-gemplant-l100001023050","properties":{"aliases":["Kinguele hydroelectric plant"],"canonicalAnchor":"gemplant:L100001023050","canonicalCountryKey":"GA","capacityMw":58.0,"country":"GA","externalIds":{"gemPlant":"L100001023050","gemUnit":"G100001027255"},"geographyId":"GA-98808126B6174087794558","id":"wattlas-plant-gemplant-l100001023050","lifecycleCounts":{"operational":1},"locationPrecision":"exact","name":"Kinguele hydroelectric plant","operatingCapacityCoverage":{"coveragePercent":100.0,"knownUnitCount":1,"method":"complete_unit_sum","provenance":{"evidenceCount":0,"recordIds":["wattlas-record-gemunit-g100001027255"],"sourceIds":["gem-global-integrated-power-tracker"],"sourceTypes":["research_verified"],"valueKind":"reported"},"totalUnitCount":1},"operatingCapacityMw":58.0,"operatingCapacityMwByTechnology":{"hydro":58.0},"plannedCapacityCoverage":{"coveragePercent":0.0,"knownUnitCount":0,"method":"unavailable","totalUnitCount":0},"plannedCapacityMw":0.0,"plannedCapacityMwByTechnology":{},"recordCount":1,"recordIds":["wattlas-record-gemunit-g100001027255"],"sourceIds":["gem-global-integrated-power-tracker"],"technologies":["hydro"],"technologyMixMw":{"hydro":58.0},"unitCount":1,"unitIds":["gem-unit-G100001027255"]},"type":"Feature"},{"geometry":{"coordinates":[10.407,0.621],"type":"Point"},"id":"wattlas-plant-gemplant-l100001023051","properties":{"aliases":["Tchimbele hydroelectric plant"],"canonicalAnchor":"gemplant:L100001023051","canonicalCountryKey":"GA","capacityMw":68.0,"country":"GA","externalIds":{"gemPlant":"L100001023051","gemUnit":"G100001027256"},"geographyId":"GA-98808126B6174087794558","id":"wattlas-plant-gemplant-l100001023051","lifecycleCounts":{"operational":1},"locationPrecision":"exact","name":"Tchimbele hydroelectric plant","operatingCapacityCoverage":{"coveragePercent":100.0,"knownUnitCount":1,"method":"complete_unit_sum","provenance":{"evidenceCount":0,"recordIds":["wattlas-record-gemunit-g100001027256"],"sourceIds":["gem-global-integrated-power-tracker"],"sourceTypes":["research_verified"],"valueKind":"reported"},"totalUnitCount":1},"operatingCapacityMw":68.0,"operatingCapacityMwByTechnology":{"hydro":68.0},"plannedCapacityCoverage":{"coveragePercent":0.0,"knownUnitCount":0,"method":"unavailable","totalUnitCount":0},"plannedCapacityMw":0.0,"plannedCapacityMwByTechnology":{},"recordCount":1,"recordIds":["wattlas-record-gemunit-g100001027256"],"sourceIds":["gem-global-integrated-power-tracker"],"technologies":["hydro"],"technologyMixMw":{"hydro":68.0},"unitCount":1,"unitIds":["gem-unit-G100001027256"]},"type":"Feature"},{"geometry":{"coordinates":[9.520803,0.314525],"type":"Point"},"id":"wattlas-plant-osm-way-1418662705","properties":{"aliases":["Alenakiri power plant"],"canonicalAnchor":"osm:way/1418662705","canonicalCountryKey":"GA","capacityMw":0.0,"country":"GA","externalIds":{"osm":"way/1418662705"},"geographyId":"GA-98808126B6174087794558","id":"wattlas-plant-osm-way-1418662705","lifecycleCounts":{"operational":1},"locationPrecision":"exact","name":"Alenakiri power plant","operatingCapacityCoverage":{"coveragePercent":0.0,"knownUnitCount":0,"method":"unavailable","totalUnitCount":0},"operatingCapacityMw":0.0,"operatingCapacityMwByTechnology":{},"plannedCapacityCoverage":{"coveragePercent":0.0,"knownUnitCount":0,"method":"unavailable","totalUnitCount":0},"plannedCapacityMw":0.0,"plannedCapacityMwByTechnology":{},"recordCount":1,"recordIds":["wattlas-record-osm-way-1418662705"],"sourceIds":["openstreetmap-power"],"technologies":["oil"],"technologyMixMw":{"oil":0.0},"unitCount":0,"unitIds":[]},"type":"Feature"},{"geometry":{"coordinates":[13.541722,-1.751969],"type":"Point"},"id":"wattlas-plant-osm-way-662947359","properties":{"aliases":["Barrage hydroélectrique du Grand Poubara"],"canonicalAnchor":"osm:way/662947359","canonicalCountryKey":"GA","capacityMw":160.0,"country":"GA","externalIds":{"osm":"way/662947359"},"geographyId":"GA-98808126B76399587683442","id":"wattlas-plant-osm-way-662947359","lifecycleCounts":{"operational":1},"locationPrecision":"exact","name":"Barrage hydroélectrique du Grand Poubara","operatingCapacityCoverage":{"coveragePercent":100.0,"knownUnitCount":0,"method":"plant_aggregate","provenance":{"evidenceCount":0,"recordIds":["wattlas-record-osm-way-662947359"],"sourceIds":["openstreetmap-power"],"sourceTypes":["community_mapped"],"valueKind":"reported"},"totalUnitCount":0},"operatingCapacityMw":160.0,"operatingCapacityMwByTechnology":{"hydro":160.0},"plannedCapacityCoverage":{"coveragePercent":0.0,"knownUnitCount":0,"method":"unavailable","totalUnitCount":0},"plannedCapacityMw":0.0,"plannedCapacityMwByTechnology":{},"recordCount":1,"recordIds":["wattlas-record-osm-way-662947359"],"sourceIds":["openstreetmap-power"],"technologies":["hydro"],"technologyMixMw":{"hydro":160.0},"unitCount":0,"unitIds":[]},"type":"Feature"},{"geometry":{"coordinates":[11.463167,-2.232797],"type":"Point"},"id":"wattlas-plant-osm-way-662997578","properties":{"aliases":["Bongolo"],"canonicalAnchor":"osm:way/662997578","canonicalCountryKey":"GA","capacityMw":5.0,"country":"GA","externalIds":{"osm":"way/662997578"},"geographyId":"GA-98808126B87109284652443","id":"wattlas-plant-osm-way-662997578","lifecycleCounts":{"operational":1},"locationPrecision":"exact","name":"Bongolo","operatingCapacityCoverage":{"coveragePercent":100.0,"knownUnitCount":0,"method":"plant_aggregate","provenance":{"evidenceCount":0,"recordIds":["wattlas-record-osm-way-662997578"],"sourceIds":["openstreetmap-power"],"sourceTypes":["community_mapped"],"valueKind":"reported"},"totalUnitCount":0},"operatingCapacityMw":5.0,"operatingCapacityMwByTechnology":{"hydro":5.0},"plannedCapacityCoverage":{"coveragePercent":0.0,"knownUnitCount":0,"method":"unavailable","totalUnitCount":0},"plannedCapacityMw":0.0,"plannedCapacityMwByTechnology":{},"recordCount":1,"recordIds":["wattlas-record-osm-way-662997578"],"sourceIds":["openstreetmap-power"],"technologies":["hydro"],"technologyMixMw":{"hydro":5.0},"unitCount":0,"unitIds":[]},"type":"Feature"},{"geometry":{"coordinates":[10.281572,0.450129],"type":"Point"},"id":"wattlas-plant-wikidata-q28501310","properties":{"aliases":["Centrale hydroélectrique de Kinguélé"],"canonicalAnchor":"wikidata:Q28501310","canonicalCountryKey":"GA","capacityMw":57.6,"country":"GA","externalIds":{"osm":"way/595608514","wikidata":"Q28501310"},"geographyId":"GA-98808126B6174087794558","id":"wattlas-plant-wikidata-q28501310","idAliases":["wattlas-plant-osm-way-595608514"],"lifecycleCounts":{"operational":1},"locationPrecision":"exact","name":"Centrale hydroélectrique de Kinguélé","operatingCapacityCoverage":{"coveragePercent":100.0,"knownUnitCount":0,"method":"plant_aggregate","provenance":{"evidenceCount":0,"recordIds":["wattlas-record-osm-way-595608514"],"sourceIds":["openstreetmap-power"],"sourceTypes":["community_mapped"],"valueKind":"reported"},"totalUnitCount":0},"operatingCapacityMw":57.6,"operatingCapacityMwByTechnology":{"hydro":57.6},"plannedCapacityCoverage":{"coveragePercent":0.0,"knownUnitCount":0,"method":"unavailable","totalUnitCount":0},"plannedCapacityMw":0.0,"plannedCapacityMwByTechnology":{},"recordCount":1,"recordIds":["wattlas-record-osm-way-595608514"],"sourceIds":["openstreetmap-power"],"technologies":["hydro"],"technologyMixMw":{"hydro":57.6},"unitCount":0,"unitIds":[]},"type":"Feature"},{"geometry":{"coordinates":[10.407357,0.621131],"type":"Point"},"id":"wattlas-plant-wikidata-q30899173","properties":{"aliases":["Centrale électrique de Tchimbélé"],"canonicalAnchor":"wikidata:Q30899173","canonicalCountryKey":"GA","capacityMw":68.4,"country":"GA","externalIds":{"osm":"way/595608543","wikidata":"Q30899173"},"geographyId":"GA-98808126B6174087794558","id":"wattlas-plant-wikidata-q30899173","idAliases":["wattlas-plant-osm-way-595608543"],"lifecycleCounts":{"operational":1},"locationPrecision":"exact","name":"Centrale électrique de Tchimbélé","operatingCapacityCoverage":{"coveragePercent":100.0,"knownUnitCount":0,"method":"plant_aggregate","provenance":{"evidenceCount":0,"recordIds":["wattlas-record-osm-way-595608543"],"sourceIds":["openstreetmap-power"],"sourceTypes":["community_mapped"],"valueKind":"reported"},"totalUnitCount":0},"operatingCapacityMw":68.4,"operatingCapacityMwByTechnology":{"hydro":68.4},"plannedCapacityCoverage":{"coveragePercent":0.0,"knownUnitCount":0,"method":"unavailable","totalUnitCount":0},"plannedCapacityMw":0.0,"plannedCapacityMwByTechnology":{},"recordCount":1,"recordIds":["wattlas-record-osm-way-595608543"],"sourceIds":["openstreetmap-power"],"technologies":["hydro"],"technologyMixMw":{"hydro":68.4},"unitCount":0,"unitIds":[]},"type":"Feature"}],"type":"FeatureCollection"}