{"features":[{"geometry":{"coordinates":[8.71928,3.77327],"type":"Point"},"id":"wattlas-plant-gemplant-l100000409138","properties":{"aliases":["1-1","Malabo Turbogas power plant"],"canonicalAnchor":"gemplant:L100000409138","canonicalCountryKey":"GQ","capacityMw":154.0,"country":"GQ","externalIds":{"gemPlant":"L100000409138","gemUnit":"G100000413991"},"geographyId":"GQ-51917635B51392139910348","id":"wattlas-plant-gemplant-l100000409138","lifecycleCounts":{"operational":1},"locationPrecision":"exact","name":"Malabo Turbogas power plant","operatingCapacityCoverage":{"coveragePercent":100.0,"knownUnitCount":1,"method":"complete_unit_sum","provenance":{"evidenceCount":0,"recordIds":["wattlas-record-gemunit-g100000413991"],"sourceIds":["gem-global-integrated-power-tracker"],"sourceTypes":["research_verified"],"valueKind":"reported"},"totalUnitCount":1},"operatingCapacityMw":154.0,"operatingCapacityMwByTechnology":{"gas":154.0},"plannedCapacityCoverage":{"coveragePercent":0.0,"knownUnitCount":0,"method":"unavailable","totalUnitCount":0},"plannedCapacityMw":0.0,"plannedCapacityMwByTechnology":{},"recordCount":1,"recordIds":["wattlas-record-gemunit-g100000413991"],"sourceIds":["gem-global-integrated-power-tracker"],"technologies":["gas"],"technologyMixMw":{"gas":154.0},"unitCount":1,"unitIds":["gem-unit-G100000413991"]},"type":"Feature"},{"geometry":{"coordinates":[10.5906,1.6332],"type":"Point"},"id":"wattlas-plant-gemplant-l100000601569","properties":{"aliases":["Djibloho hydroelectric plant"],"canonicalAnchor":"gemplant:L100000601569","canonicalCountryKey":"GQ","capacityMw":120.0,"country":"GQ","externalIds":{"gemPlant":"L100000601569","gemUnit":"G100000601587"},"geographyId":"GQ-51917635B29423629069944","id":"wattlas-plant-gemplant-l100000601569","lifecycleCounts":{"operational":1},"locationPrecision":"exact","name":"Djibloho hydroelectric plant","operatingCapacityCoverage":{"coveragePercent":100.0,"knownUnitCount":1,"method":"complete_unit_sum","provenance":{"evidenceCount":0,"recordIds":["wattlas-record-gemunit-g100000601587"],"sourceIds":["gem-global-integrated-power-tracker"],"sourceTypes":["research_verified"],"valueKind":"reported"},"totalUnitCount":1},"operatingCapacityMw":120.0,"operatingCapacityMwByTechnology":{"hydro":120.0},"plannedCapacityCoverage":{"coveragePercent":0.0,"knownUnitCount":0,"method":"unavailable","totalUnitCount":0},"plannedCapacityMw":0.0,"plannedCapacityMwByTechnology":{},"recordCount":1,"recordIds":["wattlas-record-gemunit-g100000601587"],"sourceIds":["gem-global-integrated-power-tracker"],"technologies":["hydro"],"technologyMixMw":{"hydro":120.0},"unitCount":1,"unitIds":["gem-unit-G100000601587"]},"type":"Feature"},{"geometry":{"coordinates":[9.877297,1.79585],"type":"Point"},"id":"wattlas-plant-osm-way-1172360187","properties":{"aliases":["Mapped power plant · OSM 1172360187"],"canonicalAnchor":"osm:way/1172360187","canonicalCountryKey":"GQ","capacityMw":3.2,"country":"GQ","externalIds":{"osm":"way/1172360187"},"geographyId":"GQ-51917635B39894172986547","id":"wattlas-plant-osm-way-1172360187","lifecycleCounts":{"operational":1},"locationPrecision":"exact","name":"Mapped power plant · OSM 1172360187","operatingCapacityCoverage":{"coveragePercent":100.0,"knownUnitCount":0,"method":"plant_aggregate","provenance":{"evidenceCount":0,"recordIds":["wattlas-record-osm-way-1172360187"],"sourceIds":["openstreetmap-power"],"sourceTypes":["community_mapped"],"valueKind":"reported"},"totalUnitCount":0},"operatingCapacityMw":3.2,"operatingCapacityMwByTechnology":{"hydro":3.2},"plannedCapacityCoverage":{"coveragePercent":0.0,"knownUnitCount":0,"method":"unavailable","totalUnitCount":0},"plannedCapacityMw":0.0,"plannedCapacityMwByTechnology":{},"recordCount":1,"recordIds":["wattlas-record-osm-way-1172360187"],"sourceIds":["openstreetmap-power"],"technologies":["hydro"],"technologyMixMw":{"hydro":3.2},"unitCount":0,"unitIds":[]},"type":"Feature"},{"geometry":{"coordinates":[10.572083,1.665273],"type":"Point"},"id":"wattlas-plant-wikidata-q16829884","properties":{"aliases":["Central Hidroeléctrica de Djibloho"],"canonicalAnchor":"wikidata:Q16829884","canonicalCountryKey":"GQ","capacityMw":120.0,"country":"GQ","externalIds":{"osm":"way/639781329","wikidata":"Q16829884"},"geographyId":"GQ-51917635B11975982083171","id":"wattlas-plant-wikidata-q16829884","idAliases":["wattlas-plant-osm-way-639781329"],"lifecycleCounts":{"operational":1},"locationPrecision":"exact","name":"Central Hidroeléctrica de Djibloho","operatingCapacityCoverage":{"coveragePercent":100.0,"knownUnitCount":0,"method":"plant_aggregate","provenance":{"evidenceCount":0,"recordIds":["wattlas-record-osm-way-639781329"],"sourceIds":["openstreetmap-power"],"sourceTypes":["community_mapped"],"valueKind":"reported"},"totalUnitCount":0},"operatingCapacityMw":120.0,"operatingCapacityMwByTechnology":{"hydro":120.0},"plannedCapacityCoverage":{"coveragePercent":0.0,"knownUnitCount":0,"method":"unavailable","totalUnitCount":0},"plannedCapacityMw":0.0,"plannedCapacityMwByTechnology":{},"recordCount":1,"recordIds":["wattlas-record-osm-way-639781329"],"sourceIds":["openstreetmap-power"],"technologies":["hydro"],"technologyMixMw":{"hydro":120.0},"unitCount":0,"unitIds":[]},"type":"Feature"},{"geometry":{"coordinates":[9.837705,1.548538],"type":"Point"},"id":"wattlas-plant-wikidata-q55975867","properties":{"aliases":["Central Hidroeléctrica de Sendje"],"canonicalAnchor":"wikidata:Q55975867","canonicalCountryKey":"GQ","capacityMw":200.0,"country":"GQ","externalIds":{"osm":"way/644322972","wikidata":"Q55975867","wikipedia":"fr:Centrale hydroélectrique Sendje"},"geographyId":"GQ-51917635B39894172986547","id":"wattlas-plant-wikidata-q55975867","idAliases":["wattlas-plant-osm-way-644322972","wattlas-plant-wikipedia-fr-centrale-hydro-lectrique-sendje"],"lifecycleCounts":{"under_construction":1},"locationPrecision":"exact","name":"Central Hidroeléctrica de Sendje","operatingCapacityCoverage":{"coveragePercent":0.0,"knownUnitCount":0,"method":"unavailable","totalUnitCount":0},"operatingCapacityMw":0.0,"operatingCapacityMwByTechnology":{},"plannedCapacityCoverage":{"coveragePercent":100.0,"knownUnitCount":0,"method":"plant_aggregate","provenance":{"evidenceCount":0,"recordIds":["wattlas-record-osm-way-644322972"],"sourceIds":["openstreetmap-power"],"sourceTypes":["community_mapped"],"valueKind":"reported"},"totalUnitCount":0},"plannedCapacityMw":200.0,"plannedCapacityMwByTechnology":{"hydro":200.0},"recordCount":1,"recordIds":["wattlas-record-osm-way-644322972"],"sourceIds":["openstreetmap-power"],"technologies":["hydro"],"technologyMixMw":{"hydro":200.0},"unitCount":0,"unitIds":[]},"type":"Feature"},{"geometry":{"coordinates":[8.718742,3.773448],"type":"Point"},"id":"wattlas-plant-wikidata-q56373810","properties":{"aliases":["Centrale thermique Turbogas"],"canonicalAnchor":"wikidata:Q56373810","canonicalCountryKey":"GQ","capacityMw":154.0,"country":"GQ","externalIds":{"osm":"way/291201869","wikidata":"Q56373810"},"geographyId":"GQ-51917635B51392139910348","id":"wattlas-plant-wikidata-q56373810","idAliases":["wattlas-plant-osm-way-291201869"],"lifecycleCounts":{"operational":1},"locationPrecision":"exact","name":"Centrale thermique Turbogas","operatingCapacityCoverage":{"coveragePercent":100.0,"knownUnitCount":0,"method":"plant_aggregate","provenance":{"evidenceCount":0,"recordIds":["wattlas-record-osm-way-291201869"],"sourceIds":["openstreetmap-power"],"sourceTypes":["community_mapped"],"valueKind":"reported"},"totalUnitCount":0},"operatingCapacityMw":154.0,"operatingCapacityMwByTechnology":{"gas":154.0},"plannedCapacityCoverage":{"coveragePercent":0.0,"knownUnitCount":0,"method":"unavailable","totalUnitCount":0},"plannedCapacityMw":0.0,"plannedCapacityMwByTechnology":{},"recordCount":1,"recordIds":["wattlas-record-osm-way-291201869"],"sourceIds":["openstreetmap-power"],"technologies":["gas"],"technologyMixMw":{"gas":154.0},"unitCount":0,"unitIds":[]},"type":"Feature"}],"type":"FeatureCollection"}