{"features":[{"geometry":{"coordinates":[-10.6503,6.5064],"type":"Point"},"id":"wattlas-plant-gemplant-l100000602419","properties":{"aliases":["Mount Coffee hydroelectric plant"],"canonicalAnchor":"gemplant:L100000602419","canonicalCountryKey":"LR","capacityMw":88.0,"country":"LR","externalIds":{"gemPlant":"L100000602419","gemUnit":"G100000602449"},"geographyId":"LR-1627179B44982627598129","id":"wattlas-plant-gemplant-l100000602419","lifecycleCounts":{"operational":1},"locationPrecision":"exact","name":"Mount Coffee hydroelectric plant","operatingCapacityCoverage":{"coveragePercent":100.0,"knownUnitCount":1,"method":"complete_unit_sum","provenance":{"evidenceCount":0,"recordIds":["wattlas-record-gemunit-g100000602449"],"sourceIds":["gem-global-integrated-power-tracker"],"sourceTypes":["research_verified"],"valueKind":"reported"},"totalUnitCount":1},"operatingCapacityMw":88.0,"operatingCapacityMwByTechnology":{"hydro":88.0},"plannedCapacityCoverage":{"coveragePercent":0.0,"knownUnitCount":0,"method":"unavailable","totalUnitCount":0},"plannedCapacityMw":0.0,"plannedCapacityMwByTechnology":{},"recordCount":1,"recordIds":["wattlas-record-gemunit-g100000602449"],"sourceIds":["gem-global-integrated-power-tracker"],"technologies":["hydro"],"technologyMixMw":{"hydro":88.0},"unitCount":1,"unitIds":["gem-unit-G100000602449"]},"type":"Feature"},{"geometry":{"coordinates":[-10.6482,6.4745],"type":"Point"},"id":"wattlas-plant-gemplant-l100000800218","properties":{"aliases":["1.0","2.0","Mount Coffee solar farm"],"canonicalAnchor":"gemplant:L100000800218","canonicalCountryKey":"LR","capacityMw":60.0,"country":"LR","externalIdAliases":{"gemUnit":["G100000800264","G100000831179"]},"externalIds":{"gemPlant":"L100000800218","gemUnit":"G100000831179"},"geographyId":"LR-1627179B44982627598129","id":"wattlas-plant-gemplant-l100000800218","lifecycleCounts":{"announced":1,"under_construction":1},"locationPrecision":"exact","name":"Mount Coffee solar farm","operatingCapacityCoverage":{"coveragePercent":0.0,"knownUnitCount":0,"method":"unavailable","totalUnitCount":0},"operatingCapacityMw":0.0,"operatingCapacityMwByTechnology":{},"plannedCapacityCoverage":{"coveragePercent":100.0,"knownUnitCount":2,"method":"complete_unit_sum","provenance":{"evidenceCount":0,"recordIds":["wattlas-record-gemunit-g100000800264","wattlas-record-gemunit-g100000831179"],"sourceIds":["gem-global-integrated-power-tracker"],"sourceTypes":["research_verified"],"valueKind":"reported"},"totalUnitCount":2},"plannedCapacityMw":60.0,"plannedCapacityMwByTechnology":{"solar":60.0},"recordCount":2,"recordIds":["wattlas-record-gemunit-g100000800264","wattlas-record-gemunit-g100000831179"],"sourceIds":["gem-global-integrated-power-tracker"],"technologies":["solar"],"technologyMixMw":{"solar":60.0},"unitCount":2,"unitIds":["gem-unit-G100000800264","gem-unit-G100000831179"]},"type":"Feature"},{"geometry":{"coordinates":[-10.04976,5.858452],"type":"Point"},"id":"wattlas-plant-gemplant-l100001047671","properties":{"aliases":["1-1","Port of Buchanan Combined Cycle power station"],"canonicalAnchor":"gemplant:L100001047671","canonicalCountryKey":"LR","capacityMw":270.0,"country":"LR","externalIds":{"gemPlant":"L100001047671","gemUnit":"G100001054307"},"geographyId":"LR-1627179B88241484252267","id":"wattlas-plant-gemplant-l100001047671","lifecycleCounts":{"announced":1},"locationPrecision":"exact","name":"Port of Buchanan Combined Cycle power station","operatingCapacityCoverage":{"coveragePercent":0.0,"knownUnitCount":0,"method":"unavailable","totalUnitCount":0},"operatingCapacityMw":0.0,"operatingCapacityMwByTechnology":{},"plannedCapacityCoverage":{"coveragePercent":100.0,"knownUnitCount":1,"method":"complete_unit_sum","provenance":{"evidenceCount":0,"recordIds":["wattlas-record-gemunit-g100001054307"],"sourceIds":["gem-global-integrated-power-tracker"],"sourceTypes":["research_verified"],"valueKind":"reported"},"totalUnitCount":1},"plannedCapacityMw":270.0,"plannedCapacityMwByTechnology":{"gas":270.0},"recordCount":1,"recordIds":["wattlas-record-gemunit-g100001054307"],"sourceIds":["gem-global-integrated-power-tracker"],"technologies":["gas"],"technologyMixMw":{"gas":270.0},"unitCount":1,"unitIds":["gem-unit-G100001054307"]},"type":"Feature"},{"geometry":{"coordinates":[-10.64519,6.459814],"type":"Point"},"id":"wattlas-plant-osm-way-1292617864","properties":{"aliases":["Mount Coffee Solar Farm"],"canonicalAnchor":"osm:way/1292617864","canonicalCountryKey":"LR","capacityMw":20.0,"country":"LR","externalIds":{"osm":"way/1292617864"},"geographyId":"LR-1627179B44982627598129","id":"wattlas-plant-osm-way-1292617864","lifecycleCounts":{"operational":1},"locationPrecision":"exact","name":"Mount Coffee Solar Farm","operatingCapacityCoverage":{"coveragePercent":100.0,"knownUnitCount":0,"method":"plant_aggregate","provenance":{"evidenceCount":0,"recordIds":["wattlas-record-osm-way-1292617864"],"sourceIds":["openstreetmap-power"],"sourceTypes":["community_mapped"],"valueKind":"reported"},"totalUnitCount":0},"operatingCapacityMw":20.0,"operatingCapacityMwByTechnology":{"solar":20.0},"plannedCapacityCoverage":{"coveragePercent":0.0,"knownUnitCount":0,"method":"unavailable","totalUnitCount":0},"plannedCapacityMw":0.0,"plannedCapacityMwByTechnology":{},"recordCount":1,"recordIds":["wattlas-record-osm-way-1292617864"],"sourceIds":["openstreetmap-power"],"technologies":["solar"],"technologyMixMw":{"solar":20.0},"unitCount":0,"unitIds":[]},"type":"Feature"},{"geometry":{"coordinates":[-11.139924,6.997459],"type":"Point"},"id":"wattlas-plant-osm-way-1292708732","properties":{"aliases":["New Liberty Gold Mine Power Plant"],"canonicalAnchor":"osm:way/1292708732","canonicalCountryKey":"LR","capacityMw":20.0,"country":"LR","externalIds":{"osm":"way/1292708732"},"geographyId":"LR-1627179B74258959251724","id":"wattlas-plant-osm-way-1292708732","lifecycleCounts":{"operational":1},"locationPrecision":"exact","name":"New Liberty Gold Mine Power Plant","operatingCapacityCoverage":{"coveragePercent":100.0,"knownUnitCount":0,"method":"plant_aggregate","provenance":{"evidenceCount":0,"recordIds":["wattlas-record-osm-way-1292708732"],"sourceIds":["openstreetmap-power"],"sourceTypes":["community_mapped"],"valueKind":"reported"},"totalUnitCount":0},"operatingCapacityMw":20.0,"operatingCapacityMwByTechnology":{"other":20.0},"plannedCapacityCoverage":{"coveragePercent":0.0,"knownUnitCount":0,"method":"unavailable","totalUnitCount":0},"plannedCapacityMw":0.0,"plannedCapacityMwByTechnology":{},"recordCount":1,"recordIds":["wattlas-record-osm-way-1292708732"],"sourceIds":["openstreetmap-power"],"technologies":["other"],"technologyMixMw":{"other":20.0},"unitCount":0,"unitIds":[]},"type":"Feature"},{"geometry":{"coordinates":[-9.720075,6.096517],"type":"Point"},"id":"wattlas-plant-osm-way-303293260","properties":{"aliases":["Hydro Power Plant LAC"],"canonicalAnchor":"osm:way/303293260","canonicalCountryKey":"LR","capacityMw":0.0,"country":"LR","externalIds":{"osm":"way/303293260"},"geographyId":"LR-1627179B88241484252267","id":"wattlas-plant-osm-way-303293260","lifecycleCounts":{"operational":1},"locationPrecision":"exact","name":"Hydro Power Plant LAC","operatingCapacityCoverage":{"coveragePercent":0.0,"knownUnitCount":0,"method":"unavailable","totalUnitCount":0},"operatingCapacityMw":0.0,"operatingCapacityMwByTechnology":{},"plannedCapacityCoverage":{"coveragePercent":0.0,"knownUnitCount":0,"method":"unavailable","totalUnitCount":0},"plannedCapacityMw":0.0,"plannedCapacityMwByTechnology":{},"recordCount":1,"recordIds":["wattlas-record-osm-way-303293260"],"sourceIds":["openstreetmap-power"],"technologies":["hydro"],"technologyMixMw":{"hydro":0.0},"unitCount":0,"unitIds":[]},"type":"Feature"},{"geometry":{"coordinates":[-10.787459,6.362238],"type":"Point"},"id":"wattlas-plant-osm-way-676417456","properties":{"aliases":["Liberia Electricity Corporation"],"canonicalAnchor":"osm:way/676417456","canonicalCountryKey":"LR","capacityMw":38.0,"country":"LR","externalIds":{"osm":"way/676417456"},"geographyId":"LR-1627179B44982627598129","id":"wattlas-plant-osm-way-676417456","lifecycleCounts":{"operational":1},"locationPrecision":"exact","name":"Liberia Electricity Corporation","operatingCapacityCoverage":{"coveragePercent":100.0,"knownUnitCount":0,"method":"plant_aggregate","provenance":{"evidenceCount":0,"recordIds":["wattlas-record-osm-way-676417456"],"sourceIds":["openstreetmap-power"],"sourceTypes":["community_mapped"],"valueKind":"reported"},"totalUnitCount":0},"operatingCapacityMw":38.0,"operatingCapacityMwByTechnology":{"oil":38.0},"plannedCapacityCoverage":{"coveragePercent":0.0,"knownUnitCount":0,"method":"unavailable","totalUnitCount":0},"plannedCapacityMw":0.0,"plannedCapacityMwByTechnology":{},"recordCount":1,"recordIds":["wattlas-record-osm-way-676417456"],"sourceIds":["openstreetmap-power"],"technologies":["oil"],"technologyMixMw":{"oil":38.0},"unitCount":0,"unitIds":[]},"type":"Feature"},{"geometry":{"coordinates":[-10.31096,6.298623],"type":"Point"},"id":"wattlas-plant-wikidata-q1419013","properties":{"aliases":["Firestone hydroelectric power station"],"canonicalAnchor":"wikidata:Q1419013","canonicalCountryKey":"LR","capacityMw":4.8,"country":"LR","externalIds":{"osm":"way/258553367","wikidata":"Q1419013","wikipedia":"en:Firestone hydroelectric power station"},"geographyId":"LR-1627179B88241484252267","id":"wattlas-plant-wikidata-q1419013","idAliases":["wattlas-plant-osm-way-258553367","wattlas-plant-wikipedia-en-firestone-hydroelectric-power-station"],"lifecycleCounts":{"operational":1},"locationPrecision":"exact","name":"Firestone hydroelectric power station","operatingCapacityCoverage":{"coveragePercent":100.0,"knownUnitCount":0,"method":"plant_aggregate","provenance":{"evidenceCount":0,"recordIds":["wattlas-record-osm-way-258553367"],"sourceIds":["openstreetmap-power"],"sourceTypes":["community_mapped"],"valueKind":"reported"},"totalUnitCount":0},"operatingCapacityMw":4.8,"operatingCapacityMwByTechnology":{"hydro":4.8},"plannedCapacityCoverage":{"coveragePercent":0.0,"knownUnitCount":0,"method":"unavailable","totalUnitCount":0},"plannedCapacityMw":0.0,"plannedCapacityMwByTechnology":{},"recordCount":1,"recordIds":["wattlas-record-osm-way-258553367"],"sourceIds":["openstreetmap-power"],"technologies":["hydro"],"technologyMixMw":{"hydro":4.8},"unitCount":0,"unitIds":[]},"type":"Feature"},{"geometry":{"coordinates":[-10.651422,6.496212],"type":"Point"},"id":"wattlas-plant-wikidata-q1950287","properties":{"aliases":["Mount Coffee Hydropower Plant"],"canonicalAnchor":"wikidata:Q1950287","canonicalCountryKey":"LR","capacityMw":88.0,"country":"LR","externalIds":{"osm":"way/695985721","wikidata":"Q1950287"},"geographyId":"LR-1627179B44982627598129","id":"wattlas-plant-wikidata-q1950287","idAliases":["wattlas-plant-osm-way-695985721"],"lifecycleCounts":{"operational":1},"locationPrecision":"exact","name":"Mount Coffee Hydropower Plant","operatingCapacityCoverage":{"coveragePercent":100.0,"knownUnitCount":0,"method":"plant_aggregate","provenance":{"evidenceCount":0,"recordIds":["wattlas-record-osm-way-695985721"],"sourceIds":["openstreetmap-power"],"sourceTypes":["community_mapped"],"valueKind":"reported"},"totalUnitCount":0},"operatingCapacityMw":88.0,"operatingCapacityMwByTechnology":{"hydro":88.0},"plannedCapacityCoverage":{"coveragePercent":0.0,"knownUnitCount":0,"method":"unavailable","totalUnitCount":0},"plannedCapacityMw":0.0,"plannedCapacityMwByTechnology":{},"recordCount":1,"recordIds":["wattlas-record-osm-way-695985721"],"sourceIds":["openstreetmap-power"],"technologies":["hydro"],"technologyMixMw":{"hydro":88.0},"unitCount":0,"unitIds":[]},"type":"Feature"}],"type":"FeatureCollection"}