{"features":[{"geometry":{"coordinates":[32.530062,-25.9393],"type":"Point"},"id":"wattlas-plant-gemplant-l100000406766","properties":{"aliases":["1-1","Maputo power station"],"canonicalAnchor":"gemplant:L100000406766","canonicalCountryKey":"MZ","capacityMw":121.0,"country":"MZ","externalIds":{"gemPlant":"L100000406766","gemUnit":"G100000407110"},"geographyId":"MZ-27363107B47421408423272","id":"wattlas-plant-gemplant-l100000406766","lifecycleCounts":{"operational":1},"locationPrecision":"exact","name":"Maputo power station","operatingCapacityCoverage":{"coveragePercent":100.0,"knownUnitCount":1,"method":"complete_unit_sum","provenance":{"evidenceCount":0,"recordIds":["wattlas-record-gemunit-g100000407110"],"sourceIds":["gem-global-integrated-power-tracker"],"sourceTypes":["research_verified"],"valueKind":"reported"},"totalUnitCount":1},"operatingCapacityMw":121.0,"operatingCapacityMwByTechnology":{"gas":121.0},"plannedCapacityCoverage":{"coveragePercent":0.0,"knownUnitCount":0,"method":"unavailable","totalUnitCount":0},"plannedCapacityMw":0.0,"plannedCapacityMwByTechnology":{},"recordCount":1,"recordIds":["wattlas-record-gemunit-g100000407110"],"sourceIds":["gem-global-integrated-power-tracker"],"technologies":["gas"],"technologyMixMw":{"gas":121.0},"unitCount":1,"unitIds":["gem-unit-G100000407110"]},"type":"Feature"},{"geometry":{"coordinates":[32.135414,-24.651334],"type":"Point"},"id":"wattlas-plant-gemplant-l100000408164","properties":{"aliases":["3-1","Gigawatt Park power station"],"canonicalAnchor":"gemplant:L100000408164","canonicalCountryKey":"MZ","capacityMw":119.6,"country":"MZ","externalIds":{"gemPlant":"L100000408164","gemUnit":"G100000411363"},"geographyId":"MZ-27363107B47421408423272","id":"wattlas-plant-gemplant-l100000408164","lifecycleCounts":{"operational":1},"locationPrecision":"exact","name":"Gigawatt Park power station","operatingCapacityCoverage":{"coveragePercent":100.0,"knownUnitCount":1,"method":"complete_unit_sum","provenance":{"evidenceCount":0,"recordIds":["wattlas-record-gemunit-g100000411363"],"sourceIds":["gem-global-integrated-power-tracker"],"sourceTypes":["research_verified"],"valueKind":"reported"},"totalUnitCount":1},"operatingCapacityMw":119.6,"operatingCapacityMwByTechnology":{"gas":119.6},"plannedCapacityCoverage":{"coveragePercent":0.0,"knownUnitCount":0,"method":"unavailable","totalUnitCount":0},"plannedCapacityMw":0.0,"plannedCapacityMwByTechnology":{},"recordCount":1,"recordIds":["wattlas-record-gemunit-g100000411363"],"sourceIds":["gem-global-integrated-power-tracker"],"technologies":["gas"],"technologyMixMw":{"gas":119.6},"unitCount":1,"unitIds":["gem-unit-G100000411363"]},"type":"Feature"},{"geometry":{"coordinates":[32.004496,-25.462245],"type":"Point"},"id":"wattlas-plant-gemplant-l100000409161","properties":{"aliases":["1-1","Ressano Garcia power plant"],"canonicalAnchor":"gemplant:L100000409161","canonicalCountryKey":"MZ","capacityMw":175.0,"country":"MZ","externalIds":{"gemPlant":"L100000409161","gemUnit":"G100000413927"},"geographyId":"MZ-27363107B47421408423272","id":"wattlas-plant-gemplant-l100000409161","lifecycleCounts":{"operational":1},"locationPrecision":"exact","name":"Ressano Garcia power plant","operatingCapacityCoverage":{"coveragePercent":100.0,"knownUnitCount":1,"method":"complete_unit_sum","provenance":{"evidenceCount":0,"recordIds":["wattlas-record-gemunit-g100000413927"],"sourceIds":["gem-global-integrated-power-tracker"],"sourceTypes":["research_verified"],"valueKind":"reported"},"totalUnitCount":1},"operatingCapacityMw":175.0,"operatingCapacityMwByTechnology":{"gas":175.0},"plannedCapacityCoverage":{"coveragePercent":0.0,"knownUnitCount":0,"method":"unavailable","totalUnitCount":0},"plannedCapacityMw":0.0,"plannedCapacityMwByTechnology":{},"recordCount":1,"recordIds":["wattlas-record-gemunit-g100000413927"],"sourceIds":["gem-global-integrated-power-tracker"],"technologies":["gas"],"technologyMixMw":{"gas":175.0},"unitCount":1,"unitIds":["gem-unit-G100000413927"]},"type":"Feature"},{"geometry":{"coordinates":[32.003788,-25.462061],"type":"Point"},"id":"wattlas-plant-gemplant-l100000409162","properties":{"aliases":["1-1","Gigawatt Mozambique power station"],"canonicalAnchor":"gemplant:L100000409162","canonicalCountryKey":"MZ","capacityMw":117.0,"country":"MZ","externalIds":{"gemPlant":"L100000409162","gemUnit":"G100000413928"},"geographyId":"MZ-27363107B47421408423272","id":"wattlas-plant-gemplant-l100000409162","lifecycleCounts":{"operational":1},"locationPrecision":"exact","name":"Gigawatt Mozambique power station","operatingCapacityCoverage":{"coveragePercent":100.0,"knownUnitCount":1,"method":"complete_unit_sum","provenance":{"evidenceCount":0,"recordIds":["wattlas-record-gemunit-g100000413928"],"sourceIds":["gem-global-integrated-power-tracker"],"sourceTypes":["research_verified"],"valueKind":"reported"},"totalUnitCount":1},"operatingCapacityMw":117.0,"operatingCapacityMwByTechnology":{"gas":117.0},"plannedCapacityCoverage":{"coveragePercent":0.0,"knownUnitCount":0,"method":"unavailable","totalUnitCount":0},"plannedCapacityMw":0.0,"plannedCapacityMwByTechnology":{},"recordCount":1,"recordIds":["wattlas-record-gemunit-g100000413928"],"sourceIds":["gem-global-integrated-power-tracker"],"technologies":["gas"],"technologyMixMw":{"gas":117.0},"unitCount":1,"unitIds":["gem-unit-G100000413928"]},"type":"Feature"},{"geometry":{"coordinates":[32.7047,-15.5859],"type":"Point"},"id":"wattlas-plant-gemplant-l100000602508","properties":{"aliases":["Cahora Bassa hydroelectric plant"],"canonicalAnchor":"gemplant:L100000602508","canonicalCountryKey":"MZ","capacityMw":2075.0,"country":"MZ","externalIds":{"gemPlant":"L100000602508","gemUnit":"G100000602539"},"geographyId":"MZ-27363107B76405592745796","id":"wattlas-plant-gemplant-l100000602508","lifecycleCounts":{"operational":1},"locationPrecision":"exact","name":"Cahora Bassa hydroelectric plant","operatingCapacityCoverage":{"coveragePercent":100.0,"knownUnitCount":1,"method":"complete_unit_sum","provenance":{"evidenceCount":0,"recordIds":["wattlas-record-gemunit-g100000602539"],"sourceIds":["gem-global-integrated-power-tracker"],"sourceTypes":["research_verified"],"valueKind":"reported"},"totalUnitCount":1},"operatingCapacityMw":2075.0,"operatingCapacityMwByTechnology":{"hydro":2075.0},"plannedCapacityCoverage":{"coveragePercent":0.0,"knownUnitCount":0,"method":"unavailable","totalUnitCount":0},"plannedCapacityMw":0.0,"plannedCapacityMwByTechnology":{},"recordCount":1,"recordIds":["wattlas-record-gemunit-g100000602539"],"sourceIds":["gem-global-integrated-power-tracker"],"technologies":["hydro"],"technologyMixMw":{"hydro":2075.0},"unitCount":1,"unitIds":["gem-unit-G100000602539"]},"type":"Feature"},{"geometry":{"coordinates":[32.7047,-15.5859],"type":"Point"},"id":"wattlas-plant-gemplant-l100000602509","properties":{"aliases":["Cahora Bassa Norte hydroelectric plant"],"canonicalAnchor":"gemplant:L100000602509","canonicalCountryKey":"MZ","capacityMw":0.0,"country":"MZ","externalIds":{"gemPlant":"L100000602509","gemUnit":"G100000604282"},"geographyId":"MZ-27363107B76405592745796","id":"wattlas-plant-gemplant-l100000602509","lifecycleCounts":{"cancelled":1},"locationPrecision":"exact","name":"Cahora Bassa Norte hydroelectric plant","operatingCapacityCoverage":{"coveragePercent":0.0,"knownUnitCount":0,"method":"unavailable","totalUnitCount":0},"operatingCapacityMw":0.0,"operatingCapacityMwByTechnology":{},"plannedCapacityCoverage":{"coveragePercent":0.0,"knownUnitCount":0,"method":"unavailable","totalUnitCount":0},"plannedCapacityMw":0.0,"plannedCapacityMwByTechnology":{},"recordCount":1,"recordIds":["wattlas-record-gemunit-g100000604282"],"sourceIds":["gem-global-integrated-power-tracker"],"technologies":["hydro"],"technologyMixMw":{"hydro":0.0},"unitCount":1,"unitIds":["gem-unit-G100000604282"]},"type":"Feature"},{"geometry":{"coordinates":[40.2166,-13.4782],"type":"Point"},"id":"wattlas-plant-gemplant-l100000602512","properties":{"aliases":["Lurio hydroelectric plant"],"canonicalAnchor":"gemplant:L100000602512","canonicalCountryKey":"MZ","capacityMw":120.0,"country":"MZ","externalIds":{"gemPlant":"L100000602512","gemUnit":"G100000604582"},"geographyId":"MZ-27363107B75878915981920","id":"wattlas-plant-gemplant-l100000602512","lifecycleCounts":{"announced":1},"locationPrecision":"exact","name":"Lurio hydroelectric plant","operatingCapacityCoverage":{"coveragePercent":0.0,"knownUnitCount":0,"method":"unavailable","totalUnitCount":0},"operatingCapacityMw":0.0,"operatingCapacityMwByTechnology":{},"plannedCapacityCoverage":{"coveragePercent":100.0,"knownUnitCount":1,"method":"complete_unit_sum","provenance":{"evidenceCount":0,"recordIds":["wattlas-record-gemunit-g100000604582"],"sourceIds":["gem-global-integrated-power-tracker"],"sourceTypes":["research_verified"],"valueKind":"reported"},"totalUnitCount":1},"plannedCapacityMw":120.0,"plannedCapacityMwByTechnology":{"hydro":120.0},"recordCount":1,"recordIds":["wattlas-record-gemunit-g100000604582"],"sourceIds":["gem-global-integrated-power-tracker"],"technologies":["hydro"],"technologyMixMw":{"hydro":120.0},"unitCount":1,"unitIds":["gem-unit-G100000604582"]},"type":"Feature"},{"geometry":{"coordinates":[33.4347,-15.9998],"type":"Point"},"id":"wattlas-plant-gemplant-l100000602513","properties":{"aliases":["Mphanda Nkuwa hydroelectric plant"],"canonicalAnchor":"gemplant:L100000602513","canonicalCountryKey":"MZ","capacityMw":1500.0,"country":"MZ","externalIds":{"gemPlant":"L100000602513","gemUnit":"G100000602544"},"geographyId":"MZ-27363107B76405592745796","id":"wattlas-plant-gemplant-l100000602513","lifecycleCounts":{"announced":1},"locationPrecision":"exact","name":"Mphanda Nkuwa hydroelectric plant","operatingCapacityCoverage":{"coveragePercent":0.0,"knownUnitCount":0,"method":"unavailable","totalUnitCount":0},"operatingCapacityMw":0.0,"operatingCapacityMwByTechnology":{},"plannedCapacityCoverage":{"coveragePercent":100.0,"knownUnitCount":1,"method":"complete_unit_sum","provenance":{"evidenceCount":0,"recordIds":["wattlas-record-gemunit-g100000602544"],"sourceIds":["gem-global-integrated-power-tracker"],"sourceTypes":["research_verified"],"valueKind":"reported"},"totalUnitCount":1},"plannedCapacityMw":1500.0,"plannedCapacityMwByTechnology":{"hydro":1500.0},"recordCount":1,"recordIds":["wattlas-record-gemunit-g100000602544"],"sourceIds":["gem-global-integrated-power-tracker"],"technologies":["hydro"],"technologyMixMw":{"hydro":1500.0},"unitCount":1,"unitIds":["gem-unit-G100000602544"]},"type":"Feature"},{"geometry":{"coordinates":[33.9471,-16.5679],"type":"Point"},"id":"wattlas-plant-gemplant-l100000604269","properties":{"aliases":["Lupata hydroelectric plant"],"canonicalAnchor":"gemplant:L100000604269","canonicalCountryKey":"MZ","capacityMw":600.0,"country":"MZ","externalIds":{"gemPlant":"L100000604269","gemUnit":"G100000604581"},"geographyId":"MZ-27363107B35306436132920","id":"wattlas-plant-gemplant-l100000604269","lifecycleCounts":{"announced":1},"locationPrecision":"exact","name":"Lupata hydroelectric plant","operatingCapacityCoverage":{"coveragePercent":0.0,"knownUnitCount":0,"method":"unavailable","totalUnitCount":0},"operatingCapacityMw":0.0,"operatingCapacityMwByTechnology":{},"plannedCapacityCoverage":{"coveragePercent":100.0,"knownUnitCount":1,"method":"complete_unit_sum","provenance":{"evidenceCount":0,"recordIds":["wattlas-record-gemunit-g100000604581"],"sourceIds":["gem-global-integrated-power-tracker"],"sourceTypes":["research_verified"],"valueKind":"reported"},"totalUnitCount":1},"plannedCapacityMw":600.0,"plannedCapacityMwByTechnology":{"hydro":600.0},"recordCount":1,"recordIds":["wattlas-record-gemunit-g100000604581"],"sourceIds":["gem-global-integrated-power-tracker"],"technologies":["hydro"],"technologyMixMw":{"hydro":600.0},"unitCount":1,"unitIds":["gem-unit-G100000604581"]},"type":"Feature"},{"geometry":{"coordinates":[36.5062,-14.662],"type":"Point"},"id":"wattlas-plant-gemplant-l100000800084","properties":{"aliases":["--","Cuamba solar farm"],"canonicalAnchor":"gemplant:L100000800084","canonicalCountryKey":"MZ","capacityMw":19.0,"country":"MZ","externalIds":{"gemPlant":"L100000800084","gemUnit":"G100000800107"},"geographyId":"MZ-27363107B36451567951769","id":"wattlas-plant-gemplant-l100000800084","lifecycleCounts":{"operational":1},"locationPrecision":"exact","name":"Cuamba solar farm","operatingCapacityCoverage":{"coveragePercent":100.0,"knownUnitCount":1,"method":"complete_unit_sum","provenance":{"evidenceCount":0,"recordIds":["wattlas-record-gemunit-g100000800107"],"sourceIds":["gem-global-integrated-power-tracker"],"sourceTypes":["research_verified"],"valueKind":"reported"},"totalUnitCount":1},"operatingCapacityMw":19.0,"operatingCapacityMwByTechnology":{"solar":19.0},"plannedCapacityCoverage":{"coveragePercent":0.0,"knownUnitCount":0,"method":"unavailable","totalUnitCount":0},"plannedCapacityMw":0.0,"plannedCapacityMwByTechnology":{},"recordCount":1,"recordIds":["wattlas-record-gemunit-g100000800107"],"sourceIds":["gem-global-integrated-power-tracker"],"technologies":["solar"],"technologyMixMw":{"solar":19.0},"unitCount":1,"unitIds":["gem-unit-G100000800107"]},"type":"Feature"},{"geometry":{"coordinates":[39.881,-13.1299],"type":"Point"},"id":"wattlas-plant-gemplant-l100000800213","properties":{"aliases":["--","Metoro Substation solar farm"],"canonicalAnchor":"gemplant:L100000800213","canonicalCountryKey":"MZ","capacityMw":41.0,"country":"MZ","externalIds":{"gemPlant":"L100000800213","gemUnit":"G100000800258"},"geographyId":"MZ-27363107B79734749620930","id":"wattlas-plant-gemplant-l100000800213","lifecycleCounts":{"operational":1},"locationPrecision":"exact","name":"Metoro Substation solar farm","operatingCapacityCoverage":{"coveragePercent":100.0,"knownUnitCount":1,"method":"complete_unit_sum","provenance":{"evidenceCount":0,"recordIds":["wattlas-record-gemunit-g100000800258"],"sourceIds":["gem-global-integrated-power-tracker"],"sourceTypes":["research_verified"],"valueKind":"reported"},"totalUnitCount":1},"operatingCapacityMw":41.0,"operatingCapacityMwByTechnology":{"solar":41.0},"plannedCapacityCoverage":{"coveragePercent":0.0,"knownUnitCount":0,"method":"unavailable","totalUnitCount":0},"plannedCapacityMw":0.0,"plannedCapacityMwByTechnology":{},"recordCount":1,"recordIds":["wattlas-record-gemunit-g100000800258"],"sourceIds":["gem-global-integrated-power-tracker"],"technologies":["solar"],"technologyMixMw":{"solar":41.0},"unitCount":1,"unitIds":["gem-unit-G100000800258"]},"type":"Feature"},{"geometry":{"coordinates":[40.7061,-14.4932],"type":"Point"},"id":"wattlas-plant-gemplant-l100000800225","properties":{"aliases":["--","Nacala solar farm"],"canonicalAnchor":"gemplant:L100000800225","canonicalCountryKey":"MZ","capacityMw":100.0,"country":"MZ","externalIds":{"gemPlant":"L100000800225","gemUnit":"G100000800271"},"geographyId":"MZ-27363107B75878915981920","id":"wattlas-plant-gemplant-l100000800225","lifecycleCounts":{"announced":1},"locationPrecision":"exact","name":"Nacala solar farm","operatingCapacityCoverage":{"coveragePercent":0.0,"knownUnitCount":0,"method":"unavailable","totalUnitCount":0},"operatingCapacityMw":0.0,"operatingCapacityMwByTechnology":{},"plannedCapacityCoverage":{"coveragePercent":100.0,"knownUnitCount":1,"method":"complete_unit_sum","provenance":{"evidenceCount":0,"recordIds":["wattlas-record-gemunit-g100000800271"],"sourceIds":["gem-global-integrated-power-tracker"],"sourceTypes":["research_verified"],"valueKind":"reported"},"totalUnitCount":1},"plannedCapacityMw":100.0,"plannedCapacityMwByTechnology":{"solar":100.0},"recordCount":1,"recordIds":["wattlas-record-gemunit-g100000800271"],"sourceIds":["gem-global-integrated-power-tracker"],"technologies":["solar"],"technologyMixMw":{"solar":100.0},"unitCount":1,"unitIds":["gem-unit-G100000800271"]},"type":"Feature"},{"geometry":{"coordinates":[37.0318,-16.8231],"type":"Point"},"id":"wattlas-plant-gemplant-l100000800281","properties":{"aliases":["--","Mocuba solar farm"],"canonicalAnchor":"gemplant:L100000800281","canonicalCountryKey":"MZ","capacityMw":40.0,"country":"MZ","externalIds":{"gemPlant":"L100000800281","gemUnit":"G100000800333"},"geographyId":"MZ-27363107B53339704098913","id":"wattlas-plant-gemplant-l100000800281","lifecycleCounts":{"operational":1},"locationPrecision":"exact","name":"Mocuba solar farm","operatingCapacityCoverage":{"coveragePercent":100.0,"knownUnitCount":1,"method":"complete_unit_sum","provenance":{"evidenceCount":0,"recordIds":["wattlas-record-gemunit-g100000800333"],"sourceIds":["gem-global-integrated-power-tracker"],"sourceTypes":["research_verified"],"valueKind":"reported"},"totalUnitCount":1},"operatingCapacityMw":40.0,"operatingCapacityMwByTechnology":{"solar":40.0},"plannedCapacityCoverage":{"coveragePercent":0.0,"knownUnitCount":0,"method":"unavailable","totalUnitCount":0},"plannedCapacityMw":0.0,"plannedCapacityMwByTechnology":{},"recordCount":1,"recordIds":["wattlas-record-gemunit-g100000800333"],"sourceIds":["gem-global-integrated-power-tracker"],"technologies":["solar"],"technologyMixMw":{"solar":40.0},"unitCount":1,"unitIds":["gem-unit-G100000800333"]},"type":"Feature"},{"geometry":{"coordinates":[38.6672,-13.2985],"type":"Point"},"id":"wattlas-plant-gemplant-l100000811627","properties":{"aliases":["--","Balama Graphite Mine solar farm"],"canonicalAnchor":"gemplant:L100000811627","canonicalCountryKey":"MZ","capacityMw":11.3,"country":"MZ","externalIds":{"gemPlant":"L100000811627","gemUnit":"G100000814168"},"geographyId":"MZ-27363107B79734749620930","id":"wattlas-plant-gemplant-l100000811627","lifecycleCounts":{"operational":1},"locationPrecision":"exact","name":"Balama Graphite Mine solar farm","operatingCapacityCoverage":{"coveragePercent":100.0,"knownUnitCount":1,"method":"complete_unit_sum","provenance":{"evidenceCount":0,"recordIds":["wattlas-record-gemunit-g100000814168"],"sourceIds":["gem-global-integrated-power-tracker"],"sourceTypes":["research_verified"],"valueKind":"reported"},"totalUnitCount":1},"operatingCapacityMw":11.3,"operatingCapacityMwByTechnology":{"solar":11.3},"plannedCapacityCoverage":{"coveragePercent":0.0,"knownUnitCount":0,"method":"unavailable","totalUnitCount":0},"plannedCapacityMw":0.0,"plannedCapacityMwByTechnology":{},"recordCount":1,"recordIds":["wattlas-record-gemunit-g100000814168"],"sourceIds":["gem-global-integrated-power-tracker"],"technologies":["solar"],"technologyMixMw":{"solar":11.3},"unitCount":1,"unitIds":["gem-unit-G100000814168"]},"type":"Feature"},{"geometry":{"coordinates":[33.5074,-16.2968],"type":"Point"},"id":"wattlas-plant-gemplant-l100001018293","properties":{"aliases":["--","Matambo (Mozambique) Solar Energy Project"],"canonicalAnchor":"gemplant:L100001018293","canonicalCountryKey":"MZ","capacityMw":125.0,"country":"MZ","externalIds":{"gemPlant":"L100001018293","gemUnit":"G100001020378"},"geographyId":"MZ-27363107B76405592745796","id":"wattlas-plant-gemplant-l100001018293","lifecycleCounts":{"announced":1},"locationPrecision":"exact","name":"Matambo (Mozambique) Solar Energy Project","operatingCapacityCoverage":{"coveragePercent":0.0,"knownUnitCount":0,"method":"unavailable","totalUnitCount":0},"operatingCapacityMw":0.0,"operatingCapacityMwByTechnology":{},"plannedCapacityCoverage":{"coveragePercent":100.0,"knownUnitCount":1,"method":"complete_unit_sum","provenance":{"evidenceCount":0,"recordIds":["wattlas-record-gemunit-g100001020378"],"sourceIds":["gem-global-integrated-power-tracker"],"sourceTypes":["research_verified"],"valueKind":"reported"},"totalUnitCount":1},"plannedCapacityMw":125.0,"plannedCapacityMwByTechnology":{"solar":125.0},"recordCount":1,"recordIds":["wattlas-record-gemunit-g100001020378"],"sourceIds":["gem-global-integrated-power-tracker"],"technologies":["solar"],"technologyMixMw":{"solar":125.0},"unitCount":1,"unitIds":["gem-unit-G100001020378"]},"type":"Feature"},{"geometry":{"coordinates":[33.1446,-19.1567],"type":"Point"},"id":"wattlas-plant-gemplant-l100001025654","properties":{"aliases":["Chicamba hydroelectric plant"],"canonicalAnchor":"gemplant:L100001025654","canonicalCountryKey":"MZ","capacityMw":44.0,"country":"MZ","externalIds":{"gemPlant":"L100001025654","gemUnit":"G100001030442"},"geographyId":"MZ-27363107B35306436132920","id":"wattlas-plant-gemplant-l100001025654","lifecycleCounts":{"operational":1},"locationPrecision":"exact","name":"Chicamba hydroelectric plant","operatingCapacityCoverage":{"coveragePercent":100.0,"knownUnitCount":1,"method":"complete_unit_sum","provenance":{"evidenceCount":0,"recordIds":["wattlas-record-gemunit-g100001030442"],"sourceIds":["gem-global-integrated-power-tracker"],"sourceTypes":["research_verified"],"valueKind":"reported"},"totalUnitCount":1},"operatingCapacityMw":44.0,"operatingCapacityMwByTechnology":{"hydro":44.0},"plannedCapacityCoverage":{"coveragePercent":0.0,"knownUnitCount":0,"method":"unavailable","totalUnitCount":0},"plannedCapacityMw":0.0,"plannedCapacityMwByTechnology":{},"recordCount":1,"recordIds":["wattlas-record-gemunit-g100001030442"],"sourceIds":["gem-global-integrated-power-tracker"],"technologies":["hydro"],"technologyMixMw":{"hydro":44.0},"unitCount":1,"unitIds":["gem-unit-G100001030442"]},"type":"Feature"},{"geometry":{"coordinates":[33.493,-19.526],"type":"Point"},"id":"wattlas-plant-gemplant-l100001025655","properties":{"aliases":["Mavuzi hydroelectric plant"],"canonicalAnchor":"gemplant:L100001025655","canonicalCountryKey":"MZ","capacityMw":52.0,"country":"MZ","externalIds":{"gemPlant":"L100001025655","gemUnit":"G100001030443"},"geographyId":"MZ-27363107B35306436132920","id":"wattlas-plant-gemplant-l100001025655","lifecycleCounts":{"operational":1},"locationPrecision":"exact","name":"Mavuzi hydroelectric plant","operatingCapacityCoverage":{"coveragePercent":100.0,"knownUnitCount":1,"method":"complete_unit_sum","provenance":{"evidenceCount":0,"recordIds":["wattlas-record-gemunit-g100001030443"],"sourceIds":["gem-global-integrated-power-tracker"],"sourceTypes":["research_verified"],"valueKind":"reported"},"totalUnitCount":1},"operatingCapacityMw":52.0,"operatingCapacityMwByTechnology":{"hydro":52.0},"plannedCapacityCoverage":{"coveragePercent":0.0,"knownUnitCount":0,"method":"unavailable","totalUnitCount":0},"plannedCapacityMw":0.0,"plannedCapacityMwByTechnology":{},"recordCount":1,"recordIds":["wattlas-record-gemunit-g100001030443"],"sourceIds":["gem-global-integrated-power-tracker"],"technologies":["hydro"],"technologyMixMw":{"hydro":52.0},"unitCount":1,"unitIds":["gem-unit-G100001030443"]},"type":"Feature"},{"geometry":{"coordinates":[31.9791,-24.4551],"type":"Point"},"id":"wattlas-plant-gemplant-l100001064909","properties":{"aliases":["--","Ehlanzeni District Municipality solar project I"],"canonicalAnchor":"gemplant:L100001064909","canonicalCountryKey":"MZ","capacityMw":1.0,"country":"MZ","externalIds":{"gemPlant":"L100001064909","gemUnit":"G100001074695"},"geographyId":"MZ-27363107B47421408423272","id":"wattlas-plant-gemplant-l100001064909","lifecycleCounts":{"operational":1},"locationPrecision":"exact","name":"Ehlanzeni District Municipality solar project I","operatingCapacityCoverage":{"coveragePercent":100.0,"knownUnitCount":1,"method":"complete_unit_sum","provenance":{"evidenceCount":0,"recordIds":["wattlas-record-gemunit-g100001074695"],"sourceIds":["gem-global-integrated-power-tracker"],"sourceTypes":["research_verified"],"valueKind":"reported"},"totalUnitCount":1},"operatingCapacityMw":1.0,"operatingCapacityMwByTechnology":{"solar":1.0},"plannedCapacityCoverage":{"coveragePercent":0.0,"knownUnitCount":0,"method":"unavailable","totalUnitCount":0},"plannedCapacityMw":0.0,"plannedCapacityMwByTechnology":{},"recordCount":1,"recordIds":["wattlas-record-gemunit-g100001074695"],"sourceIds":["gem-global-integrated-power-tracker"],"technologies":["solar"],"technologyMixMw":{"solar":1.0},"unitCount":1,"unitIds":["gem-unit-G100001074695"]},"type":"Feature"},{"geometry":{"coordinates":[38.667397,-13.29923],"type":"Point"},"id":"wattlas-plant-osm-way-1216237793","properties":{"aliases":["Balama"],"canonicalAnchor":"osm:way/1216237793","canonicalCountryKey":"MZ","capacityMw":11.25,"country":"MZ","externalIds":{"osm":"way/1216237793"},"geographyId":"MZ-27363107B79734749620930","id":"wattlas-plant-osm-way-1216237793","lifecycleCounts":{"operational":1},"locationPrecision":"exact","name":"Balama","operatingCapacityCoverage":{"coveragePercent":100.0,"knownUnitCount":0,"method":"plant_aggregate","provenance":{"evidenceCount":0,"recordIds":["wattlas-record-osm-way-1216237793"],"sourceIds":["openstreetmap-power"],"sourceTypes":["community_mapped"],"valueKind":"reported"},"totalUnitCount":0},"operatingCapacityMw":11.25,"operatingCapacityMwByTechnology":{"solar":11.25},"plannedCapacityCoverage":{"coveragePercent":0.0,"knownUnitCount":0,"method":"unavailable","totalUnitCount":0},"plannedCapacityMw":0.0,"plannedCapacityMwByTechnology":{},"recordCount":1,"recordIds":["wattlas-record-osm-way-1216237793"],"sourceIds":["openstreetmap-power"],"technologies":["solar"],"technologyMixMw":{"solar":11.25},"unitCount":0,"unitIds":[]},"type":"Feature"},{"geometry":{"coordinates":[39.309766,-11.312139],"type":"Point"},"id":"wattlas-plant-osm-way-1293802550","properties":{"aliases":["Ngapa"],"canonicalAnchor":"osm:way/1293802550","canonicalCountryKey":"MZ","capacityMw":0.0,"country":"MZ","externalIds":{"osm":"way/1293802550"},"geographyId":"MZ-27363107B79734749620930","id":"wattlas-plant-osm-way-1293802550","lifecycleCounts":{"operational":1},"locationPrecision":"exact","name":"Ngapa","operatingCapacityCoverage":{"coveragePercent":0.0,"knownUnitCount":0,"method":"unavailable","totalUnitCount":0},"operatingCapacityMw":0.0,"operatingCapacityMwByTechnology":{},"plannedCapacityCoverage":{"coveragePercent":0.0,"knownUnitCount":0,"method":"unavailable","totalUnitCount":0},"plannedCapacityMw":0.0,"plannedCapacityMwByTechnology":{},"recordCount":1,"recordIds":["wattlas-record-osm-way-1293802550"],"sourceIds":["openstreetmap-power"],"technologies":["solar"],"technologyMixMw":{"solar":0.0},"unitCount":0,"unitIds":[]},"type":"Feature"},{"geometry":{"coordinates":[37.039584,-16.82381],"type":"Point"},"id":"wattlas-plant-wikidata-q104880823","properties":{"aliases":["Central Solar de Mocuba"],"canonicalAnchor":"wikidata:Q104880823","canonicalCountryKey":"MZ","capacityMw":40.0,"country":"MZ","externalIds":{"osm":"way/1132939465","wikidata":"Q104880823"},"geographyId":"MZ-27363107B53339704098913","id":"wattlas-plant-wikidata-q104880823","idAliases":["wattlas-plant-osm-way-1132939465"],"lifecycleCounts":{"operational":1},"locationPrecision":"exact","name":"Central Solar de Mocuba","operatingCapacityCoverage":{"coveragePercent":100.0,"knownUnitCount":0,"method":"plant_aggregate","provenance":{"evidenceCount":0,"recordIds":["wattlas-record-osm-way-1132939465"],"sourceIds":["openstreetmap-power"],"sourceTypes":["community_mapped"],"valueKind":"reported"},"totalUnitCount":0},"operatingCapacityMw":40.0,"operatingCapacityMwByTechnology":{"solar":40.0},"plannedCapacityCoverage":{"coveragePercent":0.0,"knownUnitCount":0,"method":"unavailable","totalUnitCount":0},"plannedCapacityMw":0.0,"plannedCapacityMwByTechnology":{},"recordCount":1,"recordIds":["wattlas-record-osm-way-1132939465"],"sourceIds":["openstreetmap-power"],"technologies":["solar"],"technologyMixMw":{"solar":40.0},"unitCount":0,"unitIds":[]},"type":"Feature"},{"geometry":{"coordinates":[35.063773,-21.760486],"type":"Point"},"id":"wattlas-plant-wikidata-q106103796","properties":{"aliases":["Central Termica de Temane"],"canonicalAnchor":"wikidata:Q106103796","canonicalCountryKey":"MZ","capacityMw":450.0,"country":"MZ","externalIds":{"osm":"way/1365289871","wikidata":"Q106103796"},"geographyId":"MZ-27363107B61969177237563","id":"wattlas-plant-wikidata-q106103796","idAliases":["wattlas-plant-osm-way-1365289871"],"lifecycleCounts":{"operational":1},"locationPrecision":"exact","name":"Central Termica de Temane","operatingCapacityCoverage":{"coveragePercent":100.0,"knownUnitCount":0,"method":"plant_aggregate","provenance":{"evidenceCount":0,"recordIds":["wattlas-record-osm-way-1365289871"],"sourceIds":["openstreetmap-power"],"sourceTypes":["community_mapped"],"valueKind":"reported"},"totalUnitCount":0},"operatingCapacityMw":450.0,"operatingCapacityMwByTechnology":{"gas":450.0},"plannedCapacityCoverage":{"coveragePercent":0.0,"knownUnitCount":0,"method":"unavailable","totalUnitCount":0},"plannedCapacityMw":0.0,"plannedCapacityMwByTechnology":{},"recordCount":1,"recordIds":["wattlas-record-osm-way-1365289871"],"sourceIds":["openstreetmap-power"],"technologies":["gas"],"technologyMixMw":{"gas":450.0},"unitCount":0,"unitIds":[]},"type":"Feature"},{"geometry":{"coordinates":[33.145024,-19.155785],"type":"Point"},"id":"wattlas-plant-wikidata-q106130712","properties":{"aliases":["Central hidroeléctrica de Chicamba"],"canonicalAnchor":"wikidata:Q106130712","canonicalCountryKey":"MZ","capacityMw":44.0,"country":"MZ","externalIds":{"osm":"way/416847072","wikidata":"Q106130712"},"geographyId":"MZ-27363107B35306436132920","id":"wattlas-plant-wikidata-q106130712","idAliases":["wattlas-plant-osm-way-416847072"],"lifecycleCounts":{"operational":1},"locationPrecision":"exact","name":"Central hidroeléctrica de Chicamba","operatingCapacityCoverage":{"coveragePercent":100.0,"knownUnitCount":0,"method":"plant_aggregate","provenance":{"evidenceCount":0,"recordIds":["wattlas-record-osm-way-416847072"],"sourceIds":["openstreetmap-power"],"sourceTypes":["community_mapped"],"valueKind":"reported"},"totalUnitCount":0},"operatingCapacityMw":44.0,"operatingCapacityMwByTechnology":{"hydro":44.0},"plannedCapacityCoverage":{"coveragePercent":0.0,"knownUnitCount":0,"method":"unavailable","totalUnitCount":0},"plannedCapacityMw":0.0,"plannedCapacityMwByTechnology":{},"recordCount":1,"recordIds":["wattlas-record-osm-way-416847072"],"sourceIds":["openstreetmap-power"],"technologies":["hydro"],"technologyMixMw":{"hydro":44.0},"unitCount":0,"unitIds":[]},"type":"Feature"},{"geometry":{"coordinates":[36.504454,-14.799913],"type":"Point"},"id":"wattlas-plant-wikidata-q107203380","properties":{"aliases":["Cuamba Solar Power Plant"],"canonicalAnchor":"wikidata:Q107203380","canonicalCountryKey":"MZ","capacityMw":20.0,"country":"MZ","externalIds":{"osm":"way/1115597408","wikidata":"Q107203380"},"geographyId":"MZ-27363107B36451567951769","id":"wattlas-plant-wikidata-q107203380","idAliases":["wattlas-plant-osm-way-1115597408"],"lifecycleCounts":{"operational":1},"locationPrecision":"exact","name":"Cuamba Solar Power Plant","operatingCapacityCoverage":{"coveragePercent":100.0,"knownUnitCount":0,"method":"plant_aggregate","provenance":{"evidenceCount":0,"recordIds":["wattlas-record-osm-way-1115597408"],"sourceIds":["openstreetmap-power"],"sourceTypes":["community_mapped"],"valueKind":"reported"},"totalUnitCount":0},"operatingCapacityMw":20.0,"operatingCapacityMwByTechnology":{"solar":20.0},"plannedCapacityCoverage":{"coveragePercent":0.0,"knownUnitCount":0,"method":"unavailable","totalUnitCount":0},"plannedCapacityMw":0.0,"plannedCapacityMwByTechnology":{},"recordCount":1,"recordIds":["wattlas-record-osm-way-1115597408"],"sourceIds":["openstreetmap-power"],"technologies":["solar"],"technologyMixMw":{"solar":20.0},"unitCount":0,"unitIds":[]},"type":"Feature"},{"geometry":{"coordinates":[39.88153,-13.132551],"type":"Point"},"id":"wattlas-plant-wikidata-q107803538","properties":{"aliases":["Central Solar de Metoro"],"canonicalAnchor":"wikidata:Q107803538","canonicalCountryKey":"MZ","capacityMw":41.0,"country":"MZ","externalIds":{"osm":"way/1132939464","wikidata":"Q107803538"},"geographyId":"MZ-27363107B79734749620930","id":"wattlas-plant-wikidata-q107803538","idAliases":["wattlas-plant-osm-way-1132939464"],"lifecycleCounts":{"operational":1},"locationPrecision":"exact","name":"Central Solar de Metoro","operatingCapacityCoverage":{"coveragePercent":100.0,"knownUnitCount":0,"method":"plant_aggregate","provenance":{"evidenceCount":0,"recordIds":["wattlas-record-osm-way-1132939464"],"sourceIds":["openstreetmap-power"],"sourceTypes":["community_mapped"],"valueKind":"reported"},"totalUnitCount":0},"operatingCapacityMw":41.0,"operatingCapacityMwByTechnology":{"solar":41.0},"plannedCapacityCoverage":{"coveragePercent":0.0,"knownUnitCount":0,"method":"unavailable","totalUnitCount":0},"plannedCapacityMw":0.0,"plannedCapacityMwByTechnology":{},"recordCount":1,"recordIds":["wattlas-record-osm-way-1132939464"],"sourceIds":["openstreetmap-power"],"technologies":["solar"],"technologyMixMw":{"solar":41.0},"unitCount":0,"unitIds":[]},"type":"Feature"},{"geometry":{"coordinates":[32.808119,-24.436269],"type":"Point"},"id":"wattlas-plant-wikidata-q116228830","properties":{"aliases":["Central Kuvaninga"],"canonicalAnchor":"wikidata:Q116228830","canonicalCountryKey":"MZ","capacityMw":40.0,"country":"MZ","externalIds":{"osm":"way/703487499","wikidata":"Q116228830"},"geographyId":"MZ-27363107B41711230736845","id":"wattlas-plant-wikidata-q116228830","idAliases":["wattlas-plant-osm-way-703487499"],"lifecycleCounts":{"operational":1},"locationPrecision":"exact","name":"Central Kuvaninga","operatingCapacityCoverage":{"coveragePercent":100.0,"knownUnitCount":0,"method":"plant_aggregate","provenance":{"evidenceCount":0,"recordIds":["wattlas-record-osm-way-703487499"],"sourceIds":["openstreetmap-power"],"sourceTypes":["community_mapped"],"valueKind":"reported"},"totalUnitCount":0},"operatingCapacityMw":40.0,"operatingCapacityMwByTechnology":{"gas":40.0},"plannedCapacityCoverage":{"coveragePercent":0.0,"knownUnitCount":0,"method":"unavailable","totalUnitCount":0},"plannedCapacityMw":0.0,"plannedCapacityMwByTechnology":{},"recordCount":1,"recordIds":["wattlas-record-osm-way-703487499"],"sourceIds":["openstreetmap-power"],"technologies":["gas"],"technologyMixMw":{"gas":40.0},"unitCount":0,"unitIds":[]},"type":"Feature"},{"geometry":{"coordinates":[32.706412,-15.586832],"type":"Point"},"id":"wattlas-plant-wikidata-q11962991","properties":{"aliases":["Cahora Bassa Hydroelectric Station"],"canonicalAnchor":"wikidata:Q11962991","canonicalCountryKey":"MZ","capacityMw":2075.0,"country":"MZ","externalIds":{"osm":"way/849296590","wikidata":"Q11962991"},"geographyId":"MZ-27363107B76405592745796","id":"wattlas-plant-wikidata-q11962991","idAliases":["wattlas-plant-osm-way-849296590"],"lifecycleCounts":{"operational":1},"locationPrecision":"exact","name":"Cahora Bassa Hydroelectric Station","operatingCapacityCoverage":{"coveragePercent":100.0,"knownUnitCount":0,"method":"plant_aggregate","provenance":{"evidenceCount":0,"recordIds":["wattlas-record-osm-way-849296590"],"sourceIds":["openstreetmap-power"],"sourceTypes":["community_mapped"],"valueKind":"reported"},"totalUnitCount":0},"operatingCapacityMw":2075.0,"operatingCapacityMwByTechnology":{"hydro":2075.0},"plannedCapacityCoverage":{"coveragePercent":0.0,"knownUnitCount":0,"method":"unavailable","totalUnitCount":0},"plannedCapacityMw":0.0,"plannedCapacityMwByTechnology":{},"recordCount":1,"recordIds":["wattlas-record-osm-way-849296590"],"sourceIds":["openstreetmap-power"],"technologies":["hydro"],"technologyMixMw":{"hydro":2075.0},"unitCount":0,"unitIds":[]},"type":"Feature"},{"geometry":{"coordinates":[32.132931,-25.21896],"type":"Point"},"id":"wattlas-plant-wikidata-q18435914","properties":{"aliases":["Central hidroeléctrica de Corumana"],"canonicalAnchor":"wikidata:Q18435914","canonicalCountryKey":"MZ","capacityMw":16.6,"country":"MZ","externalIds":{"osm":"node/7983219621","wikidata":"Q18435914"},"geographyId":"MZ-27363107B47421408423272","id":"wattlas-plant-wikidata-q18435914","idAliases":["wattlas-plant-osm-node-7983219621"],"lifecycleCounts":{"operational":1},"locationPrecision":"exact","name":"Central hidroeléctrica de Corumana","operatingCapacityCoverage":{"coveragePercent":100.0,"knownUnitCount":0,"method":"plant_aggregate","provenance":{"evidenceCount":0,"recordIds":["wattlas-record-osm-node-7983219621"],"sourceIds":["openstreetmap-power"],"sourceTypes":["community_mapped"],"valueKind":"reported"},"totalUnitCount":0},"operatingCapacityMw":16.6,"operatingCapacityMwByTechnology":{"hydro":16.6},"plannedCapacityCoverage":{"coveragePercent":0.0,"knownUnitCount":0,"method":"unavailable","totalUnitCount":0},"plannedCapacityMw":0.0,"plannedCapacityMwByTechnology":{},"recordCount":1,"recordIds":["wattlas-record-osm-node-7983219621"],"sourceIds":["openstreetmap-power"],"technologies":["hydro"],"technologyMixMw":{"hydro":16.6},"unitCount":0,"unitIds":[]},"type":"Feature"},{"geometry":{"coordinates":[32.530297,-25.939877],"type":"Point"},"id":"wattlas-plant-wikidata-q56364338","properties":{"aliases":["Central Térmica de Maputo"],"canonicalAnchor":"wikidata:Q56364338","canonicalCountryKey":"MZ","capacityMw":145.0,"country":"MZ","externalIds":{"osm":"way/363126797","wikidata":"Q56364338"},"geographyId":"MZ-27363107B47421408423272","id":"wattlas-plant-wikidata-q56364338","idAliases":["wattlas-plant-osm-way-363126797"],"lifecycleCounts":{"operational":1},"locationPrecision":"exact","name":"Central Térmica de Maputo","operatingCapacityCoverage":{"coveragePercent":100.0,"knownUnitCount":0,"method":"plant_aggregate","provenance":{"evidenceCount":0,"recordIds":["wattlas-record-osm-way-363126797"],"sourceIds":["openstreetmap-power"],"sourceTypes":["community_mapped"],"valueKind":"reported"},"totalUnitCount":0},"operatingCapacityMw":145.0,"operatingCapacityMwByTechnology":{"gas":145.0},"plannedCapacityCoverage":{"coveragePercent":0.0,"knownUnitCount":0,"method":"unavailable","totalUnitCount":0},"plannedCapacityMw":0.0,"plannedCapacityMwByTechnology":{},"recordCount":1,"recordIds":["wattlas-record-osm-way-363126797"],"sourceIds":["openstreetmap-power"],"technologies":["gas"],"technologyMixMw":{"gas":145.0},"unitCount":0,"unitIds":[]},"type":"Feature"},{"geometry":{"coordinates":[32.006248,-25.467088],"type":"Point"},"id":"wattlas-plant-wikidata-q56364339","properties":{"aliases":["Central Térmica de Ressano Garcia"],"canonicalAnchor":"wikidata:Q56364339","canonicalCountryKey":"MZ","capacityMw":175.0,"country":"MZ","externalIds":{"osm":"way/666435758","wikidata":"Q56364339"},"geographyId":"MZ-27363107B47421408423272","id":"wattlas-plant-wikidata-q56364339","idAliases":["wattlas-plant-osm-way-666435758"],"lifecycleCounts":{"operational":1},"locationPrecision":"exact","name":"Central Térmica de Ressano Garcia","operatingCapacityCoverage":{"coveragePercent":100.0,"knownUnitCount":0,"method":"plant_aggregate","provenance":{"evidenceCount":0,"recordIds":["wattlas-record-osm-way-666435758"],"sourceIds":["openstreetmap-power"],"sourceTypes":["community_mapped"],"valueKind":"reported"},"totalUnitCount":0},"operatingCapacityMw":175.0,"operatingCapacityMwByTechnology":{"gas":175.0},"plannedCapacityCoverage":{"coveragePercent":0.0,"knownUnitCount":0,"method":"unavailable","totalUnitCount":0},"plannedCapacityMw":0.0,"plannedCapacityMwByTechnology":{},"recordCount":1,"recordIds":["wattlas-record-osm-way-666435758"],"sourceIds":["openstreetmap-power"],"technologies":["gas"],"technologyMixMw":{"gas":175.0},"unitCount":0,"unitIds":[]},"type":"Feature"},{"geometry":{"coordinates":[32.006595,-25.461849],"type":"Point"},"id":"wattlas-plant-wikidata-q56364347","properties":{"aliases":["Central Gigawatt"],"canonicalAnchor":"wikidata:Q56364347","canonicalCountryKey":"MZ","capacityMw":120.0,"country":"MZ","externalIds":{"osm":"way/856177097","wikidata":"Q56364347"},"geographyId":"MZ-27363107B47421408423272","id":"wattlas-plant-wikidata-q56364347","idAliases":["wattlas-plant-osm-way-856177097"],"lifecycleCounts":{"operational":1},"locationPrecision":"exact","name":"Central Gigawatt","operatingCapacityCoverage":{"coveragePercent":100.0,"knownUnitCount":0,"method":"plant_aggregate","provenance":{"evidenceCount":0,"recordIds":["wattlas-record-osm-way-856177097"],"sourceIds":["openstreetmap-power"],"sourceTypes":["community_mapped"],"valueKind":"reported"},"totalUnitCount":0},"operatingCapacityMw":120.0,"operatingCapacityMwByTechnology":{"gas":120.0},"plannedCapacityCoverage":{"coveragePercent":0.0,"knownUnitCount":0,"method":"unavailable","totalUnitCount":0},"plannedCapacityMw":0.0,"plannedCapacityMwByTechnology":{},"recordCount":1,"recordIds":["wattlas-record-osm-way-856177097"],"sourceIds":["openstreetmap-power"],"technologies":["gas"],"technologyMixMw":{"gas":120.0},"unitCount":0,"unitIds":[]},"type":"Feature"},{"geometry":{"coordinates":[33.509655,-19.545781],"type":"Point"},"id":"wattlas-plant-wikidata-q56364428","properties":{"aliases":["Central hidroeléctrica de Mavuzi"],"canonicalAnchor":"wikidata:Q56364428","canonicalCountryKey":"MZ","capacityMw":52.0,"country":"MZ","externalIds":{"osm":"way/389993910","wikidata":"Q56364428"},"geographyId":"MZ-27363107B35306436132920","id":"wattlas-plant-wikidata-q56364428","idAliases":["wattlas-plant-osm-way-389993910"],"lifecycleCounts":{"operational":1},"locationPrecision":"exact","name":"Central hidroeléctrica de Mavuzi","operatingCapacityCoverage":{"coveragePercent":100.0,"knownUnitCount":0,"method":"plant_aggregate","provenance":{"evidenceCount":0,"recordIds":["wattlas-record-osm-way-389993910"],"sourceIds":["openstreetmap-power"],"sourceTypes":["community_mapped"],"valueKind":"reported"},"totalUnitCount":0},"operatingCapacityMw":52.0,"operatingCapacityMwByTechnology":{"hydro":52.0},"plannedCapacityCoverage":{"coveragePercent":0.0,"knownUnitCount":0,"method":"unavailable","totalUnitCount":0},"plannedCapacityMw":0.0,"plannedCapacityMwByTechnology":{},"recordCount":1,"recordIds":["wattlas-record-osm-way-389993910"],"sourceIds":["openstreetmap-power"],"technologies":["hydro"],"technologyMixMw":{"hydro":52.0},"unitCount":0,"unitIds":[]},"type":"Feature"}],"type":"FeatureCollection"}