{"features":[{"geometry":{"coordinates":[17.078692,-22.511626],"type":"Point"},"id":"wattlas-plant-gemplant-l100000103085","properties":{"aliases":["Unit 1","Unit 2","Unit 3","Unit 4","Van Eck power station"],"canonicalAnchor":"gemplant:L100000103085","canonicalCountryKey":"NA","capacityMw":120.0,"country":"NA","externalIdAliases":{"gemUnit":["G100000110548","G100000110549","G100000110550","G100000110551"]},"externalIds":{"gemPlant":"L100000103085","gemUnit":"G100000110551"},"geographyId":"NA-33880854B65893852220593","id":"wattlas-plant-gemplant-l100000103085","lifecycleCounts":{"operational":4},"locationPrecision":"exact","name":"Van Eck power station","operatingCapacityCoverage":{"coveragePercent":100.0,"knownUnitCount":4,"method":"complete_unit_sum","provenance":{"evidenceCount":0,"recordIds":["wattlas-record-gemunit-g100000110548","wattlas-record-gemunit-g100000110549","wattlas-record-gemunit-g100000110550","wattlas-record-gemunit-g100000110551"],"sourceIds":["gem-global-integrated-power-tracker"],"sourceTypes":["research_verified"],"valueKind":"reported"},"totalUnitCount":4},"operatingCapacityMw":120.0,"operatingCapacityMwByTechnology":{"coal":120.0},"plannedCapacityCoverage":{"coveragePercent":0.0,"knownUnitCount":0,"method":"unavailable","totalUnitCount":0},"plannedCapacityMw":0.0,"plannedCapacityMwByTechnology":{},"recordCount":4,"recordIds":["wattlas-record-gemunit-g100000110548","wattlas-record-gemunit-g100000110549","wattlas-record-gemunit-g100000110550","wattlas-record-gemunit-g100000110551"],"sourceIds":["gem-global-integrated-power-tracker"],"technologies":["coal"],"technologyMixMw":{"coal":120.0},"unitCount":4,"unitIds":["gem-unit-G100000110548","gem-unit-G100000110549","gem-unit-G100000110550","gem-unit-G100000110551"]},"type":"Feature"},{"geometry":{"coordinates":[14.964,-22.4301],"type":"Point"},"id":"wattlas-plant-gemplant-l100000800024","properties":{"aliases":["--","Arandis solar farm"],"canonicalAnchor":"gemplant:L100000800024","canonicalCountryKey":"NA","capacityMw":81.0,"country":"NA","externalIds":{"gemPlant":"L100000800024","gemUnit":"G100000800027"},"geographyId":"NA-33880854B21847191895972","id":"wattlas-plant-gemplant-l100000800024","lifecycleCounts":{"announced":1},"locationPrecision":"exact","name":"Arandis solar farm","operatingCapacityCoverage":{"coveragePercent":0.0,"knownUnitCount":0,"method":"unavailable","totalUnitCount":0},"operatingCapacityMw":0.0,"operatingCapacityMwByTechnology":{},"plannedCapacityCoverage":{"coveragePercent":100.0,"knownUnitCount":1,"method":"complete_unit_sum","provenance":{"evidenceCount":0,"recordIds":["wattlas-record-gemunit-g100000800027"],"sourceIds":["gem-global-integrated-power-tracker"],"sourceTypes":["research_verified"],"valueKind":"reported"},"totalUnitCount":1},"plannedCapacityMw":81.0,"plannedCapacityMwByTechnology":{"solar":81.0},"recordCount":1,"recordIds":["wattlas-record-gemunit-g100000800027"],"sourceIds":["gem-global-integrated-power-tracker"],"technologies":["solar"],"technologyMixMw":{"solar":81.0},"unitCount":1,"unitIds":["gem-unit-G100000800027"]},"type":"Feature"},{"geometry":{"coordinates":[18.0272,-23.6528],"type":"Point"},"id":"wattlas-plant-gemplant-l100000800207","properties":{"aliases":["--","Mariental solar farm"],"canonicalAnchor":"gemplant:L100000800207","canonicalCountryKey":"NA","capacityMw":46.0,"country":"NA","externalIds":{"gemPlant":"L100000800207","gemUnit":"G100000800252"},"geographyId":"NA-33880854B64734184432756","id":"wattlas-plant-gemplant-l100000800207","lifecycleCounts":{"operational":1},"locationPrecision":"exact","name":"Mariental solar farm","operatingCapacityCoverage":{"coveragePercent":100.0,"knownUnitCount":1,"method":"complete_unit_sum","provenance":{"evidenceCount":0,"recordIds":["wattlas-record-gemunit-g100000800252"],"sourceIds":["gem-global-integrated-power-tracker"],"sourceTypes":["research_verified"],"valueKind":"reported"},"totalUnitCount":1},"operatingCapacityMw":46.0,"operatingCapacityMwByTechnology":{"solar":46.0},"plannedCapacityCoverage":{"coveragePercent":0.0,"knownUnitCount":0,"method":"unavailable","totalUnitCount":0},"plannedCapacityMw":0.0,"plannedCapacityMwByTechnology":{},"recordCount":1,"recordIds":["wattlas-record-gemunit-g100000800252"],"sourceIds":["gem-global-integrated-power-tracker"],"technologies":["solar"],"technologyMixMw":{"solar":46.0},"unitCount":1,"unitIds":["gem-unit-G100000800252"]},"type":"Feature"},{"geometry":{"coordinates":[16.0207,-21.489],"type":"Point"},"id":"wattlas-plant-gemplant-l100000800256","properties":{"aliases":["--","Omburu solar farm"],"canonicalAnchor":"gemplant:L100000800256","canonicalCountryKey":"NA","capacityMw":20.0,"country":"NA","externalIds":{"gemPlant":"L100000800256","gemUnit":"G100000800308"},"geographyId":"NA-33880854B21847191895972","id":"wattlas-plant-gemplant-l100000800256","lifecycleCounts":{"operational":1},"locationPrecision":"exact","name":"Omburu solar farm","operatingCapacityCoverage":{"coveragePercent":100.0,"knownUnitCount":1,"method":"complete_unit_sum","provenance":{"evidenceCount":0,"recordIds":["wattlas-record-gemunit-g100000800308"],"sourceIds":["gem-global-integrated-power-tracker"],"sourceTypes":["research_verified"],"valueKind":"reported"},"totalUnitCount":1},"operatingCapacityMw":20.0,"operatingCapacityMwByTechnology":{"solar":20.0},"plannedCapacityCoverage":{"coveragePercent":0.0,"knownUnitCount":0,"method":"unavailable","totalUnitCount":0},"plannedCapacityMw":0.0,"plannedCapacityMwByTechnology":{},"recordCount":1,"recordIds":["wattlas-record-gemunit-g100000800308"],"sourceIds":["gem-global-integrated-power-tracker"],"technologies":["solar"],"technologyMixMw":{"solar":20.0},"unitCount":1,"unitIds":["gem-unit-G100000800308"]},"type":"Feature"},{"geometry":{"coordinates":[17.4648,-28.4213],"type":"Point"},"id":"wattlas-plant-gemplant-l100000827689","properties":{"aliases":["--","Aussenkehr solar project"],"canonicalAnchor":"gemplant:L100000827689","canonicalCountryKey":"NA","capacityMw":6.3,"country":"NA","externalIds":{"gemPlant":"L100000827689","gemUnit":"G100000831234"},"geographyId":"NA-33880854B69863127771221","id":"wattlas-plant-gemplant-l100000827689","lifecycleCounts":{"operational":1},"locationPrecision":"exact","name":"Aussenkehr solar project","operatingCapacityCoverage":{"coveragePercent":100.0,"knownUnitCount":1,"method":"complete_unit_sum","provenance":{"evidenceCount":0,"recordIds":["wattlas-record-gemunit-g100000831234"],"sourceIds":["gem-global-integrated-power-tracker"],"sourceTypes":["research_verified"],"valueKind":"reported"},"totalUnitCount":1},"operatingCapacityMw":6.3,"operatingCapacityMwByTechnology":{"solar":6.3},"plannedCapacityCoverage":{"coveragePercent":0.0,"knownUnitCount":0,"method":"unavailable","totalUnitCount":0},"plannedCapacityMw":0.0,"plannedCapacityMwByTechnology":{},"recordCount":1,"recordIds":["wattlas-record-gemunit-g100000831234"],"sourceIds":["gem-global-integrated-power-tracker"],"technologies":["solar"],"technologyMixMw":{"solar":6.3},"unitCount":1,"unitIds":["gem-unit-G100000831234"]},"type":"Feature"},{"geometry":{"coordinates":[18.1386,-26.5845],"type":"Point"},"id":"wattlas-plant-gemplant-l100000827691","properties":{"aliases":["--","Keetmanshoop solar project"],"canonicalAnchor":"gemplant:L100000827691","canonicalCountryKey":"NA","capacityMw":6.0,"country":"NA","externalIds":{"gemPlant":"L100000827691","gemUnit":"G100000831237"},"geographyId":"NA-33880854B69863127771221","id":"wattlas-plant-gemplant-l100000827691","lifecycleCounts":{"operational":1},"locationPrecision":"exact","name":"Keetmanshoop solar project","operatingCapacityCoverage":{"coveragePercent":100.0,"knownUnitCount":1,"method":"complete_unit_sum","provenance":{"evidenceCount":0,"recordIds":["wattlas-record-gemunit-g100000831237"],"sourceIds":["gem-global-integrated-power-tracker"],"sourceTypes":["research_verified"],"valueKind":"reported"},"totalUnitCount":1},"operatingCapacityMw":6.0,"operatingCapacityMwByTechnology":{"solar":6.0},"plannedCapacityCoverage":{"coveragePercent":0.0,"knownUnitCount":0,"method":"unavailable","totalUnitCount":0},"plannedCapacityMw":0.0,"plannedCapacityMwByTechnology":{},"recordCount":1,"recordIds":["wattlas-record-gemunit-g100000831237"],"sourceIds":["gem-global-integrated-power-tracker"],"technologies":["solar"],"technologyMixMw":{"solar":6.0},"unitCount":1,"unitIds":["gem-unit-G100000831237"]},"type":"Feature"},{"geometry":{"coordinates":[17.4493,-19.5209],"type":"Point"},"id":"wattlas-plant-gemplant-l100000827693","properties":{"aliases":["--","Ohorongo solar project"],"canonicalAnchor":"gemplant:L100000827693","canonicalCountryKey":"NA","capacityMw":6.6,"country":"NA","externalIds":{"gemPlant":"L100000827693","gemUnit":"G100000831239"},"geographyId":"NA-33880854B88782591640533","id":"wattlas-plant-gemplant-l100000827693","lifecycleCounts":{"operational":1},"locationPrecision":"exact","name":"Ohorongo solar project","operatingCapacityCoverage":{"coveragePercent":100.0,"knownUnitCount":1,"method":"complete_unit_sum","provenance":{"evidenceCount":0,"recordIds":["wattlas-record-gemunit-g100000831239"],"sourceIds":["gem-global-integrated-power-tracker"],"sourceTypes":["research_verified"],"valueKind":"reported"},"totalUnitCount":1},"operatingCapacityMw":6.6,"operatingCapacityMwByTechnology":{"solar":6.6},"plannedCapacityCoverage":{"coveragePercent":0.0,"knownUnitCount":0,"method":"unavailable","totalUnitCount":0},"plannedCapacityMw":0.0,"plannedCapacityMwByTechnology":{},"recordCount":1,"recordIds":["wattlas-record-gemunit-g100000831239"],"sourceIds":["gem-global-integrated-power-tracker"],"technologies":["solar"],"technologyMixMw":{"solar":6.6},"unitCount":1,"unitIds":["gem-unit-G100000831239"]},"type":"Feature"},{"geometry":{"coordinates":[17.0904,-20.0005],"type":"Point"},"id":"wattlas-plant-gemplant-l100000827694-c6ef757297","properties":{"aliases":["1.0","Otjikoto solar project"],"canonicalAnchor":"gemplant:L100000827694","canonicalCountryKey":"NA","capacityMw":5.8,"country":"NA","externalIds":{"gemPlant":"L100000827694","gemUnit":"G100000831240"},"geographyId":"NA-33880854B88782591640533","id":"wattlas-plant-gemplant-l100000827694-c6ef757297","lifecycleCounts":{"operational":1},"locationPrecision":"exact","name":"Otjikoto solar project","operatingCapacityCoverage":{"coveragePercent":100.0,"knownUnitCount":1,"method":"complete_unit_sum","provenance":{"evidenceCount":0,"recordIds":["wattlas-record-gemunit-g100000831240"],"sourceIds":["gem-global-integrated-power-tracker"],"sourceTypes":["research_verified"],"valueKind":"reported"},"totalUnitCount":1},"operatingCapacityMw":5.8,"operatingCapacityMwByTechnology":{"solar":5.8},"plannedCapacityCoverage":{"coveragePercent":0.0,"knownUnitCount":0,"method":"unavailable","totalUnitCount":0},"plannedCapacityMw":0.0,"plannedCapacityMwByTechnology":{},"recordCount":1,"recordIds":["wattlas-record-gemunit-g100000831240"],"sourceIds":["gem-global-integrated-power-tracker"],"technologies":["solar"],"technologyMixMw":{"solar":5.8},"unitCount":1,"unitIds":["gem-unit-G100000831240"]},"type":"Feature"},{"geometry":{"coordinates":[16.6253,-20.4465],"type":"Point"},"id":"wattlas-plant-gemplant-l100000827695","properties":{"aliases":["--","Otjiwarongo solar project"],"canonicalAnchor":"gemplant:L100000827695","canonicalCountryKey":"NA","capacityMw":6.7,"country":"NA","externalIds":{"gemPlant":"L100000827695","gemUnit":"G100000831241"},"geographyId":"NA-33880854B88782591640533","id":"wattlas-plant-gemplant-l100000827695","lifecycleCounts":{"operational":1},"locationPrecision":"exact","name":"Otjiwarongo solar project","operatingCapacityCoverage":{"coveragePercent":100.0,"knownUnitCount":1,"method":"complete_unit_sum","provenance":{"evidenceCount":0,"recordIds":["wattlas-record-gemunit-g100000831241"],"sourceIds":["gem-global-integrated-power-tracker"],"sourceTypes":["research_verified"],"valueKind":"reported"},"totalUnitCount":1},"operatingCapacityMw":6.7,"operatingCapacityMwByTechnology":{"solar":6.7},"plannedCapacityCoverage":{"coveragePercent":0.0,"knownUnitCount":0,"method":"unavailable","totalUnitCount":0},"plannedCapacityMw":0.0,"plannedCapacityMwByTechnology":{},"recordCount":1,"recordIds":["wattlas-record-gemunit-g100000831241"],"sourceIds":["gem-global-integrated-power-tracker"],"technologies":["solar"],"technologyMixMw":{"solar":6.7},"unitCount":1,"unitIds":["gem-unit-G100000831241"]},"type":"Feature"},{"geometry":{"coordinates":[16.7836,-27.9626],"type":"Point"},"id":"wattlas-plant-gemplant-l100000827697","properties":{"aliases":["--","Rosh Pinah solar project"],"canonicalAnchor":"gemplant:L100000827697","canonicalCountryKey":"NA","capacityMw":5.7,"country":"NA","externalIds":{"gemPlant":"L100000827697","gemUnit":"G100000831243"},"geographyId":"NA-33880854B69863127771221","id":"wattlas-plant-gemplant-l100000827697","lifecycleCounts":{"operational":1},"locationPrecision":"exact","name":"Rosh Pinah solar project","operatingCapacityCoverage":{"coveragePercent":100.0,"knownUnitCount":1,"method":"complete_unit_sum","provenance":{"evidenceCount":0,"recordIds":["wattlas-record-gemunit-g100000831243"],"sourceIds":["gem-global-integrated-power-tracker"],"sourceTypes":["research_verified"],"valueKind":"reported"},"totalUnitCount":1},"operatingCapacityMw":5.7,"operatingCapacityMwByTechnology":{"solar":5.7},"plannedCapacityCoverage":{"coveragePercent":0.0,"knownUnitCount":0,"method":"unavailable","totalUnitCount":0},"plannedCapacityMw":0.0,"plannedCapacityMwByTechnology":{},"recordCount":1,"recordIds":["wattlas-record-gemunit-g100000831243"],"sourceIds":["gem-global-integrated-power-tracker"],"technologies":["solar"],"technologyMixMw":{"solar":5.7},"unitCount":1,"unitIds":["gem-unit-G100000831243"]},"type":"Feature"},{"geometry":{"coordinates":[14.8075,-22.1569],"type":"Point"},"id":"wattlas-plant-gemplant-l100000827698","properties":{"aliases":["--","Trekkopje solar project"],"canonicalAnchor":"gemplant:L100000827698","canonicalCountryKey":"NA","capacityMw":5.8,"country":"NA","externalIds":{"gemPlant":"L100000827698","gemUnit":"G100000831244"},"geographyId":"NA-33880854B21847191895972","id":"wattlas-plant-gemplant-l100000827698","lifecycleCounts":{"operational":1},"locationPrecision":"exact","name":"Trekkopje solar project","operatingCapacityCoverage":{"coveragePercent":100.0,"knownUnitCount":1,"method":"complete_unit_sum","provenance":{"evidenceCount":0,"recordIds":["wattlas-record-gemunit-g100000831244"],"sourceIds":["gem-global-integrated-power-tracker"],"sourceTypes":["research_verified"],"valueKind":"reported"},"totalUnitCount":1},"operatingCapacityMw":5.8,"operatingCapacityMwByTechnology":{"solar":5.8},"plannedCapacityCoverage":{"coveragePercent":0.0,"knownUnitCount":0,"method":"unavailable","totalUnitCount":0},"plannedCapacityMw":0.0,"plannedCapacityMwByTechnology":{},"recordCount":1,"recordIds":["wattlas-record-gemunit-g100000831244"],"sourceIds":["gem-global-integrated-power-tracker"],"technologies":["solar"],"technologyMixMw":{"solar":5.8},"unitCount":1,"unitIds":["gem-unit-G100000831244"]},"type":"Feature"},{"geometry":{"coordinates":[16.4036,-27.4026],"type":"Point"},"id":"wattlas-plant-gemplant-l100000900104","properties":{"aliases":["--","Rosh Pinah wind farm"],"canonicalAnchor":"gemplant:L100000900104","canonicalCountryKey":"NA","capacityMw":0.0,"country":"NA","externalIds":{"gemPlant":"L100000900104","gemUnit":"G100000900137"},"geographyId":"NA-33880854B69863127771221","id":"wattlas-plant-gemplant-l100000900104","lifecycleCounts":{"cancelled":1},"locationPrecision":"exact","name":"Rosh Pinah wind farm","operatingCapacityCoverage":{"coveragePercent":0.0,"knownUnitCount":0,"method":"unavailable","totalUnitCount":0},"operatingCapacityMw":0.0,"operatingCapacityMwByTechnology":{},"plannedCapacityCoverage":{"coveragePercent":0.0,"knownUnitCount":0,"method":"unavailable","totalUnitCount":0},"plannedCapacityMw":0.0,"plannedCapacityMwByTechnology":{},"recordCount":1,"recordIds":["wattlas-record-gemunit-g100000900137"],"sourceIds":["gem-global-integrated-power-tracker"],"technologies":["wind"],"technologyMixMw":{"wind":0.0},"unitCount":1,"unitIds":["gem-unit-G100000900137"]},"type":"Feature"},{"geometry":{"coordinates":[14.1617,-21.089],"type":"Point"},"id":"wattlas-plant-gemplant-l100001018489","properties":{"aliases":["--","Daures Green Hydrogen Village solar farm"],"canonicalAnchor":"gemplant:L100001018489","canonicalCountryKey":"NA","capacityMw":3500.0,"country":"NA","externalIds":{"gemPlant":"L100001018489","gemUnit":"G100001020643"},"geographyId":"NA-33880854B21847191895972","id":"wattlas-plant-gemplant-l100001018489","lifecycleCounts":{"under_construction":1},"locationPrecision":"exact","name":"Daures Green Hydrogen Village solar farm","operatingCapacityCoverage":{"coveragePercent":0.0,"knownUnitCount":0,"method":"unavailable","totalUnitCount":0},"operatingCapacityMw":0.0,"operatingCapacityMwByTechnology":{},"plannedCapacityCoverage":{"coveragePercent":100.0,"knownUnitCount":1,"method":"complete_unit_sum","provenance":{"evidenceCount":0,"recordIds":["wattlas-record-gemunit-g100001020643"],"sourceIds":["gem-global-integrated-power-tracker"],"sourceTypes":["research_verified"],"valueKind":"reported"},"totalUnitCount":1},"plannedCapacityMw":3500.0,"plannedCapacityMwByTechnology":{"solar":3500.0},"recordCount":1,"recordIds":["wattlas-record-gemunit-g100001020643"],"sourceIds":["gem-global-integrated-power-tracker"],"technologies":["solar"],"technologyMixMw":{"solar":3500.0},"unitCount":1,"unitIds":["gem-unit-G100001020643"]},"type":"Feature"},{"geometry":{"coordinates":[18.9705,-22.4365],"type":"Point"},"id":"wattlas-plant-gemplant-l100001020912","properties":{"aliases":["1.0","2.0","Omaheke solar project"],"canonicalAnchor":"gemplant:L100001020912","canonicalCountryKey":"NA","capacityMw":12.0,"country":"NA","externalIdAliases":{"gemUnit":["G100001023881","G100001072783"]},"externalIds":{"gemPlant":"L100001020912","gemUnit":"G100001072783"},"geographyId":"NA-33880854B27729008722613","id":"wattlas-plant-gemplant-l100001020912","lifecycleCounts":{"operational":2},"locationPrecision":"exact","name":"Omaheke solar project","operatingCapacityCoverage":{"coveragePercent":100.0,"knownUnitCount":2,"method":"complete_unit_sum","provenance":{"evidenceCount":0,"recordIds":["wattlas-record-gemunit-g100001023881","wattlas-record-gemunit-g100001072783"],"sourceIds":["gem-global-integrated-power-tracker"],"sourceTypes":["research_verified"],"valueKind":"reported"},"totalUnitCount":2},"operatingCapacityMw":12.0,"operatingCapacityMwByTechnology":{"solar":12.0},"plannedCapacityCoverage":{"coveragePercent":0.0,"knownUnitCount":0,"method":"unavailable","totalUnitCount":0},"plannedCapacityMw":0.0,"plannedCapacityMwByTechnology":{},"recordCount":2,"recordIds":["wattlas-record-gemunit-g100001023881","wattlas-record-gemunit-g100001072783"],"sourceIds":["gem-global-integrated-power-tracker"],"technologies":["solar"],"technologyMixMw":{"solar":12.0},"unitCount":2,"unitIds":["gem-unit-G100001023881","gem-unit-G100001072783"]},"type":"Feature"},{"geometry":{"coordinates":[15.0036,-17.5173],"type":"Point"},"id":"wattlas-plant-gemplant-l100001020913","properties":{"aliases":["--","Omusati solar project"],"canonicalAnchor":"gemplant:L100001020913","canonicalCountryKey":"NA","capacityMw":6.5,"country":"NA","externalIds":{"gemPlant":"L100001020913","gemUnit":"G100001023882"},"geographyId":"NA-33880854B39435403846115","id":"wattlas-plant-gemplant-l100001020913","lifecycleCounts":{"operational":1},"locationPrecision":"exact","name":"Omusati solar project","operatingCapacityCoverage":{"coveragePercent":100.0,"knownUnitCount":1,"method":"complete_unit_sum","provenance":{"evidenceCount":0,"recordIds":["wattlas-record-gemunit-g100001023882"],"sourceIds":["gem-global-integrated-power-tracker"],"sourceTypes":["research_verified"],"valueKind":"reported"},"totalUnitCount":1},"operatingCapacityMw":6.5,"operatingCapacityMwByTechnology":{"solar":6.5},"plannedCapacityCoverage":{"coveragePercent":0.0,"knownUnitCount":0,"method":"unavailable","totalUnitCount":0},"plannedCapacityMw":0.0,"plannedCapacityMwByTechnology":{},"recordCount":1,"recordIds":["wattlas-record-gemunit-g100001023882"],"sourceIds":["gem-global-integrated-power-tracker"],"technologies":["solar"],"technologyMixMw":{"solar":6.5},"unitCount":1,"unitIds":["gem-unit-G100001023882"]},"type":"Feature"},{"geometry":{"coordinates":[18.284,-26.4169],"type":"Point"},"id":"wattlas-plant-gemplant-l100001020914","properties":{"aliases":["--","Karas solar project I"],"canonicalAnchor":"gemplant:L100001020914","canonicalCountryKey":"NA","capacityMw":12.6,"country":"NA","externalIds":{"gemPlant":"L100001020914","gemUnit":"G100001023883"},"geographyId":"NA-33880854B69863127771221","id":"wattlas-plant-gemplant-l100001020914","lifecycleCounts":{"operational":1},"locationPrecision":"exact","name":"Karas solar project I","operatingCapacityCoverage":{"coveragePercent":100.0,"knownUnitCount":1,"method":"complete_unit_sum","provenance":{"evidenceCount":0,"recordIds":["wattlas-record-gemunit-g100001023883"],"sourceIds":["gem-global-integrated-power-tracker"],"sourceTypes":["research_verified"],"valueKind":"reported"},"totalUnitCount":1},"operatingCapacityMw":12.6,"operatingCapacityMwByTechnology":{"solar":12.6},"plannedCapacityCoverage":{"coveragePercent":0.0,"knownUnitCount":0,"method":"unavailable","totalUnitCount":0},"plannedCapacityMw":0.0,"plannedCapacityMwByTechnology":{},"recordCount":1,"recordIds":["wattlas-record-gemunit-g100001023883"],"sourceIds":["gem-global-integrated-power-tracker"],"technologies":["solar"],"technologyMixMw":{"solar":12.6},"unitCount":1,"unitIds":["gem-unit-G100001023883"]},"type":"Feature"},{"geometry":{"coordinates":[16.7914,-22.1023],"type":"Point"},"id":"wattlas-plant-gemplant-l100001020915","properties":{"aliases":["--","Otjozondjupa solar project I"],"canonicalAnchor":"gemplant:L100001020915","canonicalCountryKey":"NA","capacityMw":5.6,"country":"NA","externalIds":{"gemPlant":"L100001020915","gemUnit":"G100001023884"},"geographyId":"NA-33880854B88782591640533","id":"wattlas-plant-gemplant-l100001020915","lifecycleCounts":{"operational":1},"locationPrecision":"exact","name":"Otjozondjupa solar project I","operatingCapacityCoverage":{"coveragePercent":100.0,"knownUnitCount":1,"method":"complete_unit_sum","provenance":{"evidenceCount":0,"recordIds":["wattlas-record-gemunit-g100001023884"],"sourceIds":["gem-global-integrated-power-tracker"],"sourceTypes":["research_verified"],"valueKind":"reported"},"totalUnitCount":1},"operatingCapacityMw":5.6,"operatingCapacityMwByTechnology":{"solar":5.6},"plannedCapacityCoverage":{"coveragePercent":0.0,"knownUnitCount":0,"method":"unavailable","totalUnitCount":0},"plannedCapacityMw":0.0,"plannedCapacityMwByTechnology":{},"recordCount":1,"recordIds":["wattlas-record-gemunit-g100001023884"],"sourceIds":["gem-global-integrated-power-tracker"],"technologies":["solar"],"technologyMixMw":{"solar":5.6},"unitCount":1,"unitIds":["gem-unit-G100001023884"]},"type":"Feature"},{"geometry":{"coordinates":[15.839,-21.9486],"type":"Point"},"id":"wattlas-plant-gemplant-l100001020916","properties":{"aliases":["--","Erongo Region solar project I"],"canonicalAnchor":"gemplant:L100001020916","canonicalCountryKey":"NA","capacityMw":5.3,"country":"NA","externalIds":{"gemPlant":"L100001020916","gemUnit":"G100001023885"},"geographyId":"NA-33880854B21847191895972","id":"wattlas-plant-gemplant-l100001020916","lifecycleCounts":{"operational":1},"locationPrecision":"exact","name":"Erongo Region solar project I","operatingCapacityCoverage":{"coveragePercent":100.0,"knownUnitCount":1,"method":"complete_unit_sum","provenance":{"evidenceCount":0,"recordIds":["wattlas-record-gemunit-g100001023885"],"sourceIds":["gem-global-integrated-power-tracker"],"sourceTypes":["research_verified"],"valueKind":"reported"},"totalUnitCount":1},"operatingCapacityMw":5.3,"operatingCapacityMwByTechnology":{"solar":5.3},"plannedCapacityCoverage":{"coveragePercent":0.0,"knownUnitCount":0,"method":"unavailable","totalUnitCount":0},"plannedCapacityMw":0.0,"plannedCapacityMwByTechnology":{},"recordCount":1,"recordIds":["wattlas-record-gemunit-g100001023885"],"sourceIds":["gem-global-integrated-power-tracker"],"technologies":["solar"],"technologyMixMw":{"solar":5.3},"unitCount":1,"unitIds":["gem-unit-G100001023885"]},"type":"Feature"},{"geometry":{"coordinates":[18.1167,-19.5563],"type":"Point"},"id":"wattlas-plant-gemplant-l100001020917","properties":{"aliases":["--","Otjozondjupa solar project II"],"canonicalAnchor":"gemplant:L100001020917","canonicalCountryKey":"NA","capacityMw":5.7,"country":"NA","externalIds":{"gemPlant":"L100001020917","gemUnit":"G100001023886"},"geographyId":"NA-33880854B88782591640533","id":"wattlas-plant-gemplant-l100001020917","lifecycleCounts":{"operational":1},"locationPrecision":"exact","name":"Otjozondjupa solar project II","operatingCapacityCoverage":{"coveragePercent":100.0,"knownUnitCount":1,"method":"complete_unit_sum","provenance":{"evidenceCount":0,"recordIds":["wattlas-record-gemunit-g100001023886"],"sourceIds":["gem-global-integrated-power-tracker"],"sourceTypes":["research_verified"],"valueKind":"reported"},"totalUnitCount":1},"operatingCapacityMw":5.7,"operatingCapacityMwByTechnology":{"solar":5.7},"plannedCapacityCoverage":{"coveragePercent":0.0,"knownUnitCount":0,"method":"unavailable","totalUnitCount":0},"plannedCapacityMw":0.0,"plannedCapacityMwByTechnology":{},"recordCount":1,"recordIds":["wattlas-record-gemunit-g100001023886"],"sourceIds":["gem-global-integrated-power-tracker"],"technologies":["solar"],"technologyMixMw":{"solar":5.7},"unitCount":1,"unitIds":["gem-unit-G100001023886"]},"type":"Feature"},{"geometry":{"coordinates":[17.1187,-19.9939],"type":"Point"},"id":"wattlas-plant-gemplant-l100001020918","properties":{"aliases":["--","Otjozondjupa solar project III"],"canonicalAnchor":"gemplant:L100001020918","canonicalCountryKey":"NA","capacityMw":12.4,"country":"NA","externalIds":{"gemPlant":"L100001020918","gemUnit":"G100001023887"},"geographyId":"NA-33880854B88782591640533","id":"wattlas-plant-gemplant-l100001020918","lifecycleCounts":{"operational":1},"locationPrecision":"exact","name":"Otjozondjupa solar project III","operatingCapacityCoverage":{"coveragePercent":100.0,"knownUnitCount":1,"method":"complete_unit_sum","provenance":{"evidenceCount":0,"recordIds":["wattlas-record-gemunit-g100001023887"],"sourceIds":["gem-global-integrated-power-tracker"],"sourceTypes":["research_verified"],"valueKind":"reported"},"totalUnitCount":1},"operatingCapacityMw":12.4,"operatingCapacityMwByTechnology":{"solar":12.4},"plannedCapacityCoverage":{"coveragePercent":0.0,"knownUnitCount":0,"method":"unavailable","totalUnitCount":0},"plannedCapacityMw":0.0,"plannedCapacityMwByTechnology":{},"recordCount":1,"recordIds":["wattlas-record-gemunit-g100001023887"],"sourceIds":["gem-global-integrated-power-tracker"],"technologies":["solar"],"technologyMixMw":{"solar":12.4},"unitCount":1,"unitIds":["gem-unit-G100001023887"]},"type":"Feature"},{"geometry":{"coordinates":[16.0302,-21.4865],"type":"Point"},"id":"wattlas-plant-gemplant-l100001020919","properties":{"aliases":["--","Erongo Region solar project III"],"canonicalAnchor":"gemplant:L100001020919","canonicalCountryKey":"NA","capacityMw":5.2,"country":"NA","externalIds":{"gemPlant":"L100001020919","gemUnit":"G100001023888"},"geographyId":"NA-33880854B21847191895972","id":"wattlas-plant-gemplant-l100001020919","lifecycleCounts":{"operational":1},"locationPrecision":"exact","name":"Erongo Region solar project III","operatingCapacityCoverage":{"coveragePercent":100.0,"knownUnitCount":1,"method":"complete_unit_sum","provenance":{"evidenceCount":0,"recordIds":["wattlas-record-gemunit-g100001023888"],"sourceIds":["gem-global-integrated-power-tracker"],"sourceTypes":["research_verified"],"valueKind":"reported"},"totalUnitCount":1},"operatingCapacityMw":5.2,"operatingCapacityMwByTechnology":{"solar":5.2},"plannedCapacityCoverage":{"coveragePercent":0.0,"knownUnitCount":0,"method":"unavailable","totalUnitCount":0},"plannedCapacityMw":0.0,"plannedCapacityMwByTechnology":{},"recordCount":1,"recordIds":["wattlas-record-gemunit-g100001023888"],"sourceIds":["gem-global-integrated-power-tracker"],"technologies":["solar"],"technologyMixMw":{"solar":5.2},"unitCount":1,"unitIds":["gem-unit-G100001023888"]},"type":"Feature"},{"geometry":{"coordinates":[16.2813,-18.0934],"type":"Point"},"id":"wattlas-plant-gemplant-l100001020920","properties":{"aliases":["--","Oshikoto solar project I"],"canonicalAnchor":"gemplant:L100001020920","canonicalCountryKey":"NA","capacityMw":5.7,"country":"NA","externalIds":{"gemPlant":"L100001020920","gemUnit":"G100001023889"},"geographyId":"NA-33880854B4413577706595","id":"wattlas-plant-gemplant-l100001020920","lifecycleCounts":{"operational":1},"locationPrecision":"exact","name":"Oshikoto solar project I","operatingCapacityCoverage":{"coveragePercent":100.0,"knownUnitCount":1,"method":"complete_unit_sum","provenance":{"evidenceCount":0,"recordIds":["wattlas-record-gemunit-g100001023889"],"sourceIds":["gem-global-integrated-power-tracker"],"sourceTypes":["research_verified"],"valueKind":"reported"},"totalUnitCount":1},"operatingCapacityMw":5.7,"operatingCapacityMwByTechnology":{"solar":5.7},"plannedCapacityCoverage":{"coveragePercent":0.0,"knownUnitCount":0,"method":"unavailable","totalUnitCount":0},"plannedCapacityMw":0.0,"plannedCapacityMwByTechnology":{},"recordCount":1,"recordIds":["wattlas-record-gemunit-g100001023889"],"sourceIds":["gem-global-integrated-power-tracker"],"technologies":["solar"],"technologyMixMw":{"solar":5.7},"unitCount":1,"unitIds":["gem-unit-G100001023889"]},"type":"Feature"},{"geometry":{"coordinates":[16.2949,-18.109],"type":"Point"},"id":"wattlas-plant-gemplant-l100001020921","properties":{"aliases":["1.0","2.0","Oshikoto solar project II"],"canonicalAnchor":"gemplant:L100001020921","canonicalCountryKey":"NA","capacityMw":11.4,"country":"NA","externalIdAliases":{"gemUnit":["G100001023890","G100001072784"]},"externalIds":{"gemPlant":"L100001020921","gemUnit":"G100001072784"},"geographyId":"NA-33880854B4413577706595","id":"wattlas-plant-gemplant-l100001020921","lifecycleCounts":{"operational":2},"locationPrecision":"exact","name":"Oshikoto solar project II","operatingCapacityCoverage":{"coveragePercent":100.0,"knownUnitCount":2,"method":"complete_unit_sum","provenance":{"evidenceCount":0,"recordIds":["wattlas-record-gemunit-g100001023890","wattlas-record-gemunit-g100001072784"],"sourceIds":["gem-global-integrated-power-tracker"],"sourceTypes":["research_verified"],"valueKind":"reported"},"totalUnitCount":2},"operatingCapacityMw":11.4,"operatingCapacityMwByTechnology":{"solar":11.4},"plannedCapacityCoverage":{"coveragePercent":0.0,"knownUnitCount":0,"method":"unavailable","totalUnitCount":0},"plannedCapacityMw":0.0,"plannedCapacityMwByTechnology":{},"recordCount":2,"recordIds":["wattlas-record-gemunit-g100001023890","wattlas-record-gemunit-g100001072784"],"sourceIds":["gem-global-integrated-power-tracker"],"technologies":["solar"],"technologyMixMw":{"solar":11.4},"unitCount":2,"unitIds":["gem-unit-G100001023890","gem-unit-G100001072784"]},"type":"Feature"},{"geometry":{"coordinates":[15.0128,-22.5906],"type":"Point"},"id":"wattlas-plant-gemplant-l100001020924","properties":{"aliases":["--","Erongo Region solar project V"],"canonicalAnchor":"gemplant:L100001020924","canonicalCountryKey":"NA","capacityMw":10.5,"country":"NA","externalIds":{"gemPlant":"L100001020924","gemUnit":"G100001023893"},"geographyId":"NA-33880854B21847191895972","id":"wattlas-plant-gemplant-l100001020924","lifecycleCounts":{"operational":1},"locationPrecision":"exact","name":"Erongo Region solar project V","operatingCapacityCoverage":{"coveragePercent":100.0,"knownUnitCount":1,"method":"complete_unit_sum","provenance":{"evidenceCount":0,"recordIds":["wattlas-record-gemunit-g100001023893"],"sourceIds":["gem-global-integrated-power-tracker"],"sourceTypes":["research_verified"],"valueKind":"reported"},"totalUnitCount":1},"operatingCapacityMw":10.5,"operatingCapacityMwByTechnology":{"solar":10.5},"plannedCapacityCoverage":{"coveragePercent":0.0,"knownUnitCount":0,"method":"unavailable","totalUnitCount":0},"plannedCapacityMw":0.0,"plannedCapacityMwByTechnology":{},"recordCount":1,"recordIds":["wattlas-record-gemunit-g100001023893"],"sourceIds":["gem-global-integrated-power-tracker"],"technologies":["solar"],"technologyMixMw":{"solar":10.5},"unitCount":1,"unitIds":["gem-unit-G100001023893"]},"type":"Feature"},{"geometry":{"coordinates":[18.0319,-24.6635],"type":"Point"},"id":"wattlas-plant-gemplant-l100001064836","properties":{"aliases":["--","Hardap solar project"],"canonicalAnchor":"gemplant:L100001064836","canonicalCountryKey":"NA","capacityMw":12.6,"country":"NA","externalIds":{"gemPlant":"L100001064836","gemUnit":"G100001074622"},"geographyId":"NA-33880854B64734184432756","id":"wattlas-plant-gemplant-l100001064836","lifecycleCounts":{"operational":1},"locationPrecision":"exact","name":"Hardap solar project","operatingCapacityCoverage":{"coveragePercent":100.0,"knownUnitCount":1,"method":"complete_unit_sum","provenance":{"evidenceCount":0,"recordIds":["wattlas-record-gemunit-g100001074622"],"sourceIds":["gem-global-integrated-power-tracker"],"sourceTypes":["research_verified"],"valueKind":"reported"},"totalUnitCount":1},"operatingCapacityMw":12.6,"operatingCapacityMwByTechnology":{"solar":12.6},"plannedCapacityCoverage":{"coveragePercent":0.0,"knownUnitCount":0,"method":"unavailable","totalUnitCount":0},"plannedCapacityMw":0.0,"plannedCapacityMwByTechnology":{},"recordCount":1,"recordIds":["wattlas-record-gemunit-g100001074622"],"sourceIds":["gem-global-integrated-power-tracker"],"technologies":["solar"],"technologyMixMw":{"solar":12.6},"unitCount":1,"unitIds":["gem-unit-G100001074622"]},"type":"Feature"},{"geometry":{"coordinates":[16.7887,-27.9656],"type":"Point"},"id":"wattlas-plant-gemplant-l100001064837","properties":{"aliases":["--","Aloe Investment solar project"],"canonicalAnchor":"gemplant:L100001064837","canonicalCountryKey":"NA","capacityMw":5.7,"country":"NA","externalIds":{"gemPlant":"L100001064837","gemUnit":"G100001074623"},"geographyId":"NA-33880854B69863127771221","id":"wattlas-plant-gemplant-l100001064837","lifecycleCounts":{"operational":1},"locationPrecision":"exact","name":"Aloe Investment solar project","operatingCapacityCoverage":{"coveragePercent":100.0,"knownUnitCount":1,"method":"complete_unit_sum","provenance":{"evidenceCount":0,"recordIds":["wattlas-record-gemunit-g100001074623"],"sourceIds":["gem-global-integrated-power-tracker"],"sourceTypes":["research_verified"],"valueKind":"reported"},"totalUnitCount":1},"operatingCapacityMw":5.7,"operatingCapacityMwByTechnology":{"solar":5.7},"plannedCapacityCoverage":{"coveragePercent":0.0,"knownUnitCount":0,"method":"unavailable","totalUnitCount":0},"plannedCapacityMw":0.0,"plannedCapacityMwByTechnology":{},"recordCount":1,"recordIds":["wattlas-record-gemunit-g100001074623"],"sourceIds":["gem-global-integrated-power-tracker"],"technologies":["solar"],"technologyMixMw":{"solar":5.7},"unitCount":1,"unitIds":["gem-unit-G100001074623"]},"type":"Feature"},{"geometry":{"coordinates":[14.9641,-22.4301],"type":"Point"},"id":"wattlas-plant-gemplant-l100001064838","properties":{"aliases":["--","OLC Arandis solar project"],"canonicalAnchor":"gemplant:L100001064838","canonicalCountryKey":"NA","capacityMw":3.8,"country":"NA","externalIds":{"gemPlant":"L100001064838","gemUnit":"G100001074624"},"geographyId":"NA-33880854B21847191895972","id":"wattlas-plant-gemplant-l100001064838","lifecycleCounts":{"operational":1},"locationPrecision":"exact","name":"OLC Arandis solar project","operatingCapacityCoverage":{"coveragePercent":100.0,"knownUnitCount":1,"method":"complete_unit_sum","provenance":{"evidenceCount":0,"recordIds":["wattlas-record-gemunit-g100001074624"],"sourceIds":["gem-global-integrated-power-tracker"],"sourceTypes":["research_verified"],"valueKind":"reported"},"totalUnitCount":1},"operatingCapacityMw":3.8,"operatingCapacityMwByTechnology":{"solar":3.8},"plannedCapacityCoverage":{"coveragePercent":0.0,"knownUnitCount":0,"method":"unavailable","totalUnitCount":0},"plannedCapacityMw":0.0,"plannedCapacityMwByTechnology":{},"recordCount":1,"recordIds":["wattlas-record-gemunit-g100001074624"],"sourceIds":["gem-global-integrated-power-tracker"],"technologies":["solar"],"technologyMixMw":{"solar":3.8},"unitCount":1,"unitIds":["gem-unit-G100001074624"]},"type":"Feature"},{"geometry":{"coordinates":[17.0424,-22.3177],"type":"Point"},"id":"wattlas-plant-gemplant-l100001064839","properties":{"aliases":["--","Namib Poultry Industries solar project"],"canonicalAnchor":"gemplant:L100001064839","canonicalCountryKey":"NA","capacityMw":3.1,"country":"NA","externalIds":{"gemPlant":"L100001064839","gemUnit":"G100001074625"},"geographyId":"NA-33880854B65893852220593","id":"wattlas-plant-gemplant-l100001064839","lifecycleCounts":{"operational":1},"locationPrecision":"exact","name":"Namib Poultry Industries solar project","operatingCapacityCoverage":{"coveragePercent":100.0,"knownUnitCount":1,"method":"complete_unit_sum","provenance":{"evidenceCount":0,"recordIds":["wattlas-record-gemunit-g100001074625"],"sourceIds":["gem-global-integrated-power-tracker"],"sourceTypes":["research_verified"],"valueKind":"reported"},"totalUnitCount":1},"operatingCapacityMw":3.1,"operatingCapacityMwByTechnology":{"solar":3.1},"plannedCapacityCoverage":{"coveragePercent":0.0,"knownUnitCount":0,"method":"unavailable","totalUnitCount":0},"plannedCapacityMw":0.0,"plannedCapacityMwByTechnology":{},"recordCount":1,"recordIds":["wattlas-record-gemunit-g100001074625"],"sourceIds":["gem-global-integrated-power-tracker"],"technologies":["solar"],"technologyMixMw":{"solar":3.1},"unitCount":1,"unitIds":["gem-unit-G100001074625"]},"type":"Feature"},{"geometry":{"coordinates":[17.0926,-22.6203],"type":"Point"},"id":"wattlas-plant-gemplant-l100001064840","properties":{"aliases":["--","Grove Mall solar project"],"canonicalAnchor":"gemplant:L100001064840","canonicalCountryKey":"NA","capacityMw":2.8,"country":"NA","externalIds":{"gemPlant":"L100001064840","gemUnit":"G100001074626"},"geographyId":"NA-33880854B65893852220593","id":"wattlas-plant-gemplant-l100001064840","lifecycleCounts":{"operational":1},"locationPrecision":"exact","name":"Grove Mall solar project","operatingCapacityCoverage":{"coveragePercent":100.0,"knownUnitCount":1,"method":"complete_unit_sum","provenance":{"evidenceCount":0,"recordIds":["wattlas-record-gemunit-g100001074626"],"sourceIds":["gem-global-integrated-power-tracker"],"sourceTypes":["research_verified"],"valueKind":"reported"},"totalUnitCount":1},"operatingCapacityMw":2.8,"operatingCapacityMwByTechnology":{"solar":2.8},"plannedCapacityCoverage":{"coveragePercent":0.0,"knownUnitCount":0,"method":"unavailable","totalUnitCount":0},"plannedCapacityMw":0.0,"plannedCapacityMwByTechnology":{},"recordCount":1,"recordIds":["wattlas-record-gemunit-g100001074626"],"sourceIds":["gem-global-integrated-power-tracker"],"technologies":["solar"],"technologyMixMw":{"solar":2.8},"unitCount":1,"unitIds":["gem-unit-G100001074626"]},"type":"Feature"},{"geometry":{"coordinates":[15.1633,-26.6333],"type":"Point"},"id":"wattlas-plant-gemplant-l100001064841","properties":{"aliases":["--","NovaNam solar project"],"canonicalAnchor":"gemplant:L100001064841","canonicalCountryKey":"NA","capacityMw":2.6,"country":"NA","externalIds":{"gemPlant":"L100001064841","gemUnit":"G100001074627"},"geographyId":"NA-33880854B69863127771221","id":"wattlas-plant-gemplant-l100001064841","lifecycleCounts":{"operational":1},"locationPrecision":"exact","name":"NovaNam solar project","operatingCapacityCoverage":{"coveragePercent":100.0,"knownUnitCount":1,"method":"complete_unit_sum","provenance":{"evidenceCount":0,"recordIds":["wattlas-record-gemunit-g100001074627"],"sourceIds":["gem-global-integrated-power-tracker"],"sourceTypes":["research_verified"],"valueKind":"reported"},"totalUnitCount":1},"operatingCapacityMw":2.6,"operatingCapacityMwByTechnology":{"solar":2.6},"plannedCapacityCoverage":{"coveragePercent":0.0,"knownUnitCount":0,"method":"unavailable","totalUnitCount":0},"plannedCapacityMw":0.0,"plannedCapacityMwByTechnology":{},"recordCount":1,"recordIds":["wattlas-record-gemunit-g100001074627"],"sourceIds":["gem-global-integrated-power-tracker"],"technologies":["solar"],"technologyMixMw":{"solar":2.6},"unitCount":1,"unitIds":["gem-unit-G100001074627"]},"type":"Feature"},{"geometry":{"coordinates":[17.0811,-22.568],"type":"Point"},"id":"wattlas-plant-gemplant-l100001064842","properties":{"aliases":["--","Wernhil Park solar project"],"canonicalAnchor":"gemplant:L100001064842","canonicalCountryKey":"NA","capacityMw":2.1,"country":"NA","externalIds":{"gemPlant":"L100001064842","gemUnit":"G100001074628"},"geographyId":"NA-33880854B65893852220593","id":"wattlas-plant-gemplant-l100001064842","lifecycleCounts":{"operational":1},"locationPrecision":"exact","name":"Wernhil Park solar project","operatingCapacityCoverage":{"coveragePercent":100.0,"knownUnitCount":1,"method":"complete_unit_sum","provenance":{"evidenceCount":0,"recordIds":["wattlas-record-gemunit-g100001074628"],"sourceIds":["gem-global-integrated-power-tracker"],"sourceTypes":["research_verified"],"valueKind":"reported"},"totalUnitCount":1},"operatingCapacityMw":2.1,"operatingCapacityMwByTechnology":{"solar":2.1},"plannedCapacityCoverage":{"coveragePercent":0.0,"knownUnitCount":0,"method":"unavailable","totalUnitCount":0},"plannedCapacityMw":0.0,"plannedCapacityMwByTechnology":{},"recordCount":1,"recordIds":["wattlas-record-gemunit-g100001074628"],"sourceIds":["gem-global-integrated-power-tracker"],"technologies":["solar"],"technologyMixMw":{"solar":2.1},"unitCount":1,"unitIds":["gem-unit-G100001074628"]},"type":"Feature"},{"geometry":{"coordinates":[17.0934,-22.5834],"type":"Point"},"id":"wattlas-plant-gemplant-l100001064843","properties":{"aliases":["--","Maerua Mall solar project"],"canonicalAnchor":"gemplant:L100001064843","canonicalCountryKey":"NA","capacityMw":2.0,"country":"NA","externalIds":{"gemPlant":"L100001064843","gemUnit":"G100001074629"},"geographyId":"NA-33880854B65893852220593","id":"wattlas-plant-gemplant-l100001064843","lifecycleCounts":{"operational":1},"locationPrecision":"exact","name":"Maerua Mall solar project","operatingCapacityCoverage":{"coveragePercent":100.0,"knownUnitCount":1,"method":"complete_unit_sum","provenance":{"evidenceCount":0,"recordIds":["wattlas-record-gemunit-g100001074629"],"sourceIds":["gem-global-integrated-power-tracker"],"sourceTypes":["research_verified"],"valueKind":"reported"},"totalUnitCount":1},"operatingCapacityMw":2.0,"operatingCapacityMwByTechnology":{"solar":2.0},"plannedCapacityCoverage":{"coveragePercent":0.0,"knownUnitCount":0,"method":"unavailable","totalUnitCount":0},"plannedCapacityMw":0.0,"plannedCapacityMwByTechnology":{},"recordCount":1,"recordIds":["wattlas-record-gemunit-g100001074629"],"sourceIds":["gem-global-integrated-power-tracker"],"technologies":["solar"],"technologyMixMw":{"solar":2.0},"unitCount":1,"unitIds":["gem-unit-G100001074629"]},"type":"Feature"},{"geometry":{"coordinates":[17.0787,-22.5226],"type":"Point"},"id":"wattlas-plant-gemplant-l100001064844","properties":{"aliases":["--","Namibia Breweries Limited solar project"],"canonicalAnchor":"gemplant:L100001064844","canonicalCountryKey":"NA","capacityMw":1.2,"country":"NA","externalIds":{"gemPlant":"L100001064844","gemUnit":"G100001074630"},"geographyId":"NA-33880854B65893852220593","id":"wattlas-plant-gemplant-l100001064844","lifecycleCounts":{"operational":1},"locationPrecision":"exact","name":"Namibia Breweries Limited solar project","operatingCapacityCoverage":{"coveragePercent":100.0,"knownUnitCount":1,"method":"complete_unit_sum","provenance":{"evidenceCount":0,"recordIds":["wattlas-record-gemunit-g100001074630"],"sourceIds":["gem-global-integrated-power-tracker"],"sourceTypes":["research_verified"],"valueKind":"reported"},"totalUnitCount":1},"operatingCapacityMw":1.2,"operatingCapacityMwByTechnology":{"solar":1.2},"plannedCapacityCoverage":{"coveragePercent":0.0,"knownUnitCount":0,"method":"unavailable","totalUnitCount":0},"plannedCapacityMw":0.0,"plannedCapacityMwByTechnology":{},"recordCount":1,"recordIds":["wattlas-record-gemunit-g100001074630"],"sourceIds":["gem-global-integrated-power-tracker"],"technologies":["solar"],"technologyMixMw":{"solar":1.2},"unitCount":1,"unitIds":["gem-unit-G100001074630"]},"type":"Feature"},{"geometry":{"coordinates":[17.0787,-22.5226],"type":"Point"},"id":"wattlas-plant-gemplant-l100001064845","properties":{"aliases":["--","Namibia Breweries Limited solar project II"],"canonicalAnchor":"gemplant:L100001064845","canonicalCountryKey":"NA","capacityMw":1.0,"country":"NA","externalIds":{"gemPlant":"L100001064845","gemUnit":"G100001074631"},"geographyId":"NA-33880854B65893852220593","id":"wattlas-plant-gemplant-l100001064845","lifecycleCounts":{"operational":1},"locationPrecision":"exact","name":"Namibia Breweries Limited solar project II","operatingCapacityCoverage":{"coveragePercent":100.0,"knownUnitCount":1,"method":"complete_unit_sum","provenance":{"evidenceCount":0,"recordIds":["wattlas-record-gemunit-g100001074631"],"sourceIds":["gem-global-integrated-power-tracker"],"sourceTypes":["research_verified"],"valueKind":"reported"},"totalUnitCount":1},"operatingCapacityMw":1.0,"operatingCapacityMwByTechnology":{"solar":1.0},"plannedCapacityCoverage":{"coveragePercent":0.0,"knownUnitCount":0,"method":"unavailable","totalUnitCount":0},"plannedCapacityMw":0.0,"plannedCapacityMwByTechnology":{},"recordCount":1,"recordIds":["wattlas-record-gemunit-g100001074631"],"sourceIds":["gem-global-integrated-power-tracker"],"technologies":["solar"],"technologyMixMw":{"solar":1.0},"unitCount":1,"unitIds":["gem-unit-G100001074631"]},"type":"Feature"},{"geometry":{"coordinates":[15.042626,-23.56208],"type":"Point"},"id":"wattlas-plant-osm-way-1047425252","properties":{"aliases":["Gobabeb Research Centre Solar Farm"],"canonicalAnchor":"osm:way/1047425252","canonicalCountryKey":"NA","capacityMw":0.0,"country":"NA","externalIds":{"osm":"way/1047425252"},"geographyId":"NA-33880854B21847191895972","id":"wattlas-plant-osm-way-1047425252","lifecycleCounts":{"operational":1},"locationPrecision":"exact","name":"Gobabeb Research Centre Solar Farm","operatingCapacityCoverage":{"coveragePercent":0.0,"knownUnitCount":0,"method":"unavailable","totalUnitCount":0},"operatingCapacityMw":0.0,"operatingCapacityMwByTechnology":{},"plannedCapacityCoverage":{"coveragePercent":0.0,"knownUnitCount":0,"method":"unavailable","totalUnitCount":0},"plannedCapacityMw":0.0,"plannedCapacityMwByTechnology":{},"recordCount":1,"recordIds":["wattlas-record-osm-way-1047425252"],"sourceIds":["openstreetmap-power"],"technologies":["solar"],"technologyMixMw":{"solar":0.0},"unitCount":0,"unitIds":[]},"type":"Feature"},{"geometry":{"coordinates":[17.046672,-18.813821],"type":"Point"},"id":"wattlas-plant-osm-way-1056947909","properties":{"aliases":["Mokuti Etosha Lodge solar plant"],"canonicalAnchor":"osm:way/1056947909","canonicalCountryKey":"NA","capacityMw":0.0,"country":"NA","externalIds":{"osm":"way/1056947909"},"geographyId":"NA-33880854B4413577706595","id":"wattlas-plant-osm-way-1056947909","lifecycleCounts":{"operational":1},"locationPrecision":"exact","name":"Mokuti Etosha Lodge solar plant","operatingCapacityCoverage":{"coveragePercent":0.0,"knownUnitCount":0,"method":"unavailable","totalUnitCount":0},"operatingCapacityMw":0.0,"operatingCapacityMwByTechnology":{},"plannedCapacityCoverage":{"coveragePercent":0.0,"knownUnitCount":0,"method":"unavailable","totalUnitCount":0},"plannedCapacityMw":0.0,"plannedCapacityMwByTechnology":{},"recordCount":1,"recordIds":["wattlas-record-osm-way-1056947909"],"sourceIds":["openstreetmap-power"],"technologies":["solar"],"technologyMixMw":{"solar":0.0},"unitCount":0,"unitIds":[]},"type":"Feature"},{"geometry":{"coordinates":[16.281492,-18.093504],"type":"Point"},"id":"wattlas-plant-osm-way-1068446853","properties":{"aliases":["Okatope - Unisun - Solar Farm"],"canonicalAnchor":"osm:way/1068446853","canonicalCountryKey":"NA","capacityMw":5.0,"country":"NA","externalIds":{"osm":"way/1068446853"},"geographyId":"NA-33880854B4413577706595","id":"wattlas-plant-osm-way-1068446853","lifecycleCounts":{"operational":1},"locationPrecision":"exact","name":"Okatope - Unisun - Solar Farm","operatingCapacityCoverage":{"coveragePercent":100.0,"knownUnitCount":0,"method":"plant_aggregate","provenance":{"evidenceCount":0,"recordIds":["wattlas-record-osm-way-1068446853"],"sourceIds":["openstreetmap-power"],"sourceTypes":["community_mapped"],"valueKind":"reported"},"totalUnitCount":0},"operatingCapacityMw":5.0,"operatingCapacityMwByTechnology":{"solar":5.0},"plannedCapacityCoverage":{"coveragePercent":0.0,"knownUnitCount":0,"method":"unavailable","totalUnitCount":0},"plannedCapacityMw":0.0,"plannedCapacityMwByTechnology":{},"recordCount":1,"recordIds":["wattlas-record-osm-way-1068446853"],"sourceIds":["openstreetmap-power"],"technologies":["solar"],"technologyMixMw":{"solar":5.0},"unitCount":0,"unitIds":[]},"type":"Feature"},{"geometry":{"coordinates":[15.431115,-20.392926],"type":"Point"},"id":"wattlas-plant-osm-way-1073032545","properties":{"aliases":["Vingerklip Lodge Solar Farm"],"canonicalAnchor":"osm:way/1073032545","canonicalCountryKey":"NA","capacityMw":0.0,"country":"NA","externalIds":{"osm":"way/1073032545"},"geographyId":"NA-33880854B88093492826661","id":"wattlas-plant-osm-way-1073032545","lifecycleCounts":{"operational":1},"locationPrecision":"exact","name":"Vingerklip Lodge Solar Farm","operatingCapacityCoverage":{"coveragePercent":0.0,"knownUnitCount":0,"method":"unavailable","totalUnitCount":0},"operatingCapacityMw":0.0,"operatingCapacityMwByTechnology":{},"plannedCapacityCoverage":{"coveragePercent":0.0,"knownUnitCount":0,"method":"unavailable","totalUnitCount":0},"plannedCapacityMw":0.0,"plannedCapacityMwByTechnology":{},"recordCount":1,"recordIds":["wattlas-record-osm-way-1073032545"],"sourceIds":["openstreetmap-power"],"technologies":["solar"],"technologyMixMw":{"solar":0.0},"unitCount":0,"unitIds":[]},"type":"Feature"},{"geometry":{"coordinates":[17.091548,-19.990834],"type":"Point"},"id":"wattlas-plant-osm-way-1075133092","properties":{"aliases":["Otjikoto Mine HFO Power Station"],"canonicalAnchor":"osm:way/1075133092","canonicalCountryKey":"NA","capacityMw":24.0,"country":"NA","externalIds":{"osm":"way/1075133092"},"geographyId":"NA-33880854B88782591640533","id":"wattlas-plant-osm-way-1075133092","lifecycleCounts":{"operational":1},"locationPrecision":"exact","name":"Otjikoto Mine HFO Power Station","operatingCapacityCoverage":{"coveragePercent":100.0,"knownUnitCount":0,"method":"plant_aggregate","provenance":{"evidenceCount":0,"recordIds":["wattlas-record-osm-way-1075133092"],"sourceIds":["openstreetmap-power"],"sourceTypes":["community_mapped"],"valueKind":"reported"},"totalUnitCount":0},"operatingCapacityMw":24.0,"operatingCapacityMwByTechnology":{"oil":24.0},"plannedCapacityCoverage":{"coveragePercent":0.0,"knownUnitCount":0,"method":"unavailable","totalUnitCount":0},"plannedCapacityMw":0.0,"plannedCapacityMwByTechnology":{},"recordCount":1,"recordIds":["wattlas-record-osm-way-1075133092"],"sourceIds":["openstreetmap-power"],"technologies":["oil"],"technologyMixMw":{"oil":24.0},"unitCount":0,"unitIds":[]},"type":"Feature"},{"geometry":{"coordinates":[17.118733,-19.993882],"type":"Point"},"id":"wattlas-plant-osm-way-1075133098","properties":{"aliases":["Otjikoto Mine"],"canonicalAnchor":"osm:way/1075133098","canonicalCountryKey":"NA","capacityMw":7.0,"country":"NA","externalIds":{"osm":"way/1075133098"},"geographyId":"NA-33880854B88782591640533","id":"wattlas-plant-osm-way-1075133098","lifecycleCounts":{"operational":1},"locationPrecision":"exact","name":"Otjikoto Mine","operatingCapacityCoverage":{"coveragePercent":100.0,"knownUnitCount":0,"method":"plant_aggregate","provenance":{"evidenceCount":0,"recordIds":["wattlas-record-osm-way-1075133098"],"sourceIds":["openstreetmap-power"],"sourceTypes":["community_mapped"],"valueKind":"reported"},"totalUnitCount":0},"operatingCapacityMw":7.0,"operatingCapacityMwByTechnology":{"solar":7.0},"plannedCapacityCoverage":{"coveragePercent":0.0,"knownUnitCount":0,"method":"unavailable","totalUnitCount":0},"plannedCapacityMw":0.0,"plannedCapacityMwByTechnology":{},"recordCount":1,"recordIds":["wattlas-record-osm-way-1075133098"],"sourceIds":["openstreetmap-power"],"technologies":["solar"],"technologyMixMw":{"solar":7.0},"unitCount":0,"unitIds":[]},"type":"Feature"},{"geometry":{"coordinates":[14.516892,-22.938654],"type":"Point"},"id":"wattlas-plant-osm-way-1080196149","properties":{"aliases":["Paratus Powerstation"],"canonicalAnchor":"osm:way/1080196149","canonicalCountryKey":"NA","capacityMw":0.0,"country":"NA","externalIds":{"osm":"way/1080196149"},"geographyId":"NA-33880854B21847191895972","id":"wattlas-plant-osm-way-1080196149","lifecycleCounts":{"operational":1},"locationPrecision":"exact","name":"Paratus Powerstation","operatingCapacityCoverage":{"coveragePercent":0.0,"knownUnitCount":0,"method":"unavailable","totalUnitCount":0},"operatingCapacityMw":0.0,"operatingCapacityMwByTechnology":{},"plannedCapacityCoverage":{"coveragePercent":0.0,"knownUnitCount":0,"method":"unavailable","totalUnitCount":0},"plannedCapacityMw":0.0,"plannedCapacityMwByTechnology":{},"recordCount":1,"recordIds":["wattlas-record-osm-way-1080196149"],"sourceIds":["openstreetmap-power"],"technologies":["other"],"technologyMixMw":{"other":0.0},"unitCount":0,"unitIds":[]},"type":"Feature"},{"geometry":{"coordinates":[16.293777,-18.110236],"type":"Point"},"id":"wattlas-plant-osm-way-1080610313","properties":{"aliases":["Okatope - NCF"],"canonicalAnchor":"osm:way/1080610313","canonicalCountryKey":"NA","capacityMw":5.0,"country":"NA","externalIds":{"osm":"way/1080610313"},"geographyId":"NA-33880854B4413577706595","id":"wattlas-plant-osm-way-1080610313","lifecycleCounts":{"operational":1},"locationPrecision":"exact","name":"Okatope - NCF","operatingCapacityCoverage":{"coveragePercent":100.0,"knownUnitCount":0,"method":"plant_aggregate","provenance":{"evidenceCount":0,"recordIds":["wattlas-record-osm-way-1080610313"],"sourceIds":["openstreetmap-power"],"sourceTypes":["community_mapped"],"valueKind":"reported"},"totalUnitCount":0},"operatingCapacityMw":5.0,"operatingCapacityMwByTechnology":{"solar":5.0},"plannedCapacityCoverage":{"coveragePercent":0.0,"knownUnitCount":0,"method":"unavailable","totalUnitCount":0},"plannedCapacityMw":0.0,"plannedCapacityMwByTechnology":{},"recordCount":1,"recordIds":["wattlas-record-osm-way-1080610313"],"sourceIds":["openstreetmap-power"],"technologies":["solar"],"technologyMixMw":{"solar":5.0},"unitCount":0,"unitIds":[]},"type":"Feature"},{"geometry":{"coordinates":[16.296228,-18.107433],"type":"Point"},"id":"wattlas-plant-osm-way-1080610314","properties":{"aliases":["Okatope - Tandii"],"canonicalAnchor":"osm:way/1080610314","canonicalCountryKey":"NA","capacityMw":5.0,"country":"NA","externalIds":{"osm":"way/1080610314"},"geographyId":"NA-33880854B4413577706595","id":"wattlas-plant-osm-way-1080610314","lifecycleCounts":{"operational":1},"locationPrecision":"exact","name":"Okatope - Tandii","operatingCapacityCoverage":{"coveragePercent":100.0,"knownUnitCount":0,"method":"plant_aggregate","provenance":{"evidenceCount":0,"recordIds":["wattlas-record-osm-way-1080610314"],"sourceIds":["openstreetmap-power"],"sourceTypes":["community_mapped"],"valueKind":"reported"},"totalUnitCount":0},"operatingCapacityMw":5.0,"operatingCapacityMwByTechnology":{"solar":5.0},"plannedCapacityCoverage":{"coveragePercent":0.0,"knownUnitCount":0,"method":"unavailable","totalUnitCount":0},"plannedCapacityMw":0.0,"plannedCapacityMwByTechnology":{},"recordCount":1,"recordIds":["wattlas-record-osm-way-1080610314"],"sourceIds":["openstreetmap-power"],"technologies":["solar"],"technologyMixMw":{"solar":5.0},"unitCount":0,"unitIds":[]},"type":"Feature"},{"geometry":{"coordinates":[18.284677,-26.416315],"type":"Point"},"id":"wattlas-plant-osm-way-1112533478","properties":{"aliases":["GreeNam - Keetmanshoop"],"canonicalAnchor":"osm:way/1112533478","canonicalCountryKey":"NA","capacityMw":10.0,"country":"NA","externalIds":{"osm":"way/1112533478"},"geographyId":"NA-33880854B69863127771221","id":"wattlas-plant-osm-way-1112533478","lifecycleCounts":{"operational":1},"locationPrecision":"exact","name":"GreeNam - Keetmanshoop","operatingCapacityCoverage":{"coveragePercent":100.0,"knownUnitCount":0,"method":"plant_aggregate","provenance":{"evidenceCount":0,"recordIds":["wattlas-record-osm-way-1112533478"],"sourceIds":["openstreetmap-power"],"sourceTypes":["community_mapped"],"valueKind":"reported"},"totalUnitCount":0},"operatingCapacityMw":10.0,"operatingCapacityMwByTechnology":{"solar":10.0},"plannedCapacityCoverage":{"coveragePercent":0.0,"knownUnitCount":0,"method":"unavailable","totalUnitCount":0},"plannedCapacityMw":0.0,"plannedCapacityMwByTechnology":{},"recordCount":1,"recordIds":["wattlas-record-osm-way-1112533478"],"sourceIds":["openstreetmap-power"],"technologies":["solar"],"technologyMixMw":{"solar":10.0},"unitCount":0,"unitIds":[]},"type":"Feature"},{"geometry":{"coordinates":[18.288857,-26.430045],"type":"Point"},"id":"wattlas-plant-osm-way-1112533491","properties":{"aliases":["Momentous - Keetmanshoop"],"canonicalAnchor":"osm:way/1112533491","canonicalCountryKey":"NA","capacityMw":6.0,"country":"NA","externalIds":{"osm":"way/1112533491"},"geographyId":"NA-33880854B69863127771221","id":"wattlas-plant-osm-way-1112533491","lifecycleCounts":{"operational":1},"locationPrecision":"exact","name":"Momentous - Keetmanshoop","operatingCapacityCoverage":{"coveragePercent":100.0,"knownUnitCount":0,"method":"plant_aggregate","provenance":{"evidenceCount":0,"recordIds":["wattlas-record-osm-way-1112533491"],"sourceIds":["openstreetmap-power"],"sourceTypes":["community_mapped"],"valueKind":"reported"},"totalUnitCount":0},"operatingCapacityMw":6.0,"operatingCapacityMwByTechnology":{"solar":6.0},"plannedCapacityCoverage":{"coveragePercent":0.0,"knownUnitCount":0,"method":"unavailable","totalUnitCount":0},"plannedCapacityMw":0.0,"plannedCapacityMwByTechnology":{},"recordCount":1,"recordIds":["wattlas-record-osm-way-1112533491"],"sourceIds":["openstreetmap-power"],"technologies":["solar"],"technologyMixMw":{"solar":6.0},"unitCount":0,"unitIds":[]},"type":"Feature"},{"geometry":{"coordinates":[17.464748,-28.421266],"type":"Point"},"id":"wattlas-plant-osm-way-1115241017","properties":{"aliases":["Aussenkehr"],"canonicalAnchor":"osm:way/1115241017","canonicalCountryKey":"NA","capacityMw":6.8,"country":"NA","externalIds":{"osm":"way/1115241017"},"geographyId":"NA-33880854B69863127771221","id":"wattlas-plant-osm-way-1115241017","lifecycleCounts":{"operational":1},"locationPrecision":"exact","name":"Aussenkehr","operatingCapacityCoverage":{"coveragePercent":100.0,"knownUnitCount":0,"method":"plant_aggregate","provenance":{"evidenceCount":0,"recordIds":["wattlas-record-osm-way-1115241017"],"sourceIds":["openstreetmap-power"],"sourceTypes":["community_mapped"],"valueKind":"reported"},"totalUnitCount":0},"operatingCapacityMw":6.8,"operatingCapacityMwByTechnology":{"solar":6.8},"plannedCapacityCoverage":{"coveragePercent":0.0,"knownUnitCount":0,"method":"unavailable","totalUnitCount":0},"plannedCapacityMw":0.0,"plannedCapacityMwByTechnology":{},"recordCount":1,"recordIds":["wattlas-record-osm-way-1115241017"],"sourceIds":["openstreetmap-power"],"technologies":["solar"],"technologyMixMw":{"solar":6.8},"unitCount":0,"unitIds":[]},"type":"Feature"},{"geometry":{"coordinates":[16.731667,-27.982415],"type":"Point"},"id":"wattlas-plant-osm-way-1115732018","properties":{"aliases":["Rosh Pinah Solar Farm"],"canonicalAnchor":"osm:way/1115732018","canonicalCountryKey":"NA","capacityMw":5.0,"country":"NA","externalIds":{"osm":"way/1115732018"},"geographyId":"NA-33880854B69863127771221","id":"wattlas-plant-osm-way-1115732018","lifecycleCounts":{"operational":1},"locationPrecision":"exact","name":"Rosh Pinah Solar Farm","operatingCapacityCoverage":{"coveragePercent":100.0,"knownUnitCount":0,"method":"plant_aggregate","provenance":{"evidenceCount":0,"recordIds":["wattlas-record-osm-way-1115732018"],"sourceIds":["openstreetmap-power"],"sourceTypes":["community_mapped"],"valueKind":"reported"},"totalUnitCount":0},"operatingCapacityMw":5.0,"operatingCapacityMwByTechnology":{"solar":5.0},"plannedCapacityCoverage":{"coveragePercent":0.0,"knownUnitCount":0,"method":"unavailable","totalUnitCount":0},"plannedCapacityMw":0.0,"plannedCapacityMwByTechnology":{},"recordCount":1,"recordIds":["wattlas-record-osm-way-1115732018"],"sourceIds":["openstreetmap-power"],"technologies":["solar"],"technologyMixMw":{"solar":5.0},"unitCount":0,"unitIds":[]},"type":"Feature"},{"geometry":{"coordinates":[14.96438,-22.430097],"type":"Point"},"id":"wattlas-plant-osm-way-1144417100","properties":{"aliases":["Arandis"],"canonicalAnchor":"osm:way/1144417100","canonicalCountryKey":"NA","capacityMw":3.8,"country":"NA","externalIds":{"osm":"way/1144417100"},"geographyId":"NA-33880854B21847191895972","id":"wattlas-plant-osm-way-1144417100","lifecycleCounts":{"operational":1},"locationPrecision":"exact","name":"Arandis","operatingCapacityCoverage":{"coveragePercent":100.0,"knownUnitCount":0,"method":"plant_aggregate","provenance":{"evidenceCount":0,"recordIds":["wattlas-record-osm-way-1144417100"],"sourceIds":["openstreetmap-power"],"sourceTypes":["community_mapped"],"valueKind":"reported"},"totalUnitCount":0},"operatingCapacityMw":3.8,"operatingCapacityMwByTechnology":{"solar":3.8},"plannedCapacityCoverage":{"coveragePercent":0.0,"knownUnitCount":0,"method":"unavailable","totalUnitCount":0},"plannedCapacityMw":0.0,"plannedCapacityMwByTechnology":{},"recordCount":1,"recordIds":["wattlas-record-osm-way-1144417100"],"sourceIds":["openstreetmap-power"],"technologies":["solar"],"technologyMixMw":{"solar":3.8},"unitCount":0,"unitIds":[]},"type":"Feature"},{"geometry":{"coordinates":[14.806583,-22.156125],"type":"Point"},"id":"wattlas-plant-osm-way-1153126092","properties":{"aliases":["Trekopje Solar Farm"],"canonicalAnchor":"osm:way/1153126092","canonicalCountryKey":"NA","capacityMw":5.0,"country":"NA","externalIds":{"osm":"way/1153126092"},"geographyId":"NA-33880854B21847191895972","id":"wattlas-plant-osm-way-1153126092","lifecycleCounts":{"operational":1},"locationPrecision":"exact","name":"Trekopje Solar Farm","operatingCapacityCoverage":{"coveragePercent":100.0,"knownUnitCount":0,"method":"plant_aggregate","provenance":{"evidenceCount":0,"recordIds":["wattlas-record-osm-way-1153126092"],"sourceIds":["openstreetmap-power"],"sourceTypes":["community_mapped"],"valueKind":"reported"},"totalUnitCount":0},"operatingCapacityMw":5.0,"operatingCapacityMwByTechnology":{"solar":5.0},"plannedCapacityCoverage":{"coveragePercent":0.0,"knownUnitCount":0,"method":"unavailable","totalUnitCount":0},"plannedCapacityMw":0.0,"plannedCapacityMwByTechnology":{},"recordCount":1,"recordIds":["wattlas-record-osm-way-1153126092"],"sourceIds":["openstreetmap-power"],"technologies":["solar"],"technologyMixMw":{"solar":5.0},"unitCount":0,"unitIds":[]},"type":"Feature"},{"geometry":{"coordinates":[16.788202,-27.966199],"type":"Point"},"id":"wattlas-plant-osm-way-1203995758","properties":{"aliases":["Rosh Pinah Solar Park"],"canonicalAnchor":"osm:way/1203995758","canonicalCountryKey":"NA","capacityMw":5.7,"country":"NA","externalIds":{"osm":"way/1203995758"},"geographyId":"NA-33880854B69863127771221","id":"wattlas-plant-osm-way-1203995758","lifecycleCounts":{"operational":1},"locationPrecision":"exact","name":"Rosh Pinah Solar Park","operatingCapacityCoverage":{"coveragePercent":100.0,"knownUnitCount":0,"method":"plant_aggregate","provenance":{"evidenceCount":0,"recordIds":["wattlas-record-osm-way-1203995758"],"sourceIds":["openstreetmap-power"],"sourceTypes":["community_mapped"],"valueKind":"reported"},"totalUnitCount":0},"operatingCapacityMw":5.7,"operatingCapacityMwByTechnology":{"solar":5.7},"plannedCapacityCoverage":{"coveragePercent":0.0,"knownUnitCount":0,"method":"unavailable","totalUnitCount":0},"plannedCapacityMw":0.0,"plannedCapacityMwByTechnology":{},"recordCount":1,"recordIds":["wattlas-record-osm-way-1203995758"],"sourceIds":["openstreetmap-power"],"technologies":["solar"],"technologyMixMw":{"solar":5.7},"unitCount":0,"unitIds":[]},"type":"Feature"},{"geometry":{"coordinates":[16.019783,-21.490566],"type":"Point"},"id":"wattlas-plant-osm-way-1212202949","properties":{"aliases":["Omburu"],"canonicalAnchor":"osm:way/1212202949","canonicalCountryKey":"NA","capacityMw":20.0,"country":"NA","externalIds":{"osm":"way/1212202949"},"geographyId":"NA-33880854B21847191895972","id":"wattlas-plant-osm-way-1212202949","lifecycleCounts":{"operational":1},"locationPrecision":"exact","name":"Omburu","operatingCapacityCoverage":{"coveragePercent":100.0,"knownUnitCount":0,"method":"plant_aggregate","provenance":{"evidenceCount":0,"recordIds":["wattlas-record-osm-way-1212202949"],"sourceIds":["openstreetmap-power"],"sourceTypes":["community_mapped"],"valueKind":"reported"},"totalUnitCount":0},"operatingCapacityMw":20.0,"operatingCapacityMwByTechnology":{"solar":20.0},"plannedCapacityCoverage":{"coveragePercent":0.0,"knownUnitCount":0,"method":"unavailable","totalUnitCount":0},"plannedCapacityMw":0.0,"plannedCapacityMwByTechnology":{},"recordCount":1,"recordIds":["wattlas-record-osm-way-1212202949"],"sourceIds":["openstreetmap-power"],"technologies":["solar"],"technologyMixMw":{"solar":20.0},"unitCount":0,"unitIds":[]},"type":"Feature"},{"geometry":{"coordinates":[15.012807,-22.590628],"type":"Point"},"id":"wattlas-plant-osm-way-1225515523","properties":{"aliases":["Husab"],"canonicalAnchor":"osm:way/1225515523","canonicalCountryKey":"NA","capacityMw":12.0,"country":"NA","externalIds":{"osm":"way/1225515523"},"geographyId":"NA-33880854B21847191895972","id":"wattlas-plant-osm-way-1225515523","lifecycleCounts":{"operational":1},"locationPrecision":"exact","name":"Husab","operatingCapacityCoverage":{"coveragePercent":100.0,"knownUnitCount":0,"method":"plant_aggregate","provenance":{"evidenceCount":0,"recordIds":["wattlas-record-osm-way-1225515523"],"sourceIds":["openstreetmap-power"],"sourceTypes":["community_mapped"],"valueKind":"reported"},"totalUnitCount":0},"operatingCapacityMw":12.0,"operatingCapacityMwByTechnology":{"solar":12.0},"plannedCapacityCoverage":{"coveragePercent":0.0,"knownUnitCount":0,"method":"unavailable","totalUnitCount":0},"plannedCapacityMw":0.0,"plannedCapacityMwByTechnology":{},"recordCount":1,"recordIds":["wattlas-record-osm-way-1225515523"],"sourceIds":["openstreetmap-power"],"technologies":["solar"],"technologyMixMw":{"solar":12.0},"unitCount":0,"unitIds":[]},"type":"Feature"},{"geometry":{"coordinates":[16.953632,-19.923324],"type":"Point"},"id":"wattlas-plant-osm-way-1242336143","properties":{"aliases":["Maxwell Solar Plant"],"canonicalAnchor":"osm:way/1242336143","canonicalCountryKey":"NA","capacityMw":13.0,"country":"NA","externalIds":{"osm":"way/1242336143"},"geographyId":"NA-33880854B88782591640533","id":"wattlas-plant-osm-way-1242336143","lifecycleCounts":{"operational":1},"locationPrecision":"exact","name":"Maxwell Solar Plant","operatingCapacityCoverage":{"coveragePercent":100.0,"knownUnitCount":0,"method":"plant_aggregate","provenance":{"evidenceCount":0,"recordIds":["wattlas-record-osm-way-1242336143"],"sourceIds":["openstreetmap-power"],"sourceTypes":["community_mapped"],"valueKind":"reported"},"totalUnitCount":0},"operatingCapacityMw":13.0,"operatingCapacityMwByTechnology":{"solar":13.0},"plannedCapacityCoverage":{"coveragePercent":0.0,"knownUnitCount":0,"method":"unavailable","totalUnitCount":0},"plannedCapacityMw":0.0,"plannedCapacityMwByTechnology":{},"recordCount":1,"recordIds":["wattlas-record-osm-way-1242336143"],"sourceIds":["openstreetmap-power"],"technologies":["solar"],"technologyMixMw":{"solar":13.0},"unitCount":0,"unitIds":[]},"type":"Feature"},{"geometry":{"coordinates":[17.947032,-24.642229],"type":"Point"},"id":"wattlas-plant-osm-way-1247135540","properties":{"aliases":["Mariental Piggery"],"canonicalAnchor":"osm:way/1247135540","canonicalCountryKey":"NA","capacityMw":0.0,"country":"NA","externalIds":{"osm":"way/1247135540"},"geographyId":"NA-33880854B64734184432756","id":"wattlas-plant-osm-way-1247135540","lifecycleCounts":{"operational":1},"locationPrecision":"exact","name":"Mariental Piggery","operatingCapacityCoverage":{"coveragePercent":0.0,"knownUnitCount":0,"method":"unavailable","totalUnitCount":0},"operatingCapacityMw":0.0,"operatingCapacityMwByTechnology":{},"plannedCapacityCoverage":{"coveragePercent":0.0,"knownUnitCount":0,"method":"unavailable","totalUnitCount":0},"plannedCapacityMw":0.0,"plannedCapacityMwByTechnology":{},"recordCount":1,"recordIds":["wattlas-record-osm-way-1247135540"],"sourceIds":["openstreetmap-power"],"technologies":["solar"],"technologyMixMw":{"solar":0.0},"unitCount":0,"unitIds":[]},"type":"Feature"},{"geometry":{"coordinates":[17.63443,-19.210907],"type":"Point"},"id":"wattlas-plant-osm-way-1324052776","properties":{"aliases":["Otjikoto Biomass Power Station (OBPS)"],"canonicalAnchor":"osm:way/1324052776","canonicalCountryKey":"NA","capacityMw":0.0,"country":"NA","externalIds":{"osm":"way/1324052776"},"geographyId":"NA-33880854B4413577706595","id":"wattlas-plant-osm-way-1324052776","lifecycleCounts":{"operational":1},"locationPrecision":"exact","name":"Otjikoto Biomass Power Station (OBPS)","operatingCapacityCoverage":{"coveragePercent":0.0,"knownUnitCount":0,"method":"unavailable","totalUnitCount":0},"operatingCapacityMw":0.0,"operatingCapacityMwByTechnology":{},"plannedCapacityCoverage":{"coveragePercent":0.0,"knownUnitCount":0,"method":"unavailable","totalUnitCount":0},"plannedCapacityMw":0.0,"plannedCapacityMwByTechnology":{},"recordCount":1,"recordIds":["wattlas-record-osm-way-1324052776"],"sourceIds":["openstreetmap-power"],"technologies":["biomass"],"technologyMixMw":{"biomass":0.0},"unitCount":0,"unitIds":[]},"type":"Feature"},{"geometry":{"coordinates":[14.516507,-22.93971],"type":"Point"},"id":"wattlas-plant-osm-way-1376955291","properties":{"aliases":["Anixas I"],"canonicalAnchor":"osm:way/1376955291","canonicalCountryKey":"NA","capacityMw":22.5,"country":"NA","externalIds":{"osm":"way/1376955291"},"geographyId":"NA-33880854B21847191895972","id":"wattlas-plant-osm-way-1376955291","lifecycleCounts":{"operational":1},"locationPrecision":"exact","name":"Anixas I","operatingCapacityCoverage":{"coveragePercent":100.0,"knownUnitCount":0,"method":"plant_aggregate","provenance":{"evidenceCount":0,"recordIds":["wattlas-record-osm-way-1376955291"],"sourceIds":["openstreetmap-power"],"sourceTypes":["community_mapped"],"valueKind":"reported"},"totalUnitCount":0},"operatingCapacityMw":22.5,"operatingCapacityMwByTechnology":{"oil":22.5},"plannedCapacityCoverage":{"coveragePercent":0.0,"knownUnitCount":0,"method":"unavailable","totalUnitCount":0},"plannedCapacityMw":0.0,"plannedCapacityMwByTechnology":{},"recordCount":1,"recordIds":["wattlas-record-osm-way-1376955291"],"sourceIds":["openstreetmap-power"],"technologies":["oil"],"technologyMixMw":{"oil":22.5},"unitCount":0,"unitIds":[]},"type":"Feature"},{"geometry":{"coordinates":[14.51601,-22.939447],"type":"Point"},"id":"wattlas-plant-osm-way-1376955292","properties":{"aliases":["Anixas II"],"canonicalAnchor":"osm:way/1376955292","canonicalCountryKey":"NA","capacityMw":50.0,"country":"NA","externalIds":{"osm":"way/1376955292"},"geographyId":"NA-33880854B21847191895972","id":"wattlas-plant-osm-way-1376955292","lifecycleCounts":{"operational":1},"locationPrecision":"exact","name":"Anixas II","operatingCapacityCoverage":{"coveragePercent":100.0,"knownUnitCount":0,"method":"plant_aggregate","provenance":{"evidenceCount":0,"recordIds":["wattlas-record-osm-way-1376955292"],"sourceIds":["openstreetmap-power"],"sourceTypes":["community_mapped"],"valueKind":"reported"},"totalUnitCount":0},"operatingCapacityMw":50.0,"operatingCapacityMwByTechnology":{"oil":50.0},"plannedCapacityCoverage":{"coveragePercent":0.0,"knownUnitCount":0,"method":"unavailable","totalUnitCount":0},"plannedCapacityMw":0.0,"plannedCapacityMwByTechnology":{},"recordCount":1,"recordIds":["wattlas-record-osm-way-1376955292"],"sourceIds":["openstreetmap-power"],"technologies":["oil"],"technologyMixMw":{"oil":50.0},"unitCount":0,"unitIds":[]},"type":"Feature"},{"geometry":{"coordinates":[17.645237,-24.092137],"type":"Point"},"id":"wattlas-plant-osm-way-1490543717","properties":{"aliases":["Kalahari Red Dunes"],"canonicalAnchor":"osm:way/1490543717","canonicalCountryKey":"NA","capacityMw":0.0,"country":"NA","externalIds":{"osm":"way/1490543717"},"geographyId":"NA-33880854B64734184432756","id":"wattlas-plant-osm-way-1490543717","lifecycleCounts":{"operational":1},"locationPrecision":"exact","name":"Kalahari Red Dunes","operatingCapacityCoverage":{"coveragePercent":0.0,"knownUnitCount":0,"method":"unavailable","totalUnitCount":0},"operatingCapacityMw":0.0,"operatingCapacityMwByTechnology":{},"plannedCapacityCoverage":{"coveragePercent":0.0,"knownUnitCount":0,"method":"unavailable","totalUnitCount":0},"plannedCapacityMw":0.0,"plannedCapacityMwByTechnology":{},"recordCount":1,"recordIds":["wattlas-record-osm-way-1490543717"],"sourceIds":["openstreetmap-power"],"technologies":["solar"],"technologyMixMw":{"solar":0.0},"unitCount":0,"unitIds":[]},"type":"Feature"},{"geometry":{"coordinates":[16.791253,-22.102363],"type":"Point"},"id":"wattlas-plant-osm-way-440714427","properties":{"aliases":["Osona"],"canonicalAnchor":"osm:way/440714427","canonicalCountryKey":"NA","capacityMw":5.0,"country":"NA","externalIds":{"osm":"way/440714427"},"geographyId":"NA-33880854B88782591640533","id":"wattlas-plant-osm-way-440714427","lifecycleCounts":{"operational":1},"locationPrecision":"exact","name":"Osona","operatingCapacityCoverage":{"coveragePercent":100.0,"knownUnitCount":0,"method":"plant_aggregate","provenance":{"evidenceCount":0,"recordIds":["wattlas-record-osm-way-440714427"],"sourceIds":["openstreetmap-power"],"sourceTypes":["community_mapped"],"valueKind":"reported"},"totalUnitCount":0},"operatingCapacityMw":5.0,"operatingCapacityMwByTechnology":{"solar":5.0},"plannedCapacityCoverage":{"coveragePercent":0.0,"knownUnitCount":0,"method":"unavailable","totalUnitCount":0},"plannedCapacityMw":0.0,"plannedCapacityMwByTechnology":{},"recordCount":1,"recordIds":["wattlas-record-osm-way-440714427"],"sourceIds":["openstreetmap-power"],"technologies":["solar"],"technologyMixMw":{"solar":5.0},"unitCount":0,"unitIds":[]},"type":"Feature"},{"geometry":{"coordinates":[16.030497,-21.486936],"type":"Point"},"id":"wattlas-plant-osm-way-440745124","properties":{"aliases":["Omaruru Solar Power Plant"],"canonicalAnchor":"osm:way/440745124","canonicalCountryKey":"NA","capacityMw":4.5,"country":"NA","externalIds":{"osm":"way/440745124"},"geographyId":"NA-33880854B21847191895972","id":"wattlas-plant-osm-way-440745124","lifecycleCounts":{"operational":1},"locationPrecision":"exact","name":"Omaruru Solar Power Plant","operatingCapacityCoverage":{"coveragePercent":100.0,"knownUnitCount":0,"method":"plant_aggregate","provenance":{"evidenceCount":0,"recordIds":["wattlas-record-osm-way-440745124"],"sourceIds":["openstreetmap-power"],"sourceTypes":["community_mapped"],"valueKind":"reported"},"totalUnitCount":0},"operatingCapacityMw":4.5,"operatingCapacityMwByTechnology":{"solar":4.5},"plannedCapacityCoverage":{"coveragePercent":0.0,"knownUnitCount":0,"method":"unavailable","totalUnitCount":0},"plannedCapacityMw":0.0,"plannedCapacityMwByTechnology":{},"recordCount":1,"recordIds":["wattlas-record-osm-way-440745124"],"sourceIds":["openstreetmap-power"],"technologies":["solar"],"technologyMixMw":{"solar":4.5},"unitCount":0,"unitIds":[]},"type":"Feature"},{"geometry":{"coordinates":[18.970136,-22.435682],"type":"Point"},"id":"wattlas-plant-osm-way-701923225","properties":{"aliases":["Ejuva I and II"],"canonicalAnchor":"osm:way/701923225","canonicalCountryKey":"NA","capacityMw":10.0,"country":"NA","externalIds":{"osm":"way/701923225"},"geographyId":"NA-33880854B27729008722613","id":"wattlas-plant-osm-way-701923225","lifecycleCounts":{"operational":1},"locationPrecision":"exact","name":"Ejuva I and II","operatingCapacityCoverage":{"coveragePercent":100.0,"knownUnitCount":0,"method":"plant_aggregate","provenance":{"evidenceCount":0,"recordIds":["wattlas-record-osm-way-701923225"],"sourceIds":["openstreetmap-power"],"sourceTypes":["community_mapped"],"valueKind":"reported"},"totalUnitCount":0},"operatingCapacityMw":10.0,"operatingCapacityMwByTechnology":{"solar":10.0},"plannedCapacityCoverage":{"coveragePercent":0.0,"knownUnitCount":0,"method":"unavailable","totalUnitCount":0},"plannedCapacityMw":0.0,"plannedCapacityMwByTechnology":{},"recordCount":1,"recordIds":["wattlas-record-osm-way-701923225"],"sourceIds":["openstreetmap-power"],"technologies":["solar"],"technologyMixMw":{"solar":10.0},"unitCount":0,"unitIds":[]},"type":"Feature"},{"geometry":{"coordinates":[16.62538,-20.446547],"type":"Point"},"id":"wattlas-plant-osm-way-713322578","properties":{"aliases":["HopSol Solarpark"],"canonicalAnchor":"osm:way/713322578","canonicalCountryKey":"NA","capacityMw":5.0,"country":"NA","externalIds":{"osm":"way/713322578"},"geographyId":"NA-33880854B88782591640533","id":"wattlas-plant-osm-way-713322578","lifecycleCounts":{"operational":1},"locationPrecision":"exact","name":"HopSol Solarpark","operatingCapacityCoverage":{"coveragePercent":100.0,"knownUnitCount":0,"method":"plant_aggregate","provenance":{"evidenceCount":0,"recordIds":["wattlas-record-osm-way-713322578"],"sourceIds":["openstreetmap-power"],"sourceTypes":["community_mapped"],"valueKind":"reported"},"totalUnitCount":0},"operatingCapacityMw":5.0,"operatingCapacityMwByTechnology":{"solar":5.0},"plannedCapacityCoverage":{"coveragePercent":0.0,"knownUnitCount":0,"method":"unavailable","totalUnitCount":0},"plannedCapacityMw":0.0,"plannedCapacityMwByTechnology":{},"recordCount":1,"recordIds":["wattlas-record-osm-way-713322578"],"sourceIds":["openstreetmap-power"],"technologies":["solar"],"technologyMixMw":{"solar":5.0},"unitCount":0,"unitIds":[]},"type":"Feature"},{"geometry":{"coordinates":[15.83912,-21.94872],"type":"Point"},"id":"wattlas-plant-osm-way-724009918","properties":{"aliases":["Karibib"],"canonicalAnchor":"osm:way/724009918","canonicalCountryKey":"NA","capacityMw":5.0,"country":"NA","externalIds":{"osm":"way/724009918"},"geographyId":"NA-33880854B21847191895972","id":"wattlas-plant-osm-way-724009918","lifecycleCounts":{"operational":1},"locationPrecision":"exact","name":"Karibib","operatingCapacityCoverage":{"coveragePercent":100.0,"knownUnitCount":0,"method":"plant_aggregate","provenance":{"evidenceCount":0,"recordIds":["wattlas-record-osm-way-724009918"],"sourceIds":["openstreetmap-power"],"sourceTypes":["community_mapped"],"valueKind":"reported"},"totalUnitCount":0},"operatingCapacityMw":5.0,"operatingCapacityMwByTechnology":{"solar":5.0},"plannedCapacityCoverage":{"coveragePercent":0.0,"knownUnitCount":0,"method":"unavailable","totalUnitCount":0},"plannedCapacityMw":0.0,"plannedCapacityMwByTechnology":{},"recordCount":1,"recordIds":["wattlas-record-osm-way-724009918"],"sourceIds":["openstreetmap-power"],"technologies":["solar"],"technologyMixMw":{"solar":5.0},"unitCount":0,"unitIds":[]},"type":"Feature"},{"geometry":{"coordinates":[18.11651,-19.556286],"type":"Point"},"id":"wattlas-plant-osm-way-724820500","properties":{"aliases":["Otjozondjupa"],"canonicalAnchor":"osm:way/724820500","canonicalCountryKey":"NA","capacityMw":5.0,"country":"NA","externalIds":{"osm":"way/724820500"},"geographyId":"NA-33880854B88782591640533","id":"wattlas-plant-osm-way-724820500","lifecycleCounts":{"operational":1},"locationPrecision":"exact","name":"Otjozondjupa","operatingCapacityCoverage":{"coveragePercent":100.0,"knownUnitCount":0,"method":"plant_aggregate","provenance":{"evidenceCount":0,"recordIds":["wattlas-record-osm-way-724820500"],"sourceIds":["openstreetmap-power"],"sourceTypes":["community_mapped"],"valueKind":"reported"},"totalUnitCount":0},"operatingCapacityMw":5.0,"operatingCapacityMwByTechnology":{"solar":5.0},"plannedCapacityCoverage":{"coveragePercent":0.0,"knownUnitCount":0,"method":"unavailable","totalUnitCount":0},"plannedCapacityMw":0.0,"plannedCapacityMwByTechnology":{},"recordCount":1,"recordIds":["wattlas-record-osm-way-724820500"],"sourceIds":["openstreetmap-power"],"technologies":["solar"],"technologyMixMw":{"solar":5.0},"unitCount":0,"unitIds":[]},"type":"Feature"},{"geometry":{"coordinates":[18.033517,-24.664469],"type":"Point"},"id":"wattlas-plant-osm-way-727527323","properties":{"aliases":["Hardap Solar"],"canonicalAnchor":"osm:way/727527323","canonicalCountryKey":"NA","capacityMw":47.0,"country":"NA","externalIds":{"osm":"way/727527323"},"geographyId":"NA-33880854B64734184432756","id":"wattlas-plant-osm-way-727527323","lifecycleCounts":{"operational":1},"locationPrecision":"exact","name":"Hardap Solar","operatingCapacityCoverage":{"coveragePercent":100.0,"knownUnitCount":0,"method":"plant_aggregate","provenance":{"evidenceCount":0,"recordIds":["wattlas-record-osm-way-727527323"],"sourceIds":["openstreetmap-power"],"sourceTypes":["community_mapped"],"valueKind":"reported"},"totalUnitCount":0},"operatingCapacityMw":47.0,"operatingCapacityMwByTechnology":{"solar":47.0},"plannedCapacityCoverage":{"coveragePercent":0.0,"knownUnitCount":0,"method":"unavailable","totalUnitCount":0},"plannedCapacityMw":0.0,"plannedCapacityMwByTechnology":{},"recordCount":1,"recordIds":["wattlas-record-osm-way-727527323"],"sourceIds":["openstreetmap-power"],"technologies":["solar"],"technologyMixMw":{"solar":47.0},"unitCount":0,"unitIds":[]},"type":"Feature"},{"geometry":{"coordinates":[18.027263,-24.652435],"type":"Point"},"id":"wattlas-plant-osm-way-794535588","properties":{"aliases":["Mariental Solar"],"canonicalAnchor":"osm:way/794535588","canonicalCountryKey":"NA","capacityMw":10.0,"country":"NA","externalIds":{"osm":"way/794535588"},"geographyId":"NA-33880854B64734184432756","id":"wattlas-plant-osm-way-794535588","lifecycleCounts":{"operational":1},"locationPrecision":"exact","name":"Mariental Solar","operatingCapacityCoverage":{"coveragePercent":100.0,"knownUnitCount":0,"method":"plant_aggregate","provenance":{"evidenceCount":0,"recordIds":["wattlas-record-osm-way-794535588"],"sourceIds":["openstreetmap-power"],"sourceTypes":["community_mapped"],"valueKind":"reported"},"totalUnitCount":0},"operatingCapacityMw":10.0,"operatingCapacityMwByTechnology":{"solar":10.0},"plannedCapacityCoverage":{"coveragePercent":0.0,"knownUnitCount":0,"method":"unavailable","totalUnitCount":0},"plannedCapacityMw":0.0,"plannedCapacityMwByTechnology":{},"recordCount":1,"recordIds":["wattlas-record-osm-way-794535588"],"sourceIds":["openstreetmap-power"],"technologies":["solar"],"technologyMixMw":{"solar":10.0},"unitCount":0,"unitIds":[]},"type":"Feature"},{"geometry":{"coordinates":[17.455718,-19.519119],"type":"Point"},"id":"wattlas-plant-osm-way-818281907","properties":{"aliases":["Ohorongo Cement"],"canonicalAnchor":"osm:way/818281907","canonicalCountryKey":"NA","capacityMw":5.0,"country":"NA","externalIds":{"osm":"way/818281907"},"geographyId":"NA-33880854B88782591640533","id":"wattlas-plant-osm-way-818281907","lifecycleCounts":{"operational":1},"locationPrecision":"exact","name":"Ohorongo Cement","operatingCapacityCoverage":{"coveragePercent":100.0,"knownUnitCount":0,"method":"plant_aggregate","provenance":{"evidenceCount":0,"recordIds":["wattlas-record-osm-way-818281907"],"sourceIds":["openstreetmap-power"],"sourceTypes":["community_mapped"],"valueKind":"reported"},"totalUnitCount":0},"operatingCapacityMw":5.0,"operatingCapacityMwByTechnology":{"solar":5.0},"plannedCapacityCoverage":{"coveragePercent":0.0,"knownUnitCount":0,"method":"unavailable","totalUnitCount":0},"plannedCapacityMw":0.0,"plannedCapacityMwByTechnology":{},"recordCount":1,"recordIds":["wattlas-record-osm-way-818281907"],"sourceIds":["openstreetmap-power"],"technologies":["solar"],"technologyMixMw":{"solar":5.0},"unitCount":0,"unitIds":[]},"type":"Feature"},{"geometry":{"coordinates":[15.00367,-17.517323],"type":"Point"},"id":"wattlas-plant-osm-way-934654284","properties":{"aliases":["Outapi Solar PV"],"canonicalAnchor":"osm:way/934654284","canonicalCountryKey":"NA","capacityMw":5.0,"country":"NA","externalIds":{"osm":"way/934654284"},"geographyId":"NA-33880854B39435403846115","id":"wattlas-plant-osm-way-934654284","lifecycleCounts":{"operational":1},"locationPrecision":"exact","name":"Outapi Solar PV","operatingCapacityCoverage":{"coveragePercent":100.0,"knownUnitCount":0,"method":"plant_aggregate","provenance":{"evidenceCount":0,"recordIds":["wattlas-record-osm-way-934654284"],"sourceIds":["openstreetmap-power"],"sourceTypes":["community_mapped"],"valueKind":"reported"},"totalUnitCount":0},"operatingCapacityMw":5.0,"operatingCapacityMwByTechnology":{"solar":5.0},"plannedCapacityCoverage":{"coveragePercent":0.0,"knownUnitCount":0,"method":"unavailable","totalUnitCount":0},"plannedCapacityMw":0.0,"plannedCapacityMwByTechnology":{},"recordCount":1,"recordIds":["wattlas-record-osm-way-934654284"],"sourceIds":["openstreetmap-power"],"technologies":["solar"],"technologyMixMw":{"solar":5.0},"unitCount":0,"unitIds":[]},"type":"Feature"},{"geometry":{"coordinates":[17.079087,-22.515113],"type":"Point"},"id":"wattlas-plant-wikidata-q56373999","properties":{"aliases":["Van Eck Power Station"],"canonicalAnchor":"wikidata:Q56373999","canonicalCountryKey":"NA","capacityMw":120.0,"country":"NA","externalIds":{"osm":"way/122245237","wikidata":"Q56373999"},"geographyId":"NA-33880854B65893852220593","id":"wattlas-plant-wikidata-q56373999","idAliases":["wattlas-plant-osm-way-122245237"],"lifecycleCounts":{"operational":1},"locationPrecision":"exact","name":"Van Eck Power Station","operatingCapacityCoverage":{"coveragePercent":100.0,"knownUnitCount":0,"method":"plant_aggregate","provenance":{"evidenceCount":0,"recordIds":["wattlas-record-osm-way-122245237"],"sourceIds":["openstreetmap-power"],"sourceTypes":["community_mapped"],"valueKind":"reported"},"totalUnitCount":0},"operatingCapacityMw":120.0,"operatingCapacityMwByTechnology":{"coal":120.0},"plannedCapacityCoverage":{"coveragePercent":0.0,"knownUnitCount":0,"method":"unavailable","totalUnitCount":0},"plannedCapacityMw":0.0,"plannedCapacityMwByTechnology":{},"recordCount":1,"recordIds":["wattlas-record-osm-way-122245237"],"sourceIds":["openstreetmap-power"],"technologies":["coal"],"technologyMixMw":{"coal":120.0},"unitCount":0,"unitIds":[]},"type":"Feature"}],"type":"FeatureCollection"}