{"features":[{"geometry":{"coordinates":[103.6462,1.2828],"type":"Point"},"id":"wattlas-plant-gemplant-l100000200059","properties":{"aliases":["1.0","Tuas NEXUS power station"],"canonicalAnchor":"gemplant:L100000200059","canonicalCountryKey":"SG","capacityMw":80.0,"country":"SG","externalIds":{"gemPlant":"L100000200059","gemUnit":"G100000200063"},"geographyId":"SG-49756563B34226909336254","id":"wattlas-plant-gemplant-l100000200059","lifecycleCounts":{"under_construction":1},"locationPrecision":"exact","name":"Tuas NEXUS power station","operatingCapacityCoverage":{"coveragePercent":0.0,"knownUnitCount":0,"method":"unavailable","totalUnitCount":0},"operatingCapacityMw":0.0,"operatingCapacityMwByTechnology":{},"plannedCapacityCoverage":{"coveragePercent":100.0,"knownUnitCount":1,"method":"complete_unit_sum","provenance":{"evidenceCount":0,"recordIds":["wattlas-record-gemunit-g100000200063"],"sourceIds":["gem-global-integrated-power-tracker"],"sourceTypes":["research_verified"],"valueKind":"reported"},"totalUnitCount":1},"plannedCapacityMw":80.0,"plannedCapacityMwByTechnology":{"gas":80.0},"recordCount":1,"recordIds":["wattlas-record-gemunit-g100000200063"],"sourceIds":["gem-global-integrated-power-tracker"],"technologies":["gas"],"technologyMixMw":{"gas":80.0},"unitCount":1,"unitIds":["gem-unit-G100000200063"]},"type":"Feature"},{"geometry":{"coordinates":[103.675,1.2824],"type":"Point"},"id":"wattlas-plant-gemplant-l100000405350","properties":{"aliases":["1-1","2-1","3-1","Keppel Merlimau cogeneration power station"],"canonicalAnchor":"gemplant:L100000405350","canonicalCountryKey":"SG","capacityMw":1300.0,"country":"SG","externalIdAliases":{"gemUnit":["G100000404560","G100000404561","G100000404562"]},"externalIds":{"gemPlant":"L100000405350","gemUnit":"G100000404562"},"geographyId":"SG-49756563B34226909336254","id":"wattlas-plant-gemplant-l100000405350","lifecycleCounts":{"operational":3},"locationPrecision":"exact","name":"Keppel Merlimau cogeneration power station","operatingCapacityCoverage":{"coveragePercent":100.0,"knownUnitCount":3,"method":"complete_unit_sum","provenance":{"evidenceCount":0,"recordIds":["wattlas-record-gemunit-g100000404560","wattlas-record-gemunit-g100000404561","wattlas-record-gemunit-g100000404562"],"sourceIds":["gem-global-integrated-power-tracker"],"sourceTypes":["research_verified"],"valueKind":"reported"},"totalUnitCount":3},"operatingCapacityMw":1300.0,"operatingCapacityMwByTechnology":{"gas":1300.0},"plannedCapacityCoverage":{"coveragePercent":0.0,"knownUnitCount":0,"method":"unavailable","totalUnitCount":0},"plannedCapacityMw":0.0,"plannedCapacityMwByTechnology":{},"recordCount":3,"recordIds":["wattlas-record-gemunit-g100000404560","wattlas-record-gemunit-g100000404561","wattlas-record-gemunit-g100000404562"],"sourceIds":["gem-global-integrated-power-tracker"],"technologies":["gas"],"technologyMixMw":{"gas":1300.0},"unitCount":3,"unitIds":["gem-unit-G100000404560","gem-unit-G100000404561","gem-unit-G100000404562"]},"type":"Feature"},{"geometry":{"coordinates":[103.641415,1.288768],"type":"Point"},"id":"wattlas-plant-gemplant-l100000405355","properties":{"aliases":["CC1","CC2","CC3","CC4","CC5","ST1","Tuas power station"],"canonicalAnchor":"gemplant:L100000405355","canonicalCountryKey":"SG","capacityMw":2478.0,"country":"SG","externalIdAliases":{"gemUnit":["G100000404579","G100000404580","G100000404581","G100000404582","G100000404583","G100000413178"]},"externalIds":{"gemPlant":"L100000405355","gemUnit":"G100000413178"},"geographyId":"SG-49756563B34226909336254","id":"wattlas-plant-gemplant-l100000405355","lifecycleCounts":{"operational":6},"locationPrecision":"exact","name":"Tuas power station","operatingCapacityCoverage":{"coveragePercent":100.0,"knownUnitCount":6,"method":"complete_unit_sum","provenance":{"evidenceCount":0,"recordIds":["wattlas-record-gemunit-g100000404579","wattlas-record-gemunit-g100000404580","wattlas-record-gemunit-g100000404581","wattlas-record-gemunit-g100000404582","wattlas-record-gemunit-g100000404583","wattlas-record-gemunit-g100000413178"],"sourceIds":["gem-global-integrated-power-tracker"],"sourceTypes":["research_verified"],"valueKind":"reported"},"totalUnitCount":6},"operatingCapacityMw":2478.0,"operatingCapacityMwByTechnology":{"gas":1878.0,"oil":600.0},"plannedCapacityCoverage":{"coveragePercent":0.0,"knownUnitCount":0,"method":"unavailable","totalUnitCount":0},"plannedCapacityMw":0.0,"plannedCapacityMwByTechnology":{},"recordCount":6,"recordIds":["wattlas-record-gemunit-g100000404579","wattlas-record-gemunit-g100000404580","wattlas-record-gemunit-g100000404581","wattlas-record-gemunit-g100000404582","wattlas-record-gemunit-g100000404583","wattlas-record-gemunit-g100000413178"],"sourceIds":["gem-global-integrated-power-tracker"],"technologies":["gas","oil"],"technologyMixMw":{"gas":1878.0,"oil":600.0},"unitCount":6,"unitIds":["gem-unit-G100000404579","gem-unit-G100000404580","gem-unit-G100000404581","gem-unit-G100000404582","gem-unit-G100000404583","gem-unit-G100000413178"]},"type":"Feature"},{"geometry":{"coordinates":[103.71,1.31],"type":"Point"},"id":"wattlas-plant-gemplant-l100000408925","properties":{"aliases":["1-1","2-1","Jurong Power Station"],"canonicalAnchor":"gemplant:L100000408925","canonicalCountryKey":"SG","capacityMw":180.0,"country":"SG","externalIdAliases":{"gemUnit":["G100000413181","G100000413182"]},"externalIds":{"gemPlant":"L100000408925","gemUnit":"G100000413181"},"geographyId":"SG-49756563B34226909336254","id":"wattlas-plant-gemplant-l100000408925","lifecycleCounts":{"operational":2},"locationPrecision":"exact","name":"Jurong Power Station","operatingCapacityCoverage":{"coveragePercent":100.0,"knownUnitCount":2,"method":"complete_unit_sum","provenance":{"evidenceCount":0,"recordIds":["wattlas-record-gemunit-g100000413181","wattlas-record-gemunit-g100000413182"],"sourceIds":["gem-global-integrated-power-tracker"],"sourceTypes":["research_verified"],"valueKind":"reported"},"totalUnitCount":2},"operatingCapacityMw":180.0,"operatingCapacityMwByTechnology":{"gas":180.0},"plannedCapacityCoverage":{"coveragePercent":0.0,"knownUnitCount":0,"method":"unavailable","totalUnitCount":0},"plannedCapacityMw":0.0,"plannedCapacityMwByTechnology":{},"recordCount":2,"recordIds":["wattlas-record-gemunit-g100000413181","wattlas-record-gemunit-g100000413182"],"sourceIds":["gem-global-integrated-power-tracker"],"technologies":["gas"],"technologyMixMw":{"gas":180.0},"unitCount":2,"unitIds":["gem-unit-G100000413181","gem-unit-G100000413182"]},"type":"Feature"},{"geometry":{"coordinates":[103.6395,1.3493],"type":"Point"},"id":"wattlas-plant-gemplant-l100000801467","properties":{"aliases":["--","Tengeh Reservoir solar farm"],"canonicalAnchor":"gemplant:L100000801467","canonicalCountryKey":"SG","capacityMw":60.0,"country":"SG","externalIds":{"gemPlant":"L100000801467","gemUnit":"G100000801686"},"geographyId":"SG-49756563B34226909336254","id":"wattlas-plant-gemplant-l100000801467","lifecycleCounts":{"operational":1},"locationPrecision":"exact","name":"Tengeh Reservoir solar farm","operatingCapacityCoverage":{"coveragePercent":100.0,"knownUnitCount":1,"method":"complete_unit_sum","provenance":{"evidenceCount":0,"recordIds":["wattlas-record-gemunit-g100000801686"],"sourceIds":["gem-global-integrated-power-tracker"],"sourceTypes":["research_verified"],"valueKind":"reported"},"totalUnitCount":1},"operatingCapacityMw":60.0,"operatingCapacityMwByTechnology":{"solar":60.0},"plannedCapacityCoverage":{"coveragePercent":0.0,"knownUnitCount":0,"method":"unavailable","totalUnitCount":0},"plannedCapacityMw":0.0,"plannedCapacityMwByTechnology":{},"recordCount":1,"recordIds":["wattlas-record-gemunit-g100000801686"],"sourceIds":["gem-global-integrated-power-tracker"],"technologies":["solar"],"technologyMixMw":{"solar":60.0},"unitCount":1,"unitIds":["gem-unit-G100000801686"]},"type":"Feature"},{"geometry":{"coordinates":[103.8351,1.4407],"type":"Point"},"id":"wattlas-plant-gemplant-l100001022821","properties":{"aliases":["--","Lumileds solar project"],"canonicalAnchor":"gemplant:L100001022821","canonicalCountryKey":"SG","capacityMw":1.4,"country":"SG","externalIds":{"gemPlant":"L100001022821","gemUnit":"G100001027023"},"geographyId":"SG-49756563B73572011151336","id":"wattlas-plant-gemplant-l100001022821","lifecycleCounts":{"operational":1},"locationPrecision":"exact","name":"Lumileds solar project","operatingCapacityCoverage":{"coveragePercent":100.0,"knownUnitCount":1,"method":"complete_unit_sum","provenance":{"evidenceCount":0,"recordIds":["wattlas-record-gemunit-g100001027023"],"sourceIds":["gem-global-integrated-power-tracker"],"sourceTypes":["research_verified"],"valueKind":"reported"},"totalUnitCount":1},"operatingCapacityMw":1.4,"operatingCapacityMwByTechnology":{"solar":1.4},"plannedCapacityCoverage":{"coveragePercent":0.0,"knownUnitCount":0,"method":"unavailable","totalUnitCount":0},"plannedCapacityMw":0.0,"plannedCapacityMwByTechnology":{},"recordCount":1,"recordIds":["wattlas-record-gemunit-g100001027023"],"sourceIds":["gem-global-integrated-power-tracker"],"technologies":["solar"],"technologyMixMw":{"solar":1.4},"unitCount":1,"unitIds":["gem-unit-G100001027023"]},"type":"Feature"},{"geometry":{"coordinates":[103.9625,1.3379],"type":"Point"},"id":"wattlas-plant-gemplant-l100001022835","properties":{"aliases":["--","Constellar Venues at Singapore EXPO solar project"],"canonicalAnchor":"gemplant:L100001022835","canonicalCountryKey":"SG","capacityMw":9.7,"country":"SG","externalIds":{"gemPlant":"L100001022835","gemUnit":"G100001027037"},"geographyId":"SG-49756563B91384122076896","id":"wattlas-plant-gemplant-l100001022835","lifecycleCounts":{"operational":1},"locationPrecision":"exact","name":"Constellar Venues at Singapore EXPO solar project","operatingCapacityCoverage":{"coveragePercent":100.0,"knownUnitCount":1,"method":"complete_unit_sum","provenance":{"evidenceCount":0,"recordIds":["wattlas-record-gemunit-g100001027037"],"sourceIds":["gem-global-integrated-power-tracker"],"sourceTypes":["research_verified"],"valueKind":"reported"},"totalUnitCount":1},"operatingCapacityMw":9.7,"operatingCapacityMwByTechnology":{"solar":9.7},"plannedCapacityCoverage":{"coveragePercent":0.0,"knownUnitCount":0,"method":"unavailable","totalUnitCount":0},"plannedCapacityMw":0.0,"plannedCapacityMwByTechnology":{},"recordCount":1,"recordIds":["wattlas-record-gemunit-g100001027037"],"sourceIds":["gem-global-integrated-power-tracker"],"technologies":["solar"],"technologyMixMw":{"solar":9.7},"unitCount":1,"unitIds":["gem-unit-G100001027037"]},"type":"Feature"},{"geometry":{"coordinates":[103.968234,1.340098],"type":"Point"},"id":"wattlas-plant-osm-relation-15504699","properties":{"aliases":["SolarLand 2"],"canonicalAnchor":"osm:relation/15504699","canonicalCountryKey":"SG","capacityMw":19.2,"country":"SG","externalIds":{"osm":"relation/15504699"},"geographyId":"SG-49756563B91384122076896","id":"wattlas-plant-osm-relation-15504699","lifecycleCounts":{"operational":1},"locationPrecision":"exact","name":"SolarLand 2","operatingCapacityCoverage":{"coveragePercent":100.0,"knownUnitCount":0,"method":"plant_aggregate","provenance":{"evidenceCount":0,"recordIds":["wattlas-record-osm-relation-15504699"],"sourceIds":["openstreetmap-power"],"sourceTypes":["community_mapped"],"valueKind":"reported"},"totalUnitCount":0},"operatingCapacityMw":19.2,"operatingCapacityMwByTechnology":{"solar":19.2},"plannedCapacityCoverage":{"coveragePercent":0.0,"knownUnitCount":0,"method":"unavailable","totalUnitCount":0},"plannedCapacityMw":0.0,"plannedCapacityMwByTechnology":{},"recordCount":1,"recordIds":["wattlas-record-osm-relation-15504699"],"sourceIds":["openstreetmap-power"],"technologies":["solar"],"technologyMixMw":{"solar":19.2},"unitCount":0,"unitIds":[]},"type":"Feature"},{"geometry":{"coordinates":[103.644534,1.34],"type":"Point"},"id":"wattlas-plant-osm-way-1366163037","properties":{"aliases":["Tuas Solar Farm"],"canonicalAnchor":"osm:way/1366163037","canonicalCountryKey":"SG","capacityMw":0.0,"country":"SG","externalIds":{"osm":"way/1366163037"},"geographyId":"SG-49756563B34226909336254","id":"wattlas-plant-osm-way-1366163037","lifecycleCounts":{"operational":1},"locationPrecision":"exact","name":"Tuas Solar Farm","operatingCapacityCoverage":{"coveragePercent":0.0,"knownUnitCount":0,"method":"unavailable","totalUnitCount":0},"operatingCapacityMw":0.0,"operatingCapacityMwByTechnology":{},"plannedCapacityCoverage":{"coveragePercent":0.0,"knownUnitCount":0,"method":"unavailable","totalUnitCount":0},"plannedCapacityMw":0.0,"plannedCapacityMwByTechnology":{},"recordCount":1,"recordIds":["wattlas-record-osm-way-1366163037"],"sourceIds":["openstreetmap-power"],"technologies":["solar"],"technologyMixMw":{"solar":0.0},"unitCount":0,"unitIds":[]},"type":"Feature"},{"geometry":{"coordinates":[103.712233,1.311543],"type":"Point"},"id":"wattlas-plant-osm-way-589568972","properties":{"aliases":["Jurong Power Station"],"canonicalAnchor":"osm:way/589568972","canonicalCountryKey":"SG","capacityMw":180.0,"country":"SG","externalIds":{"osm":"way/589568972","wikipedia":"en:List of power stations in Singapore"},"geographyId":"SG-49756563B34226909336254","id":"wattlas-plant-osm-way-589568972","idAliases":["wattlas-plant-wikipedia-en-list-of-power-stations-in-singapore"],"lifecycleCounts":{"operational":1},"locationPrecision":"exact","name":"Jurong Power Station","operatingCapacityCoverage":{"coveragePercent":100.0,"knownUnitCount":0,"method":"plant_aggregate","provenance":{"evidenceCount":0,"recordIds":["wattlas-record-osm-way-589568972"],"sourceIds":["openstreetmap-power"],"sourceTypes":["community_mapped"],"valueKind":"reported"},"totalUnitCount":0},"operatingCapacityMw":180.0,"operatingCapacityMwByTechnology":{"gas":180.0},"plannedCapacityCoverage":{"coveragePercent":0.0,"knownUnitCount":0,"method":"unavailable","totalUnitCount":0},"plannedCapacityMw":0.0,"plannedCapacityMwByTechnology":{},"recordCount":1,"recordIds":["wattlas-record-osm-way-589568972"],"sourceIds":["openstreetmap-power"],"technologies":["gas"],"technologyMixMw":{"gas":180.0},"unitCount":0,"unitIds":[]},"type":"Feature"},{"geometry":{"coordinates":[103.864212,1.313827],"type":"Point"},"id":"wattlas-plant-osm-way-614425190","properties":{"aliases":["Mapped power plant · OSM 614425190"],"canonicalAnchor":"osm:way/614425190","canonicalCountryKey":"SG","capacityMw":0.0,"country":"SG","externalIds":{"osm":"way/614425190"},"geographyId":"SG-49756563B71725710252082","id":"wattlas-plant-osm-way-614425190","lifecycleCounts":{"operational":1},"locationPrecision":"exact","name":"Mapped power plant · OSM 614425190","operatingCapacityCoverage":{"coveragePercent":0.0,"knownUnitCount":0,"method":"unavailable","totalUnitCount":0},"operatingCapacityMw":0.0,"operatingCapacityMwByTechnology":{},"plannedCapacityCoverage":{"coveragePercent":0.0,"knownUnitCount":0,"method":"unavailable","totalUnitCount":0},"plannedCapacityMw":0.0,"plannedCapacityMwByTechnology":{},"recordCount":1,"recordIds":["wattlas-record-osm-way-614425190"],"sourceIds":["openstreetmap-power"],"technologies":["solar"],"technologyMixMw":{"solar":0.0},"unitCount":0,"unitIds":[]},"type":"Feature"},{"geometry":{"coordinates":[103.639624,1.349787],"type":"Point"},"id":"wattlas-plant-osm-way-835228368","properties":{"aliases":["Floating Solar PV Testbed"],"canonicalAnchor":"osm:way/835228368","canonicalCountryKey":"SG","capacityMw":1.0,"country":"SG","externalIds":{"osm":"way/835228368"},"geographyId":"SG-49756563B34226909336254","id":"wattlas-plant-osm-way-835228368","lifecycleCounts":{"operational":1},"locationPrecision":"exact","name":"Floating Solar PV Testbed","operatingCapacityCoverage":{"coveragePercent":100.0,"knownUnitCount":0,"method":"plant_aggregate","provenance":{"evidenceCount":0,"recordIds":["wattlas-record-osm-way-835228368"],"sourceIds":["openstreetmap-power"],"sourceTypes":["community_mapped"],"valueKind":"reported"},"totalUnitCount":0},"operatingCapacityMw":1.0,"operatingCapacityMwByTechnology":{"solar":1.0},"plannedCapacityCoverage":{"coveragePercent":0.0,"knownUnitCount":0,"method":"unavailable","totalUnitCount":0},"plannedCapacityMw":0.0,"plannedCapacityMwByTechnology":{},"recordCount":1,"recordIds":["wattlas-record-osm-way-835228368"],"sourceIds":["openstreetmap-power"],"technologies":["solar"],"technologyMixMw":{"solar":1.0},"unitCount":0,"unitIds":[]},"type":"Feature"},{"geometry":{"coordinates":[103.645232,1.349159],"type":"Point"},"id":"wattlas-plant-osm-way-979479451","properties":{"aliases":["Tengeh Floating Solar Farm"],"canonicalAnchor":"osm:way/979479451","canonicalCountryKey":"SG","capacityMw":60.0,"country":"SG","externalIds":{"osm":"way/979479451"},"geographyId":"SG-49756563B34226909336254","id":"wattlas-plant-osm-way-979479451","lifecycleCounts":{"operational":1},"locationPrecision":"exact","name":"Tengeh Floating Solar Farm","operatingCapacityCoverage":{"coveragePercent":100.0,"knownUnitCount":0,"method":"plant_aggregate","provenance":{"evidenceCount":0,"recordIds":["wattlas-record-osm-way-979479451"],"sourceIds":["openstreetmap-power"],"sourceTypes":["community_mapped"],"valueKind":"reported"},"totalUnitCount":0},"operatingCapacityMw":60.0,"operatingCapacityMwByTechnology":{"solar":60.0},"plannedCapacityCoverage":{"coveragePercent":0.0,"knownUnitCount":0,"method":"unavailable","totalUnitCount":0},"plannedCapacityMw":0.0,"plannedCapacityMwByTechnology":{},"recordCount":1,"recordIds":["wattlas-record-osm-way-979479451"],"sourceIds":["openstreetmap-power"],"technologies":["solar"],"technologyMixMw":{"solar":60.0},"unitCount":0,"unitIds":[]},"type":"Feature"},{"geometry":{"coordinates":[103.667625,1.276469],"type":"Point"},"id":"wattlas-plant-wikidata-q116735026","properties":{"aliases":["Tembusu Multi-Utilities Complex"],"canonicalAnchor":"wikidata:Q116735026","canonicalCountryKey":"SG","capacityMw":133.5,"country":"SG","externalIds":{"osm":"way/1141504625","wikidata":"Q116735026"},"geographyId":"SG-49756563B34226909336254","id":"wattlas-plant-wikidata-q116735026","idAliases":["wattlas-plant-osm-way-1141504625"],"lifecycleCounts":{"operational":1},"locationPrecision":"exact","name":"Tembusu Multi-Utilities Complex","operatingCapacityCoverage":{"coveragePercent":100.0,"knownUnitCount":0,"method":"plant_aggregate","provenance":{"evidenceCount":0,"recordIds":["wattlas-record-osm-way-1141504625"],"sourceIds":["openstreetmap-power"],"sourceTypes":["community_mapped"],"valueKind":"reported"},"totalUnitCount":0},"operatingCapacityMw":133.5,"operatingCapacityMwByTechnology":{"coal":133.5},"plannedCapacityCoverage":{"coveragePercent":0.0,"knownUnitCount":0,"method":"unavailable","totalUnitCount":0},"plannedCapacityMw":0.0,"plannedCapacityMwByTechnology":{},"recordCount":1,"recordIds":["wattlas-record-osm-way-1141504625"],"sourceIds":["openstreetmap-power"],"technologies":["coal"],"technologyMixMw":{"coal":133.5},"unitCount":0,"unitIds":[]},"type":"Feature"},{"geometry":{"coordinates":[103.674906,1.281828],"type":"Point"},"id":"wattlas-plant-wikidata-q116740818","properties":{"aliases":["Keppel Merlimau Cogen Power Plant"],"canonicalAnchor":"wikidata:Q116740818","canonicalCountryKey":"SG","capacityMw":1310.0,"country":"SG","externalIds":{"osm":"way/533525606","wikidata":"Q116740818"},"geographyId":"SG-49756563B34226909336254","id":"wattlas-plant-wikidata-q116740818","idAliases":["wattlas-plant-osm-way-533525606"],"lifecycleCounts":{"operational":1},"locationPrecision":"exact","name":"Keppel Merlimau Cogen Power Plant","operatingCapacityCoverage":{"coveragePercent":100.0,"knownUnitCount":0,"method":"plant_aggregate","provenance":{"evidenceCount":0,"recordIds":["wattlas-record-osm-way-533525606"],"sourceIds":["openstreetmap-power"],"sourceTypes":["community_mapped"],"valueKind":"reported"},"totalUnitCount":0},"operatingCapacityMw":1310.0,"operatingCapacityMwByTechnology":{"gas":1310.0},"plannedCapacityCoverage":{"coveragePercent":0.0,"knownUnitCount":0,"method":"unavailable","totalUnitCount":0},"plannedCapacityMw":0.0,"plannedCapacityMwByTechnology":{},"recordCount":1,"recordIds":["wattlas-record-osm-way-533525606"],"sourceIds":["openstreetmap-power"],"technologies":["gas"],"technologyMixMw":{"gas":1310.0},"unitCount":0,"unitIds":[]},"type":"Feature"},{"geometry":{"coordinates":[103.634754,1.324659],"type":"Point"},"id":"wattlas-plant-wikidata-q116740837","properties":{"aliases":["Tuas Incineration Plant (TIP)"],"canonicalAnchor":"wikidata:Q116740837","canonicalCountryKey":"SG","capacityMw":47.8,"country":"SG","externalIds":{"osm":"way/605297081","wikidata":"Q116740837"},"geographyId":"SG-49756563B34226909336254","id":"wattlas-plant-wikidata-q116740837","idAliases":["wattlas-plant-osm-way-605297081"],"lifecycleCounts":{"operational":1},"locationPrecision":"exact","name":"Tuas Incineration Plant (TIP)","operatingCapacityCoverage":{"coveragePercent":100.0,"knownUnitCount":0,"method":"plant_aggregate","provenance":{"evidenceCount":0,"recordIds":["wattlas-record-osm-way-605297081"],"sourceIds":["openstreetmap-power"],"sourceTypes":["community_mapped"],"valueKind":"reported"},"totalUnitCount":0},"operatingCapacityMw":47.8,"operatingCapacityMwByTechnology":{"other":47.8},"plannedCapacityCoverage":{"coveragePercent":0.0,"knownUnitCount":0,"method":"unavailable","totalUnitCount":0},"plannedCapacityMw":0.0,"plannedCapacityMwByTechnology":{},"recordCount":1,"recordIds":["wattlas-record-osm-way-605297081"],"sourceIds":["openstreetmap-power"],"technologies":["other"],"technologyMixMw":{"other":47.8},"unitCount":0,"unitIds":[]},"type":"Feature"},{"geometry":{"coordinates":[103.642432,1.288826],"type":"Point"},"id":"wattlas-plant-wikidata-q18022429","properties":{"aliases":["Tuas Power Plant"],"canonicalAnchor":"wikidata:Q18022429","canonicalCountryKey":"SG","capacityMw":1875.9,"country":"SG","externalIds":{"osm":"way/252392122","wikidata":"Q18022429","wikipedia":"en:Tuas Power"},"geographyId":"SG-49756563B34226909336254","id":"wattlas-plant-wikidata-q18022429","idAliases":["wattlas-plant-osm-way-252392122","wattlas-plant-wikipedia-en-tuas-power"],"lifecycleCounts":{"operational":1},"locationPrecision":"exact","name":"Tuas Power Plant","operatingCapacityCoverage":{"coveragePercent":100.0,"knownUnitCount":0,"method":"plant_aggregate","provenance":{"evidenceCount":0,"recordIds":["wattlas-record-osm-way-252392122"],"sourceIds":["openstreetmap-power"],"sourceTypes":["community_mapped"],"valueKind":"reported"},"totalUnitCount":0},"operatingCapacityMw":1875.9,"operatingCapacityMwByTechnology":{"gas":1875.9},"plannedCapacityCoverage":{"coveragePercent":0.0,"knownUnitCount":0,"method":"unavailable","totalUnitCount":0},"plannedCapacityMw":0.0,"plannedCapacityMwByTechnology":{},"recordCount":1,"recordIds":["wattlas-record-osm-way-252392122"],"sourceIds":["openstreetmap-power"],"technologies":["gas"],"technologyMixMw":{"gas":1875.9},"unitCount":0,"unitIds":[]},"type":"Feature"}],"type":"FeatureCollection"}