{"features":[{"geometry":{"coordinates":[14.99649,12.13501],"type":"Point"},"id":"wattlas-plant-gemplant-l100000409051","properties":{"aliases":["1-1","2-1","3-1","Farcha power station"],"canonicalAnchor":"gemplant:L100000409051","canonicalCountryKey":"TD","capacityMw":157.0,"country":"TD","externalIdAliases":{"gemUnit":["G100000413525","G100000413526","G100000413527"]},"externalIds":{"gemPlant":"L100000409051","gemUnit":"G100000413525"},"geographyId":"TD-23847190B51844892814608","id":"wattlas-plant-gemplant-l100000409051","lifecycleCounts":{"announced":1,"operational":2},"locationPrecision":"exact","name":"Farcha power station","operatingCapacityCoverage":{"coveragePercent":100.0,"knownUnitCount":2,"method":"complete_unit_sum","provenance":{"evidenceCount":0,"recordIds":["wattlas-record-gemunit-g100000413526","wattlas-record-gemunit-g100000413527"],"sourceIds":["gem-global-integrated-power-tracker"],"sourceTypes":["research_verified"],"valueKind":"reported"},"totalUnitCount":2},"operatingCapacityMw":67.0,"operatingCapacityMwByTechnology":{"gas":67.0},"plannedCapacityCoverage":{"coveragePercent":100.0,"knownUnitCount":1,"method":"complete_unit_sum","provenance":{"evidenceCount":0,"recordIds":["wattlas-record-gemunit-g100000413525"],"sourceIds":["gem-global-integrated-power-tracker"],"sourceTypes":["research_verified"],"valueKind":"reported"},"totalUnitCount":1},"plannedCapacityMw":90.0,"plannedCapacityMwByTechnology":{"oil":90.0},"recordCount":3,"recordIds":["wattlas-record-gemunit-g100000413525","wattlas-record-gemunit-g100000413526","wattlas-record-gemunit-g100000413527"],"sourceIds":["gem-global-integrated-power-tracker"],"technologies":["gas","oil"],"technologyMixMw":{"gas":67.0,"oil":90.0},"unitCount":3,"unitIds":["gem-unit-G100000413525","gem-unit-G100000413526","gem-unit-G100000413527"]},"type":"Feature"},{"geometry":{"coordinates":[15.2026,12.0553],"type":"Point"},"id":"wattlas-plant-gemplant-l100001018612","properties":{"aliases":["--","Gassi (RESPITE) solar farm"],"canonicalAnchor":"gemplant:L100001018612","canonicalCountryKey":"TD","capacityMw":30.0,"country":"TD","externalIds":{"gemPlant":"L100001018612","gemUnit":"G100001020818"},"geographyId":"TD-23847190B26801534542350","id":"wattlas-plant-gemplant-l100001018612","lifecycleCounts":{"announced":1},"locationPrecision":"exact","name":"Gassi (RESPITE) solar farm","operatingCapacityCoverage":{"coveragePercent":0.0,"knownUnitCount":0,"method":"unavailable","totalUnitCount":0},"operatingCapacityMw":0.0,"operatingCapacityMwByTechnology":{},"plannedCapacityCoverage":{"coveragePercent":100.0,"knownUnitCount":1,"method":"complete_unit_sum","provenance":{"evidenceCount":0,"recordIds":["wattlas-record-gemunit-g100001020818"],"sourceIds":["gem-global-integrated-power-tracker"],"sourceTypes":["research_verified"],"valueKind":"reported"},"totalUnitCount":1},"plannedCapacityMw":30.0,"plannedCapacityMwByTechnology":{"solar":30.0},"recordCount":1,"recordIds":["wattlas-record-gemunit-g100001020818"],"sourceIds":["gem-global-integrated-power-tracker"],"technologies":["solar"],"technologyMixMw":{"solar":30.0},"unitCount":1,"unitIds":["gem-unit-G100001020818"]},"type":"Feature"},{"geometry":{"coordinates":[21.994582,16.988474],"type":"Point"},"id":"wattlas-plant-gemplant-l100001047737","properties":{"aliases":["--","San Mariano Biomass power station"],"canonicalAnchor":"gemplant:L100001047737","canonicalCountryKey":"TD","capacityMw":19.0,"country":"TD","externalIds":{"gemPlant":"L100001047737","gemUnit":"G100001054434"},"geographyId":"TD-23847190B77249644038093","id":"wattlas-plant-gemplant-l100001047737","lifecycleCounts":{"operational":1},"locationPrecision":"exact","name":"San Mariano Biomass power station","operatingCapacityCoverage":{"coveragePercent":100.0,"knownUnitCount":1,"method":"complete_unit_sum","provenance":{"evidenceCount":0,"recordIds":["wattlas-record-gemunit-g100001054434"],"sourceIds":["gem-global-integrated-power-tracker"],"sourceTypes":["research_verified"],"valueKind":"reported"},"totalUnitCount":1},"operatingCapacityMw":19.0,"operatingCapacityMwByTechnology":{"biomass":19.0},"plannedCapacityCoverage":{"coveragePercent":0.0,"knownUnitCount":0,"method":"unavailable","totalUnitCount":0},"plannedCapacityMw":0.0,"plannedCapacityMwByTechnology":{},"recordCount":1,"recordIds":["wattlas-record-gemunit-g100001054434"],"sourceIds":["gem-global-integrated-power-tracker"],"technologies":["biomass"],"technologyMixMw":{"biomass":19.0},"unitCount":1,"unitIds":["gem-unit-G100001054434"]},"type":"Feature"},{"geometry":{"coordinates":[18.718,12.182],"type":"Point"},"id":"wattlas-plant-gemplant-l100001064773","properties":{"aliases":["--","Guéra solar project"],"canonicalAnchor":"gemplant:L100001064773","canonicalCountryKey":"TD","capacityMw":1.8,"country":"TD","externalIds":{"gemPlant":"L100001064773","gemUnit":"G100001074559"},"geographyId":"TD-23847190B67442151938208","id":"wattlas-plant-gemplant-l100001064773","lifecycleCounts":{"operational":1},"locationPrecision":"exact","name":"Guéra solar project","operatingCapacityCoverage":{"coveragePercent":100.0,"knownUnitCount":1,"method":"complete_unit_sum","provenance":{"evidenceCount":0,"recordIds":["wattlas-record-gemunit-g100001074559"],"sourceIds":["gem-global-integrated-power-tracker"],"sourceTypes":["research_verified"],"valueKind":"reported"},"totalUnitCount":1},"operatingCapacityMw":1.8,"operatingCapacityMwByTechnology":{"solar":1.8},"plannedCapacityCoverage":{"coveragePercent":0.0,"knownUnitCount":0,"method":"unavailable","totalUnitCount":0},"plannedCapacityMw":0.0,"plannedCapacityMwByTechnology":{},"recordCount":1,"recordIds":["wattlas-record-gemunit-g100001074559"],"sourceIds":["gem-global-integrated-power-tracker"],"technologies":["solar"],"technologyMixMw":{"solar":1.8},"unitCount":1,"unitIds":["gem-unit-G100001074559"]},"type":"Feature"},{"geometry":{"coordinates":[15.1777,12.0603],"type":"Point"},"id":"wattlas-plant-gemplant-l100001064774","properties":{"aliases":["--","N'Djamena solar project"],"canonicalAnchor":"gemplant:L100001064774","canonicalCountryKey":"TD","capacityMw":14.7,"country":"TD","externalIds":{"gemPlant":"L100001064774","gemUnit":"G100001074560"},"geographyId":"TD-23847190B26801534542350","id":"wattlas-plant-gemplant-l100001064774","lifecycleCounts":{"operational":1},"locationPrecision":"exact","name":"N'Djamena solar project","operatingCapacityCoverage":{"coveragePercent":100.0,"knownUnitCount":1,"method":"complete_unit_sum","provenance":{"evidenceCount":0,"recordIds":["wattlas-record-gemunit-g100001074560"],"sourceIds":["gem-global-integrated-power-tracker"],"sourceTypes":["research_verified"],"valueKind":"reported"},"totalUnitCount":1},"operatingCapacityMw":14.7,"operatingCapacityMwByTechnology":{"solar":14.7},"plannedCapacityCoverage":{"coveragePercent":0.0,"knownUnitCount":0,"method":"unavailable","totalUnitCount":0},"plannedCapacityMw":0.0,"plannedCapacityMwByTechnology":{},"recordCount":1,"recordIds":["wattlas-record-gemunit-g100001074560"],"sourceIds":["gem-global-integrated-power-tracker"],"technologies":["solar"],"technologyMixMw":{"solar":14.7},"unitCount":1,"unitIds":["gem-unit-G100001074560"]},"type":"Feature"},{"geometry":{"coordinates":[18.3701,13.2169],"type":"Point"},"id":"wattlas-plant-gemplant-l100001064775","properties":{"aliases":["--","Ati solar project"],"canonicalAnchor":"gemplant:L100001064775","canonicalCountryKey":"TD","capacityMw":2.3,"country":"TD","externalIds":{"gemPlant":"L100001064775","gemUnit":"G100001074561"},"geographyId":"TD-23847190B10962291388144","id":"wattlas-plant-gemplant-l100001064775","lifecycleCounts":{"operational":1},"locationPrecision":"exact","name":"Ati solar project","operatingCapacityCoverage":{"coveragePercent":100.0,"knownUnitCount":1,"method":"complete_unit_sum","provenance":{"evidenceCount":0,"recordIds":["wattlas-record-gemunit-g100001074561"],"sourceIds":["gem-global-integrated-power-tracker"],"sourceTypes":["research_verified"],"valueKind":"reported"},"totalUnitCount":1},"operatingCapacityMw":2.3,"operatingCapacityMwByTechnology":{"solar":2.3},"plannedCapacityCoverage":{"coveragePercent":0.0,"knownUnitCount":0,"method":"unavailable","totalUnitCount":0},"plannedCapacityMw":0.0,"plannedCapacityMwByTechnology":{},"recordCount":1,"recordIds":["wattlas-record-gemunit-g100001074561"],"sourceIds":["gem-global-integrated-power-tracker"],"technologies":["solar"],"technologyMixMw":{"solar":2.3},"unitCount":1,"unitIds":["gem-unit-G100001074561"]},"type":"Feature"},{"geometry":{"coordinates":[20.7592,13.7984],"type":"Point"},"id":"wattlas-plant-gemplant-l100001064776","properties":{"aliases":["--","Abéché solar project"],"canonicalAnchor":"gemplant:L100001064776","canonicalCountryKey":"TD","capacityMw":10.7,"country":"TD","externalIds":{"gemPlant":"L100001064776","gemUnit":"G100001074562"},"geographyId":"TD-23847190B50657270888212","id":"wattlas-plant-gemplant-l100001064776","lifecycleCounts":{"operational":1},"locationPrecision":"exact","name":"Abéché solar project","operatingCapacityCoverage":{"coveragePercent":100.0,"knownUnitCount":1,"method":"complete_unit_sum","provenance":{"evidenceCount":0,"recordIds":["wattlas-record-gemunit-g100001074562"],"sourceIds":["gem-global-integrated-power-tracker"],"sourceTypes":["research_verified"],"valueKind":"reported"},"totalUnitCount":1},"operatingCapacityMw":10.7,"operatingCapacityMwByTechnology":{"solar":10.7},"plannedCapacityCoverage":{"coveragePercent":0.0,"knownUnitCount":0,"method":"unavailable","totalUnitCount":0},"plannedCapacityMw":0.0,"plannedCapacityMwByTechnology":{},"recordCount":1,"recordIds":["wattlas-record-gemunit-g100001074562"],"sourceIds":["gem-global-integrated-power-tracker"],"technologies":["solar"],"technologyMixMw":{"solar":10.7},"unitCount":1,"unitIds":["gem-unit-G100001074562"]},"type":"Feature"},{"geometry":{"coordinates":[22.2591,15.1371],"type":"Point"},"id":"wattlas-plant-gemplant-l100001064777","properties":{"aliases":["--","Iriba solar project"],"canonicalAnchor":"gemplant:L100001064777","canonicalCountryKey":"TD","capacityMw":2.1,"country":"TD","externalIds":{"gemPlant":"L100001064777","gemUnit":"G100001074563"},"geographyId":"TD-23847190B87163061266246","id":"wattlas-plant-gemplant-l100001064777","lifecycleCounts":{"operational":1},"locationPrecision":"exact","name":"Iriba solar project","operatingCapacityCoverage":{"coveragePercent":100.0,"knownUnitCount":1,"method":"complete_unit_sum","provenance":{"evidenceCount":0,"recordIds":["wattlas-record-gemunit-g100001074563"],"sourceIds":["gem-global-integrated-power-tracker"],"sourceTypes":["research_verified"],"valueKind":"reported"},"totalUnitCount":1},"operatingCapacityMw":2.1,"operatingCapacityMwByTechnology":{"solar":2.1},"plannedCapacityCoverage":{"coveragePercent":0.0,"knownUnitCount":0,"method":"unavailable","totalUnitCount":0},"plannedCapacityMw":0.0,"plannedCapacityMwByTechnology":{},"recordCount":1,"recordIds":["wattlas-record-gemunit-g100001074563"],"sourceIds":["gem-global-integrated-power-tracker"],"technologies":["solar"],"technologyMixMw":{"solar":2.1},"unitCount":1,"unitIds":["gem-unit-G100001074563"]},"type":"Feature"},{"geometry":{"coordinates":[22.8024,15.0488],"type":"Point"},"id":"wattlas-plant-gemplant-l100001064778","properties":{"aliases":["--","Wadi Fira solar project"],"canonicalAnchor":"gemplant:L100001064778","canonicalCountryKey":"TD","capacityMw":3.6,"country":"TD","externalIds":{"gemPlant":"L100001064778","gemUnit":"G100001074564"},"geographyId":"TD-23847190B87163061266246","id":"wattlas-plant-gemplant-l100001064778","lifecycleCounts":{"operational":1},"locationPrecision":"exact","name":"Wadi Fira solar project","operatingCapacityCoverage":{"coveragePercent":100.0,"knownUnitCount":1,"method":"complete_unit_sum","provenance":{"evidenceCount":0,"recordIds":["wattlas-record-gemunit-g100001074564"],"sourceIds":["gem-global-integrated-power-tracker"],"sourceTypes":["research_verified"],"valueKind":"reported"},"totalUnitCount":1},"operatingCapacityMw":3.6,"operatingCapacityMwByTechnology":{"solar":3.6},"plannedCapacityCoverage":{"coveragePercent":0.0,"knownUnitCount":0,"method":"unavailable","totalUnitCount":0},"plannedCapacityMw":0.0,"plannedCapacityMwByTechnology":{},"recordCount":1,"recordIds":["wattlas-record-gemunit-g100001074564"],"sourceIds":["gem-global-integrated-power-tracker"],"technologies":["solar"],"technologyMixMw":{"solar":3.6},"unitCount":1,"unitIds":["gem-unit-G100001074564"]},"type":"Feature"},{"geometry":{"coordinates":[16.794519,8.531988],"type":"Point"},"id":"wattlas-plant-osm-way-1136273735","properties":{"aliases":["Doba Kome Power Plant"],"canonicalAnchor":"osm:way/1136273735","canonicalCountryKey":"TD","capacityMw":0.0,"country":"TD","externalIds":{"osm":"way/1136273735","wikipedia":"en:List of power stations in Chad"},"geographyId":"TD-23847190B88704211588167","id":"wattlas-plant-osm-way-1136273735","idAliases":["wattlas-plant-wikipedia-en-list-of-power-stations-in-chad"],"lifecycleCounts":{"operational":1},"locationPrecision":"exact","name":"Doba Kome Power Plant","operatingCapacityCoverage":{"coveragePercent":0.0,"knownUnitCount":0,"method":"unavailable","totalUnitCount":0},"operatingCapacityMw":0.0,"operatingCapacityMwByTechnology":{},"plannedCapacityCoverage":{"coveragePercent":0.0,"knownUnitCount":0,"method":"unavailable","totalUnitCount":0},"plannedCapacityMw":0.0,"plannedCapacityMwByTechnology":{},"recordCount":1,"recordIds":["wattlas-record-osm-way-1136273735"],"sourceIds":["openstreetmap-power"],"technologies":["other"],"technologyMixMw":{"other":0.0},"unitCount":0,"unitIds":[]},"type":"Feature"},{"geometry":{"coordinates":[20.759168,13.798463],"type":"Point"},"id":"wattlas-plant-osm-way-1284643307","properties":{"aliases":["Centrale électrique solaire d'Abeché"],"canonicalAnchor":"osm:way/1284643307","canonicalCountryKey":"TD","capacityMw":1.0,"country":"TD","externalIds":{"osm":"way/1284643307"},"geographyId":"TD-23847190B50657270888212","id":"wattlas-plant-osm-way-1284643307","lifecycleCounts":{"operational":1},"locationPrecision":"exact","name":"Centrale électrique solaire d'Abeché","operatingCapacityCoverage":{"coveragePercent":100.0,"knownUnitCount":0,"method":"plant_aggregate","provenance":{"evidenceCount":0,"recordIds":["wattlas-record-osm-way-1284643307"],"sourceIds":["openstreetmap-power"],"sourceTypes":["community_mapped"],"valueKind":"reported"},"totalUnitCount":0},"operatingCapacityMw":1.0,"operatingCapacityMwByTechnology":{"solar":1.0},"plannedCapacityCoverage":{"coveragePercent":0.0,"knownUnitCount":0,"method":"unavailable","totalUnitCount":0},"plannedCapacityMw":0.0,"plannedCapacityMwByTechnology":{},"recordCount":1,"recordIds":["wattlas-record-osm-way-1284643307"],"sourceIds":["openstreetmap-power"],"technologies":["solar"],"technologyMixMw":{"solar":1.0},"unitCount":0,"unitIds":[]},"type":"Feature"},{"geometry":{"coordinates":[22.802283,15.048671],"type":"Point"},"id":"wattlas-plant-osm-way-1284644504","properties":{"aliases":["Tanfon Tine"],"canonicalAnchor":"osm:way/1284644504","canonicalCountryKey":"TD","capacityMw":2.5,"country":"TD","externalIds":{"osm":"way/1284644504"},"geographyId":"TD-23847190B87163061266246","id":"wattlas-plant-osm-way-1284644504","lifecycleCounts":{"operational":1},"locationPrecision":"exact","name":"Tanfon Tine","operatingCapacityCoverage":{"coveragePercent":100.0,"knownUnitCount":0,"method":"plant_aggregate","provenance":{"evidenceCount":0,"recordIds":["wattlas-record-osm-way-1284644504"],"sourceIds":["openstreetmap-power"],"sourceTypes":["community_mapped"],"valueKind":"reported"},"totalUnitCount":0},"operatingCapacityMw":2.5,"operatingCapacityMwByTechnology":{"solar":2.5},"plannedCapacityCoverage":{"coveragePercent":0.0,"knownUnitCount":0,"method":"unavailable","totalUnitCount":0},"plannedCapacityMw":0.0,"plannedCapacityMwByTechnology":{},"recordCount":1,"recordIds":["wattlas-record-osm-way-1284644504"],"sourceIds":["openstreetmap-power"],"technologies":["solar"],"technologyMixMw":{"solar":2.5},"unitCount":0,"unitIds":[]},"type":"Feature"},{"geometry":{"coordinates":[15.177459,12.060432],"type":"Point"},"id":"wattlas-plant-osm-way-1424429671","properties":{"aliases":["Centrale PV DINO 30 MWc + 20 MWh"],"canonicalAnchor":"osm:way/1424429671","canonicalCountryKey":"TD","capacityMw":0.0,"country":"TD","externalIds":{"osm":"way/1424429671"},"geographyId":"TD-23847190B26801534542350","id":"wattlas-plant-osm-way-1424429671","lifecycleCounts":{"operational":1},"locationPrecision":"exact","name":"Centrale PV DINO 30 MWc + 20 MWh","operatingCapacityCoverage":{"coveragePercent":0.0,"knownUnitCount":0,"method":"unavailable","totalUnitCount":0},"operatingCapacityMw":0.0,"operatingCapacityMwByTechnology":{},"plannedCapacityCoverage":{"coveragePercent":0.0,"knownUnitCount":0,"method":"unavailable","totalUnitCount":0},"plannedCapacityMw":0.0,"plannedCapacityMwByTechnology":{},"recordCount":1,"recordIds":["wattlas-record-osm-way-1424429671"],"sourceIds":["openstreetmap-power"],"technologies":["solar"],"technologyMixMw":{"solar":0.0},"unitCount":0,"unitIds":[]},"type":"Feature"},{"geometry":{"coordinates":[15.15011,12.062903],"type":"Point"},"id":"wattlas-plant-osm-way-1442711962","properties":{"aliases":["Centrale diesel CET Power"],"canonicalAnchor":"osm:way/1442711962","canonicalCountryKey":"TD","capacityMw":30.0,"country":"TD","externalIds":{"osm":"way/1442711962"},"geographyId":"TD-23847190B26801534542350","id":"wattlas-plant-osm-way-1442711962","lifecycleCounts":{"operational":1},"locationPrecision":"exact","name":"Centrale diesel CET Power","operatingCapacityCoverage":{"coveragePercent":100.0,"knownUnitCount":0,"method":"plant_aggregate","provenance":{"evidenceCount":0,"recordIds":["wattlas-record-osm-way-1442711962"],"sourceIds":["openstreetmap-power"],"sourceTypes":["community_mapped"],"valueKind":"reported"},"totalUnitCount":0},"operatingCapacityMw":30.0,"operatingCapacityMwByTechnology":{"oil":30.0},"plannedCapacityCoverage":{"coveragePercent":0.0,"knownUnitCount":0,"method":"unavailable","totalUnitCount":0},"plannedCapacityMw":0.0,"plannedCapacityMwByTechnology":{},"recordCount":1,"recordIds":["wattlas-record-osm-way-1442711962"],"sourceIds":["openstreetmap-power"],"technologies":["oil"],"technologyMixMw":{"oil":30.0},"unitCount":0,"unitIds":[]},"type":"Feature"},{"geometry":{"coordinates":[15.09344,12.419725],"type":"Point"},"id":"wattlas-plant-osm-way-1472906767","properties":{"aliases":["Centrale Diesel (HFO) DENALI"],"canonicalAnchor":"osm:way/1472906767","canonicalCountryKey":"TD","capacityMw":32.0,"country":"TD","externalIds":{"osm":"way/1472906767"},"geographyId":"TD-23847190B62369995372725","id":"wattlas-plant-osm-way-1472906767","lifecycleCounts":{"operational":1},"locationPrecision":"exact","name":"Centrale Diesel (HFO) DENALI","operatingCapacityCoverage":{"coveragePercent":100.0,"knownUnitCount":0,"method":"plant_aggregate","provenance":{"evidenceCount":0,"recordIds":["wattlas-record-osm-way-1472906767"],"sourceIds":["openstreetmap-power"],"sourceTypes":["community_mapped"],"valueKind":"reported"},"totalUnitCount":0},"operatingCapacityMw":32.0,"operatingCapacityMwByTechnology":{"oil":32.0},"plannedCapacityCoverage":{"coveragePercent":0.0,"knownUnitCount":0,"method":"unavailable","totalUnitCount":0},"plannedCapacityMw":0.0,"plannedCapacityMwByTechnology":{},"recordCount":1,"recordIds":["wattlas-record-osm-way-1472906767"],"sourceIds":["openstreetmap-power"],"technologies":["oil"],"technologyMixMw":{"oil":32.0},"unitCount":0,"unitIds":[]},"type":"Feature"},{"geometry":{"coordinates":[15.10652,12.416062],"type":"Point"},"id":"wattlas-plant-osm-way-1472913714","properties":{"aliases":["Centrale diesel Green Energy"],"canonicalAnchor":"osm:way/1472913714","canonicalCountryKey":"TD","capacityMw":20.0,"country":"TD","externalIds":{"osm":"way/1472913714"},"geographyId":"TD-23847190B62369995372725","id":"wattlas-plant-osm-way-1472913714","lifecycleCounts":{"operational":1},"locationPrecision":"exact","name":"Centrale diesel Green Energy","operatingCapacityCoverage":{"coveragePercent":100.0,"knownUnitCount":0,"method":"plant_aggregate","provenance":{"evidenceCount":0,"recordIds":["wattlas-record-osm-way-1472913714"],"sourceIds":["openstreetmap-power"],"sourceTypes":["community_mapped"],"valueKind":"reported"},"totalUnitCount":0},"operatingCapacityMw":20.0,"operatingCapacityMwByTechnology":{"oil":20.0},"plannedCapacityCoverage":{"coveragePercent":0.0,"knownUnitCount":0,"method":"unavailable","totalUnitCount":0},"plannedCapacityMw":0.0,"plannedCapacityMwByTechnology":{},"recordCount":1,"recordIds":["wattlas-record-osm-way-1472913714"],"sourceIds":["openstreetmap-power"],"technologies":["oil"],"technologyMixMw":{"oil":20.0},"unitCount":0,"unitIds":[]},"type":"Feature"},{"geometry":{"coordinates":[15.099375,12.41521],"type":"Point"},"id":"wattlas-plant-osm-way-1472920727","properties":{"aliases":["Centrale à Vapeur NRC"],"canonicalAnchor":"osm:way/1472920727","canonicalCountryKey":"TD","capacityMw":12.0,"country":"TD","externalIds":{"osm":"way/1472920727"},"geographyId":"TD-23847190B62369995372725","id":"wattlas-plant-osm-way-1472920727","lifecycleCounts":{"operational":1},"locationPrecision":"exact","name":"Centrale à Vapeur NRC","operatingCapacityCoverage":{"coveragePercent":100.0,"knownUnitCount":0,"method":"plant_aggregate","provenance":{"evidenceCount":0,"recordIds":["wattlas-record-osm-way-1472920727"],"sourceIds":["openstreetmap-power"],"sourceTypes":["community_mapped"],"valueKind":"reported"},"totalUnitCount":0},"operatingCapacityMw":12.0,"operatingCapacityMwByTechnology":{"oil":12.0},"plannedCapacityCoverage":{"coveragePercent":0.0,"knownUnitCount":0,"method":"unavailable","totalUnitCount":0},"plannedCapacityMw":0.0,"plannedCapacityMwByTechnology":{},"recordCount":1,"recordIds":["wattlas-record-osm-way-1472920727"],"sourceIds":["openstreetmap-power"],"technologies":["oil"],"technologyMixMw":{"oil":12.0},"unitCount":0,"unitIds":[]},"type":"Feature"},{"geometry":{"coordinates":[14.996411,12.134933],"type":"Point"},"id":"wattlas-plant-osm-way-1472928924","properties":{"aliases":["Centrale FARCHA 2"],"canonicalAnchor":"osm:way/1472928924","canonicalCountryKey":"TD","capacityMw":60.0,"country":"TD","externalIds":{"osm":"way/1472928924"},"geographyId":"TD-23847190B51844892814608","id":"wattlas-plant-osm-way-1472928924","lifecycleCounts":{"operational":1},"locationPrecision":"exact","name":"Centrale FARCHA 2","operatingCapacityCoverage":{"coveragePercent":100.0,"knownUnitCount":0,"method":"plant_aggregate","provenance":{"evidenceCount":0,"recordIds":["wattlas-record-osm-way-1472928924"],"sourceIds":["openstreetmap-power"],"sourceTypes":["community_mapped"],"valueKind":"reported"},"totalUnitCount":0},"operatingCapacityMw":60.0,"operatingCapacityMwByTechnology":{"oil":60.0},"plannedCapacityCoverage":{"coveragePercent":0.0,"knownUnitCount":0,"method":"unavailable","totalUnitCount":0},"plannedCapacityMw":0.0,"plannedCapacityMwByTechnology":{},"recordCount":1,"recordIds":["wattlas-record-osm-way-1472928924"],"sourceIds":["openstreetmap-power"],"technologies":["oil"],"technologyMixMw":{"oil":60.0},"unitCount":0,"unitIds":[]},"type":"Feature"},{"geometry":{"coordinates":[14.997523,12.134797],"type":"Point"},"id":"wattlas-plant-osm-way-1472928925","properties":{"aliases":["Centrale FARCHA 1"],"canonicalAnchor":"osm:way/1472928925","canonicalCountryKey":"TD","capacityMw":21.0,"country":"TD","externalIds":{"osm":"way/1472928925"},"geographyId":"TD-23847190B51844892814608","id":"wattlas-plant-osm-way-1472928925","lifecycleCounts":{"operational":1},"locationPrecision":"exact","name":"Centrale FARCHA 1","operatingCapacityCoverage":{"coveragePercent":100.0,"knownUnitCount":0,"method":"plant_aggregate","provenance":{"evidenceCount":0,"recordIds":["wattlas-record-osm-way-1472928925"],"sourceIds":["openstreetmap-power"],"sourceTypes":["community_mapped"],"valueKind":"reported"},"totalUnitCount":0},"operatingCapacityMw":21.0,"operatingCapacityMwByTechnology":{"oil":21.0},"plannedCapacityCoverage":{"coveragePercent":0.0,"knownUnitCount":0,"method":"unavailable","totalUnitCount":0},"plannedCapacityMw":0.0,"plannedCapacityMwByTechnology":{},"recordCount":1,"recordIds":["wattlas-record-osm-way-1472928925"],"sourceIds":["openstreetmap-power"],"technologies":["oil"],"technologyMixMw":{"oil":21.0},"unitCount":0,"unitIds":[]},"type":"Feature"},{"geometry":{"coordinates":[16.637431,7.912541],"type":"Point"},"id":"wattlas-plant-osm-way-189490518","properties":{"aliases":["Centrale Électrique محطة كهرباء"],"canonicalAnchor":"osm:way/189490518","canonicalCountryKey":"TD","capacityMw":0.0,"country":"TD","externalIds":{"osm":"way/189490518"},"geographyId":"TD-23847190B88704211588167","id":"wattlas-plant-osm-way-189490518","lifecycleCounts":{"operational":1},"locationPrecision":"exact","name":"Centrale Électrique محطة كهرباء","operatingCapacityCoverage":{"coveragePercent":0.0,"knownUnitCount":0,"method":"unavailable","totalUnitCount":0},"operatingCapacityMw":0.0,"operatingCapacityMwByTechnology":{},"plannedCapacityCoverage":{"coveragePercent":0.0,"knownUnitCount":0,"method":"unavailable","totalUnitCount":0},"plannedCapacityMw":0.0,"plannedCapacityMwByTechnology":{},"recordCount":1,"recordIds":["wattlas-record-osm-way-189490518"],"sourceIds":["openstreetmap-power"],"technologies":["other"],"technologyMixMw":{"other":0.0},"unitCount":0,"unitIds":[]},"type":"Feature"},{"geometry":{"coordinates":[15.033221,12.111696],"type":"Point"},"id":"wattlas-plant-osm-way-223594792","properties":{"aliases":["Centrale Diesel MBH"],"canonicalAnchor":"osm:way/223594792","canonicalCountryKey":"TD","capacityMw":15.0,"country":"TD","externalIds":{"osm":"way/223594792"},"geographyId":"TD-23847190B51844892814608","id":"wattlas-plant-osm-way-223594792","lifecycleCounts":{"operational":1},"locationPrecision":"exact","name":"Centrale Diesel MBH","operatingCapacityCoverage":{"coveragePercent":100.0,"knownUnitCount":0,"method":"plant_aggregate","provenance":{"evidenceCount":0,"recordIds":["wattlas-record-osm-way-223594792"],"sourceIds":["openstreetmap-power"],"sourceTypes":["community_mapped"],"valueKind":"reported"},"totalUnitCount":0},"operatingCapacityMw":15.0,"operatingCapacityMwByTechnology":{"other":15.0},"plannedCapacityCoverage":{"coveragePercent":0.0,"knownUnitCount":0,"method":"unavailable","totalUnitCount":0},"plannedCapacityMw":0.0,"plannedCapacityMwByTechnology":{},"recordCount":1,"recordIds":["wattlas-record-osm-way-223594792"],"sourceIds":["openstreetmap-power"],"technologies":["other"],"technologyMixMw":{"other":15.0},"unitCount":0,"unitIds":[]},"type":"Feature"},{"geometry":{"coordinates":[15.033669,12.111494],"type":"Point"},"id":"wattlas-plant-osm-way-223594837","properties":{"aliases":["Centrale diesel CATER"],"canonicalAnchor":"osm:way/223594837","canonicalCountryKey":"TD","capacityMw":10.0,"country":"TD","externalIds":{"osm":"way/223594837"},"geographyId":"TD-23847190B51844892814608","id":"wattlas-plant-osm-way-223594837","lifecycleCounts":{"operational":1},"locationPrecision":"exact","name":"Centrale diesel CATER","operatingCapacityCoverage":{"coveragePercent":100.0,"knownUnitCount":0,"method":"plant_aggregate","provenance":{"evidenceCount":0,"recordIds":["wattlas-record-osm-way-223594837"],"sourceIds":["openstreetmap-power"],"sourceTypes":["community_mapped"],"valueKind":"reported"},"totalUnitCount":0},"operatingCapacityMw":10.0,"operatingCapacityMwByTechnology":{"other":10.0},"plannedCapacityCoverage":{"coveragePercent":0.0,"knownUnitCount":0,"method":"unavailable","totalUnitCount":0},"plannedCapacityMw":0.0,"plannedCapacityMwByTechnology":{},"recordCount":1,"recordIds":["wattlas-record-osm-way-223594837"],"sourceIds":["openstreetmap-power"],"technologies":["other"],"technologyMixMw":{"other":10.0},"unitCount":0,"unitIds":[]},"type":"Feature"}],"type":"FeatureCollection"}