{"features":[{"geometry":{"coordinates":[44.459264,40.826676],"type":"Point"},"id":"wattlas-plant-gemplant-l100000406947","properties":{"aliases":["1-1","2-1","Vanadzor (Anaklia) power station"],"canonicalAnchor":"gemplant:L100000406947","canonicalCountryKey":"AM","capacityMw":0.0,"country":"AM","externalIdAliases":{"gemUnit":["G100000407950","G100000407951"]},"externalIds":{"gemPlant":"L100000406947","gemUnit":"G100000407950"},"gemWikiUrl":"https://www.gem.wiki/Vanadzor_(Anaklia)_power_station","geographyId":"AM-6114869B99267739496878","id":"wattlas-plant-gemplant-l100000406947","lifecycleCounts":{"cancelled":2},"locationPrecision":"exact","name":"Vanadzor (Anaklia) power station","operatingCapacityCoverage":{"coveragePercent":0.0,"knownUnitCount":0,"method":"unavailable","totalUnitCount":0},"operatingCapacityMw":0.0,"operatingCapacityMwByTechnology":{},"plannedCapacityCoverage":{"coveragePercent":0.0,"knownUnitCount":0,"method":"unavailable","totalUnitCount":0},"plannedCapacityMw":0.0,"plannedCapacityMwByTechnology":{},"recordCount":2,"recordIds":["wattlas-record-gemunit-g100000407950","wattlas-record-gemunit-g100000407951"],"sourceIds":["gem-global-integrated-power-tracker"],"sourceUrl":"https://www.gem.wiki/Vanadzor_(Anaklia)_power_station","technologies":["gas"],"technologyMixMw":{"gas":0.0},"unitCount":2,"unitIds":["gem-unit-G100000407950","gem-unit-G100000407951"]},"type":"Feature"},{"geometry":{"coordinates":[44.497687,40.115176],"type":"Point"},"id":"wattlas-plant-gemplant-l100000406949","properties":{"aliases":["1-2","Yerevan 1 power station"],"canonicalAnchor":"gemplant:L100000406949","canonicalCountryKey":"AM","capacityMw":242.0,"country":"AM","externalIds":{"gemPlant":"L100000406949","gemUnit":"G100000407953"},"gemWikiUrl":"https://www.gem.wiki/Yerevan_1_power_station","geographyId":"AM-6114869B51735422330893","id":"wattlas-plant-gemplant-l100000406949","lifecycleCounts":{"operational":1},"locationPrecision":"exact","name":"Yerevan 1 power station","operatingCapacityCoverage":{"coveragePercent":100.0,"knownUnitCount":1,"method":"complete_unit_sum","provenance":{"evidenceCount":0,"recordIds":["wattlas-record-gemunit-g100000407953"],"sourceIds":["gem-global-integrated-power-tracker"],"sourceTypes":["research_verified"],"valueKind":"reported"},"totalUnitCount":1},"operatingCapacityMw":242.0,"operatingCapacityMwByTechnology":{"gas":242.0},"plannedCapacityCoverage":{"coveragePercent":0.0,"knownUnitCount":0,"method":"unavailable","totalUnitCount":0},"plannedCapacityMw":0.0,"plannedCapacityMwByTechnology":{},"recordCount":1,"recordIds":["wattlas-record-gemunit-g100000407953"],"sourceIds":["gem-global-integrated-power-tracker"],"sourceUrl":"https://www.gem.wiki/Yerevan_1_power_station","technologies":["gas"],"technologyMixMw":{"gas":242.0},"unitCount":1,"unitIds":["gem-unit-G100000407953"]},"type":"Feature"},{"geometry":{"coordinates":[44.752775,40.569508],"type":"Point"},"id":"wattlas-plant-gemplant-l100000406951","properties":{"aliases":["1-1","1-2","2-1","2-2","3-1","3-2","4-1","5-2","Hrazdan thermal power plant"],"canonicalAnchor":"gemplant:L100000406951","canonicalCountryKey":"AM","capacityMw":631.0,"country":"AM","externalIdAliases":{"gemUnit":["G100000407961","G100000407963","G100000407964","G100000407965","G100000407966","G100000407967","G100000407968","G100000407969"]},"externalIds":{"gemPlant":"L100000406951","gemUnit":"G100000407961"},"gemWikiUrl":"https://www.gem.wiki/Hrazdan_thermal_power_plant","geographyId":"AM-6114869B17514330158920","id":"wattlas-plant-gemplant-l100000406951","lifecycleCounts":{"operational":2,"paused":6},"locationPrecision":"exact","name":"Hrazdan thermal power plant","operatingCapacityCoverage":{"coveragePercent":100.0,"knownUnitCount":2,"method":"complete_unit_sum","provenance":{"evidenceCount":0,"recordIds":["wattlas-record-gemunit-g100000407961","wattlas-record-gemunit-g100000407963"],"sourceIds":["gem-global-integrated-power-tracker"],"sourceTypes":["research_verified"],"valueKind":"reported"},"totalUnitCount":2},"operatingCapacityMw":631.0,"operatingCapacityMwByTechnology":{"gas":631.0},"plannedCapacityCoverage":{"coveragePercent":0.0,"knownUnitCount":0,"method":"unavailable","totalUnitCount":0},"plannedCapacityMw":0.0,"plannedCapacityMwByTechnology":{},"recordCount":8,"recordIds":["wattlas-record-gemunit-g100000407961","wattlas-record-gemunit-g100000407963","wattlas-record-gemunit-g100000407964","wattlas-record-gemunit-g100000407965","wattlas-record-gemunit-g100000407966","wattlas-record-gemunit-g100000407967","wattlas-record-gemunit-g100000407968","wattlas-record-gemunit-g100000407969"],"sourceIds":["gem-global-integrated-power-tracker"],"sourceUrl":"https://www.gem.wiki/Hrazdan_thermal_power_plant","technologies":["gas"],"technologyMixMw":{"gas":631.0},"unitCount":8,"unitIds":["gem-unit-G100000407961","gem-unit-G100000407963","gem-unit-G100000407964","gem-unit-G100000407965","gem-unit-G100000407966","gem-unit-G100000407967","gem-unit-G100000407968","gem-unit-G100000407969"]},"type":"Feature"},{"geometry":{"coordinates":[44.752775,40.569508],"type":"Point"},"id":"wattlas-plant-gemplant-l100000408442","properties":{"aliases":["1-1","Hrazdan power station"],"canonicalAnchor":"gemplant:L100000408442","canonicalCountryKey":"AM","capacityMw":50.0,"country":"AM","externalIds":{"gemPlant":"L100000408442","gemUnit":"G100000411961"},"gemWikiUrl":"https://www.gem.wiki/Hrazdan_power_station","geographyId":"AM-6114869B17514330158920","id":"wattlas-plant-gemplant-l100000408442","lifecycleCounts":{"under_construction":1},"locationPrecision":"exact","name":"Hrazdan power station","operatingCapacityCoverage":{"coveragePercent":0.0,"knownUnitCount":0,"method":"unavailable","totalUnitCount":0},"operatingCapacityMw":0.0,"operatingCapacityMwByTechnology":{},"plannedCapacityCoverage":{"coveragePercent":100.0,"knownUnitCount":1,"method":"complete_unit_sum","provenance":{"evidenceCount":0,"recordIds":["wattlas-record-gemunit-g100000411961"],"sourceIds":["gem-global-integrated-power-tracker"],"sourceTypes":["research_verified"],"valueKind":"reported"},"totalUnitCount":1},"plannedCapacityMw":50.0,"plannedCapacityMwByTechnology":{"gas":50.0},"recordCount":1,"recordIds":["wattlas-record-gemunit-g100000411961"],"sourceIds":["gem-global-integrated-power-tracker"],"sourceUrl":"https://www.gem.wiki/Hrazdan_power_station","technologies":["gas"],"technologyMixMw":{"gas":50.0},"unitCount":1,"unitIds":["gem-unit-G100000411961"]},"type":"Feature"},{"geometry":{"coordinates":[45.000307,41.17345],"type":"Point"},"id":"wattlas-plant-gemplant-l100000408929","properties":{"aliases":["1-1","Noyemberyan power station"],"canonicalAnchor":"gemplant:L100000408929","canonicalCountryKey":"AM","capacityMw":126.0,"country":"AM","externalIds":{"gemPlant":"L100000408929","gemUnit":"G100000413210"},"gemWikiUrl":"https://www.gem.wiki/Noyemberyan_power_station","geographyId":"AM-6114869B33842112003829","id":"wattlas-plant-gemplant-l100000408929","lifecycleCounts":{"announced":1},"locationPrecision":"exact","name":"Noyemberyan power station","operatingCapacityCoverage":{"coveragePercent":0.0,"knownUnitCount":0,"method":"unavailable","totalUnitCount":0},"operatingCapacityMw":0.0,"operatingCapacityMwByTechnology":{},"plannedCapacityCoverage":{"coveragePercent":100.0,"knownUnitCount":1,"method":"complete_unit_sum","provenance":{"evidenceCount":0,"recordIds":["wattlas-record-gemunit-g100000413210"],"sourceIds":["gem-global-integrated-power-tracker"],"sourceTypes":["research_verified"],"valueKind":"reported"},"totalUnitCount":1},"plannedCapacityMw":126.0,"plannedCapacityMwByTechnology":{"gas":126.0},"recordCount":1,"recordIds":["wattlas-record-gemunit-g100000413210"],"sourceIds":["gem-global-integrated-power-tracker"],"sourceUrl":"https://www.gem.wiki/Noyemberyan_power_station","technologies":["gas"],"technologyMixMw":{"gas":126.0},"unitCount":1,"unitIds":["gem-unit-G100000413210"]},"type":"Feature"},{"geometry":{"coordinates":[44.1423,40.1817],"type":"Point"},"id":"wattlas-plant-gemplant-l100000500203","properties":{"aliases":["1.0","2.0","3.0","Armenian nuclear power plant"],"canonicalAnchor":"gemplant:L100000500203","canonicalCountryKey":"AM","capacityMw":1648.0,"country":"AM","externalIdAliases":{"gemUnit":["G100000500481","G100000500482","G100000500714"]},"externalIds":{"gemPlant":"L100000500203","gemUnit":"G100000500714"},"gemWikiUrl":"https://www.gem.wiki/Armenian_nuclear_power_plant","geographyId":"AM-6114869B3426889126469","id":"wattlas-plant-gemplant-l100000500203","lifecycleCounts":{"announced":1,"cancelled":1,"operational":1},"locationPrecision":"exact","name":"Armenian nuclear power plant","operatingCapacityCoverage":{"coveragePercent":100.0,"knownUnitCount":1,"method":"complete_unit_sum","provenance":{"evidenceCount":0,"recordIds":["wattlas-record-gemunit-g100000500482"],"sourceIds":["gem-global-integrated-power-tracker"],"sourceTypes":["research_verified"],"valueKind":"reported"},"totalUnitCount":1},"operatingCapacityMw":448.0,"operatingCapacityMwByTechnology":{"nuclear":448.0},"plannedCapacityCoverage":{"coveragePercent":100.0,"knownUnitCount":1,"method":"complete_unit_sum","provenance":{"evidenceCount":0,"recordIds":["wattlas-record-gemunit-g100000500714"],"sourceIds":["gem-global-integrated-power-tracker"],"sourceTypes":["research_verified"],"valueKind":"reported"},"totalUnitCount":1},"plannedCapacityMw":1200.0,"plannedCapacityMwByTechnology":{"nuclear":1200.0},"recordCount":3,"recordIds":["wattlas-record-gemunit-g100000500481","wattlas-record-gemunit-g100000500482","wattlas-record-gemunit-g100000500714"],"sourceIds":["gem-global-integrated-power-tracker"],"sourceUrl":"https://www.gem.wiki/Armenian_nuclear_power_plant","technologies":["nuclear"],"technologyMixMw":{"nuclear":1648.0},"unitCount":3,"unitIds":["gem-unit-G100000500481","gem-unit-G100000500482","gem-unit-G100000500714"]},"type":"Feature"},{"geometry":{"coordinates":[44.6069,40.3786],"type":"Point"},"id":"wattlas-plant-gemplant-l100000600043","properties":{"aliases":["Argel hydroelectric plant"],"canonicalAnchor":"gemplant:L100000600043","canonicalCountryKey":"AM","capacityMw":224.0,"country":"AM","externalIds":{"gemPlant":"L100000600043","gemUnit":"G100000600043"},"gemWikiUrl":"https://www.gem.wiki/Argel_hydroelectric_plant","geographyId":"AM-6114869B17514330158920","id":"wattlas-plant-gemplant-l100000600043","lifecycleCounts":{"operational":1},"locationPrecision":"exact","name":"Argel hydroelectric plant","operatingCapacityCoverage":{"coveragePercent":100.0,"knownUnitCount":1,"method":"complete_unit_sum","provenance":{"evidenceCount":0,"recordIds":["wattlas-record-gemunit-g100000600043"],"sourceIds":["gem-global-integrated-power-tracker"],"sourceTypes":["research_verified"],"valueKind":"reported"},"totalUnitCount":1},"operatingCapacityMw":224.0,"operatingCapacityMwByTechnology":{"hydro":224.0},"plannedCapacityCoverage":{"coveragePercent":0.0,"knownUnitCount":0,"method":"unavailable","totalUnitCount":0},"plannedCapacityMw":0.0,"plannedCapacityMwByTechnology":{},"recordCount":1,"recordIds":["wattlas-record-gemunit-g100000600043"],"sourceIds":["gem-global-integrated-power-tracker"],"sourceUrl":"https://www.gem.wiki/Argel_hydroelectric_plant","technologies":["hydro"],"technologyMixMw":{"hydro":224.0},"unitCount":1,"unitIds":["gem-unit-G100000600043"]},"type":"Feature"},{"geometry":{"coordinates":[44.7598,40.5082],"type":"Point"},"id":"wattlas-plant-gemplant-l100000600044","properties":{"aliases":["Hrazdan hydroelectric plant"],"canonicalAnchor":"gemplant:L100000600044","canonicalCountryKey":"AM","capacityMw":81.0,"country":"AM","externalIds":{"gemPlant":"L100000600044","gemUnit":"G100000600044"},"gemWikiUrl":"https://www.gem.wiki/Hrazdan_hydroelectric_plant","geographyId":"AM-6114869B17514330158920","id":"wattlas-plant-gemplant-l100000600044","lifecycleCounts":{"operational":1},"locationPrecision":"exact","name":"Hrazdan hydroelectric plant","operatingCapacityCoverage":{"coveragePercent":100.0,"knownUnitCount":1,"method":"complete_unit_sum","provenance":{"evidenceCount":0,"recordIds":["wattlas-record-gemunit-g100000600044"],"sourceIds":["gem-global-integrated-power-tracker"],"sourceTypes":["research_verified"],"valueKind":"reported"},"totalUnitCount":1},"operatingCapacityMw":81.0,"operatingCapacityMwByTechnology":{"hydro":81.0},"plannedCapacityCoverage":{"coveragePercent":0.0,"knownUnitCount":0,"method":"unavailable","totalUnitCount":0},"plannedCapacityMw":0.0,"plannedCapacityMwByTechnology":{},"recordCount":1,"recordIds":["wattlas-record-gemunit-g100000600044"],"sourceIds":["gem-global-integrated-power-tracker"],"sourceUrl":"https://www.gem.wiki/Hrazdan_hydroelectric_plant","technologies":["hydro"],"technologyMixMw":{"hydro":81.0},"unitCount":1,"unitIds":["gem-unit-G100000600044"]},"type":"Feature"},{"geometry":{"coordinates":[46.2997,38.9031],"type":"Point"},"id":"wattlas-plant-gemplant-l100000600045","properties":{"aliases":["Meghri hydroelectric plant"],"canonicalAnchor":"gemplant:L100000600045","canonicalCountryKey":"AM","capacityMw":100.0,"country":"AM","externalIds":{"gemPlant":"L100000600045","gemUnit":"G100000600045"},"gemWikiUrl":"https://www.gem.wiki/Meghri_hydroelectric_plant","geographyId":"AM-6114869B3680049481024","id":"wattlas-plant-gemplant-l100000600045","lifecycleCounts":{"announced":1},"locationPrecision":"exact","name":"Meghri hydroelectric plant","operatingCapacityCoverage":{"coveragePercent":0.0,"knownUnitCount":0,"method":"unavailable","totalUnitCount":0},"operatingCapacityMw":0.0,"operatingCapacityMwByTechnology":{},"plannedCapacityCoverage":{"coveragePercent":100.0,"knownUnitCount":1,"method":"complete_unit_sum","provenance":{"evidenceCount":0,"recordIds":["wattlas-record-gemunit-g100000600045"],"sourceIds":["gem-global-integrated-power-tracker"],"sourceTypes":["research_verified"],"valueKind":"reported"},"totalUnitCount":1},"plannedCapacityMw":100.0,"plannedCapacityMwByTechnology":{"hydro":100.0},"recordCount":1,"recordIds":["wattlas-record-gemunit-g100000600045"],"sourceIds":["gem-global-integrated-power-tracker"],"sourceUrl":"https://www.gem.wiki/Meghri_hydroelectric_plant","technologies":["hydro"],"technologyMixMw":{"hydro":100.0},"unitCount":1,"unitIds":["gem-unit-G100000600045"]},"type":"Feature"},{"geometry":{"coordinates":[44.5164,40.2211],"type":"Point"},"id":"wattlas-plant-gemplant-l100000600046","properties":{"aliases":["Qanaqer hydroelectric plant"],"canonicalAnchor":"gemplant:L100000600046","canonicalCountryKey":"AM","capacityMw":102.0,"country":"AM","externalIds":{"gemPlant":"L100000600046","gemUnit":"G100000600046"},"gemWikiUrl":"https://www.gem.wiki/Qanaqer_hydroelectric_plant","geographyId":"AM-6114869B17514330158920","id":"wattlas-plant-gemplant-l100000600046","lifecycleCounts":{"operational":1},"locationPrecision":"exact","name":"Qanaqer hydroelectric plant","operatingCapacityCoverage":{"coveragePercent":100.0,"knownUnitCount":1,"method":"complete_unit_sum","provenance":{"evidenceCount":0,"recordIds":["wattlas-record-gemunit-g100000600046"],"sourceIds":["gem-global-integrated-power-tracker"],"sourceTypes":["research_verified"],"valueKind":"reported"},"totalUnitCount":1},"operatingCapacityMw":102.0,"operatingCapacityMwByTechnology":{"hydro":102.0},"plannedCapacityCoverage":{"coveragePercent":0.0,"knownUnitCount":0,"method":"unavailable","totalUnitCount":0},"plannedCapacityMw":0.0,"plannedCapacityMwByTechnology":{},"recordCount":1,"recordIds":["wattlas-record-gemunit-g100000600046"],"sourceIds":["gem-global-integrated-power-tracker"],"sourceUrl":"https://www.gem.wiki/Qanaqer_hydroelectric_plant","technologies":["hydro"],"technologyMixMw":{"hydro":102.0},"unitCount":1,"unitIds":["gem-unit-G100000600046"]},"type":"Feature"},{"geometry":{"coordinates":[46.1303,39.4733],"type":"Point"},"id":"wattlas-plant-gemplant-l100000600047","properties":{"aliases":["Shamb hydroelectric plant"],"canonicalAnchor":"gemplant:L100000600047","canonicalCountryKey":"AM","capacityMw":171.0,"country":"AM","externalIds":{"gemPlant":"L100000600047","gemUnit":"G100000600047"},"gemWikiUrl":"https://www.gem.wiki/Shamb_hydroelectric_plant","geographyId":"AM-6114869B3680049481024","id":"wattlas-plant-gemplant-l100000600047","lifecycleCounts":{"operational":1},"locationPrecision":"exact","name":"Shamb hydroelectric plant","operatingCapacityCoverage":{"coveragePercent":100.0,"knownUnitCount":1,"method":"complete_unit_sum","provenance":{"evidenceCount":0,"recordIds":["wattlas-record-gemunit-g100000600047"],"sourceIds":["gem-global-integrated-power-tracker"],"sourceTypes":["research_verified"],"valueKind":"reported"},"totalUnitCount":1},"operatingCapacityMw":171.0,"operatingCapacityMwByTechnology":{"hydro":171.0},"plannedCapacityCoverage":{"coveragePercent":0.0,"knownUnitCount":0,"method":"unavailable","totalUnitCount":0},"plannedCapacityMw":0.0,"plannedCapacityMwByTechnology":{},"recordCount":1,"recordIds":["wattlas-record-gemunit-g100000600047"],"sourceIds":["gem-global-integrated-power-tracker"],"sourceUrl":"https://www.gem.wiki/Shamb_hydroelectric_plant","technologies":["hydro"],"technologyMixMw":{"hydro":171.0},"unitCount":1,"unitIds":["gem-unit-G100000600047"]},"type":"Feature"},{"geometry":{"coordinates":[45.8501,39.6494],"type":"Point"},"id":"wattlas-plant-gemplant-l100000600049","properties":{"aliases":["Spandaryan hydroelectric plant"],"canonicalAnchor":"gemplant:L100000600049","canonicalCountryKey":"AM","capacityMw":76.0,"country":"AM","externalIds":{"gemPlant":"L100000600049","gemUnit":"G100000600049"},"gemWikiUrl":"https://www.gem.wiki/Spandaryan_hydroelectric_plant","geographyId":"AM-6114869B3680049481024","id":"wattlas-plant-gemplant-l100000600049","lifecycleCounts":{"operational":1},"locationPrecision":"exact","name":"Spandaryan hydroelectric plant","operatingCapacityCoverage":{"coveragePercent":100.0,"knownUnitCount":1,"method":"complete_unit_sum","provenance":{"evidenceCount":0,"recordIds":["wattlas-record-gemunit-g100000600049"],"sourceIds":["gem-global-integrated-power-tracker"],"sourceTypes":["research_verified"],"valueKind":"reported"},"totalUnitCount":1},"operatingCapacityMw":76.0,"operatingCapacityMwByTechnology":{"hydro":76.0},"plannedCapacityCoverage":{"coveragePercent":0.0,"knownUnitCount":0,"method":"unavailable","totalUnitCount":0},"plannedCapacityMw":0.0,"plannedCapacityMwByTechnology":{},"recordCount":1,"recordIds":["wattlas-record-gemunit-g100000600049"],"sourceIds":["gem-global-integrated-power-tracker"],"sourceUrl":"https://www.gem.wiki/Spandaryan_hydroelectric_plant","technologies":["hydro"],"technologyMixMw":{"hydro":76.0},"unitCount":1,"unitIds":["gem-unit-G100000600049"]},"type":"Feature"},{"geometry":{"coordinates":[44.9356,40.6572],"type":"Point"},"id":"wattlas-plant-gemplant-l100000905913","properties":{"aliases":["--","Semyonovka wind farm"],"canonicalAnchor":"gemplant:L100000905913","canonicalCountryKey":"AM","capacityMw":0.0,"country":"AM","externalIds":{"gemPlant":"L100000905913","gemUnit":"G100000908091"},"gemWikiUrl":"https://www.gem.wiki/Semyonovka_wind_farm","geographyId":"AM-6114869B91778422332839","id":"wattlas-plant-gemplant-l100000905913","lifecycleCounts":{"cancelled":1},"locationPrecision":"exact","name":"Semyonovka wind farm","operatingCapacityCoverage":{"coveragePercent":0.0,"knownUnitCount":0,"method":"unavailable","totalUnitCount":0},"operatingCapacityMw":0.0,"operatingCapacityMwByTechnology":{},"plannedCapacityCoverage":{"coveragePercent":0.0,"knownUnitCount":0,"method":"unavailable","totalUnitCount":0},"plannedCapacityMw":0.0,"plannedCapacityMwByTechnology":{},"recordCount":1,"recordIds":["wattlas-record-gemunit-g100000908091"],"sourceIds":["gem-global-integrated-power-tracker"],"sourceUrl":"https://www.gem.wiki/Semyonovka_wind_farm","technologies":["wind"],"technologyMixMw":{"wind":0.0},"unitCount":1,"unitIds":["gem-unit-G100000908091"]},"type":"Feature"},{"geometry":{"coordinates":[44.5874,40.2968],"type":"Point"},"id":"wattlas-plant-gemplant-l100001046047","properties":{"aliases":["Arzni hydroelectric plant"],"canonicalAnchor":"gemplant:L100001046047","canonicalCountryKey":"AM","capacityMw":71.0,"country":"AM","externalIds":{"gemPlant":"L100001046047","gemUnit":"G100001051933"},"gemWikiUrl":"https://www.gem.wiki/Arzni_hydroelectric_plant","geographyId":"AM-6114869B17514330158920","id":"wattlas-plant-gemplant-l100001046047","lifecycleCounts":{"operational":1},"locationPrecision":"exact","name":"Arzni hydroelectric plant","operatingCapacityCoverage":{"coveragePercent":100.0,"knownUnitCount":1,"method":"complete_unit_sum","provenance":{"evidenceCount":0,"recordIds":["wattlas-record-gemunit-g100001051933"],"sourceIds":["gem-global-integrated-power-tracker"],"sourceTypes":["research_verified"],"valueKind":"reported"},"totalUnitCount":1},"operatingCapacityMw":71.0,"operatingCapacityMwByTechnology":{"hydro":71.0},"plannedCapacityCoverage":{"coveragePercent":0.0,"knownUnitCount":0,"method":"unavailable","totalUnitCount":0},"plannedCapacityMw":0.0,"plannedCapacityMwByTechnology":{},"recordCount":1,"recordIds":["wattlas-record-gemunit-g100001051933"],"sourceIds":["gem-global-integrated-power-tracker"],"sourceUrl":"https://www.gem.wiki/Arzni_hydroelectric_plant","technologies":["hydro"],"technologyMixMw":{"hydro":71.0},"unitCount":1,"unitIds":["gem-unit-G100001051933"]},"type":"Feature"},{"geometry":{"coordinates":[44.9654,40.5547],"type":"Point"},"id":"wattlas-plant-gemplant-l100001063481","properties":{"aliases":["Sevan hydroelectric plant"],"canonicalAnchor":"gemplant:L100001063481","canonicalCountryKey":"AM","capacityMw":34.0,"country":"AM","externalIds":{"gemPlant":"L100001063481","gemUnit":"G100001072949"},"gemWikiUrl":"https://www.gem.wiki/Sevan_hydroelectric_plant","geographyId":"AM-6114869B91778422332839","id":"wattlas-plant-gemplant-l100001063481","lifecycleCounts":{"operational":1},"locationPrecision":"exact","name":"Sevan hydroelectric plant","operatingCapacityCoverage":{"coveragePercent":100.0,"knownUnitCount":1,"method":"complete_unit_sum","provenance":{"evidenceCount":0,"recordIds":["wattlas-record-gemunit-g100001072949"],"sourceIds":["gem-global-integrated-power-tracker"],"sourceTypes":["research_verified"],"valueKind":"reported"},"totalUnitCount":1},"operatingCapacityMw":34.0,"operatingCapacityMwByTechnology":{"hydro":34.0},"plannedCapacityCoverage":{"coveragePercent":0.0,"knownUnitCount":0,"method":"unavailable","totalUnitCount":0},"plannedCapacityMw":0.0,"plannedCapacityMwByTechnology":{},"recordCount":1,"recordIds":["wattlas-record-gemunit-g100001072949"],"sourceIds":["gem-global-integrated-power-tracker"],"sourceUrl":"https://www.gem.wiki/Sevan_hydroelectric_plant","technologies":["hydro"],"technologyMixMw":{"hydro":34.0},"unitCount":1,"unitIds":["gem-unit-G100001072949"]},"type":"Feature"},{"geometry":{"coordinates":[44.415775,40.066357],"type":"Point"},"id":"wattlas-plant-osm-way-1052438470","properties":{"aliases":["Mapped power plant · OSM 1052438470"],"canonicalAnchor":"osm:way/1052438470","canonicalCountryKey":"AM","capacityMw":1.0,"country":"AM","externalIds":{"osm":"way/1052438470"},"geographyId":"AM-6114869B31075086997569","id":"wattlas-plant-osm-way-1052438470","lifecycleCounts":{"operational":1},"locationPrecision":"exact","name":"Mapped power plant · OSM 1052438470","operatingCapacityCoverage":{"coveragePercent":100.0,"knownUnitCount":0,"method":"plant_aggregate","provenance":{"evidenceCount":0,"recordIds":["wattlas-record-osm-way-1052438470"],"sourceIds":["openstreetmap-power"],"sourceTypes":["community_mapped"],"valueKind":"reported"},"totalUnitCount":0},"operatingCapacityMw":1.0,"operatingCapacityMwByTechnology":{"solar":1.0},"plannedCapacityCoverage":{"coveragePercent":0.0,"knownUnitCount":0,"method":"unavailable","totalUnitCount":0},"plannedCapacityMw":0.0,"plannedCapacityMwByTechnology":{},"recordCount":1,"recordIds":["wattlas-record-osm-way-1052438470"],"sourceIds":["openstreetmap-power"],"sourceUrl":"https://www.openstreetmap.org/way/1052438470","technologies":["solar"],"technologyMixMw":{"solar":1.0},"unitCount":0,"unitIds":[]},"type":"Feature"},{"geometry":{"coordinates":[44.618774,39.962529],"type":"Point"},"id":"wattlas-plant-osm-way-1118648949","properties":{"aliases":["Այգեզարդ"],"canonicalAnchor":"osm:way/1118648949","canonicalCountryKey":"AM","capacityMw":0.0,"country":"AM","externalIds":{"osm":"way/1118648949"},"geographyId":"AM-6114869B31075086997569","id":"wattlas-plant-osm-way-1118648949","lifecycleCounts":{"operational":1},"locationPrecision":"exact","name":"Այգեզարդ","operatingCapacityCoverage":{"coveragePercent":0.0,"knownUnitCount":0,"method":"unavailable","totalUnitCount":0},"operatingCapacityMw":0.0,"operatingCapacityMwByTechnology":{},"plannedCapacityCoverage":{"coveragePercent":0.0,"knownUnitCount":0,"method":"unavailable","totalUnitCount":0},"plannedCapacityMw":0.0,"plannedCapacityMwByTechnology":{},"recordCount":1,"recordIds":["wattlas-record-osm-way-1118648949"],"sourceIds":["openstreetmap-power"],"sourceUrl":"https://www.openstreetmap.org/way/1118648949","technologies":["hydro"],"technologyMixMw":{"hydro":0.0},"unitCount":0,"unitIds":[]},"type":"Feature"},{"geometry":{"coordinates":[44.583426,40.05935],"type":"Point"},"id":"wattlas-plant-osm-way-1161119394","properties":{"aliases":["Զովաշեն Հիդրոէլեկտրոկայան"],"canonicalAnchor":"osm:way/1161119394","canonicalCountryKey":"AM","capacityMw":1.2,"country":"AM","externalIds":{"osm":"way/1161119394"},"geographyId":"AM-6114869B31075086997569","id":"wattlas-plant-osm-way-1161119394","lifecycleCounts":{"operational":1},"locationPrecision":"exact","name":"Զովաշեն Հիդրոէլեկտրոկայան","operatingCapacityCoverage":{"coveragePercent":100.0,"knownUnitCount":0,"method":"plant_aggregate","provenance":{"evidenceCount":0,"recordIds":["wattlas-record-osm-way-1161119394"],"sourceIds":["openstreetmap-power"],"sourceTypes":["community_mapped"],"valueKind":"reported"},"totalUnitCount":0},"operatingCapacityMw":1.2,"operatingCapacityMwByTechnology":{"hydro":1.2},"plannedCapacityCoverage":{"coveragePercent":0.0,"knownUnitCount":0,"method":"unavailable","totalUnitCount":0},"plannedCapacityMw":0.0,"plannedCapacityMwByTechnology":{},"recordCount":1,"recordIds":["wattlas-record-osm-way-1161119394"],"sourceIds":["openstreetmap-power"],"sourceUrl":"https://www.openstreetmap.org/way/1161119394","technologies":["hydro"],"technologyMixMw":{"hydro":1.2},"unitCount":0,"unitIds":[]},"type":"Feature"},{"geometry":{"coordinates":[45.669616,39.837437],"type":"Point"},"id":"wattlas-plant-osm-way-123570978","properties":{"aliases":["ՄՈՒՇԵՂ ՀԷԿ"],"canonicalAnchor":"osm:way/123570978","canonicalCountryKey":"AM","capacityMw":0.0,"country":"AM","externalIds":{"osm":"way/123570978"},"geographyId":"AM-6114869B77774582045190","id":"wattlas-plant-osm-way-123570978","lifecycleCounts":{"operational":1},"locationPrecision":"exact","name":"ՄՈՒՇԵՂ ՀԷԿ","operatingCapacityCoverage":{"coveragePercent":0.0,"knownUnitCount":0,"method":"unavailable","totalUnitCount":0},"operatingCapacityMw":0.0,"operatingCapacityMwByTechnology":{},"plannedCapacityCoverage":{"coveragePercent":0.0,"knownUnitCount":0,"method":"unavailable","totalUnitCount":0},"plannedCapacityMw":0.0,"plannedCapacityMwByTechnology":{},"recordCount":1,"recordIds":["wattlas-record-osm-way-123570978"],"sourceIds":["openstreetmap-power"],"sourceUrl":"https://www.openstreetmap.org/way/123570978","technologies":["hydro"],"technologyMixMw":{"hydro":0.0},"unitCount":0,"unitIds":[]},"type":"Feature"},{"geometry":{"coordinates":[43.748726,40.859201],"type":"Point"},"id":"wattlas-plant-osm-way-1330621610","properties":{"aliases":["Գյումրու ՀԷԿ"],"canonicalAnchor":"osm:way/1330621610","canonicalCountryKey":"AM","capacityMw":0.0,"country":"AM","externalIds":{"osm":"way/1330621610"},"geographyId":"AM-6114869B14983463018500","id":"wattlas-plant-osm-way-1330621610","lifecycleCounts":{"operational":1},"locationPrecision":"exact","name":"Գյումրու ՀԷԿ","operatingCapacityCoverage":{"coveragePercent":0.0,"knownUnitCount":0,"method":"unavailable","totalUnitCount":0},"operatingCapacityMw":0.0,"operatingCapacityMwByTechnology":{},"plannedCapacityCoverage":{"coveragePercent":0.0,"knownUnitCount":0,"method":"unavailable","totalUnitCount":0},"plannedCapacityMw":0.0,"plannedCapacityMwByTechnology":{},"recordCount":1,"recordIds":["wattlas-record-osm-way-1330621610"],"sourceIds":["openstreetmap-power"],"sourceUrl":"https://www.openstreetmap.org/way/1330621610","technologies":["hydro"],"technologyMixMw":{"hydro":0.0},"unitCount":0,"unitIds":[]},"type":"Feature"},{"geometry":{"coordinates":[44.578943,40.218319],"type":"Point"},"id":"wattlas-plant-osm-way-133136011","properties":{"aliases":["Mapped power plant · OSM 133136011"],"canonicalAnchor":"osm:way/133136011","canonicalCountryKey":"AM","capacityMw":0.0,"country":"AM","externalIds":{"osm":"way/133136011"},"geographyId":"AM-6114869B51735422330893","id":"wattlas-plant-osm-way-133136011","lifecycleCounts":{"operational":1},"locationPrecision":"exact","name":"Mapped power plant · OSM 133136011","operatingCapacityCoverage":{"coveragePercent":0.0,"knownUnitCount":0,"method":"unavailable","totalUnitCount":0},"operatingCapacityMw":0.0,"operatingCapacityMwByTechnology":{},"plannedCapacityCoverage":{"coveragePercent":0.0,"knownUnitCount":0,"method":"unavailable","totalUnitCount":0},"plannedCapacityMw":0.0,"plannedCapacityMwByTechnology":{},"recordCount":1,"recordIds":["wattlas-record-osm-way-133136011"],"sourceIds":["openstreetmap-power"],"sourceUrl":"https://www.openstreetmap.org/way/133136011","technologies":["gas"],"technologyMixMw":{"gas":0.0},"unitCount":0,"unitIds":[]},"type":"Feature"},{"geometry":{"coordinates":[45.72689,40.226628],"type":"Point"},"id":"wattlas-plant-osm-way-1344363902","properties":{"aliases":["Մասրիկ 1"],"canonicalAnchor":"osm:way/1344363902","canonicalCountryKey":"AM","capacityMw":62.0,"country":"AM","externalIds":{"osm":"way/1344363902"},"geographyId":"AM-6114869B91778422332839","id":"wattlas-plant-osm-way-1344363902","lifecycleCounts":{"operational":1},"locationPrecision":"exact","name":"Մասրիկ 1","operatingCapacityCoverage":{"coveragePercent":100.0,"knownUnitCount":0,"method":"plant_aggregate","provenance":{"evidenceCount":0,"recordIds":["wattlas-record-osm-way-1344363902"],"sourceIds":["openstreetmap-power"],"sourceTypes":["community_mapped"],"valueKind":"reported"},"totalUnitCount":0},"operatingCapacityMw":62.0,"operatingCapacityMwByTechnology":{"solar":62.0},"plannedCapacityCoverage":{"coveragePercent":0.0,"knownUnitCount":0,"method":"unavailable","totalUnitCount":0},"plannedCapacityMw":0.0,"plannedCapacityMwByTechnology":{},"recordCount":1,"recordIds":["wattlas-record-osm-way-1344363902"],"sourceIds":["openstreetmap-power"],"sourceUrl":"https://www.openstreetmap.org/way/1344363902","technologies":["solar"],"technologyMixMw":{"solar":62.0},"unitCount":0,"unitIds":[]},"type":"Feature"},{"geometry":{"coordinates":[44.458947,40.826326],"type":"Point"},"id":"wattlas-plant-osm-way-186922966","properties":{"aliases":["Վանաձորի ՋԷԿ"],"canonicalAnchor":"osm:way/186922966","canonicalCountryKey":"AM","capacityMw":96.0,"country":"AM","externalIds":{"osm":"way/186922966"},"geographyId":"AM-6114869B99267739496878","id":"wattlas-plant-osm-way-186922966","lifecycleCounts":{"operational":1},"locationPrecision":"exact","name":"Վանաձորի ՋԷԿ","operatingCapacityCoverage":{"coveragePercent":100.0,"knownUnitCount":0,"method":"plant_aggregate","provenance":{"evidenceCount":0,"recordIds":["wattlas-record-osm-way-186922966"],"sourceIds":["openstreetmap-power"],"sourceTypes":["community_mapped"],"valueKind":"reported"},"totalUnitCount":0},"operatingCapacityMw":96.0,"operatingCapacityMwByTechnology":{"gas":96.0},"plannedCapacityCoverage":{"coveragePercent":0.0,"knownUnitCount":0,"method":"unavailable","totalUnitCount":0},"plannedCapacityMw":0.0,"plannedCapacityMwByTechnology":{},"recordCount":1,"recordIds":["wattlas-record-osm-way-186922966"],"sourceIds":["openstreetmap-power"],"sourceUrl":"https://www.openstreetmap.org/way/186922966","technologies":["gas"],"technologyMixMw":{"gas":96.0},"unitCount":0,"unitIds":[]},"type":"Feature"},{"geometry":{"coordinates":[46.130482,39.474118],"type":"Point"},"id":"wattlas-plant-osm-way-190980691","properties":{"aliases":["Շամբ ՀԷԿ"],"canonicalAnchor":"osm:way/190980691","canonicalCountryKey":"AM","capacityMw":171.0,"country":"AM","externalIds":{"osm":"way/190980691"},"geographyId":"AM-6114869B3680049481024","id":"wattlas-plant-osm-way-190980691","lifecycleCounts":{"operational":1},"locationPrecision":"exact","name":"Շամբ ՀԷԿ","operatingCapacityCoverage":{"coveragePercent":100.0,"knownUnitCount":0,"method":"plant_aggregate","provenance":{"evidenceCount":0,"recordIds":["wattlas-record-osm-way-190980691"],"sourceIds":["openstreetmap-power"],"sourceTypes":["community_mapped"],"valueKind":"reported"},"totalUnitCount":0},"operatingCapacityMw":171.0,"operatingCapacityMwByTechnology":{"hydro":171.0},"plannedCapacityCoverage":{"coveragePercent":0.0,"knownUnitCount":0,"method":"unavailable","totalUnitCount":0},"plannedCapacityMw":0.0,"plannedCapacityMwByTechnology":{},"recordCount":1,"recordIds":["wattlas-record-osm-way-190980691"],"sourceIds":["openstreetmap-power"],"sourceUrl":"https://www.openstreetmap.org/way/190980691","technologies":["hydro"],"technologyMixMw":{"hydro":171.0},"unitCount":0,"unitIds":[]},"type":"Feature"},{"geometry":{"coordinates":[44.500874,40.164239],"type":"Point"},"id":"wattlas-plant-osm-way-216252063","properties":{"aliases":["Երևան 3 ՀԷԿ"],"canonicalAnchor":"osm:way/216252063","canonicalCountryKey":"AM","capacityMw":5.0,"country":"AM","externalIds":{"osm":"way/216252063"},"geographyId":"AM-6114869B51735422330893","id":"wattlas-plant-osm-way-216252063","lifecycleCounts":{"operational":1},"locationPrecision":"exact","name":"Երևան 3 ՀԷԿ","operatingCapacityCoverage":{"coveragePercent":100.0,"knownUnitCount":0,"method":"plant_aggregate","provenance":{"evidenceCount":0,"recordIds":["wattlas-record-osm-way-216252063"],"sourceIds":["openstreetmap-power"],"sourceTypes":["community_mapped"],"valueKind":"reported"},"totalUnitCount":0},"operatingCapacityMw":5.0,"operatingCapacityMwByTechnology":{"hydro":5.0},"plannedCapacityCoverage":{"coveragePercent":0.0,"knownUnitCount":0,"method":"unavailable","totalUnitCount":0},"plannedCapacityMw":0.0,"plannedCapacityMwByTechnology":{},"recordCount":1,"recordIds":["wattlas-record-osm-way-216252063"],"sourceIds":["openstreetmap-power"],"sourceUrl":"https://www.openstreetmap.org/way/216252063","technologies":["hydro"],"technologyMixMw":{"hydro":5.0},"unitCount":0,"unitIds":[]},"type":"Feature"},{"geometry":{"coordinates":[44.193471,40.40169],"type":"Point"},"id":"wattlas-plant-osm-way-225854162","properties":{"aliases":["Ամբերդ ՓՀԷԿ-1"],"canonicalAnchor":"osm:way/225854162","canonicalCountryKey":"AM","capacityMw":0.0,"country":"AM","externalIds":{"osm":"way/225854162"},"geographyId":"AM-6114869B21685892816693","id":"wattlas-plant-osm-way-225854162","lifecycleCounts":{"operational":1},"locationPrecision":"exact","name":"Ամբերդ ՓՀԷԿ-1","operatingCapacityCoverage":{"coveragePercent":0.0,"knownUnitCount":0,"method":"unavailable","totalUnitCount":0},"operatingCapacityMw":0.0,"operatingCapacityMwByTechnology":{},"plannedCapacityCoverage":{"coveragePercent":0.0,"knownUnitCount":0,"method":"unavailable","totalUnitCount":0},"plannedCapacityMw":0.0,"plannedCapacityMwByTechnology":{},"recordCount":1,"recordIds":["wattlas-record-osm-way-225854162"],"sourceIds":["openstreetmap-power"],"sourceUrl":"https://www.openstreetmap.org/way/225854162","technologies":["hydro"],"technologyMixMw":{"hydro":0.0},"unitCount":0,"unitIds":[]},"type":"Feature"},{"geometry":{"coordinates":[44.587635,40.94959],"type":"Point"},"id":"wattlas-plant-osm-way-284174534","properties":{"aliases":["abandoned"],"canonicalAnchor":"osm:way/284174534","canonicalCountryKey":"AM","capacityMw":0.0,"country":"AM","externalIds":{"osm":"way/284174534"},"geographyId":"AM-6114869B99267739496878","id":"wattlas-plant-osm-way-284174534","lifecycleCounts":{"operational":1},"locationPrecision":"exact","name":"abandoned","operatingCapacityCoverage":{"coveragePercent":0.0,"knownUnitCount":0,"method":"unavailable","totalUnitCount":0},"operatingCapacityMw":0.0,"operatingCapacityMwByTechnology":{},"plannedCapacityCoverage":{"coveragePercent":0.0,"knownUnitCount":0,"method":"unavailable","totalUnitCount":0},"plannedCapacityMw":0.0,"plannedCapacityMwByTechnology":{},"recordCount":1,"recordIds":["wattlas-record-osm-way-284174534"],"sourceIds":["openstreetmap-power"],"sourceUrl":"https://www.openstreetmap.org/way/284174534","technologies":["hydro"],"technologyMixMw":{"hydro":0.0},"unitCount":0,"unitIds":[]},"type":"Feature"},{"geometry":{"coordinates":[45.172151,40.679049],"type":"Point"},"id":"wattlas-plant-osm-way-290536533","properties":{"aliases":["ՓՀԷԿ \"ԳԵՏԻԿ-1\""],"canonicalAnchor":"osm:way/290536533","canonicalCountryKey":"AM","capacityMw":0.0,"country":"AM","externalIds":{"osm":"way/290536533"},"geographyId":"AM-6114869B91778422332839","id":"wattlas-plant-osm-way-290536533","lifecycleCounts":{"operational":1},"locationPrecision":"exact","name":"ՓՀԷԿ \"ԳԵՏԻԿ-1\"","operatingCapacityCoverage":{"coveragePercent":0.0,"knownUnitCount":0,"method":"unavailable","totalUnitCount":0},"operatingCapacityMw":0.0,"operatingCapacityMwByTechnology":{},"plannedCapacityCoverage":{"coveragePercent":0.0,"knownUnitCount":0,"method":"unavailable","totalUnitCount":0},"plannedCapacityMw":0.0,"plannedCapacityMwByTechnology":{},"recordCount":1,"recordIds":["wattlas-record-osm-way-290536533"],"sourceIds":["openstreetmap-power"],"sourceUrl":"https://www.openstreetmap.org/way/290536533","technologies":["hydro"],"technologyMixMw":{"hydro":0.0},"unitCount":0,"unitIds":[]},"type":"Feature"},{"geometry":{"coordinates":[44.321403,40.489948],"type":"Point"},"id":"wattlas-plant-osm-way-293652833","properties":{"aliases":["Գեղարոտ ՓՀԷԿ"],"canonicalAnchor":"osm:way/293652833","canonicalCountryKey":"AM","capacityMw":0.0,"country":"AM","externalIds":{"osm":"way/293652833"},"geographyId":"AM-6114869B21685892816693","id":"wattlas-plant-osm-way-293652833","lifecycleCounts":{"operational":1},"locationPrecision":"exact","name":"Գեղարոտ ՓՀԷԿ","operatingCapacityCoverage":{"coveragePercent":0.0,"knownUnitCount":0,"method":"unavailable","totalUnitCount":0},"operatingCapacityMw":0.0,"operatingCapacityMwByTechnology":{},"plannedCapacityCoverage":{"coveragePercent":0.0,"knownUnitCount":0,"method":"unavailable","totalUnitCount":0},"plannedCapacityMw":0.0,"plannedCapacityMwByTechnology":{},"recordCount":1,"recordIds":["wattlas-record-osm-way-293652833"],"sourceIds":["openstreetmap-power"],"sourceUrl":"https://www.openstreetmap.org/way/293652833","technologies":["hydro"],"technologyMixMw":{"hydro":0.0},"unitCount":0,"unitIds":[]},"type":"Feature"},{"geometry":{"coordinates":[44.247626,40.363428],"type":"Point"},"id":"wattlas-plant-osm-way-501373310","properties":{"aliases":["Ամբերդ ՓՀԷԿ-3"],"canonicalAnchor":"osm:way/501373310","canonicalCountryKey":"AM","capacityMw":0.0,"country":"AM","externalIds":{"osm":"way/501373310"},"geographyId":"AM-6114869B21685892816693","id":"wattlas-plant-osm-way-501373310","lifecycleCounts":{"operational":1},"locationPrecision":"exact","name":"Ամբերդ ՓՀԷԿ-3","operatingCapacityCoverage":{"coveragePercent":0.0,"knownUnitCount":0,"method":"unavailable","totalUnitCount":0},"operatingCapacityMw":0.0,"operatingCapacityMwByTechnology":{},"plannedCapacityCoverage":{"coveragePercent":0.0,"knownUnitCount":0,"method":"unavailable","totalUnitCount":0},"plannedCapacityMw":0.0,"plannedCapacityMwByTechnology":{},"recordCount":1,"recordIds":["wattlas-record-osm-way-501373310"],"sourceIds":["openstreetmap-power"],"sourceUrl":"https://www.openstreetmap.org/way/501373310","technologies":["hydro"],"technologyMixMw":{"hydro":0.0},"unitCount":0,"unitIds":[]},"type":"Feature"},{"geometry":{"coordinates":[44.234409,40.3857],"type":"Point"},"id":"wattlas-plant-osm-way-501373311","properties":{"aliases":["Ամբերդ ՓՀԷԿ-2"],"canonicalAnchor":"osm:way/501373311","canonicalCountryKey":"AM","capacityMw":0.0,"country":"AM","externalIds":{"osm":"way/501373311"},"geographyId":"AM-6114869B21685892816693","id":"wattlas-plant-osm-way-501373311","lifecycleCounts":{"operational":1},"locationPrecision":"exact","name":"Ամբերդ ՓՀԷԿ-2","operatingCapacityCoverage":{"coveragePercent":0.0,"knownUnitCount":0,"method":"unavailable","totalUnitCount":0},"operatingCapacityMw":0.0,"operatingCapacityMwByTechnology":{},"plannedCapacityCoverage":{"coveragePercent":0.0,"knownUnitCount":0,"method":"unavailable","totalUnitCount":0},"plannedCapacityMw":0.0,"plannedCapacityMwByTechnology":{},"recordCount":1,"recordIds":["wattlas-record-osm-way-501373311"],"sourceIds":["openstreetmap-power"],"sourceUrl":"https://www.openstreetmap.org/way/501373311","technologies":["hydro"],"technologyMixMw":{"hydro":0.0},"unitCount":0,"unitIds":[]},"type":"Feature"},{"geometry":{"coordinates":[44.431146,40.911141],"type":"Point"},"id":"wattlas-plant-wikidata-q10858391","properties":{"aliases":["«Լոռի» հողմաէլեկտրակայան"],"canonicalAnchor":"wikidata:Q10858391","canonicalCountryKey":"AM","capacityMw":2.64,"country":"AM","externalIds":{"osm":"way/684533023","wikidata":"Q10858391"},"geographyId":"AM-6114869B99267739496878","id":"wattlas-plant-wikidata-q10858391","idAliases":["wattlas-plant-osm-way-684533023"],"lifecycleCounts":{"operational":1},"locationPrecision":"exact","name":"«Լոռի» հողմաէլեկտրակայան","operatingCapacityCoverage":{"coveragePercent":100.0,"knownUnitCount":0,"method":"plant_aggregate","provenance":{"evidenceCount":0,"recordIds":["wattlas-record-osm-way-684533023"],"sourceIds":["openstreetmap-power"],"sourceTypes":["community_mapped"],"valueKind":"reported"},"totalUnitCount":0},"operatingCapacityMw":2.64,"operatingCapacityMwByTechnology":{"wind":2.64},"plannedCapacityCoverage":{"coveragePercent":0.0,"knownUnitCount":0,"method":"unavailable","totalUnitCount":0},"plannedCapacityMw":0.0,"plannedCapacityMwByTechnology":{},"recordCount":1,"recordIds":["wattlas-record-osm-way-684533023"],"sourceIds":["openstreetmap-power"],"sourceUrl":"https://www.openstreetmap.org/way/684533023","technologies":["wind"],"technologyMixMw":{"wind":2.64},"unitCount":0,"unitIds":[]},"type":"Feature"},{"geometry":{"coordinates":[44.497498,40.115297],"type":"Point"},"id":"wattlas-plant-wikidata-q21777838","properties":{"aliases":["Երևանի ՀՇԳՑԷ-1"],"canonicalAnchor":"wikidata:Q21777838","canonicalCountryKey":"AM","capacityMw":242.0,"country":"AM","externalIds":{"osm":"way/215292193","wikidata":"Q21777838"},"geographyId":"AM-6114869B51735422330893","id":"wattlas-plant-wikidata-q21777838","idAliases":["wattlas-plant-osm-way-215292193"],"lifecycleCounts":{"operational":1},"locationPrecision":"exact","name":"Երևանի ՀՇԳՑԷ-1","operatingCapacityCoverage":{"coveragePercent":100.0,"knownUnitCount":0,"method":"plant_aggregate","provenance":{"evidenceCount":0,"recordIds":["wattlas-record-osm-way-215292193"],"sourceIds":["openstreetmap-power"],"sourceTypes":["community_mapped"],"valueKind":"reported"},"totalUnitCount":0},"operatingCapacityMw":242.0,"operatingCapacityMwByTechnology":{"gas":242.0},"plannedCapacityCoverage":{"coveragePercent":0.0,"knownUnitCount":0,"method":"unavailable","totalUnitCount":0},"plannedCapacityMw":0.0,"plannedCapacityMwByTechnology":{},"recordCount":1,"recordIds":["wattlas-record-osm-way-215292193"],"sourceIds":["openstreetmap-power"],"sourceUrl":"https://www.openstreetmap.org/way/215292193","technologies":["gas"],"technologyMixMw":{"gas":242.0},"unitCount":0,"unitIds":[]},"type":"Feature"},{"geometry":{"coordinates":[44.514386,40.22187],"type":"Point"},"id":"wattlas-plant-wikidata-q3376607","properties":{"aliases":["Քանաքեռ ՀԷԿ"],"canonicalAnchor":"wikidata:Q3376607","canonicalCountryKey":"AM","capacityMw":100.0,"country":"AM","externalIds":{"osm":"way/685356165","wikidata":"Q3376607"},"geographyId":"AM-6114869B17514330158920","id":"wattlas-plant-wikidata-q3376607","idAliases":["wattlas-plant-osm-way-685356165"],"lifecycleCounts":{"operational":1},"locationPrecision":"exact","name":"Քանաքեռ ՀԷԿ","operatingCapacityCoverage":{"coveragePercent":100.0,"knownUnitCount":0,"method":"plant_aggregate","provenance":{"evidenceCount":0,"recordIds":["wattlas-record-osm-way-685356165"],"sourceIds":["openstreetmap-power"],"sourceTypes":["community_mapped"],"valueKind":"reported"},"totalUnitCount":0},"operatingCapacityMw":100.0,"operatingCapacityMwByTechnology":{"hydro":100.0},"plannedCapacityCoverage":{"coveragePercent":0.0,"knownUnitCount":0,"method":"unavailable","totalUnitCount":0},"plannedCapacityMw":0.0,"plannedCapacityMwByTechnology":{},"recordCount":1,"recordIds":["wattlas-record-osm-way-685356165"],"sourceIds":["openstreetmap-power"],"sourceUrl":"https://www.openstreetmap.org/way/685356165","technologies":["hydro"],"technologyMixMw":{"hydro":100.0},"unitCount":0,"unitIds":[]},"type":"Feature"},{"geometry":{"coordinates":[44.607398,40.378578],"type":"Point"},"id":"wattlas-plant-wikidata-q3428931","properties":{"aliases":["Արգելի ՀԷԿ"],"canonicalAnchor":"wikidata:Q3428931","canonicalCountryKey":"AM","capacityMw":224.0,"country":"AM","externalIds":{"osm":"way/684815570","wikidata":"Q3428931"},"geographyId":"AM-6114869B17514330158920","id":"wattlas-plant-wikidata-q3428931","idAliases":["wattlas-plant-osm-way-684815570"],"lifecycleCounts":{"operational":1},"locationPrecision":"exact","name":"Արգելի ՀԷԿ","operatingCapacityCoverage":{"coveragePercent":100.0,"knownUnitCount":0,"method":"plant_aggregate","provenance":{"evidenceCount":0,"recordIds":["wattlas-record-osm-way-684815570"],"sourceIds":["openstreetmap-power"],"sourceTypes":["community_mapped"],"valueKind":"reported"},"totalUnitCount":0},"operatingCapacityMw":224.0,"operatingCapacityMwByTechnology":{"hydro":224.0},"plannedCapacityCoverage":{"coveragePercent":0.0,"knownUnitCount":0,"method":"unavailable","totalUnitCount":0},"plannedCapacityMw":0.0,"plannedCapacityMwByTechnology":{},"recordCount":1,"recordIds":["wattlas-record-osm-way-684815570"],"sourceIds":["openstreetmap-power"],"sourceUrl":"https://www.openstreetmap.org/way/684815570","technologies":["hydro"],"technologyMixMw":{"hydro":224.0},"unitCount":0,"unitIds":[]},"type":"Feature"},{"geometry":{"coordinates":[44.760768,40.508237],"type":"Point"},"id":"wattlas-plant-wikidata-q4072025","properties":{"aliases":["Հրազդանի ՀԷԿ"],"canonicalAnchor":"wikidata:Q4072025","canonicalCountryKey":"AM","capacityMw":81.6,"country":"AM","externalIds":{"osm":"way/215826753","wikidata":"Q4072025"},"geographyId":"AM-6114869B17514330158920","id":"wattlas-plant-wikidata-q4072025","idAliases":["wattlas-plant-osm-way-215826753"],"lifecycleCounts":{"operational":1},"locationPrecision":"exact","name":"Հրազդանի ՀԷԿ","operatingCapacityCoverage":{"coveragePercent":100.0,"knownUnitCount":0,"method":"plant_aggregate","provenance":{"evidenceCount":0,"recordIds":["wattlas-record-osm-way-215826753"],"sourceIds":["openstreetmap-power"],"sourceTypes":["community_mapped"],"valueKind":"reported"},"totalUnitCount":0},"operatingCapacityMw":81.6,"operatingCapacityMwByTechnology":{"hydro":81.6},"plannedCapacityCoverage":{"coveragePercent":0.0,"knownUnitCount":0,"method":"unavailable","totalUnitCount":0},"plannedCapacityMw":0.0,"plannedCapacityMwByTechnology":{},"recordCount":1,"recordIds":["wattlas-record-osm-way-215826753"],"sourceIds":["openstreetmap-power"],"sourceUrl":"https://www.openstreetmap.org/way/215826753","technologies":["hydro"],"technologyMixMw":{"hydro":81.6},"unitCount":0,"unitIds":[]},"type":"Feature"},{"geometry":{"coordinates":[44.498637,40.189535],"type":"Point"},"id":"wattlas-plant-wikidata-q4176204","properties":{"aliases":["Երևան-1 ՀԷԿ"],"canonicalAnchor":"wikidata:Q4176204","canonicalCountryKey":"AM","capacityMw":44.0,"country":"AM","externalIds":{"osm":"relation/15779475","wikidata":"Q4176204","wikipedia":"ru:Ереванская ГЭС I"},"geographyId":"AM-6114869B51735422330893","id":"wattlas-plant-wikidata-q4176204","idAliases":["wattlas-plant-osm-relation-15779475","wattlas-plant-wikipedia-ru-i"],"lifecycleCounts":{"operational":1},"locationPrecision":"exact","name":"Երևան-1 ՀԷԿ","operatingCapacityCoverage":{"coveragePercent":100.0,"knownUnitCount":0,"method":"plant_aggregate","provenance":{"evidenceCount":0,"recordIds":["wattlas-record-osm-relation-15779475"],"sourceIds":["openstreetmap-power"],"sourceTypes":["community_mapped"],"valueKind":"reported"},"totalUnitCount":0},"operatingCapacityMw":44.0,"operatingCapacityMwByTechnology":{"hydro":44.0},"plannedCapacityCoverage":{"coveragePercent":0.0,"knownUnitCount":0,"method":"unavailable","totalUnitCount":0},"plannedCapacityMw":0.0,"plannedCapacityMwByTechnology":{},"recordCount":1,"recordIds":["wattlas-record-osm-relation-15779475"],"sourceIds":["openstreetmap-power"],"sourceUrl":"https://www.openstreetmap.org/relation/15779475","technologies":["hydro"],"technologyMixMw":{"hydro":44.0},"unitCount":0,"unitIds":[]},"type":"Feature"},{"geometry":{"coordinates":[44.750722,40.565928],"type":"Point"},"id":"wattlas-plant-wikidata-q4388366-220367a3f9","properties":{"aliases":["Հրազդանի ՋԷԿ"],"canonicalAnchor":"wikidata:Q4388366","canonicalCountryKey":"AM","capacityMw":1590.0,"country":"AM","externalIds":{"osm":"way/193015388","wikidata":"Q4388366","wikipedia":"ru:Разданская ТЭС"},"geographyId":"AM-6114869B17514330158920","id":"wattlas-plant-wikidata-q4388366-220367a3f9","idAliases":["wattlas-plant-osm-way-193015388","wattlas-plant-wikidata-q4388366"],"lifecycleCounts":{"operational":1},"locationPrecision":"exact","name":"Հրազդանի ՋԷԿ","operatingCapacityCoverage":{"coveragePercent":100.0,"knownUnitCount":0,"method":"plant_aggregate","provenance":{"evidenceCount":0,"recordIds":["wattlas-record-osm-way-193015388"],"sourceIds":["openstreetmap-power"],"sourceTypes":["community_mapped"],"valueKind":"reported"},"totalUnitCount":0},"operatingCapacityMw":1590.0,"operatingCapacityMwByTechnology":{"gas":1590.0},"plannedCapacityCoverage":{"coveragePercent":0.0,"knownUnitCount":0,"method":"unavailable","totalUnitCount":0},"plannedCapacityMw":0.0,"plannedCapacityMwByTechnology":{},"recordCount":1,"recordIds":["wattlas-record-osm-way-193015388"],"sourceIds":["openstreetmap-power"],"sourceUrl":"https://www.openstreetmap.org/way/193015388","technologies":["gas"],"technologyMixMw":{"gas":1590.0},"unitCount":0,"unitIds":[]},"type":"Feature"},{"geometry":{"coordinates":[44.747243,40.564218],"type":"Point"},"id":"wattlas-plant-wikidata-q4388366-be1853a1d9","properties":{"aliases":["Հրազդանի ՋԷԿ"],"canonicalAnchor":"wikidata:Q4388366","canonicalCountryKey":"AM","capacityMw":1320.0,"country":"AM","externalIds":{"osm":"way/1177897367","wikidata":"Q4388366","wikipedia":"ru:Разданская ТЭС"},"geographyId":"AM-6114869B17514330158920","id":"wattlas-plant-wikidata-q4388366-be1853a1d9","idAliases":["wattlas-plant-osm-way-1177897367"],"lifecycleCounts":{"operational":1},"locationPrecision":"exact","name":"Հրազդանի ՋԷԿ","operatingCapacityCoverage":{"coveragePercent":100.0,"knownUnitCount":0,"method":"plant_aggregate","provenance":{"evidenceCount":0,"recordIds":["wattlas-record-osm-way-1177897367"],"sourceIds":["openstreetmap-power"],"sourceTypes":["community_mapped"],"valueKind":"reported"},"totalUnitCount":0},"operatingCapacityMw":1320.0,"operatingCapacityMwByTechnology":{"gas":1320.0},"plannedCapacityCoverage":{"coveragePercent":0.0,"knownUnitCount":0,"method":"unavailable","totalUnitCount":0},"plannedCapacityMw":0.0,"plannedCapacityMwByTechnology":{},"recordCount":1,"recordIds":["wattlas-record-osm-way-1177897367"],"sourceIds":["openstreetmap-power"],"sourceUrl":"https://www.openstreetmap.org/way/1177897367","technologies":["gas"],"technologyMixMw":{"gas":1320.0},"unitCount":0,"unitIds":[]},"type":"Feature"},{"geometry":{"coordinates":[45.912921,39.573365],"type":"Point"},"id":"wattlas-plant-wikidata-q7573072","properties":{"aliases":["Սպանդարյան ՀԷԿ"],"canonicalAnchor":"wikidata:Q7573072","canonicalCountryKey":"AM","capacityMw":76.0,"country":"AM","externalIds":{"osm":"way/684569563","wikidata":"Q7573072"},"geographyId":"AM-6114869B3680049481024","id":"wattlas-plant-wikidata-q7573072","idAliases":["wattlas-plant-osm-way-684569563"],"lifecycleCounts":{"operational":1},"locationPrecision":"exact","name":"Սպանդարյան ՀԷԿ","operatingCapacityCoverage":{"coveragePercent":100.0,"knownUnitCount":0,"method":"plant_aggregate","provenance":{"evidenceCount":0,"recordIds":["wattlas-record-osm-way-684569563"],"sourceIds":["openstreetmap-power"],"sourceTypes":["community_mapped"],"valueKind":"reported"},"totalUnitCount":0},"operatingCapacityMw":76.0,"operatingCapacityMwByTechnology":{"hydro":76.0},"plannedCapacityCoverage":{"coveragePercent":0.0,"knownUnitCount":0,"method":"unavailable","totalUnitCount":0},"plannedCapacityMw":0.0,"plannedCapacityMwByTechnology":{},"recordCount":1,"recordIds":["wattlas-record-osm-way-684569563"],"sourceIds":["openstreetmap-power"],"sourceUrl":"https://www.openstreetmap.org/way/684569563","technologies":["hydro"],"technologyMixMw":{"hydro":76.0},"unitCount":0,"unitIds":[]},"type":"Feature"},{"geometry":{"coordinates":[44.147877,40.182974],"type":"Point"},"id":"wattlas-plant-wikidata-q946058","properties":{"aliases":["Հայկական ատոմային էլեկտրակայան"],"canonicalAnchor":"wikidata:Q946058","canonicalCountryKey":"AM","capacityMw":408.0,"country":"AM","externalIds":{"osm":"way/271970600","wikidata":"Q946058"},"geographyId":"AM-6114869B3426889126469","id":"wattlas-plant-wikidata-q946058","idAliases":["wattlas-plant-osm-way-271970600"],"lifecycleCounts":{"operational":1},"locationPrecision":"exact","name":"Հայկական ատոմային էլեկտրակայան","operatingCapacityCoverage":{"coveragePercent":100.0,"knownUnitCount":0,"method":"plant_aggregate","provenance":{"evidenceCount":0,"recordIds":["wattlas-record-osm-way-271970600"],"sourceIds":["openstreetmap-power"],"sourceTypes":["community_mapped"],"valueKind":"reported"},"totalUnitCount":0},"operatingCapacityMw":408.0,"operatingCapacityMwByTechnology":{"nuclear":408.0},"plannedCapacityCoverage":{"coveragePercent":0.0,"knownUnitCount":0,"method":"unavailable","totalUnitCount":0},"plannedCapacityMw":0.0,"plannedCapacityMwByTechnology":{},"recordCount":1,"recordIds":["wattlas-record-osm-way-271970600"],"sourceIds":["openstreetmap-power"],"sourceUrl":"https://www.openstreetmap.org/way/271970600","technologies":["nuclear"],"technologyMixMw":{"nuclear":408.0},"unitCount":0,"unitIds":[]},"type":"Feature"}],"type":"FeatureCollection"}