{"features":[{"geometry":{"coordinates":[-59.495041,13.079184],"type":"Point"},"id":"wattlas-plant-gemplant-l100001046851","properties":{"aliases":["GT03","GT04","GT05","GT06","Seawell power station"],"canonicalAnchor":"gemplant:L100001046851","canonicalCountryKey":"BB","capacityMw":73.0,"country":"BB","externalIdAliases":{"gemUnit":["G100001053133","G100001053135","G100001053136","G100001053137"]},"externalIds":{"gemPlant":"L100001046851","gemUnit":"G100001053137"},"gemWikiUrl":"https://www.gem.wiki/Seawell_power_station","geographyId":"BB-18249212B50725355749374","id":"wattlas-plant-gemplant-l100001046851","lifecycleCounts":{"operational":4},"locationPrecision":"exact","name":"Seawell power station","operatingCapacityCoverage":{"coveragePercent":100.0,"knownUnitCount":4,"method":"complete_unit_sum","provenance":{"evidenceCount":0,"recordIds":["wattlas-record-gemunit-g100001053133","wattlas-record-gemunit-g100001053135","wattlas-record-gemunit-g100001053136","wattlas-record-gemunit-g100001053137"],"sourceIds":["gem-global-integrated-power-tracker"],"sourceTypes":["research_verified"],"valueKind":"reported"},"totalUnitCount":4},"operatingCapacityMw":73.0,"operatingCapacityMwByTechnology":{"gas":73.0},"plannedCapacityCoverage":{"coveragePercent":0.0,"knownUnitCount":0,"method":"unavailable","totalUnitCount":0},"plannedCapacityMw":0.0,"plannedCapacityMwByTechnology":{},"recordCount":4,"recordIds":["wattlas-record-gemunit-g100001053133","wattlas-record-gemunit-g100001053135","wattlas-record-gemunit-g100001053136","wattlas-record-gemunit-g100001053137"],"sourceIds":["gem-global-integrated-power-tracker"],"sourceUrl":"https://www.gem.wiki/Seawell_power_station","technologies":["gas"],"technologyMixMw":{"gas":73.0},"unitCount":4,"unitIds":["gem-unit-G100001053133","gem-unit-G100001053135","gem-unit-G100001053136","gem-unit-G100001053137"]},"type":"Feature"},{"geometry":{"coordinates":[-59.5338,13.1813],"type":"Point"},"id":"wattlas-plant-gemplant-l100001064998","properties":{"aliases":["--","Saint John solar project I"],"canonicalAnchor":"gemplant:L100001064998","canonicalCountryKey":"BB","capacityMw":1.1,"country":"BB","externalIds":{"gemPlant":"L100001064998","gemUnit":"G100001074784"},"gemWikiUrl":"https://www.gem.wiki/Saint_John_solar_project_I","geographyId":"BB-18249212B15509533795694","id":"wattlas-plant-gemplant-l100001064998","lifecycleCounts":{"operational":1},"locationPrecision":"exact","name":"Saint John solar project I","operatingCapacityCoverage":{"coveragePercent":100.0,"knownUnitCount":1,"method":"complete_unit_sum","provenance":{"evidenceCount":0,"recordIds":["wattlas-record-gemunit-g100001074784"],"sourceIds":["gem-global-integrated-power-tracker"],"sourceTypes":["research_verified"],"valueKind":"reported"},"totalUnitCount":1},"operatingCapacityMw":1.1,"operatingCapacityMwByTechnology":{"solar":1.1},"plannedCapacityCoverage":{"coveragePercent":0.0,"knownUnitCount":0,"method":"unavailable","totalUnitCount":0},"plannedCapacityMw":0.0,"plannedCapacityMwByTechnology":{},"recordCount":1,"recordIds":["wattlas-record-gemunit-g100001074784"],"sourceIds":["gem-global-integrated-power-tracker"],"sourceUrl":"https://www.gem.wiki/Saint_John_solar_project_I","technologies":["solar"],"technologyMixMw":{"solar":1.1},"unitCount":1,"unitIds":["gem-unit-G100001074784"]},"type":"Feature"}],"type":"FeatureCollection"}