{"features":[{"geometry":{"coordinates":[-89.0527,17.2977],"type":"Point"},"id":"wattlas-plant-gemplant-l100001028287","properties":{"aliases":["--","Cayo District solar project"],"canonicalAnchor":"gemplant:L100001028287","canonicalCountryKey":"BZ","capacityMw":1.4,"country":"BZ","externalIds":{"gemPlant":"L100001028287","gemUnit":"G100001033558"},"gemWikiUrl":"https://www.gem.wiki/Cayo_District_solar_project","geographyId":"BZ-66346737B25506523624111","id":"wattlas-plant-gemplant-l100001028287","lifecycleCounts":{"operational":1},"locationPrecision":"exact","name":"Cayo District solar project","operatingCapacityCoverage":{"coveragePercent":100.0,"knownUnitCount":1,"method":"complete_unit_sum","provenance":{"evidenceCount":0,"recordIds":["wattlas-record-gemunit-g100001033558"],"sourceIds":["gem-global-integrated-power-tracker"],"sourceTypes":["research_verified"],"valueKind":"reported"},"totalUnitCount":1},"operatingCapacityMw":1.4,"operatingCapacityMwByTechnology":{"solar":1.4},"plannedCapacityCoverage":{"coveragePercent":0.0,"knownUnitCount":0,"method":"unavailable","totalUnitCount":0},"plannedCapacityMw":0.0,"plannedCapacityMwByTechnology":{},"recordCount":1,"recordIds":["wattlas-record-gemunit-g100001033558"],"sourceIds":["gem-global-integrated-power-tracker"],"sourceUrl":"https://www.gem.wiki/Cayo_District_solar_project","technologies":["solar"],"technologyMixMw":{"solar":1.4},"unitCount":1,"unitIds":["gem-unit-G100001033558"]},"type":"Feature"},{"geometry":{"coordinates":[-88.559908,18.039794],"type":"Point"},"id":"wattlas-plant-gemplant-l100001046240","properties":{"aliases":["1.0","2.0","Belcogen power station"],"canonicalAnchor":"gemplant:L100001046240","canonicalCountryKey":"BZ","capacityMw":27.5,"country":"BZ","externalIdAliases":{"gemUnit":["G100001052180","G100001052181"]},"externalIds":{"gemPlant":"L100001046240","gemUnit":"G100001052181"},"gemWikiUrl":"https://www.gem.wiki/Belcogen_power_station","geographyId":"BZ-66346737B60973332075708","id":"wattlas-plant-gemplant-l100001046240","lifecycleCounts":{"operational":2},"locationPrecision":"exact","name":"Belcogen power station","operatingCapacityCoverage":{"coveragePercent":100.0,"knownUnitCount":2,"method":"complete_unit_sum","provenance":{"evidenceCount":0,"recordIds":["wattlas-record-gemunit-g100001052180","wattlas-record-gemunit-g100001052181"],"sourceIds":["gem-global-integrated-power-tracker"],"sourceTypes":["research_verified"],"valueKind":"reported"},"totalUnitCount":2},"operatingCapacityMw":27.5,"operatingCapacityMwByTechnology":{"biomass":27.5},"plannedCapacityCoverage":{"coveragePercent":0.0,"knownUnitCount":0,"method":"unavailable","totalUnitCount":0},"plannedCapacityMw":0.0,"plannedCapacityMwByTechnology":{},"recordCount":2,"recordIds":["wattlas-record-gemunit-g100001052180","wattlas-record-gemunit-g100001052181"],"sourceIds":["gem-global-integrated-power-tracker"],"sourceUrl":"https://www.gem.wiki/Belcogen_power_station","technologies":["biomass"],"technologyMixMw":{"biomass":27.5},"unitCount":2,"unitIds":["gem-unit-G100001052180","gem-unit-G100001052181"]},"type":"Feature"},{"geometry":{"coordinates":[-88.3587,16.88],"type":"Point"},"id":"wattlas-plant-gemplant-l100001065000","properties":{"aliases":["--","Stann Creek solar project I"],"canonicalAnchor":"gemplant:L100001065000","canonicalCountryKey":"BZ","capacityMw":1.6,"country":"BZ","externalIds":{"gemPlant":"L100001065000","gemUnit":"G100001074786"},"gemWikiUrl":"https://www.gem.wiki/Stann_Creek_solar_project_I","geographyId":"BZ-66346737B48775360277934","id":"wattlas-plant-gemplant-l100001065000","lifecycleCounts":{"operational":1},"locationPrecision":"exact","name":"Stann Creek solar project I","operatingCapacityCoverage":{"coveragePercent":100.0,"knownUnitCount":1,"method":"complete_unit_sum","provenance":{"evidenceCount":0,"recordIds":["wattlas-record-gemunit-g100001074786"],"sourceIds":["gem-global-integrated-power-tracker"],"sourceTypes":["research_verified"],"valueKind":"reported"},"totalUnitCount":1},"operatingCapacityMw":1.6,"operatingCapacityMwByTechnology":{"solar":1.6},"plannedCapacityCoverage":{"coveragePercent":0.0,"knownUnitCount":0,"method":"unavailable","totalUnitCount":0},"plannedCapacityMw":0.0,"plannedCapacityMwByTechnology":{},"recordCount":1,"recordIds":["wattlas-record-gemunit-g100001074786"],"sourceIds":["gem-global-integrated-power-tracker"],"sourceUrl":"https://www.gem.wiki/Stann_Creek_solar_project_I","technologies":["solar"],"technologyMixMw":{"solar":1.6},"unitCount":1,"unitIds":["gem-unit-G100001074786"]},"type":"Feature"},{"geometry":{"coordinates":[-88.391034,16.672065],"type":"Point"},"id":"wattlas-plant-osm-relation-17072282","properties":{"aliases":["Blair Athol Power Company Limited (BAPCoL)"],"canonicalAnchor":"osm:relation/17072282","canonicalCountryKey":"BZ","capacityMw":8.1,"country":"BZ","externalIds":{"osm":"relation/17072282"},"geographyId":"BZ-66346737B48775360277934","id":"wattlas-plant-osm-relation-17072282","lifecycleCounts":{"operational":1},"locationPrecision":"exact","name":"Blair Athol Power Company Limited (BAPCoL)","operatingCapacityCoverage":{"coveragePercent":100.0,"knownUnitCount":0,"method":"plant_aggregate","provenance":{"evidenceCount":0,"recordIds":["wattlas-record-osm-relation-17072282"],"sourceIds":["openstreetmap-power"],"sourceTypes":["community_mapped"],"valueKind":"reported"},"totalUnitCount":0},"operatingCapacityMw":8.1,"operatingCapacityMwByTechnology":{"other":8.1},"plannedCapacityCoverage":{"coveragePercent":0.0,"knownUnitCount":0,"method":"unavailable","totalUnitCount":0},"plannedCapacityMw":0.0,"plannedCapacityMwByTechnology":{},"recordCount":1,"recordIds":["wattlas-record-osm-relation-17072282"],"sourceIds":["openstreetmap-power"],"sourceUrl":"https://www.openstreetmap.org/relation/17072282","technologies":["other"],"technologyMixMw":{"other":8.1},"unitCount":0,"unitIds":[]},"type":"Feature"},{"geometry":{"coordinates":[-89.051859,17.297296],"type":"Point"},"id":"wattlas-plant-osm-way-1204308771","properties":{"aliases":["Spanish Lookout Solar Park"],"canonicalAnchor":"osm:way/1204308771","canonicalCountryKey":"BZ","capacityMw":0.0,"country":"BZ","externalIds":{"osm":"way/1204308771"},"geographyId":"BZ-66346737B25506523624111","id":"wattlas-plant-osm-way-1204308771","lifecycleCounts":{"operational":1},"locationPrecision":"exact","name":"Spanish Lookout Solar Park","operatingCapacityCoverage":{"coveragePercent":0.0,"knownUnitCount":0,"method":"unavailable","totalUnitCount":0},"operatingCapacityMw":0.0,"operatingCapacityMwByTechnology":{},"plannedCapacityCoverage":{"coveragePercent":0.0,"knownUnitCount":0,"method":"unavailable","totalUnitCount":0},"plannedCapacityMw":0.0,"plannedCapacityMwByTechnology":{},"recordCount":1,"recordIds":["wattlas-record-osm-way-1204308771"],"sourceIds":["openstreetmap-power"],"sourceUrl":"https://www.openstreetmap.org/way/1204308771","technologies":["solar"],"technologyMixMw":{"solar":0.0},"unitCount":0,"unitIds":[]},"type":"Feature"},{"geometry":{"coordinates":[-89.045248,16.955061],"type":"Point"},"id":"wattlas-plant-osm-way-1204311789","properties":{"aliases":["Mollejon Dam"],"canonicalAnchor":"osm:way/1204311789","canonicalCountryKey":"BZ","capacityMw":25.2,"country":"BZ","externalIds":{"osm":"way/1204311789"},"geographyId":"BZ-66346737B25506523624111","id":"wattlas-plant-osm-way-1204311789","lifecycleCounts":{"operational":1},"locationPrecision":"exact","name":"Mollejon Dam","operatingCapacityCoverage":{"coveragePercent":100.0,"knownUnitCount":0,"method":"plant_aggregate","provenance":{"evidenceCount":0,"recordIds":["wattlas-record-osm-way-1204311789"],"sourceIds":["openstreetmap-power"],"sourceTypes":["community_mapped"],"valueKind":"reported"},"totalUnitCount":0},"operatingCapacityMw":25.2,"operatingCapacityMwByTechnology":{"hydro":25.2},"plannedCapacityCoverage":{"coveragePercent":0.0,"knownUnitCount":0,"method":"unavailable","totalUnitCount":0},"plannedCapacityMw":0.0,"plannedCapacityMwByTechnology":{},"recordCount":1,"recordIds":["wattlas-record-osm-way-1204311789"],"sourceIds":["openstreetmap-power"],"sourceUrl":"https://www.openstreetmap.org/way/1204311789","technologies":["hydro"],"technologyMixMw":{"hydro":25.2},"unitCount":0,"unitIds":[]},"type":"Feature"},{"geometry":{"coordinates":[-89.013653,16.862528],"type":"Point"},"id":"wattlas-plant-osm-way-238793514","properties":{"aliases":["Chalillo"],"canonicalAnchor":"osm:way/238793514","canonicalCountryKey":"BZ","capacityMw":7.3,"country":"BZ","externalIds":{"osm":"way/238793514"},"geographyId":"BZ-66346737B25506523624111","id":"wattlas-plant-osm-way-238793514","lifecycleCounts":{"operational":1},"locationPrecision":"exact","name":"Chalillo","operatingCapacityCoverage":{"coveragePercent":100.0,"knownUnitCount":0,"method":"plant_aggregate","provenance":{"evidenceCount":0,"recordIds":["wattlas-record-osm-way-238793514"],"sourceIds":["openstreetmap-power"],"sourceTypes":["community_mapped"],"valueKind":"reported"},"totalUnitCount":0},"operatingCapacityMw":7.3,"operatingCapacityMwByTechnology":{"hydro":7.3},"plannedCapacityCoverage":{"coveragePercent":0.0,"knownUnitCount":0,"method":"unavailable","totalUnitCount":0},"plannedCapacityMw":0.0,"plannedCapacityMwByTechnology":{},"recordCount":1,"recordIds":["wattlas-record-osm-way-238793514"],"sourceIds":["openstreetmap-power"],"sourceUrl":"https://www.openstreetmap.org/way/238793514","technologies":["hydro"],"technologyMixMw":{"hydro":7.3},"unitCount":0,"unitIds":[]},"type":"Feature"},{"geometry":{"coordinates":[-88.935151,16.318618],"type":"Point"},"id":"wattlas-plant-osm-way-241722689","properties":{"aliases":["Hydro Maya"],"canonicalAnchor":"osm:way/241722689","canonicalCountryKey":"BZ","capacityMw":2.8,"country":"BZ","externalIds":{"osm":"way/241722689"},"geographyId":"BZ-66346737B22858594960980","id":"wattlas-plant-osm-way-241722689","lifecycleCounts":{"operational":1},"locationPrecision":"exact","name":"Hydro Maya","operatingCapacityCoverage":{"coveragePercent":100.0,"knownUnitCount":0,"method":"plant_aggregate","provenance":{"evidenceCount":0,"recordIds":["wattlas-record-osm-way-241722689"],"sourceIds":["openstreetmap-power"],"sourceTypes":["community_mapped"],"valueKind":"reported"},"totalUnitCount":0},"operatingCapacityMw":2.8,"operatingCapacityMwByTechnology":{"hydro":2.8},"plannedCapacityCoverage":{"coveragePercent":0.0,"knownUnitCount":0,"method":"unavailable","totalUnitCount":0},"plannedCapacityMw":0.0,"plannedCapacityMwByTechnology":{},"recordCount":1,"recordIds":["wattlas-record-osm-way-241722689"],"sourceIds":["openstreetmap-power"],"sourceUrl":"https://www.openstreetmap.org/way/241722689","technologies":["hydro"],"technologyMixMw":{"hydro":2.8},"unitCount":0,"unitIds":[]},"type":"Feature"},{"geometry":{"coordinates":[-89.058353,17.020067],"type":"Point"},"id":"wattlas-plant-osm-way-659789312","properties":{"aliases":["Vaca"],"canonicalAnchor":"osm:way/659789312","canonicalCountryKey":"BZ","capacityMw":19.0,"country":"BZ","externalIds":{"osm":"way/659789312"},"geographyId":"BZ-66346737B25506523624111","id":"wattlas-plant-osm-way-659789312","lifecycleCounts":{"operational":1},"locationPrecision":"exact","name":"Vaca","operatingCapacityCoverage":{"coveragePercent":100.0,"knownUnitCount":0,"method":"plant_aggregate","provenance":{"evidenceCount":0,"recordIds":["wattlas-record-osm-way-659789312"],"sourceIds":["openstreetmap-power"],"sourceTypes":["community_mapped"],"valueKind":"reported"},"totalUnitCount":0},"operatingCapacityMw":19.0,"operatingCapacityMwByTechnology":{"hydro":19.0},"plannedCapacityCoverage":{"coveragePercent":0.0,"knownUnitCount":0,"method":"unavailable","totalUnitCount":0},"plannedCapacityMw":0.0,"plannedCapacityMwByTechnology":{},"recordCount":1,"recordIds":["wattlas-record-osm-way-659789312"],"sourceIds":["openstreetmap-power"],"sourceUrl":"https://www.openstreetmap.org/way/659789312","technologies":["hydro"],"technologyMixMw":{"hydro":19.0},"unitCount":0,"unitIds":[]},"type":"Feature"},{"geometry":{"coordinates":[-89.003848,17.249921],"type":"Point"},"id":"wattlas-plant-wikidata-q123421128","properties":{"aliases":["Farmer's Light Plant Corporation"],"canonicalAnchor":"wikidata:Q123421128","canonicalCountryKey":"BZ","capacityMw":0.0,"country":"BZ","externalIds":{"osm":"way/979405227","wikidata":"Q123421128"},"geographyId":"BZ-66346737B25506523624111","id":"wattlas-plant-wikidata-q123421128","idAliases":["wattlas-plant-osm-way-979405227"],"lifecycleCounts":{"operational":1},"locationPrecision":"exact","name":"Farmer's Light Plant Corporation","operatingCapacityCoverage":{"coveragePercent":0.0,"knownUnitCount":0,"method":"unavailable","totalUnitCount":0},"operatingCapacityMw":0.0,"operatingCapacityMwByTechnology":{},"plannedCapacityCoverage":{"coveragePercent":0.0,"knownUnitCount":0,"method":"unavailable","totalUnitCount":0},"plannedCapacityMw":0.0,"plannedCapacityMwByTechnology":{},"recordCount":1,"recordIds":["wattlas-record-osm-way-979405227"],"sourceIds":["openstreetmap-power"],"sourceUrl":"https://www.openstreetmap.org/way/979405227","technologies":["solar"],"technologyMixMw":{"solar":0.0},"unitCount":0,"unitIds":[]},"type":"Feature"}],"type":"FeatureCollection"}