{"features":[{"geometry":{"coordinates":[42.8021,11.7945],"type":"Point"},"id":"wattlas-plant-gemplant-l100001064779","properties":{"aliases":["--","Tadjoura solar project"],"canonicalAnchor":"gemplant:L100001064779","canonicalCountryKey":"DJ","capacityMw":1.9,"country":"DJ","externalIds":{"gemPlant":"L100001064779","gemUnit":"G100001074565"},"gemWikiUrl":"https://www.gem.wiki/Tadjoura_solar_project","geographyId":"DJ-25444519B6046592555533","id":"wattlas-plant-gemplant-l100001064779","lifecycleCounts":{"operational":1},"locationPrecision":"exact","name":"Tadjoura solar project","operatingCapacityCoverage":{"coveragePercent":100.0,"knownUnitCount":1,"method":"complete_unit_sum","provenance":{"evidenceCount":0,"recordIds":["wattlas-record-gemunit-g100001074565"],"sourceIds":["gem-global-integrated-power-tracker"],"sourceTypes":["research_verified"],"valueKind":"reported"},"totalUnitCount":1},"operatingCapacityMw":1.9,"operatingCapacityMwByTechnology":{"solar":1.9},"plannedCapacityCoverage":{"coveragePercent":0.0,"knownUnitCount":0,"method":"unavailable","totalUnitCount":0},"plannedCapacityMw":0.0,"plannedCapacityMwByTechnology":{},"recordCount":1,"recordIds":["wattlas-record-gemunit-g100001074565"],"sourceIds":["gem-global-integrated-power-tracker"],"sourceUrl":"https://www.gem.wiki/Tadjoura_solar_project","technologies":["solar"],"technologyMixMw":{"solar":1.9},"unitCount":1,"unitIds":["gem-unit-G100001074565"]},"type":"Feature"},{"geometry":{"coordinates":[42.868975,11.784477],"type":"Point"},"id":"wattlas-plant-osm-way-601949432","properties":{"aliases":["Centrale Thermique de Tadjourah كهرباء جيبوتي تاجورة"],"canonicalAnchor":"osm:way/601949432","canonicalCountryKey":"DJ","capacityMw":0.0,"country":"DJ","externalIds":{"osm":"way/601949432"},"geographyId":"DJ-25444519B6046592555533","id":"wattlas-plant-osm-way-601949432","lifecycleCounts":{"operational":1},"locationPrecision":"exact","name":"Centrale Thermique de Tadjourah كهرباء جيبوتي تاجورة","operatingCapacityCoverage":{"coveragePercent":0.0,"knownUnitCount":0,"method":"unavailable","totalUnitCount":0},"operatingCapacityMw":0.0,"operatingCapacityMwByTechnology":{},"plannedCapacityCoverage":{"coveragePercent":0.0,"knownUnitCount":0,"method":"unavailable","totalUnitCount":0},"plannedCapacityMw":0.0,"plannedCapacityMwByTechnology":{},"recordCount":1,"recordIds":["wattlas-record-osm-way-601949432"],"sourceIds":["openstreetmap-power"],"sourceUrl":"https://www.openstreetmap.org/way/601949432","technologies":["other"],"technologyMixMw":{"other":0.0},"unitCount":0,"unitIds":[]},"type":"Feature"},{"geometry":{"coordinates":[42.49969,11.530411],"type":"Point"},"id":"wattlas-plant-osm-way-978103331","properties":{"aliases":["Mapped power plant · OSM 978103331"],"canonicalAnchor":"osm:way/978103331","canonicalCountryKey":"DJ","capacityMw":60.0,"country":"DJ","externalIds":{"osm":"way/978103331"},"geographyId":"DJ-25444519B1274960689098","id":"wattlas-plant-osm-way-978103331","lifecycleCounts":{"operational":1},"locationPrecision":"exact","name":"Mapped power plant · OSM 978103331","operatingCapacityCoverage":{"coveragePercent":100.0,"knownUnitCount":0,"method":"plant_aggregate","provenance":{"evidenceCount":0,"recordIds":["wattlas-record-osm-way-978103331"],"sourceIds":["openstreetmap-power"],"sourceTypes":["community_mapped"],"valueKind":"reported"},"totalUnitCount":0},"operatingCapacityMw":60.0,"operatingCapacityMwByTechnology":{"wind":60.0},"plannedCapacityCoverage":{"coveragePercent":0.0,"knownUnitCount":0,"method":"unavailable","totalUnitCount":0},"plannedCapacityMw":0.0,"plannedCapacityMwByTechnology":{},"recordCount":1,"recordIds":["wattlas-record-osm-way-978103331"],"sourceIds":["openstreetmap-power"],"sourceUrl":"https://www.openstreetmap.org/way/978103331","technologies":["wind"],"technologyMixMw":{"wind":60.0},"unitCount":0,"unitIds":[]},"type":"Feature"}],"type":"FeatureCollection"}