{"features":[{"geometry":{"coordinates":[39.44277,15.579],"type":"Point"},"id":"wattlas-plant-gemplant-l100000409135","properties":{"aliases":["1-1","EXT","Hirgigo power plant"],"canonicalAnchor":"gemplant:L100000409135","canonicalCountryKey":"ER","capacityMw":134.0,"country":"ER","externalIdAliases":{"gemUnit":["G100000413987","G100000413988"]},"externalIds":{"gemPlant":"L100000409135","gemUnit":"G100000413987"},"gemWikiUrl":"https://www.gem.wiki/Hirgigo_power_plant","geographyId":"ER-12472421B21855399297122","id":"wattlas-plant-gemplant-l100000409135","lifecycleCounts":{"operational":2},"locationPrecision":"exact","name":"Hirgigo power plant","operatingCapacityCoverage":{"coveragePercent":100.0,"knownUnitCount":2,"method":"complete_unit_sum","provenance":{"evidenceCount":0,"recordIds":["wattlas-record-gemunit-g100000413987","wattlas-record-gemunit-g100000413988"],"sourceIds":["gem-global-integrated-power-tracker"],"sourceTypes":["research_verified"],"valueKind":"reported"},"totalUnitCount":2},"operatingCapacityMw":134.0,"operatingCapacityMwByTechnology":{"oil":134.0},"plannedCapacityCoverage":{"coveragePercent":0.0,"knownUnitCount":0,"method":"unavailable","totalUnitCount":0},"plannedCapacityMw":0.0,"plannedCapacityMwByTechnology":{},"recordCount":2,"recordIds":["wattlas-record-gemunit-g100000413987","wattlas-record-gemunit-g100000413988"],"sourceIds":["gem-global-integrated-power-tracker"],"sourceUrl":"https://www.gem.wiki/Hirgigo_power_plant","technologies":["oil"],"technologyMixMw":{"oil":134.0},"unitCount":2,"unitIds":["gem-unit-G100000413987","gem-unit-G100000413988"]},"type":"Feature"},{"geometry":{"coordinates":[38.9221,15.4211],"type":"Point"},"id":"wattlas-plant-gemplant-l100000409137","properties":{"aliases":["1-1","Beleza power plant"],"canonicalAnchor":"gemplant:L100000409137","canonicalCountryKey":"ER","capacityMw":12.0,"country":"ER","externalIds":{"gemPlant":"L100000409137","gemUnit":"G100000413990"},"gemWikiUrl":"https://www.gem.wiki/Beleza_power_plant","geographyId":"ER-12472421B35314914583003","id":"wattlas-plant-gemplant-l100000409137","lifecycleCounts":{"operational":1},"locationPrecision":"exact","name":"Beleza power plant","operatingCapacityCoverage":{"coveragePercent":100.0,"knownUnitCount":1,"method":"complete_unit_sum","provenance":{"evidenceCount":0,"recordIds":["wattlas-record-gemunit-g100000413990"],"sourceIds":["gem-global-integrated-power-tracker"],"sourceTypes":["research_verified"],"valueKind":"reported"},"totalUnitCount":1},"operatingCapacityMw":12.0,"operatingCapacityMwByTechnology":{"oil":12.0},"plannedCapacityCoverage":{"coveragePercent":0.0,"knownUnitCount":0,"method":"unavailable","totalUnitCount":0},"plannedCapacityMw":0.0,"plannedCapacityMwByTechnology":{},"recordCount":1,"recordIds":["wattlas-record-gemunit-g100000413990"],"sourceIds":["gem-global-integrated-power-tracker"],"sourceUrl":"https://www.gem.wiki/Beleza_power_plant","technologies":["oil"],"technologyMixMw":{"oil":12.0},"unitCount":1,"unitIds":["gem-unit-G100000413990"]},"type":"Feature"},{"geometry":{"coordinates":[39.0201,15.0501],"type":"Point"},"id":"wattlas-plant-gemplant-l100000811597","properties":{"aliases":["--","Dekemhare solar farm"],"canonicalAnchor":"gemplant:L100000811597","canonicalCountryKey":"ER","capacityMw":30.0,"country":"ER","externalIds":{"gemPlant":"L100000811597","gemUnit":"G100000814111"},"gemWikiUrl":"https://www.gem.wiki/Dekemhare_solar_farm","geographyId":"ER-12472421B98039697407970","id":"wattlas-plant-gemplant-l100000811597","lifecycleCounts":{"announced":1},"locationPrecision":"exact","name":"Dekemhare solar farm","operatingCapacityCoverage":{"coveragePercent":0.0,"knownUnitCount":0,"method":"unavailable","totalUnitCount":0},"operatingCapacityMw":0.0,"operatingCapacityMwByTechnology":{},"plannedCapacityCoverage":{"coveragePercent":100.0,"knownUnitCount":1,"method":"complete_unit_sum","provenance":{"evidenceCount":0,"recordIds":["wattlas-record-gemunit-g100000814111"],"sourceIds":["gem-global-integrated-power-tracker"],"sourceTypes":["research_verified"],"valueKind":"reported"},"totalUnitCount":1},"plannedCapacityMw":30.0,"plannedCapacityMwByTechnology":{"solar":30.0},"recordCount":1,"recordIds":["wattlas-record-gemunit-g100000814111"],"sourceIds":["gem-global-integrated-power-tracker"],"sourceUrl":"https://www.gem.wiki/Dekemhare_solar_farm","technologies":["solar"],"technologyMixMw":{"solar":30.0},"unitCount":1,"unitIds":["gem-unit-G100000814111"]},"type":"Feature"},{"geometry":{"coordinates":[37.5148,15.5169],"type":"Point"},"id":"wattlas-plant-gemplant-l100000827636","properties":{"aliases":["--","Bisha solar project"],"canonicalAnchor":"gemplant:L100000827636","canonicalCountryKey":"ER","capacityMw":8.6,"country":"ER","externalIds":{"gemPlant":"L100000827636","gemUnit":"G100000831164"},"gemWikiUrl":"https://www.gem.wiki/Bisha_solar_project","geographyId":"ER-12472421B57032757115732","id":"wattlas-plant-gemplant-l100000827636","lifecycleCounts":{"operational":1},"locationPrecision":"exact","name":"Bisha solar project","operatingCapacityCoverage":{"coveragePercent":100.0,"knownUnitCount":1,"method":"complete_unit_sum","provenance":{"evidenceCount":0,"recordIds":["wattlas-record-gemunit-g100000831164"],"sourceIds":["gem-global-integrated-power-tracker"],"sourceTypes":["research_verified"],"valueKind":"reported"},"totalUnitCount":1},"operatingCapacityMw":8.6,"operatingCapacityMwByTechnology":{"solar":8.6},"plannedCapacityCoverage":{"coveragePercent":0.0,"knownUnitCount":0,"method":"unavailable","totalUnitCount":0},"plannedCapacityMw":0.0,"plannedCapacityMwByTechnology":{},"recordCount":1,"recordIds":["wattlas-record-gemunit-g100000831164"],"sourceIds":["gem-global-integrated-power-tracker"],"sourceUrl":"https://www.gem.wiki/Bisha_solar_project","technologies":["solar"],"technologyMixMw":{"solar":8.6},"unitCount":1,"unitIds":["gem-unit-G100000831164"]},"type":"Feature"},{"geometry":{"coordinates":[38.9572,15.3176],"type":"Point"},"id":"wattlas-plant-gemplant-l100001020888","properties":{"aliases":["--","Asmara solar project"],"canonicalAnchor":"gemplant:L100001020888","canonicalCountryKey":"ER","capacityMw":2.3,"country":"ER","externalIds":{"gemPlant":"L100001020888","gemUnit":"G100001023857"},"gemWikiUrl":"https://www.gem.wiki/Asmara_solar_project","geographyId":"ER-12472421B35314914583003","id":"wattlas-plant-gemplant-l100001020888","lifecycleCounts":{"operational":1},"locationPrecision":"exact","name":"Asmara solar project","operatingCapacityCoverage":{"coveragePercent":100.0,"knownUnitCount":1,"method":"complete_unit_sum","provenance":{"evidenceCount":0,"recordIds":["wattlas-record-gemunit-g100001023857"],"sourceIds":["gem-global-integrated-power-tracker"],"sourceTypes":["research_verified"],"valueKind":"reported"},"totalUnitCount":1},"operatingCapacityMw":2.3,"operatingCapacityMwByTechnology":{"solar":2.3},"plannedCapacityCoverage":{"coveragePercent":0.0,"knownUnitCount":0,"method":"unavailable","totalUnitCount":0},"plannedCapacityMw":0.0,"plannedCapacityMwByTechnology":{},"recordCount":1,"recordIds":["wattlas-record-gemunit-g100001023857"],"sourceIds":["gem-global-integrated-power-tracker"],"sourceUrl":"https://www.gem.wiki/Asmara_solar_project","technologies":["solar"],"technologyMixMw":{"solar":2.3},"unitCount":1,"unitIds":["gem-unit-G100001023857"]},"type":"Feature"},{"geometry":{"coordinates":[38.4772,14.9066],"type":"Point"},"id":"wattlas-plant-gemplant-l100001020889","properties":{"aliases":["--","Debub Region solar project"],"canonicalAnchor":"gemplant:L100001020889","canonicalCountryKey":"ER","capacityMw":1.4,"country":"ER","externalIds":{"gemPlant":"L100001020889","gemUnit":"G100001023858"},"gemWikiUrl":"https://www.gem.wiki/Debub_Region_solar_project","geographyId":"ER-12472421B98039697407970","id":"wattlas-plant-gemplant-l100001020889","lifecycleCounts":{"operational":1},"locationPrecision":"exact","name":"Debub Region solar project","operatingCapacityCoverage":{"coveragePercent":100.0,"knownUnitCount":1,"method":"complete_unit_sum","provenance":{"evidenceCount":0,"recordIds":["wattlas-record-gemunit-g100001023858"],"sourceIds":["gem-global-integrated-power-tracker"],"sourceTypes":["research_verified"],"valueKind":"reported"},"totalUnitCount":1},"operatingCapacityMw":1.4,"operatingCapacityMwByTechnology":{"solar":1.4},"plannedCapacityCoverage":{"coveragePercent":0.0,"knownUnitCount":0,"method":"unavailable","totalUnitCount":0},"plannedCapacityMw":0.0,"plannedCapacityMwByTechnology":{},"recordCount":1,"recordIds":["wattlas-record-gemunit-g100001023858"],"sourceIds":["gem-global-integrated-power-tracker"],"sourceUrl":"https://www.gem.wiki/Debub_Region_solar_project","technologies":["solar"],"technologyMixMw":{"solar":1.4},"unitCount":1,"unitIds":["gem-unit-G100001023858"]},"type":"Feature"},{"geometry":{"coordinates":[38.8167,15.1867],"type":"Point"},"id":"wattlas-plant-gemplant-l100001020890","properties":{"aliases":["--","Maekel Region solar project"],"canonicalAnchor":"gemplant:L100001020890","canonicalCountryKey":"ER","capacityMw":4.1,"country":"ER","externalIds":{"gemPlant":"L100001020890","gemUnit":"G100001023859"},"gemWikiUrl":"https://www.gem.wiki/Maekel_Region_solar_project","geographyId":"ER-12472421B35314914583003","id":"wattlas-plant-gemplant-l100001020890","lifecycleCounts":{"operational":1},"locationPrecision":"exact","name":"Maekel Region solar project","operatingCapacityCoverage":{"coveragePercent":100.0,"knownUnitCount":1,"method":"complete_unit_sum","provenance":{"evidenceCount":0,"recordIds":["wattlas-record-gemunit-g100001023859"],"sourceIds":["gem-global-integrated-power-tracker"],"sourceTypes":["research_verified"],"valueKind":"reported"},"totalUnitCount":1},"operatingCapacityMw":4.1,"operatingCapacityMwByTechnology":{"solar":4.1},"plannedCapacityCoverage":{"coveragePercent":0.0,"knownUnitCount":0,"method":"unavailable","totalUnitCount":0},"plannedCapacityMw":0.0,"plannedCapacityMwByTechnology":{},"recordCount":1,"recordIds":["wattlas-record-gemunit-g100001023859"],"sourceIds":["gem-global-integrated-power-tracker"],"sourceUrl":"https://www.gem.wiki/Maekel_Region_solar_project","technologies":["solar"],"technologyMixMw":{"solar":4.1},"unitCount":1,"unitIds":["gem-unit-G100001023859"]},"type":"Feature"},{"geometry":{"coordinates":[38.566,14.9153],"type":"Point"},"id":"wattlas-plant-gemplant-l100001064786","properties":{"aliases":["--","Debub Region solar project I"],"canonicalAnchor":"gemplant:L100001064786","canonicalCountryKey":"ER","capacityMw":1.1,"country":"ER","externalIds":{"gemPlant":"L100001064786","gemUnit":"G100001074572"},"gemWikiUrl":"https://www.gem.wiki/Debub_Region_solar_project_I","geographyId":"ER-12472421B98039697407970","id":"wattlas-plant-gemplant-l100001064786","lifecycleCounts":{"operational":1},"locationPrecision":"exact","name":"Debub Region solar project I","operatingCapacityCoverage":{"coveragePercent":100.0,"knownUnitCount":1,"method":"complete_unit_sum","provenance":{"evidenceCount":0,"recordIds":["wattlas-record-gemunit-g100001074572"],"sourceIds":["gem-global-integrated-power-tracker"],"sourceTypes":["research_verified"],"valueKind":"reported"},"totalUnitCount":1},"operatingCapacityMw":1.1,"operatingCapacityMwByTechnology":{"solar":1.1},"plannedCapacityCoverage":{"coveragePercent":0.0,"knownUnitCount":0,"method":"unavailable","totalUnitCount":0},"plannedCapacityMw":0.0,"plannedCapacityMwByTechnology":{},"recordCount":1,"recordIds":["wattlas-record-gemunit-g100001074572"],"sourceIds":["gem-global-integrated-power-tracker"],"sourceUrl":"https://www.gem.wiki/Debub_Region_solar_project_I","technologies":["solar"],"technologyMixMw":{"solar":1.1},"unitCount":1,"unitIds":["gem-unit-G100001074572"]},"type":"Feature"},{"geometry":{"coordinates":[38.878,15.0173],"type":"Point"},"id":"wattlas-plant-gemplant-l100001064787","properties":{"aliases":["--","Debub Region solar project II"],"canonicalAnchor":"gemplant:L100001064787","canonicalCountryKey":"ER","capacityMw":5.3,"country":"ER","externalIds":{"gemPlant":"L100001064787","gemUnit":"G100001074573"},"gemWikiUrl":"https://www.gem.wiki/Debub_Region_solar_project_II","geographyId":"ER-12472421B98039697407970","id":"wattlas-plant-gemplant-l100001064787","lifecycleCounts":{"operational":1},"locationPrecision":"exact","name":"Debub Region solar project II","operatingCapacityCoverage":{"coveragePercent":100.0,"knownUnitCount":1,"method":"complete_unit_sum","provenance":{"evidenceCount":0,"recordIds":["wattlas-record-gemunit-g100001074573"],"sourceIds":["gem-global-integrated-power-tracker"],"sourceTypes":["research_verified"],"valueKind":"reported"},"totalUnitCount":1},"operatingCapacityMw":5.3,"operatingCapacityMwByTechnology":{"solar":5.3},"plannedCapacityCoverage":{"coveragePercent":0.0,"knownUnitCount":0,"method":"unavailable","totalUnitCount":0},"plannedCapacityMw":0.0,"plannedCapacityMwByTechnology":{},"recordCount":1,"recordIds":["wattlas-record-gemunit-g100001074573"],"sourceIds":["gem-global-integrated-power-tracker"],"sourceUrl":"https://www.gem.wiki/Debub_Region_solar_project_II","technologies":["solar"],"technologyMixMw":{"solar":5.3},"unitCount":1,"unitIds":["gem-unit-G100001074573"]},"type":"Feature"},{"geometry":{"coordinates":[39.44277,15.579],"type":"Point"},"id":"wattlas-plant-osm-way-421955715","properties":{"aliases":["Hirgigo Power Plant محطة توليد الكهرباء"],"canonicalAnchor":"osm:way/421955715","canonicalCountryKey":"ER","capacityMw":132.0,"country":"ER","externalIds":{"osm":"way/421955715"},"geographyId":"ER-12472421B21855399297122","id":"wattlas-plant-osm-way-421955715","lifecycleCounts":{"operational":1},"locationPrecision":"exact","name":"Hirgigo Power Plant محطة توليد الكهرباء","operatingCapacityCoverage":{"coveragePercent":100.0,"knownUnitCount":0,"method":"plant_aggregate","provenance":{"evidenceCount":0,"recordIds":["wattlas-record-osm-way-421955715"],"sourceIds":["openstreetmap-power"],"sourceTypes":["community_mapped"],"valueKind":"reported"},"totalUnitCount":0},"operatingCapacityMw":132.0,"operatingCapacityMwByTechnology":{"oil":132.0},"plannedCapacityCoverage":{"coveragePercent":0.0,"knownUnitCount":0,"method":"unavailable","totalUnitCount":0},"plannedCapacityMw":0.0,"plannedCapacityMwByTechnology":{},"recordCount":1,"recordIds":["wattlas-record-osm-way-421955715"],"sourceIds":["openstreetmap-power"],"sourceUrl":"https://www.openstreetmap.org/way/421955715","technologies":["oil"],"technologyMixMw":{"oil":132.0},"unitCount":0,"unitIds":[]},"type":"Feature"}],"type":"FeatureCollection"}