{"features":[{"geometry":{"coordinates":[35.93015,8.37883],"type":"Point"},"id":"wattlas-plant-gemplant-l100000104610","properties":{"aliases":["--","Yayu power station"],"canonicalAnchor":"gemplant:L100000104610","canonicalCountryKey":"ET","capacityMw":0.0,"country":"ET","externalIds":{"gemPlant":"L100000104610","gemUnit":"G100000114308"},"gemWikiUrl":"https://www.gem.wiki/Yayu_power_station","geographyId":"ET-75662566B9273833721501","id":"wattlas-plant-gemplant-l100000104610","lifecycleCounts":{"paused":1},"locationPrecision":"exact","name":"Yayu power station","operatingCapacityCoverage":{"coveragePercent":0.0,"knownUnitCount":0,"method":"unavailable","totalUnitCount":0},"operatingCapacityMw":0.0,"operatingCapacityMwByTechnology":{},"plannedCapacityCoverage":{"coveragePercent":0.0,"knownUnitCount":0,"method":"unavailable","totalUnitCount":0},"plannedCapacityMw":0.0,"plannedCapacityMwByTechnology":{},"recordCount":1,"recordIds":["wattlas-record-gemunit-g100000114308"],"sourceIds":["gem-global-integrated-power-tracker"],"sourceUrl":"https://www.gem.wiki/Yayu_power_station","technologies":["coal"],"technologyMixMw":{"coal":0.0},"unitCount":1,"unitIds":["gem-unit-G100000114308"]},"type":"Feature"},{"geometry":{"coordinates":[37.4199,9.7947],"type":"Point"},"id":"wattlas-plant-gemplant-l100000200005","properties":{"aliases":["1.0","Finchaa Sugar Factory power station"],"canonicalAnchor":"gemplant:L100000200005","canonicalCountryKey":"ET","capacityMw":31.0,"country":"ET","externalIds":{"gemPlant":"L100000200005","gemUnit":"G100000200005"},"gemWikiUrl":"https://www.gem.wiki/Finchaa_Sugar_Factory_power_station","geographyId":"ET-75662566B9273833721501","id":"wattlas-plant-gemplant-l100000200005","lifecycleCounts":{"operational":1},"locationPrecision":"exact","name":"Finchaa Sugar Factory power station","operatingCapacityCoverage":{"coveragePercent":100.0,"knownUnitCount":1,"method":"complete_unit_sum","provenance":{"evidenceCount":0,"recordIds":["wattlas-record-gemunit-g100000200005"],"sourceIds":["gem-global-integrated-power-tracker"],"sourceTypes":["research_verified"],"valueKind":"reported"},"totalUnitCount":1},"operatingCapacityMw":31.0,"operatingCapacityMwByTechnology":{"biomass":31.0},"plannedCapacityCoverage":{"coveragePercent":0.0,"knownUnitCount":0,"method":"unavailable","totalUnitCount":0},"plannedCapacityMw":0.0,"plannedCapacityMwByTechnology":{},"recordCount":1,"recordIds":["wattlas-record-gemunit-g100000200005"],"sourceIds":["gem-global-integrated-power-tracker"],"sourceUrl":"https://www.gem.wiki/Finchaa_Sugar_Factory_power_station","technologies":["biomass"],"technologyMixMw":{"biomass":31.0},"unitCount":1,"unitIds":["gem-unit-G100000200005"]},"type":"Feature"},{"geometry":{"coordinates":[35.9903,6.118],"type":"Point"},"id":"wattlas-plant-gemplant-l100000200009","properties":{"aliases":["1.0","Omo Kuraz 1 Sugar Factory power station"],"canonicalAnchor":"gemplant:L100000200009","canonicalCountryKey":"ET","capacityMw":0.0,"country":"ET","externalIds":{"gemPlant":"L100000200009","gemUnit":"G100000200009"},"gemWikiUrl":"https://www.gem.wiki/Omo_Kuraz_1_Sugar_Factory_power_station","geographyId":"ET-75662566B72302855928957","id":"wattlas-plant-gemplant-l100000200009","lifecycleCounts":{"paused":1},"locationPrecision":"exact","name":"Omo Kuraz 1 Sugar Factory power station","operatingCapacityCoverage":{"coveragePercent":0.0,"knownUnitCount":0,"method":"unavailable","totalUnitCount":0},"operatingCapacityMw":0.0,"operatingCapacityMwByTechnology":{},"plannedCapacityCoverage":{"coveragePercent":0.0,"knownUnitCount":0,"method":"unavailable","totalUnitCount":0},"plannedCapacityMw":0.0,"plannedCapacityMwByTechnology":{},"recordCount":1,"recordIds":["wattlas-record-gemunit-g100000200009"],"sourceIds":["gem-global-integrated-power-tracker"],"sourceUrl":"https://www.gem.wiki/Omo_Kuraz_1_Sugar_Factory_power_station","technologies":["biomass"],"technologyMixMw":{"biomass":0.0},"unitCount":1,"unitIds":["gem-unit-G100000200009"]},"type":"Feature"},{"geometry":{"coordinates":[36.461,11.5655],"type":"Point"},"id":"wattlas-plant-gemplant-l100000200011","properties":{"aliases":["1.0","Tana Beles Sugar Factory power station"],"canonicalAnchor":"gemplant:L100000200011","canonicalCountryKey":"ET","capacityMw":45.0,"country":"ET","externalIds":{"gemPlant":"L100000200011","gemUnit":"G100000200011"},"gemWikiUrl":"https://www.gem.wiki/Tana_Beles_Sugar_Factory_power_station","geographyId":"ET-75662566B52684709481520","id":"wattlas-plant-gemplant-l100000200011","lifecycleCounts":{"operational":1},"locationPrecision":"exact","name":"Tana Beles Sugar Factory power station","operatingCapacityCoverage":{"coveragePercent":100.0,"knownUnitCount":1,"method":"complete_unit_sum","provenance":{"evidenceCount":0,"recordIds":["wattlas-record-gemunit-g100000200011"],"sourceIds":["gem-global-integrated-power-tracker"],"sourceTypes":["research_verified"],"valueKind":"reported"},"totalUnitCount":1},"operatingCapacityMw":45.0,"operatingCapacityMwByTechnology":{"biomass":45.0},"plannedCapacityCoverage":{"coveragePercent":0.0,"knownUnitCount":0,"method":"unavailable","totalUnitCount":0},"plannedCapacityMw":0.0,"plannedCapacityMwByTechnology":{},"recordCount":1,"recordIds":["wattlas-record-gemunit-g100000200011"],"sourceIds":["gem-global-integrated-power-tracker"],"sourceUrl":"https://www.gem.wiki/Tana_Beles_Sugar_Factory_power_station","technologies":["biomass"],"technologyMixMw":{"biomass":45.0},"unitCount":1,"unitIds":["gem-unit-G100000200011"]},"type":"Feature"},{"geometry":{"coordinates":[41.3893,11.5504],"type":"Point"},"id":"wattlas-plant-gemplant-l100000200012","properties":{"aliases":["1.0","2.0","Tendeho Sugar Factory power station"],"canonicalAnchor":"gemplant:L100000200012","canonicalCountryKey":"ET","capacityMw":0.0,"country":"ET","externalIdAliases":{"gemUnit":["G100000200012","G100000200013"]},"externalIds":{"gemPlant":"L100000200012","gemUnit":"G100000200013"},"gemWikiUrl":"https://www.gem.wiki/Tendeho_Sugar_Factory_power_station","geographyId":"ET-75662566B25357223982520","id":"wattlas-plant-gemplant-l100000200012","lifecycleCounts":{"paused":2},"locationPrecision":"exact","name":"Tendeho Sugar Factory power station","operatingCapacityCoverage":{"coveragePercent":0.0,"knownUnitCount":0,"method":"unavailable","totalUnitCount":0},"operatingCapacityMw":0.0,"operatingCapacityMwByTechnology":{},"plannedCapacityCoverage":{"coveragePercent":0.0,"knownUnitCount":0,"method":"unavailable","totalUnitCount":0},"plannedCapacityMw":0.0,"plannedCapacityMwByTechnology":{},"recordCount":2,"recordIds":["wattlas-record-gemunit-g100000200012","wattlas-record-gemunit-g100000200013"],"sourceIds":["gem-global-integrated-power-tracker"],"sourceUrl":"https://www.gem.wiki/Tendeho_Sugar_Factory_power_station","technologies":["biomass"],"technologyMixMw":{"biomass":0.0},"unitCount":2,"unitIds":["gem-unit-G100000200012","gem-unit-G100000200013"]},"type":"Feature"},{"geometry":{"coordinates":[37.7947,13.7421],"type":"Point"},"id":"wattlas-plant-gemplant-l100000200014","properties":{"aliases":["1.0","2.0","3.0","4.0","Welkait Sugar Factory power station"],"canonicalAnchor":"gemplant:L100000200014","canonicalCountryKey":"ET","capacityMw":0.0,"country":"ET","externalIdAliases":{"gemUnit":["G100000200015","G100000200016","G100000201687","G100000201688"]},"externalIds":{"gemPlant":"L100000200014","gemUnit":"G100000201688"},"gemWikiUrl":"https://www.gem.wiki/Welkait_Sugar_Factory_power_station","geographyId":"ET-75662566B45163836206557","id":"wattlas-plant-gemplant-l100000200014","lifecycleCounts":{"paused":4},"locationPrecision":"exact","name":"Welkait Sugar Factory power station","operatingCapacityCoverage":{"coveragePercent":0.0,"knownUnitCount":0,"method":"unavailable","totalUnitCount":0},"operatingCapacityMw":0.0,"operatingCapacityMwByTechnology":{},"plannedCapacityCoverage":{"coveragePercent":0.0,"knownUnitCount":0,"method":"unavailable","totalUnitCount":0},"plannedCapacityMw":0.0,"plannedCapacityMwByTechnology":{},"recordCount":4,"recordIds":["wattlas-record-gemunit-g100000200015","wattlas-record-gemunit-g100000200016","wattlas-record-gemunit-g100000201687","wattlas-record-gemunit-g100000201688"],"sourceIds":["gem-global-integrated-power-tracker"],"sourceUrl":"https://www.gem.wiki/Welkait_Sugar_Factory_power_station","technologies":["biomass"],"technologyMixMw":{"biomass":0.0},"unitCount":4,"unitIds":["gem-unit-G100000200015","gem-unit-G100000200016","gem-unit-G100000201687","gem-unit-G100000201688"]},"type":"Feature"},{"geometry":{"coordinates":[39.3095,8.377],"type":"Point"},"id":"wattlas-plant-gemplant-l100000200016","properties":{"aliases":["1.0","Wonji Shoa Sugar Factory power station"],"canonicalAnchor":"gemplant:L100000200016","canonicalCountryKey":"ET","capacityMw":31.0,"country":"ET","externalIds":{"gemPlant":"L100000200016","gemUnit":"G100000200018"},"gemWikiUrl":"https://www.gem.wiki/Wonji_Shoa_Sugar_Factory_power_station","geographyId":"ET-75662566B9273833721501","id":"wattlas-plant-gemplant-l100000200016","lifecycleCounts":{"operational":1},"locationPrecision":"exact","name":"Wonji Shoa Sugar Factory power station","operatingCapacityCoverage":{"coveragePercent":100.0,"knownUnitCount":1,"method":"complete_unit_sum","provenance":{"evidenceCount":0,"recordIds":["wattlas-record-gemunit-g100000200018"],"sourceIds":["gem-global-integrated-power-tracker"],"sourceTypes":["research_verified"],"valueKind":"reported"},"totalUnitCount":1},"operatingCapacityMw":31.0,"operatingCapacityMwByTechnology":{"biomass":31.0},"plannedCapacityCoverage":{"coveragePercent":0.0,"knownUnitCount":0,"method":"unavailable","totalUnitCount":0},"plannedCapacityMw":0.0,"plannedCapacityMwByTechnology":{},"recordCount":1,"recordIds":["wattlas-record-gemunit-g100000200018"],"sourceIds":["gem-global-integrated-power-tracker"],"sourceUrl":"https://www.gem.wiki/Wonji_Shoa_Sugar_Factory_power_station","technologies":["biomass"],"technologyMixMw":{"biomass":31.0},"unitCount":1,"unitIds":["gem-unit-G100000200018"]},"type":"Feature"},{"geometry":{"coordinates":[35.4475,8.4671],"type":"Point"},"id":"wattlas-plant-gemplant-l100000601576","properties":{"aliases":["Baro 1 hydroelectric plant"],"canonicalAnchor":"gemplant:L100000601576","canonicalCountryKey":"ET","capacityMw":0.0,"country":"ET","externalIds":{"gemPlant":"L100000601576","gemUnit":"G100000604236"},"gemWikiUrl":"https://www.gem.wiki/Baro_1_hydroelectric_plant","geographyId":"ET-75662566B9273833721501","id":"wattlas-plant-gemplant-l100000601576","lifecycleCounts":{"cancelled":1},"locationPrecision":"exact","name":"Baro 1 hydroelectric plant","operatingCapacityCoverage":{"coveragePercent":0.0,"knownUnitCount":0,"method":"unavailable","totalUnitCount":0},"operatingCapacityMw":0.0,"operatingCapacityMwByTechnology":{},"plannedCapacityCoverage":{"coveragePercent":0.0,"knownUnitCount":0,"method":"unavailable","totalUnitCount":0},"plannedCapacityMw":0.0,"plannedCapacityMwByTechnology":{},"recordCount":1,"recordIds":["wattlas-record-gemunit-g100000604236"],"sourceIds":["gem-global-integrated-power-tracker"],"sourceUrl":"https://www.gem.wiki/Baro_1_hydroelectric_plant","technologies":["hydro"],"technologyMixMw":{"hydro":0.0},"unitCount":1,"unitIds":["gem-unit-G100000604236"]},"type":"Feature"},{"geometry":{"coordinates":[35.4452,8.5303],"type":"Point"},"id":"wattlas-plant-gemplant-l100000601577","properties":{"aliases":["Baro 2 hydroelectric plant"],"canonicalAnchor":"gemplant:L100000601577","canonicalCountryKey":"ET","capacityMw":0.0,"country":"ET","externalIds":{"gemPlant":"L100000601577","gemUnit":"G100000604237"},"gemWikiUrl":"https://www.gem.wiki/Baro_2_hydroelectric_plant","geographyId":"ET-75662566B9273833721501","id":"wattlas-plant-gemplant-l100000601577","lifecycleCounts":{"cancelled":1},"locationPrecision":"exact","name":"Baro 2 hydroelectric plant","operatingCapacityCoverage":{"coveragePercent":0.0,"knownUnitCount":0,"method":"unavailable","totalUnitCount":0},"operatingCapacityMw":0.0,"operatingCapacityMwByTechnology":{},"plannedCapacityCoverage":{"coveragePercent":0.0,"knownUnitCount":0,"method":"unavailable","totalUnitCount":0},"plannedCapacityMw":0.0,"plannedCapacityMwByTechnology":{},"recordCount":1,"recordIds":["wattlas-record-gemunit-g100000604237"],"sourceIds":["gem-global-integrated-power-tracker"],"sourceUrl":"https://www.gem.wiki/Baro_2_hydroelectric_plant","technologies":["hydro"],"technologyMixMw":{"hydro":0.0},"unitCount":1,"unitIds":["gem-unit-G100000604237"]},"type":"Feature"},{"geometry":{"coordinates":[36.9204,11.8204],"type":"Point"},"id":"wattlas-plant-gemplant-l100000601578","properties":{"aliases":["Beles hydroelectric plant"],"canonicalAnchor":"gemplant:L100000601578","canonicalCountryKey":"ET","capacityMw":460.0,"country":"ET","externalIds":{"gemPlant":"L100000601578","gemUnit":"G100000601596"},"gemWikiUrl":"https://www.gem.wiki/Beles_hydroelectric_plant","geographyId":"ET-75662566B52684709481520","id":"wattlas-plant-gemplant-l100000601578","lifecycleCounts":{"operational":1},"locationPrecision":"exact","name":"Beles hydroelectric plant","operatingCapacityCoverage":{"coveragePercent":100.0,"knownUnitCount":1,"method":"complete_unit_sum","provenance":{"evidenceCount":0,"recordIds":["wattlas-record-gemunit-g100000601596"],"sourceIds":["gem-global-integrated-power-tracker"],"sourceTypes":["research_verified"],"valueKind":"reported"},"totalUnitCount":1},"operatingCapacityMw":460.0,"operatingCapacityMwByTechnology":{"hydro":460.0},"plannedCapacityCoverage":{"coveragePercent":0.0,"knownUnitCount":0,"method":"unavailable","totalUnitCount":0},"plannedCapacityMw":0.0,"plannedCapacityMwByTechnology":{},"recordCount":1,"recordIds":["wattlas-record-gemunit-g100000601596"],"sourceIds":["gem-global-integrated-power-tracker"],"sourceUrl":"https://www.gem.wiki/Beles_hydroelectric_plant","technologies":["hydro"],"technologyMixMw":{"hydro":460.0},"unitCount":1,"unitIds":["gem-unit-G100000601596"]},"type":"Feature"},{"geometry":{"coordinates":[34.876,9.9991],"type":"Point"},"id":"wattlas-plant-gemplant-l100000601581","properties":{"aliases":["Dabus I hydroelectric plant"],"canonicalAnchor":"gemplant:L100000601581","canonicalCountryKey":"ET","capacityMw":0.0,"country":"ET","externalIds":{"gemPlant":"L100000601581","gemUnit":"G100000604326"},"gemWikiUrl":"https://www.gem.wiki/Dabus_I_hydroelectric_plant","geographyId":"ET-75662566B16746670119676","id":"wattlas-plant-gemplant-l100000601581","lifecycleCounts":{"paused":1},"locationPrecision":"exact","name":"Dabus I hydroelectric plant","operatingCapacityCoverage":{"coveragePercent":0.0,"knownUnitCount":0,"method":"unavailable","totalUnitCount":0},"operatingCapacityMw":0.0,"operatingCapacityMwByTechnology":{},"plannedCapacityCoverage":{"coveragePercent":0.0,"knownUnitCount":0,"method":"unavailable","totalUnitCount":0},"plannedCapacityMw":0.0,"plannedCapacityMwByTechnology":{},"recordCount":1,"recordIds":["wattlas-record-gemunit-g100000604326"],"sourceIds":["gem-global-integrated-power-tracker"],"sourceUrl":"https://www.gem.wiki/Dabus_I_hydroelectric_plant","technologies":["hydro"],"technologyMixMw":{"hydro":0.0},"unitCount":1,"unitIds":["gem-unit-G100000604326"]},"type":"Feature"},{"geometry":{"coordinates":[34.876,9.9991],"type":"Point"},"id":"wattlas-plant-gemplant-l100000601582","properties":{"aliases":["Dabus II hydroelectric plant"],"canonicalAnchor":"gemplant:L100000601582","canonicalCountryKey":"ET","capacityMw":0.0,"country":"ET","externalIds":{"gemPlant":"L100000601582","gemUnit":"G100000604327"},"gemWikiUrl":"https://www.gem.wiki/Dabus_II_hydroelectric_plant","geographyId":"ET-75662566B16746670119676","id":"wattlas-plant-gemplant-l100000601582","lifecycleCounts":{"paused":1},"locationPrecision":"exact","name":"Dabus II hydroelectric plant","operatingCapacityCoverage":{"coveragePercent":0.0,"knownUnitCount":0,"method":"unavailable","totalUnitCount":0},"operatingCapacityMw":0.0,"operatingCapacityMwByTechnology":{},"plannedCapacityCoverage":{"coveragePercent":0.0,"knownUnitCount":0,"method":"unavailable","totalUnitCount":0},"plannedCapacityMw":0.0,"plannedCapacityMwByTechnology":{},"recordCount":1,"recordIds":["wattlas-record-gemunit-g100000604327"],"sourceIds":["gem-global-integrated-power-tracker"],"sourceUrl":"https://www.gem.wiki/Dabus_II_hydroelectric_plant","technologies":["hydro"],"technologyMixMw":{"hydro":0.0},"unitCount":1,"unitIds":["gem-unit-G100000604327"]},"type":"Feature"},{"geometry":{"coordinates":[36.6948,8.4539],"type":"Point"},"id":"wattlas-plant-gemplant-l100000601583","properties":{"aliases":["Didessa hydroelectric plant"],"canonicalAnchor":"gemplant:L100000601583","canonicalCountryKey":"ET","capacityMw":301.0,"country":"ET","externalIds":{"gemPlant":"L100000601583","gemUnit":"G100000604349"},"gemWikiUrl":"https://www.gem.wiki/Didessa_hydroelectric_plant","geographyId":"ET-75662566B9273833721501","id":"wattlas-plant-gemplant-l100000601583","lifecycleCounts":{"announced":1},"locationPrecision":"exact","name":"Didessa hydroelectric plant","operatingCapacityCoverage":{"coveragePercent":0.0,"knownUnitCount":0,"method":"unavailable","totalUnitCount":0},"operatingCapacityMw":0.0,"operatingCapacityMwByTechnology":{},"plannedCapacityCoverage":{"coveragePercent":100.0,"knownUnitCount":1,"method":"complete_unit_sum","provenance":{"evidenceCount":0,"recordIds":["wattlas-record-gemunit-g100000604349"],"sourceIds":["gem-global-integrated-power-tracker"],"sourceTypes":["research_verified"],"valueKind":"reported"},"totalUnitCount":1},"plannedCapacityMw":301.0,"plannedCapacityMwByTechnology":{"hydro":301.0},"recordCount":1,"recordIds":["wattlas-record-gemunit-g100000604349"],"sourceIds":["gem-global-integrated-power-tracker"],"sourceUrl":"https://www.gem.wiki/Didessa_hydroelectric_plant","technologies":["hydro"],"technologyMixMw":{"hydro":301.0},"unitCount":1,"unitIds":["gem-unit-G100000604349"]},"type":"Feature"},{"geometry":{"coordinates":[37.3625,9.5607],"type":"Point"},"id":"wattlas-plant-gemplant-l100000601584","properties":{"aliases":["Fincha Amerti Neshe hydroelectric plant"],"canonicalAnchor":"gemplant:L100000601584","canonicalCountryKey":"ET","capacityMw":97.0,"country":"ET","externalIds":{"gemPlant":"L100000601584","gemUnit":"G100000601602"},"gemWikiUrl":"https://www.gem.wiki/Fincha_Amerti_Neshe_hydroelectric_plant","geographyId":"ET-75662566B9273833721501","id":"wattlas-plant-gemplant-l100000601584","lifecycleCounts":{"operational":1},"locationPrecision":"exact","name":"Fincha Amerti Neshe hydroelectric plant","operatingCapacityCoverage":{"coveragePercent":100.0,"knownUnitCount":1,"method":"complete_unit_sum","provenance":{"evidenceCount":0,"recordIds":["wattlas-record-gemunit-g100000601602"],"sourceIds":["gem-global-integrated-power-tracker"],"sourceTypes":["research_verified"],"valueKind":"reported"},"totalUnitCount":1},"operatingCapacityMw":97.0,"operatingCapacityMwByTechnology":{"hydro":97.0},"plannedCapacityCoverage":{"coveragePercent":0.0,"knownUnitCount":0,"method":"unavailable","totalUnitCount":0},"plannedCapacityMw":0.0,"plannedCapacityMwByTechnology":{},"recordCount":1,"recordIds":["wattlas-record-gemunit-g100000601602"],"sourceIds":["gem-global-integrated-power-tracker"],"sourceUrl":"https://www.gem.wiki/Fincha_Amerti_Neshe_hydroelectric_plant","technologies":["hydro"],"technologyMixMw":{"hydro":97.0},"unitCount":1,"unitIds":["gem-unit-G100000601602"]},"type":"Feature"},{"geometry":{"coordinates":[37.3663,9.558],"type":"Point"},"id":"wattlas-plant-gemplant-l100000601585","properties":{"aliases":["Fincha hydroelectric plant"],"canonicalAnchor":"gemplant:L100000601585","canonicalCountryKey":"ET","capacityMw":134.0,"country":"ET","externalIds":{"gemPlant":"L100000601585","gemUnit":"G100000601603"},"gemWikiUrl":"https://www.gem.wiki/Fincha_hydroelectric_plant","geographyId":"ET-75662566B9273833721501","id":"wattlas-plant-gemplant-l100000601585","lifecycleCounts":{"operational":1},"locationPrecision":"exact","name":"Fincha hydroelectric plant","operatingCapacityCoverage":{"coveragePercent":100.0,"knownUnitCount":1,"method":"complete_unit_sum","provenance":{"evidenceCount":0,"recordIds":["wattlas-record-gemunit-g100000601603"],"sourceIds":["gem-global-integrated-power-tracker"],"sourceTypes":["research_verified"],"valueKind":"reported"},"totalUnitCount":1},"operatingCapacityMw":134.0,"operatingCapacityMwByTechnology":{"hydro":134.0},"plannedCapacityCoverage":{"coveragePercent":0.0,"knownUnitCount":0,"method":"unavailable","totalUnitCount":0},"plannedCapacityMw":0.0,"plannedCapacityMwByTechnology":{},"recordCount":1,"recordIds":["wattlas-record-gemunit-g100000601603"],"sourceIds":["gem-global-integrated-power-tracker"],"sourceUrl":"https://www.gem.wiki/Fincha_hydroelectric_plant","technologies":["hydro"],"technologyMixMw":{"hydro":134.0},"unitCount":1,"unitIds":["gem-unit-G100000601603"]},"type":"Feature"},{"geometry":{"coordinates":[35.1084,8.1937],"type":"Point"},"id":"wattlas-plant-gemplant-l100000601586","properties":{"aliases":["Geba 1 hydroelectric plant"],"canonicalAnchor":"gemplant:L100000601586","canonicalCountryKey":"ET","capacityMw":220.0,"country":"ET","externalIds":{"gemPlant":"L100000601586","gemUnit":"G100000601604"},"gemWikiUrl":"https://www.gem.wiki/Geba_1_hydroelectric_plant","geographyId":"ET-75662566B92391245038365","id":"wattlas-plant-gemplant-l100000601586","lifecycleCounts":{"announced":1},"locationPrecision":"exact","name":"Geba 1 hydroelectric plant","operatingCapacityCoverage":{"coveragePercent":0.0,"knownUnitCount":0,"method":"unavailable","totalUnitCount":0},"operatingCapacityMw":0.0,"operatingCapacityMwByTechnology":{},"plannedCapacityCoverage":{"coveragePercent":100.0,"knownUnitCount":1,"method":"complete_unit_sum","provenance":{"evidenceCount":0,"recordIds":["wattlas-record-gemunit-g100000601604"],"sourceIds":["gem-global-integrated-power-tracker"],"sourceTypes":["research_verified"],"valueKind":"reported"},"totalUnitCount":1},"plannedCapacityMw":220.0,"plannedCapacityMwByTechnology":{"hydro":220.0},"recordCount":1,"recordIds":["wattlas-record-gemunit-g100000601604"],"sourceIds":["gem-global-integrated-power-tracker"],"sourceUrl":"https://www.gem.wiki/Geba_1_hydroelectric_plant","technologies":["hydro"],"technologyMixMw":{"hydro":220.0},"unitCount":1,"unitIds":["gem-unit-G100000601604"]},"type":"Feature"},{"geometry":{"coordinates":[35.1084,8.1937],"type":"Point"},"id":"wattlas-plant-gemplant-l100000601587","properties":{"aliases":["Geba 2 hydroelectric plant"],"canonicalAnchor":"gemplant:L100000601587","canonicalCountryKey":"ET","capacityMw":165.0,"country":"ET","externalIds":{"gemPlant":"L100000601587","gemUnit":"G100000601605"},"gemWikiUrl":"https://www.gem.wiki/Geba_2_hydroelectric_plant","geographyId":"ET-75662566B92391245038365","id":"wattlas-plant-gemplant-l100000601587","lifecycleCounts":{"announced":1},"locationPrecision":"exact","name":"Geba 2 hydroelectric plant","operatingCapacityCoverage":{"coveragePercent":0.0,"knownUnitCount":0,"method":"unavailable","totalUnitCount":0},"operatingCapacityMw":0.0,"operatingCapacityMwByTechnology":{},"plannedCapacityCoverage":{"coveragePercent":100.0,"knownUnitCount":1,"method":"complete_unit_sum","provenance":{"evidenceCount":0,"recordIds":["wattlas-record-gemunit-g100000601605"],"sourceIds":["gem-global-integrated-power-tracker"],"sourceTypes":["research_verified"],"valueKind":"reported"},"totalUnitCount":1},"plannedCapacityMw":165.0,"plannedCapacityMwByTechnology":{"hydro":165.0},"recordCount":1,"recordIds":["wattlas-record-gemunit-g100000601605"],"sourceIds":["gem-global-integrated-power-tracker"],"sourceUrl":"https://www.gem.wiki/Geba_2_hydroelectric_plant","technologies":["hydro"],"technologyMixMw":{"hydro":165.0},"unitCount":1,"unitIds":["gem-unit-G100000601605"]},"type":"Feature"},{"geometry":{"coordinates":[39.7182,5.5105],"type":"Point"},"id":"wattlas-plant-gemplant-l100000601588","properties":{"aliases":["Genale Dawa III hydroelectric plant"],"canonicalAnchor":"gemplant:L100000601588","canonicalCountryKey":"ET","capacityMw":254.0,"country":"ET","externalIds":{"gemPlant":"L100000601588","gemUnit":"G100000601606"},"gemWikiUrl":"https://www.gem.wiki/Genale_Dawa_III_hydroelectric_plant","geographyId":"ET-75662566B9273833721501","id":"wattlas-plant-gemplant-l100000601588","lifecycleCounts":{"operational":1},"locationPrecision":"exact","name":"Genale Dawa III hydroelectric plant","operatingCapacityCoverage":{"coveragePercent":100.0,"knownUnitCount":1,"method":"complete_unit_sum","provenance":{"evidenceCount":0,"recordIds":["wattlas-record-gemunit-g100000601606"],"sourceIds":["gem-global-integrated-power-tracker"],"sourceTypes":["research_verified"],"valueKind":"reported"},"totalUnitCount":1},"operatingCapacityMw":254.0,"operatingCapacityMwByTechnology":{"hydro":254.0},"plannedCapacityCoverage":{"coveragePercent":0.0,"knownUnitCount":0,"method":"unavailable","totalUnitCount":0},"plannedCapacityMw":0.0,"plannedCapacityMwByTechnology":{},"recordCount":1,"recordIds":["wattlas-record-gemunit-g100000601606"],"sourceIds":["gem-global-integrated-power-tracker"],"sourceUrl":"https://www.gem.wiki/Genale_Dawa_III_hydroelectric_plant","technologies":["hydro"],"technologyMixMw":{"hydro":254.0},"unitCount":1,"unitIds":["gem-unit-G100000601606"]},"type":"Feature"},{"geometry":{"coordinates":[39.7738,5.5201],"type":"Point"},"id":"wattlas-plant-gemplant-l100000601589","properties":{"aliases":["Genale Dawa VI hydroelectric plant"],"canonicalAnchor":"gemplant:L100000601589","canonicalCountryKey":"ET","capacityMw":256.0,"country":"ET","externalIds":{"gemPlant":"L100000601589","gemUnit":"G100000601607"},"gemWikiUrl":"https://www.gem.wiki/Genale_Dawa_VI_hydroelectric_plant","geographyId":"ET-75662566B9273833721501","id":"wattlas-plant-gemplant-l100000601589","lifecycleCounts":{"announced":1},"locationPrecision":"exact","name":"Genale Dawa VI hydroelectric plant","operatingCapacityCoverage":{"coveragePercent":0.0,"knownUnitCount":0,"method":"unavailable","totalUnitCount":0},"operatingCapacityMw":0.0,"operatingCapacityMwByTechnology":{},"plannedCapacityCoverage":{"coveragePercent":100.0,"knownUnitCount":1,"method":"complete_unit_sum","provenance":{"evidenceCount":0,"recordIds":["wattlas-record-gemunit-g100000601607"],"sourceIds":["gem-global-integrated-power-tracker"],"sourceTypes":["research_verified"],"valueKind":"reported"},"totalUnitCount":1},"plannedCapacityMw":256.0,"plannedCapacityMwByTechnology":{"hydro":256.0},"recordCount":1,"recordIds":["wattlas-record-gemunit-g100000601607"],"sourceIds":["gem-global-integrated-power-tracker"],"sourceUrl":"https://www.gem.wiki/Genale_Dawa_VI_hydroelectric_plant","technologies":["hydro"],"technologyMixMw":{"hydro":256.0},"unitCount":1,"unitIds":["gem-unit-G100000601607"]},"type":"Feature"},{"geometry":{"coordinates":[35.4475,8.4671],"type":"Point"},"id":"wattlas-plant-gemplant-l100000601590","properties":{"aliases":["Gengi hydroelectric plant"],"canonicalAnchor":"gemplant:L100000601590","canonicalCountryKey":"ET","capacityMw":0.0,"country":"ET","externalIds":{"gemPlant":"L100000601590","gemUnit":"G100000604392"},"gemWikiUrl":"https://www.gem.wiki/Gengi_hydroelectric_plant","geographyId":"ET-75662566B9273833721501","id":"wattlas-plant-gemplant-l100000601590","lifecycleCounts":{"cancelled":1},"locationPrecision":"exact","name":"Gengi hydroelectric plant","operatingCapacityCoverage":{"coveragePercent":0.0,"knownUnitCount":0,"method":"unavailable","totalUnitCount":0},"operatingCapacityMw":0.0,"operatingCapacityMwByTechnology":{},"plannedCapacityCoverage":{"coveragePercent":0.0,"knownUnitCount":0,"method":"unavailable","totalUnitCount":0},"plannedCapacityMw":0.0,"plannedCapacityMwByTechnology":{},"recordCount":1,"recordIds":["wattlas-record-gemunit-g100000604392"],"sourceIds":["gem-global-integrated-power-tracker"],"sourceUrl":"https://www.gem.wiki/Gengi_hydroelectric_plant","technologies":["hydro"],"technologyMixMw":{"hydro":0.0},"unitCount":1,"unitIds":["gem-unit-G100000604392"]},"type":"Feature"},{"geometry":{"coordinates":[36.083,6.3819],"type":"Point"},"id":"wattlas-plant-gemplant-l100000601591","properties":{"aliases":["Gilgel Gibe V hydroelectric plant"],"canonicalAnchor":"gemplant:L100000601591","canonicalCountryKey":"ET","capacityMw":0.0,"country":"ET","externalIds":{"gemPlant":"L100000601591","gemUnit":"G100000604395"},"gemWikiUrl":"https://www.gem.wiki/Gilgel_Gibe_V_hydroelectric_plant","geographyId":"ET-75662566B72302855928957","id":"wattlas-plant-gemplant-l100000601591","lifecycleCounts":{"cancelled":1},"locationPrecision":"exact","name":"Gilgel Gibe V hydroelectric plant","operatingCapacityCoverage":{"coveragePercent":0.0,"knownUnitCount":0,"method":"unavailable","totalUnitCount":0},"operatingCapacityMw":0.0,"operatingCapacityMwByTechnology":{},"plannedCapacityCoverage":{"coveragePercent":0.0,"knownUnitCount":0,"method":"unavailable","totalUnitCount":0},"plannedCapacityMw":0.0,"plannedCapacityMwByTechnology":{},"recordCount":1,"recordIds":["wattlas-record-gemunit-g100000604395"],"sourceIds":["gem-global-integrated-power-tracker"],"sourceUrl":"https://www.gem.wiki/Gilgel_Gibe_V_hydroelectric_plant","technologies":["hydro"],"technologyMixMw":{"hydro":0.0},"unitCount":1,"unitIds":["gem-unit-G100000604395"]},"type":"Feature"},{"geometry":{"coordinates":[37.326,7.8376],"type":"Point"},"id":"wattlas-plant-gemplant-l100000601592","properties":{"aliases":["Gilgel Gibe I hydroelectric plant"],"canonicalAnchor":"gemplant:L100000601592","canonicalCountryKey":"ET","capacityMw":184.0,"country":"ET","externalIds":{"gemPlant":"L100000601592","gemUnit":"G100000601610"},"gemWikiUrl":"https://www.gem.wiki/Gilgel_Gibe_I_hydroelectric_plant","geographyId":"ET-75662566B9273833721501","id":"wattlas-plant-gemplant-l100000601592","lifecycleCounts":{"operational":1},"locationPrecision":"exact","name":"Gilgel Gibe I hydroelectric plant","operatingCapacityCoverage":{"coveragePercent":100.0,"knownUnitCount":1,"method":"complete_unit_sum","provenance":{"evidenceCount":0,"recordIds":["wattlas-record-gemunit-g100000601610"],"sourceIds":["gem-global-integrated-power-tracker"],"sourceTypes":["research_verified"],"valueKind":"reported"},"totalUnitCount":1},"operatingCapacityMw":184.0,"operatingCapacityMwByTechnology":{"hydro":184.0},"plannedCapacityCoverage":{"coveragePercent":0.0,"knownUnitCount":0,"method":"unavailable","totalUnitCount":0},"plannedCapacityMw":0.0,"plannedCapacityMwByTechnology":{},"recordCount":1,"recordIds":["wattlas-record-gemunit-g100000601610"],"sourceIds":["gem-global-integrated-power-tracker"],"sourceUrl":"https://www.gem.wiki/Gilgel_Gibe_I_hydroelectric_plant","technologies":["hydro"],"technologyMixMw":{"hydro":184.0},"unitCount":1,"unitIds":["gem-unit-G100000601610"]},"type":"Feature"},{"geometry":{"coordinates":[37.5626,7.7567],"type":"Point"},"id":"wattlas-plant-gemplant-l100000601593","properties":{"aliases":["Gilgel Gibe II hydroelectric plant"],"canonicalAnchor":"gemplant:L100000601593","canonicalCountryKey":"ET","capacityMw":420.0,"country":"ET","externalIds":{"gemPlant":"L100000601593","gemUnit":"G100000601611"},"gemWikiUrl":"https://www.gem.wiki/Gilgel_Gibe_II_hydroelectric_plant","geographyId":"ET-75662566B72302855928957","id":"wattlas-plant-gemplant-l100000601593","lifecycleCounts":{"operational":1},"locationPrecision":"exact","name":"Gilgel Gibe II hydroelectric plant","operatingCapacityCoverage":{"coveragePercent":100.0,"knownUnitCount":1,"method":"complete_unit_sum","provenance":{"evidenceCount":0,"recordIds":["wattlas-record-gemunit-g100000601611"],"sourceIds":["gem-global-integrated-power-tracker"],"sourceTypes":["research_verified"],"valueKind":"reported"},"totalUnitCount":1},"operatingCapacityMw":420.0,"operatingCapacityMwByTechnology":{"hydro":420.0},"plannedCapacityCoverage":{"coveragePercent":0.0,"knownUnitCount":0,"method":"unavailable","totalUnitCount":0},"plannedCapacityMw":0.0,"plannedCapacityMwByTechnology":{},"recordCount":1,"recordIds":["wattlas-record-gemunit-g100000601611"],"sourceIds":["gem-global-integrated-power-tracker"],"sourceUrl":"https://www.gem.wiki/Gilgel_Gibe_II_hydroelectric_plant","technologies":["hydro"],"technologyMixMw":{"hydro":420.0},"unitCount":1,"unitIds":["gem-unit-G100000601611"]},"type":"Feature"},{"geometry":{"coordinates":[37.3018,6.8482],"type":"Point"},"id":"wattlas-plant-gemplant-l100000601594","properties":{"aliases":["Gilgel Gibe III hydroelectric plant"],"canonicalAnchor":"gemplant:L100000601594","canonicalCountryKey":"ET","capacityMw":1870.0,"country":"ET","externalIds":{"gemPlant":"L100000601594","gemUnit":"G100000601612"},"gemWikiUrl":"https://www.gem.wiki/Gilgel_Gibe_III_hydroelectric_plant","geographyId":"ET-75662566B72302855928957","id":"wattlas-plant-gemplant-l100000601594","lifecycleCounts":{"operational":1},"locationPrecision":"exact","name":"Gilgel Gibe III hydroelectric plant","operatingCapacityCoverage":{"coveragePercent":100.0,"knownUnitCount":1,"method":"complete_unit_sum","provenance":{"evidenceCount":0,"recordIds":["wattlas-record-gemunit-g100000601612"],"sourceIds":["gem-global-integrated-power-tracker"],"sourceTypes":["research_verified"],"valueKind":"reported"},"totalUnitCount":1},"operatingCapacityMw":1870.0,"operatingCapacityMwByTechnology":{"hydro":1870.0},"plannedCapacityCoverage":{"coveragePercent":0.0,"knownUnitCount":0,"method":"unavailable","totalUnitCount":0},"plannedCapacityMw":0.0,"plannedCapacityMwByTechnology":{},"recordCount":1,"recordIds":["wattlas-record-gemunit-g100000601612"],"sourceIds":["gem-global-integrated-power-tracker"],"sourceUrl":"https://www.gem.wiki/Gilgel_Gibe_III_hydroelectric_plant","technologies":["hydro"],"technologyMixMw":{"hydro":1870.0},"unitCount":1,"unitIds":["gem-unit-G100000601612"]},"type":"Feature"},{"geometry":{"coordinates":[36.9501,7.2166],"type":"Point"},"id":"wattlas-plant-gemplant-l100000601595","properties":{"aliases":["Gojeb hydroelectric plant"],"canonicalAnchor":"gemplant:L100000601595","canonicalCountryKey":"ET","capacityMw":0.0,"country":"ET","externalIds":{"gemPlant":"L100000601595","gemUnit":"G100000601613"},"gemWikiUrl":"https://www.gem.wiki/Gojeb_hydroelectric_plant","geographyId":"ET-75662566B72302855928957","id":"wattlas-plant-gemplant-l100000601595","lifecycleCounts":{"cancelled":1},"locationPrecision":"exact","name":"Gojeb hydroelectric plant","operatingCapacityCoverage":{"coveragePercent":0.0,"knownUnitCount":0,"method":"unavailable","totalUnitCount":0},"operatingCapacityMw":0.0,"operatingCapacityMwByTechnology":{},"plannedCapacityCoverage":{"coveragePercent":0.0,"knownUnitCount":0,"method":"unavailable","totalUnitCount":0},"plannedCapacityMw":0.0,"plannedCapacityMwByTechnology":{},"recordCount":1,"recordIds":["wattlas-record-gemunit-g100000601613"],"sourceIds":["gem-global-integrated-power-tracker"],"sourceUrl":"https://www.gem.wiki/Gojeb_hydroelectric_plant","technologies":["hydro"],"technologyMixMw":{"hydro":0.0},"unitCount":1,"unitIds":["gem-unit-G100000601613"]},"type":"Feature"},{"geometry":{"coordinates":[35.0936,11.2165],"type":"Point"},"id":"wattlas-plant-gemplant-l100000601596","properties":{"aliases":["Grand Ethiopian Renaissance hydroelectric plant"],"canonicalAnchor":"gemplant:L100000601596","canonicalCountryKey":"ET","capacityMw":5150.0,"country":"ET","externalIds":{"gemPlant":"L100000601596","gemUnit":"G100000601615"},"gemWikiUrl":"https://www.gem.wiki/Grand_Ethiopian_Renaissance_hydroelectric_plant","geographyId":"ET-75662566B16746670119676","id":"wattlas-plant-gemplant-l100000601596","lifecycleCounts":{"operational":1},"locationPrecision":"exact","name":"Grand Ethiopian Renaissance hydroelectric plant","operatingCapacityCoverage":{"coveragePercent":100.0,"knownUnitCount":1,"method":"complete_unit_sum","provenance":{"evidenceCount":0,"recordIds":["wattlas-record-gemunit-g100000601615"],"sourceIds":["gem-global-integrated-power-tracker"],"sourceTypes":["research_verified"],"valueKind":"reported"},"totalUnitCount":1},"operatingCapacityMw":5150.0,"operatingCapacityMwByTechnology":{"hydro":5150.0},"plannedCapacityCoverage":{"coveragePercent":0.0,"knownUnitCount":0,"method":"unavailable","totalUnitCount":0},"plannedCapacityMw":0.0,"plannedCapacityMwByTechnology":{},"recordCount":1,"recordIds":["wattlas-record-gemunit-g100000601615"],"sourceIds":["gem-global-integrated-power-tracker"],"sourceUrl":"https://www.gem.wiki/Grand_Ethiopian_Renaissance_hydroelectric_plant","technologies":["hydro"],"technologyMixMw":{"hydro":5150.0},"unitCount":1,"unitIds":["gem-unit-G100000601615"]},"type":"Feature"},{"geometry":{"coordinates":[37.5001,9.0001],"type":"Point"},"id":"wattlas-plant-gemplant-l100000601598","properties":{"aliases":["Karadobi hydroelectric plant"],"canonicalAnchor":"gemplant:L100000601598","canonicalCountryKey":"ET","capacityMw":1600.0,"country":"ET","externalIds":{"gemPlant":"L100000601598","gemUnit":"G100000601617"},"gemWikiUrl":"https://www.gem.wiki/Karadobi_hydroelectric_plant","geographyId":"ET-75662566B9273833721501","id":"wattlas-plant-gemplant-l100000601598","lifecycleCounts":{"announced":1},"locationPrecision":"exact","name":"Karadobi hydroelectric plant","operatingCapacityCoverage":{"coveragePercent":0.0,"knownUnitCount":0,"method":"unavailable","totalUnitCount":0},"operatingCapacityMw":0.0,"operatingCapacityMwByTechnology":{},"plannedCapacityCoverage":{"coveragePercent":100.0,"knownUnitCount":1,"method":"complete_unit_sum","provenance":{"evidenceCount":0,"recordIds":["wattlas-record-gemunit-g100000601617"],"sourceIds":["gem-global-integrated-power-tracker"],"sourceTypes":["research_verified"],"valueKind":"reported"},"totalUnitCount":1},"plannedCapacityMw":1600.0,"plannedCapacityMwByTechnology":{"hydro":1600.0},"recordCount":1,"recordIds":["wattlas-record-gemunit-g100000601617"],"sourceIds":["gem-global-integrated-power-tracker"],"sourceUrl":"https://www.gem.wiki/Karadobi_hydroelectric_plant","technologies":["hydro"],"technologyMixMw":{"hydro":1600.0},"unitCount":1,"unitIds":["gem-unit-G100000601617"]},"type":"Feature"},{"geometry":{"coordinates":[36.5489,6.5743],"type":"Point"},"id":"wattlas-plant-gemplant-l100000601599","properties":{"aliases":["Koysha hydroelectric plant"],"canonicalAnchor":"gemplant:L100000601599","canonicalCountryKey":"ET","capacityMw":2160.0,"country":"ET","externalIds":{"gemPlant":"L100000601599","gemUnit":"G100000601618"},"gemWikiUrl":"https://www.gem.wiki/Koysha_hydroelectric_plant","geographyId":"ET-75662566B72302855928957","id":"wattlas-plant-gemplant-l100000601599","lifecycleCounts":{"under_construction":1},"locationPrecision":"exact","name":"Koysha hydroelectric plant","operatingCapacityCoverage":{"coveragePercent":0.0,"knownUnitCount":0,"method":"unavailable","totalUnitCount":0},"operatingCapacityMw":0.0,"operatingCapacityMwByTechnology":{},"plannedCapacityCoverage":{"coveragePercent":100.0,"knownUnitCount":1,"method":"complete_unit_sum","provenance":{"evidenceCount":0,"recordIds":["wattlas-record-gemunit-g100000601618"],"sourceIds":["gem-global-integrated-power-tracker"],"sourceTypes":["research_verified"],"valueKind":"reported"},"totalUnitCount":1},"plannedCapacityMw":2160.0,"plannedCapacityMwByTechnology":{"hydro":2160.0},"recordCount":1,"recordIds":["wattlas-record-gemunit-g100000601618"],"sourceIds":["gem-global-integrated-power-tracker"],"sourceUrl":"https://www.gem.wiki/Koysha_hydroelectric_plant","technologies":["hydro"],"technologyMixMw":{"hydro":2160.0},"unitCount":1,"unitIds":["gem-unit-G100000601618"]},"type":"Feature"},{"geometry":{"coordinates":[39.4618,7.225],"type":"Point"},"id":"wattlas-plant-gemplant-l100000601600","properties":{"aliases":["Melka Wakena hydroelectric plant"],"canonicalAnchor":"gemplant:L100000601600","canonicalCountryKey":"ET","capacityMw":153.0,"country":"ET","externalIds":{"gemPlant":"L100000601600","gemUnit":"G100000601619"},"gemWikiUrl":"https://www.gem.wiki/Melka_Wakena_hydroelectric_plant","geographyId":"ET-75662566B9273833721501","id":"wattlas-plant-gemplant-l100000601600","lifecycleCounts":{"operational":1},"locationPrecision":"exact","name":"Melka Wakena hydroelectric plant","operatingCapacityCoverage":{"coveragePercent":100.0,"knownUnitCount":1,"method":"complete_unit_sum","provenance":{"evidenceCount":0,"recordIds":["wattlas-record-gemunit-g100000601619"],"sourceIds":["gem-global-integrated-power-tracker"],"sourceTypes":["research_verified"],"valueKind":"reported"},"totalUnitCount":1},"operatingCapacityMw":153.0,"operatingCapacityMwByTechnology":{"hydro":153.0},"plannedCapacityCoverage":{"coveragePercent":0.0,"knownUnitCount":0,"method":"unavailable","totalUnitCount":0},"plannedCapacityMw":0.0,"plannedCapacityMwByTechnology":{},"recordCount":1,"recordIds":["wattlas-record-gemunit-g100000601619"],"sourceIds":["gem-global-integrated-power-tracker"],"sourceUrl":"https://www.gem.wiki/Melka_Wakena_hydroelectric_plant","technologies":["hydro"],"technologyMixMw":{"hydro":153.0},"unitCount":1,"unitIds":["gem-unit-G100000601619"]},"type":"Feature"},{"geometry":{"coordinates":[38.7406,13.3493],"type":"Point"},"id":"wattlas-plant-gemplant-l100000601602","properties":{"aliases":["Tekeze I hydroelectric plant"],"canonicalAnchor":"gemplant:L100000601602","canonicalCountryKey":"ET","capacityMw":300.0,"country":"ET","externalIds":{"gemPlant":"L100000601602","gemUnit":"G100000601621"},"gemWikiUrl":"https://www.gem.wiki/Tekeze_I_hydroelectric_plant","geographyId":"ET-75662566B45163836206557","id":"wattlas-plant-gemplant-l100000601602","lifecycleCounts":{"operational":1},"locationPrecision":"exact","name":"Tekeze I hydroelectric plant","operatingCapacityCoverage":{"coveragePercent":100.0,"knownUnitCount":1,"method":"complete_unit_sum","provenance":{"evidenceCount":0,"recordIds":["wattlas-record-gemunit-g100000601621"],"sourceIds":["gem-global-integrated-power-tracker"],"sourceTypes":["research_verified"],"valueKind":"reported"},"totalUnitCount":1},"operatingCapacityMw":300.0,"operatingCapacityMwByTechnology":{"hydro":300.0},"plannedCapacityCoverage":{"coveragePercent":0.0,"knownUnitCount":0,"method":"unavailable","totalUnitCount":0},"plannedCapacityMw":0.0,"plannedCapacityMwByTechnology":{},"recordCount":1,"recordIds":["wattlas-record-gemunit-g100000601621"],"sourceIds":["gem-global-integrated-power-tracker"],"sourceUrl":"https://www.gem.wiki/Tekeze_I_hydroelectric_plant","technologies":["hydro"],"technologyMixMw":{"hydro":300.0},"unitCount":1,"unitIds":["gem-unit-G100000601621"]},"type":"Feature"},{"geometry":{"coordinates":[38.2001,13.7401],"type":"Point"},"id":"wattlas-plant-gemplant-l100000601603","properties":{"aliases":["Tekeze II hydroelectric plant"],"canonicalAnchor":"gemplant:L100000601603","canonicalCountryKey":"ET","capacityMw":0.0,"country":"ET","externalIds":{"gemPlant":"L100000601603","gemUnit":"G100000604874"},"gemWikiUrl":"https://www.gem.wiki/Tekeze_II_hydroelectric_plant","geographyId":"ET-75662566B45163836206557","id":"wattlas-plant-gemplant-l100000601603","lifecycleCounts":{"cancelled":1},"locationPrecision":"exact","name":"Tekeze II hydroelectric plant","operatingCapacityCoverage":{"coveragePercent":0.0,"knownUnitCount":0,"method":"unavailable","totalUnitCount":0},"operatingCapacityMw":0.0,"operatingCapacityMwByTechnology":{},"plannedCapacityCoverage":{"coveragePercent":0.0,"knownUnitCount":0,"method":"unavailable","totalUnitCount":0},"plannedCapacityMw":0.0,"plannedCapacityMwByTechnology":{},"recordCount":1,"recordIds":["wattlas-record-gemunit-g100000604874"],"sourceIds":["gem-global-integrated-power-tracker"],"sourceUrl":"https://www.gem.wiki/Tekeze_II_hydroelectric_plant","technologies":["hydro"],"technologyMixMw":{"hydro":0.0},"unitCount":1,"unitIds":["gem-unit-G100000604874"]},"type":"Feature"},{"geometry":{"coordinates":[38.7952,7.7888],"type":"Point"},"id":"wattlas-plant-gemplant-l100000700004","properties":{"aliases":["1.0","2.0","Aluto Langano geothermal power plant","Pilot"],"canonicalAnchor":"gemplant:L100000700004","canonicalCountryKey":"ET","capacityMw":70.0,"country":"ET","externalIdAliases":{"gemUnit":["G100000700008","G100001005193","G100001048258"]},"externalIds":{"gemPlant":"L100000700004","gemUnit":"G100001048258"},"gemWikiUrl":"https://www.gem.wiki/Aluto_Langano_geothermal_power_plant","geographyId":"ET-75662566B9273833721501","id":"wattlas-plant-gemplant-l100000700004","lifecycleCounts":{"paused":1,"under_construction":2},"locationPrecision":"exact","name":"Aluto Langano geothermal power plant","operatingCapacityCoverage":{"coveragePercent":0.0,"knownUnitCount":0,"method":"unavailable","totalUnitCount":0},"operatingCapacityMw":0.0,"operatingCapacityMwByTechnology":{},"plannedCapacityCoverage":{"coveragePercent":100.0,"knownUnitCount":2,"method":"complete_unit_sum","provenance":{"evidenceCount":0,"recordIds":["wattlas-record-gemunit-g100000700008","wattlas-record-gemunit-g100001005193"],"sourceIds":["gem-global-integrated-power-tracker"],"sourceTypes":["research_verified"],"valueKind":"reported"},"totalUnitCount":2},"plannedCapacityMw":70.0,"plannedCapacityMwByTechnology":{"geothermal":70.0},"recordCount":3,"recordIds":["wattlas-record-gemunit-g100000700008","wattlas-record-gemunit-g100001005193","wattlas-record-gemunit-g100001048258"],"sourceIds":["gem-global-integrated-power-tracker"],"sourceUrl":"https://www.gem.wiki/Aluto_Langano_geothermal_power_plant","technologies":["geothermal"],"technologyMixMw":{"geothermal":70.0},"unitCount":3,"unitIds":["gem-unit-G100000700008","gem-unit-G100001005193","gem-unit-G100001048258"]},"type":"Feature"},{"geometry":{"coordinates":[41.8875,9.8652],"type":"Point"},"id":"wattlas-plant-gemplant-l100000811598","properties":{"aliases":["--","Gad 2 solar farm"],"canonicalAnchor":"gemplant:L100000811598","canonicalCountryKey":"ET","capacityMw":125.0,"country":"ET","externalIds":{"gemPlant":"L100000811598","gemUnit":"G100000814112"},"gemWikiUrl":"https://www.gem.wiki/Gad_2_solar_farm","geographyId":"ET-75662566B32417772325798","id":"wattlas-plant-gemplant-l100000811598","lifecycleCounts":{"announced":1},"locationPrecision":"exact","name":"Gad 2 solar farm","operatingCapacityCoverage":{"coveragePercent":0.0,"knownUnitCount":0,"method":"unavailable","totalUnitCount":0},"operatingCapacityMw":0.0,"operatingCapacityMwByTechnology":{},"plannedCapacityCoverage":{"coveragePercent":100.0,"knownUnitCount":1,"method":"complete_unit_sum","provenance":{"evidenceCount":0,"recordIds":["wattlas-record-gemunit-g100000814112"],"sourceIds":["gem-global-integrated-power-tracker"],"sourceTypes":["research_verified"],"valueKind":"reported"},"totalUnitCount":1},"plannedCapacityMw":125.0,"plannedCapacityMwByTechnology":{"solar":125.0},"recordCount":1,"recordIds":["wattlas-record-gemunit-g100000814112"],"sourceIds":["gem-global-integrated-power-tracker"],"sourceUrl":"https://www.gem.wiki/Gad_2_solar_farm","technologies":["solar"],"technologyMixMw":{"solar":125.0},"unitCount":1,"unitIds":["gem-unit-G100000814112"]},"type":"Feature"},{"geometry":{"coordinates":[36.6189,14.265],"type":"Point"},"id":"wattlas-plant-gemplant-l100000811599","properties":{"aliases":["--","Humera solar farm"],"canonicalAnchor":"gemplant:L100000811599","canonicalCountryKey":"ET","capacityMw":0.0,"country":"ET","externalIds":{"gemPlant":"L100000811599","gemUnit":"G100000814113"},"gemWikiUrl":"https://www.gem.wiki/Humera_solar_farm","geographyId":"ET-75662566B45163836206557","id":"wattlas-plant-gemplant-l100000811599","lifecycleCounts":{"paused":1},"locationPrecision":"exact","name":"Humera solar farm","operatingCapacityCoverage":{"coveragePercent":0.0,"knownUnitCount":0,"method":"unavailable","totalUnitCount":0},"operatingCapacityMw":0.0,"operatingCapacityMwByTechnology":{},"plannedCapacityCoverage":{"coveragePercent":0.0,"knownUnitCount":0,"method":"unavailable","totalUnitCount":0},"plannedCapacityMw":0.0,"plannedCapacityMwByTechnology":{},"recordCount":1,"recordIds":["wattlas-record-gemunit-g100000814113"],"sourceIds":["gem-global-integrated-power-tracker"],"sourceUrl":"https://www.gem.wiki/Humera_solar_farm","technologies":["solar"],"technologyMixMw":{"solar":0.0},"unitCount":1,"unitIds":["gem-unit-G100000814113"]},"type":"Feature"},{"geometry":{"coordinates":[39.2301,8.5449],"type":"Point"},"id":"wattlas-plant-gemplant-l100000900028","properties":{"aliases":["1.0","2.0","Adama wind farm"],"canonicalAnchor":"gemplant:L100000900028","canonicalCountryKey":"ET","capacityMw":204.0,"country":"ET","externalIdAliases":{"gemUnit":["G100000900030","G100000900031"]},"externalIds":{"gemPlant":"L100000900028","gemUnit":"G100000900031"},"gemWikiUrl":"https://www.gem.wiki/Adama_wind_farm","geographyId":"ET-75662566B9273833721501","id":"wattlas-plant-gemplant-l100000900028","lifecycleCounts":{"operational":2},"locationPrecision":"exact","name":"Adama wind farm","operatingCapacityCoverage":{"coveragePercent":100.0,"knownUnitCount":2,"method":"complete_unit_sum","provenance":{"evidenceCount":0,"recordIds":["wattlas-record-gemunit-g100000900030","wattlas-record-gemunit-g100000900031"],"sourceIds":["gem-global-integrated-power-tracker"],"sourceTypes":["research_verified"],"valueKind":"reported"},"totalUnitCount":2},"operatingCapacityMw":204.0,"operatingCapacityMwByTechnology":{"wind":204.0},"plannedCapacityCoverage":{"coveragePercent":0.0,"knownUnitCount":0,"method":"unavailable","totalUnitCount":0},"plannedCapacityMw":0.0,"plannedCapacityMwByTechnology":{},"recordCount":2,"recordIds":["wattlas-record-gemunit-g100000900030","wattlas-record-gemunit-g100000900031"],"sourceIds":["gem-global-integrated-power-tracker"],"sourceUrl":"https://www.gem.wiki/Adama_wind_farm","technologies":["wind"],"technologyMixMw":{"wind":204.0},"unitCount":2,"unitIds":["gem-unit-G100000900030","gem-unit-G100000900031"]},"type":"Feature"},{"geometry":{"coordinates":[39.5735,13.4255],"type":"Point"},"id":"wattlas-plant-gemplant-l100000900030","properties":{"aliases":["1.0","2.0","3.0","Ashegoda wind farm"],"canonicalAnchor":"gemplant:L100000900030","canonicalCountryKey":"ET","capacityMw":120.0,"country":"ET","externalIdAliases":{"gemUnit":["G100000900036","G100000900037","G100000900038"]},"externalIds":{"gemPlant":"L100000900030","gemUnit":"G100000900038"},"gemWikiUrl":"https://www.gem.wiki/Ashegoda_wind_farm","geographyId":"ET-75662566B45163836206557","id":"wattlas-plant-gemplant-l100000900030","lifecycleCounts":{"operational":3},"locationPrecision":"exact","name":"Ashegoda wind farm","operatingCapacityCoverage":{"coveragePercent":100.0,"knownUnitCount":3,"method":"complete_unit_sum","provenance":{"evidenceCount":0,"recordIds":["wattlas-record-gemunit-g100000900036","wattlas-record-gemunit-g100000900037","wattlas-record-gemunit-g100000900038"],"sourceIds":["gem-global-integrated-power-tracker"],"sourceTypes":["research_verified"],"valueKind":"reported"},"totalUnitCount":3},"operatingCapacityMw":120.0,"operatingCapacityMwByTechnology":{"wind":120.0},"plannedCapacityCoverage":{"coveragePercent":0.0,"knownUnitCount":0,"method":"unavailable","totalUnitCount":0},"plannedCapacityMw":0.0,"plannedCapacityMwByTechnology":{},"recordCount":3,"recordIds":["wattlas-record-gemunit-g100000900036","wattlas-record-gemunit-g100000900037","wattlas-record-gemunit-g100000900038"],"sourceIds":["gem-global-integrated-power-tracker"],"sourceUrl":"https://www.gem.wiki/Ashegoda_wind_farm","technologies":["wind"],"technologyMixMw":{"wind":120.0},"unitCount":3,"unitIds":["gem-unit-G100000900036","gem-unit-G100000900037","gem-unit-G100000900038"]},"type":"Feature"},{"geometry":{"coordinates":[39.3579,9.4253],"type":"Point"},"id":"wattlas-plant-gemplant-l100000900083","properties":{"aliases":["1.0","Debre Berhan wind farm","future potential"],"canonicalAnchor":"gemplant:L100000900083","canonicalCountryKey":"ET","capacityMw":0.0,"country":"ET","externalIdAliases":{"gemUnit":["G100000900105","G100000900106"]},"externalIds":{"gemPlant":"L100000900083","gemUnit":"G100000900106"},"gemWikiUrl":"https://www.gem.wiki/Debre_Berhan_wind_farm","geographyId":"ET-75662566B9273833721501","id":"wattlas-plant-gemplant-l100000900083","lifecycleCounts":{"cancelled":2},"locationPrecision":"exact","name":"Debre Berhan wind farm","operatingCapacityCoverage":{"coveragePercent":0.0,"knownUnitCount":0,"method":"unavailable","totalUnitCount":0},"operatingCapacityMw":0.0,"operatingCapacityMwByTechnology":{},"plannedCapacityCoverage":{"coveragePercent":0.0,"knownUnitCount":0,"method":"unavailable","totalUnitCount":0},"plannedCapacityMw":0.0,"plannedCapacityMwByTechnology":{},"recordCount":2,"recordIds":["wattlas-record-gemunit-g100000900105","wattlas-record-gemunit-g100000900106"],"sourceIds":["gem-global-integrated-power-tracker"],"sourceUrl":"https://www.gem.wiki/Debre_Berhan_wind_farm","technologies":["wind"],"technologyMixMw":{"wind":0.0},"unitCount":2,"unitIds":["gem-unit-G100000900105","gem-unit-G100000900106"]},"type":"Feature"},{"geometry":{"coordinates":[39.352,8.3932],"type":"Point"},"id":"wattlas-plant-gemplant-l100001023024","properties":{"aliases":["Awash II hydroelectric plant"],"canonicalAnchor":"gemplant:L100001023024","canonicalCountryKey":"ET","capacityMw":64.0,"country":"ET","externalIds":{"gemPlant":"L100001023024","gemUnit":"G100001027229"},"gemWikiUrl":"https://www.gem.wiki/Awash_II_hydroelectric_plant","geographyId":"ET-75662566B9273833721501","id":"wattlas-plant-gemplant-l100001023024","lifecycleCounts":{"operational":1},"locationPrecision":"exact","name":"Awash II hydroelectric plant","operatingCapacityCoverage":{"coveragePercent":100.0,"knownUnitCount":1,"method":"complete_unit_sum","provenance":{"evidenceCount":0,"recordIds":["wattlas-record-gemunit-g100001027229"],"sourceIds":["gem-global-integrated-power-tracker"],"sourceTypes":["research_verified"],"valueKind":"reported"},"totalUnitCount":1},"operatingCapacityMw":64.0,"operatingCapacityMwByTechnology":{"hydro":64.0},"plannedCapacityCoverage":{"coveragePercent":0.0,"knownUnitCount":0,"method":"unavailable","totalUnitCount":0},"plannedCapacityMw":0.0,"plannedCapacityMwByTechnology":{},"recordCount":1,"recordIds":["wattlas-record-gemunit-g100001027229"],"sourceIds":["gem-global-integrated-power-tracker"],"sourceUrl":"https://www.gem.wiki/Awash_II_hydroelectric_plant","technologies":["hydro"],"technologyMixMw":{"hydro":64.0},"unitCount":1,"unitIds":["gem-unit-G100001027229"]},"type":"Feature"},{"geometry":{"coordinates":[37.5999,11.4888],"type":"Point"},"id":"wattlas-plant-gemplant-l100001025939","properties":{"aliases":["Tis Abay II hydroelectric plant"],"canonicalAnchor":"gemplant:L100001025939","canonicalCountryKey":"ET","capacityMw":73.0,"country":"ET","externalIds":{"gemPlant":"L100001025939","gemUnit":"G100001031109"},"gemWikiUrl":"https://www.gem.wiki/Tis_Abay_II_hydroelectric_plant","geographyId":"ET-75662566B52684709481520","id":"wattlas-plant-gemplant-l100001025939","lifecycleCounts":{"operational":1},"locationPrecision":"exact","name":"Tis Abay II hydroelectric plant","operatingCapacityCoverage":{"coveragePercent":100.0,"knownUnitCount":1,"method":"complete_unit_sum","provenance":{"evidenceCount":0,"recordIds":["wattlas-record-gemunit-g100001031109"],"sourceIds":["gem-global-integrated-power-tracker"],"sourceTypes":["research_verified"],"valueKind":"reported"},"totalUnitCount":1},"operatingCapacityMw":73.0,"operatingCapacityMwByTechnology":{"hydro":73.0},"plannedCapacityCoverage":{"coveragePercent":0.0,"knownUnitCount":0,"method":"unavailable","totalUnitCount":0},"plannedCapacityMw":0.0,"plannedCapacityMwByTechnology":{},"recordCount":1,"recordIds":["wattlas-record-gemunit-g100001031109"],"sourceIds":["gem-global-integrated-power-tracker"],"sourceUrl":"https://www.gem.wiki/Tis_Abay_II_hydroelectric_plant","technologies":["hydro"],"technologyMixMw":{"hydro":73.0},"unitCount":1,"unitIds":["gem-unit-G100001031109"]},"type":"Feature"},{"geometry":{"coordinates":[38.709957,8.97625],"type":"Point"},"id":"wattlas-plant-gemplant-l100001046241","properties":{"aliases":["--","Reppie Waste to Energy power station"],"canonicalAnchor":"gemplant:L100001046241","canonicalCountryKey":"ET","capacityMw":25.0,"country":"ET","externalIds":{"gemPlant":"L100001046241","gemUnit":"G100001052183"},"gemWikiUrl":"https://www.gem.wiki/Reppie_Waste_to_Energy_power_station","geographyId":"ET-75662566B5378229891244","id":"wattlas-plant-gemplant-l100001046241","lifecycleCounts":{"operational":1},"locationPrecision":"exact","name":"Reppie Waste to Energy power station","operatingCapacityCoverage":{"coveragePercent":100.0,"knownUnitCount":1,"method":"complete_unit_sum","provenance":{"evidenceCount":0,"recordIds":["wattlas-record-gemunit-g100001052183"],"sourceIds":["gem-global-integrated-power-tracker"],"sourceTypes":["research_verified"],"valueKind":"reported"},"totalUnitCount":1},"operatingCapacityMw":25.0,"operatingCapacityMwByTechnology":{"biomass":25.0},"plannedCapacityCoverage":{"coveragePercent":0.0,"knownUnitCount":0,"method":"unavailable","totalUnitCount":0},"plannedCapacityMw":0.0,"plannedCapacityMwByTechnology":{},"recordCount":1,"recordIds":["wattlas-record-gemunit-g100001052183"],"sourceIds":["gem-global-integrated-power-tracker"],"sourceUrl":"https://www.gem.wiki/Reppie_Waste_to_Energy_power_station","technologies":["biomass"],"technologyMixMw":{"biomass":25.0},"unitCount":1,"unitIds":["gem-unit-G100001052183"]},"type":"Feature"},{"geometry":{"coordinates":[39.1588,8.4684],"type":"Point"},"id":"wattlas-plant-gemplant-l100001054679","properties":{"aliases":["Koka hydroelectric plant"],"canonicalAnchor":"gemplant:L100001054679","canonicalCountryKey":"ET","capacityMw":42.0,"country":"ET","externalIds":{"gemPlant":"L100001054679","gemUnit":"G100001062571"},"gemWikiUrl":"https://www.gem.wiki/Koka_hydroelectric_plant","geographyId":"ET-75662566B9273833721501","id":"wattlas-plant-gemplant-l100001054679","lifecycleCounts":{"operational":1},"locationPrecision":"exact","name":"Koka hydroelectric plant","operatingCapacityCoverage":{"coveragePercent":100.0,"knownUnitCount":1,"method":"complete_unit_sum","provenance":{"evidenceCount":0,"recordIds":["wattlas-record-gemunit-g100001062571"],"sourceIds":["gem-global-integrated-power-tracker"],"sourceTypes":["research_verified"],"valueKind":"reported"},"totalUnitCount":1},"operatingCapacityMw":42.0,"operatingCapacityMwByTechnology":{"hydro":42.0},"plannedCapacityCoverage":{"coveragePercent":0.0,"knownUnitCount":0,"method":"unavailable","totalUnitCount":0},"plannedCapacityMw":0.0,"plannedCapacityMwByTechnology":{},"recordCount":1,"recordIds":["wattlas-record-gemunit-g100001062571"],"sourceIds":["gem-global-integrated-power-tracker"],"sourceUrl":"https://www.gem.wiki/Koka_hydroelectric_plant","technologies":["hydro"],"technologyMixMw":{"hydro":42.0},"unitCount":1,"unitIds":["gem-unit-G100001062571"]},"type":"Feature"},{"geometry":{"coordinates":[41.5415,4.5255],"type":"Point"},"id":"wattlas-plant-gemplant-l100001064790","properties":{"aliases":["--","Somali Region solar project"],"canonicalAnchor":"gemplant:L100001064790","canonicalCountryKey":"ET","capacityMw":1.5,"country":"ET","externalIds":{"gemPlant":"L100001064790","gemUnit":"G100001074576"},"gemWikiUrl":"https://www.gem.wiki/Somali_Region_solar_project","geographyId":"ET-75662566B32417772325798","id":"wattlas-plant-gemplant-l100001064790","lifecycleCounts":{"operational":1},"locationPrecision":"exact","name":"Somali Region solar project","operatingCapacityCoverage":{"coveragePercent":100.0,"knownUnitCount":1,"method":"complete_unit_sum","provenance":{"evidenceCount":0,"recordIds":["wattlas-record-gemunit-g100001074576"],"sourceIds":["gem-global-integrated-power-tracker"],"sourceTypes":["research_verified"],"valueKind":"reported"},"totalUnitCount":1},"operatingCapacityMw":1.5,"operatingCapacityMwByTechnology":{"solar":1.5},"plannedCapacityCoverage":{"coveragePercent":0.0,"knownUnitCount":0,"method":"unavailable","totalUnitCount":0},"plannedCapacityMw":0.0,"plannedCapacityMwByTechnology":{},"recordCount":1,"recordIds":["wattlas-record-gemunit-g100001074576"],"sourceIds":["gem-global-integrated-power-tracker"],"sourceUrl":"https://www.gem.wiki/Somali_Region_solar_project","technologies":["solar"],"technologyMixMw":{"solar":1.5},"unitCount":1,"unitIds":["gem-unit-G100001074576"]},"type":"Feature"},{"geometry":{"coordinates":[39.211847,8.602111],"type":"Point"},"id":"wattlas-plant-osm-relation-11234871","properties":{"aliases":["Adama Wind Power Plant"],"canonicalAnchor":"osm:relation/11234871","canonicalCountryKey":"ET","capacityMw":204.0,"country":"ET","externalIds":{"osm":"relation/11234871"},"geographyId":"ET-75662566B9273833721501","id":"wattlas-plant-osm-relation-11234871","lifecycleCounts":{"operational":1},"locationPrecision":"exact","name":"Adama Wind Power Plant","operatingCapacityCoverage":{"coveragePercent":100.0,"knownUnitCount":0,"method":"plant_aggregate","provenance":{"evidenceCount":0,"recordIds":["wattlas-record-osm-relation-11234871"],"sourceIds":["openstreetmap-power"],"sourceTypes":["community_mapped"],"valueKind":"reported"},"totalUnitCount":0},"operatingCapacityMw":204.0,"operatingCapacityMwByTechnology":{"wind":204.0},"plannedCapacityCoverage":{"coveragePercent":0.0,"knownUnitCount":0,"method":"unavailable","totalUnitCount":0},"plannedCapacityMw":0.0,"plannedCapacityMwByTechnology":{},"recordCount":1,"recordIds":["wattlas-record-osm-relation-11234871"],"sourceIds":["openstreetmap-power"],"sourceUrl":"https://www.openstreetmap.org/relation/11234871","technologies":["wind"],"technologyMixMw":{"wind":204.0},"unitCount":0,"unitIds":[]},"type":"Feature"},{"geometry":{"coordinates":[42.590606,10.690526],"type":"Point"},"id":"wattlas-plant-osm-relation-15466458","properties":{"aliases":["Aysha 2 WPP"],"canonicalAnchor":"osm:relation/15466458","canonicalCountryKey":"ET","capacityMw":120.0,"country":"ET","externalIds":{"osm":"relation/15466458"},"geographyId":"ET-75662566B32417772325798","id":"wattlas-plant-osm-relation-15466458","lifecycleCounts":{"operational":1},"locationPrecision":"exact","name":"Aysha 2 WPP","operatingCapacityCoverage":{"coveragePercent":100.0,"knownUnitCount":0,"method":"plant_aggregate","provenance":{"evidenceCount":0,"recordIds":["wattlas-record-osm-relation-15466458"],"sourceIds":["openstreetmap-power"],"sourceTypes":["community_mapped"],"valueKind":"reported"},"totalUnitCount":0},"operatingCapacityMw":120.0,"operatingCapacityMwByTechnology":{"wind":120.0},"plannedCapacityCoverage":{"coveragePercent":0.0,"knownUnitCount":0,"method":"unavailable","totalUnitCount":0},"plannedCapacityMw":0.0,"plannedCapacityMwByTechnology":{},"recordCount":1,"recordIds":["wattlas-record-osm-relation-15466458"],"sourceIds":["openstreetmap-power"],"sourceUrl":"https://www.openstreetmap.org/relation/15466458","technologies":["wind"],"technologyMixMw":{"wind":120.0},"unitCount":0,"unitIds":[]},"type":"Feature"},{"geometry":{"coordinates":[39.60982,13.442443],"type":"Point"},"id":"wattlas-plant-osm-relation-9452911","properties":{"aliases":["Ashegoda Wind Power Plant"],"canonicalAnchor":"osm:relation/9452911","canonicalCountryKey":"ET","capacityMw":120.0,"country":"ET","externalIds":{"osm":"relation/9452911"},"geographyId":"ET-75662566B45163836206557","id":"wattlas-plant-osm-relation-9452911","lifecycleCounts":{"operational":1},"locationPrecision":"exact","name":"Ashegoda Wind Power Plant","operatingCapacityCoverage":{"coveragePercent":100.0,"knownUnitCount":0,"method":"plant_aggregate","provenance":{"evidenceCount":0,"recordIds":["wattlas-record-osm-relation-9452911"],"sourceIds":["openstreetmap-power"],"sourceTypes":["community_mapped"],"valueKind":"reported"},"totalUnitCount":0},"operatingCapacityMw":120.0,"operatingCapacityMwByTechnology":{"wind":120.0},"plannedCapacityCoverage":{"coveragePercent":0.0,"knownUnitCount":0,"method":"unavailable","totalUnitCount":0},"plannedCapacityMw":0.0,"plannedCapacityMwByTechnology":{},"recordCount":1,"recordIds":["wattlas-record-osm-relation-9452911"],"sourceIds":["openstreetmap-power"],"sourceUrl":"https://www.openstreetmap.org/relation/9452911","technologies":["wind"],"technologyMixMw":{"wind":120.0},"unitCount":0,"unitIds":[]},"type":"Feature"},{"geometry":{"coordinates":[38.40477,7.112234],"type":"Point"},"id":"wattlas-plant-osm-way-1112234152","properties":{"aliases":["Solar plant"],"canonicalAnchor":"osm:way/1112234152","canonicalCountryKey":"ET","capacityMw":0.0,"country":"ET","externalIds":{"osm":"way/1112234152"},"geographyId":"ET-75662566B72302855928957","id":"wattlas-plant-osm-way-1112234152","lifecycleCounts":{"operational":1},"locationPrecision":"exact","name":"Solar plant","operatingCapacityCoverage":{"coveragePercent":0.0,"knownUnitCount":0,"method":"unavailable","totalUnitCount":0},"operatingCapacityMw":0.0,"operatingCapacityMwByTechnology":{},"plannedCapacityCoverage":{"coveragePercent":0.0,"knownUnitCount":0,"method":"unavailable","totalUnitCount":0},"plannedCapacityMw":0.0,"plannedCapacityMwByTechnology":{},"recordCount":1,"recordIds":["wattlas-record-osm-way-1112234152"],"sourceIds":["openstreetmap-power"],"sourceUrl":"https://www.openstreetmap.org/way/1112234152","technologies":["solar"],"technologyMixMw":{"solar":0.0},"unitCount":0,"unitIds":[]},"type":"Feature"},{"geometry":{"coordinates":[36.549102,6.574261],"type":"Point"},"id":"wattlas-plant-osm-way-1329095954","properties":{"aliases":["Koysha Hydroelectric Project"],"canonicalAnchor":"osm:way/1329095954","canonicalCountryKey":"ET","capacityMw":2160.0,"country":"ET","externalIds":{"osm":"way/1329095954"},"geographyId":"ET-75662566B72302855928957","id":"wattlas-plant-osm-way-1329095954","lifecycleCounts":{"under_construction":1},"locationPrecision":"exact","name":"Koysha Hydroelectric Project","operatingCapacityCoverage":{"coveragePercent":0.0,"knownUnitCount":0,"method":"unavailable","totalUnitCount":0},"operatingCapacityMw":0.0,"operatingCapacityMwByTechnology":{},"plannedCapacityCoverage":{"coveragePercent":100.0,"knownUnitCount":0,"method":"plant_aggregate","provenance":{"evidenceCount":0,"recordIds":["wattlas-record-osm-way-1329095954"],"sourceIds":["openstreetmap-power"],"sourceTypes":["community_mapped"],"valueKind":"reported"},"totalUnitCount":0},"plannedCapacityMw":2160.0,"plannedCapacityMwByTechnology":{"hydro":2160.0},"recordCount":1,"recordIds":["wattlas-record-osm-way-1329095954"],"sourceIds":["openstreetmap-power"],"sourceUrl":"https://www.openstreetmap.org/way/1329095954","technologies":["hydro"],"technologyMixMw":{"hydro":2160.0},"unitCount":0,"unitIds":[]},"type":"Feature"},{"geometry":{"coordinates":[36.455845,11.557361],"type":"Point"},"id":"wattlas-plant-osm-way-1353090356","properties":{"aliases":["Tana Beles Sugar Factory Power Plant"],"canonicalAnchor":"osm:way/1353090356","canonicalCountryKey":"ET","capacityMw":45.0,"country":"ET","externalIds":{"osm":"way/1353090356"},"geographyId":"ET-75662566B52684709481520","id":"wattlas-plant-osm-way-1353090356","lifecycleCounts":{"operational":1},"locationPrecision":"exact","name":"Tana Beles Sugar Factory Power Plant","operatingCapacityCoverage":{"coveragePercent":100.0,"knownUnitCount":0,"method":"plant_aggregate","provenance":{"evidenceCount":0,"recordIds":["wattlas-record-osm-way-1353090356"],"sourceIds":["openstreetmap-power"],"sourceTypes":["community_mapped"],"valueKind":"reported"},"totalUnitCount":0},"operatingCapacityMw":45.0,"operatingCapacityMwByTechnology":{"biomass":45.0},"plannedCapacityCoverage":{"coveragePercent":0.0,"knownUnitCount":0,"method":"unavailable","totalUnitCount":0},"plannedCapacityMw":0.0,"plannedCapacityMwByTechnology":{},"recordCount":1,"recordIds":["wattlas-record-osm-way-1353090356"],"sourceIds":["openstreetmap-power"],"sourceUrl":"https://www.openstreetmap.org/way/1353090356","technologies":["biomass"],"technologyMixMw":{"biomass":45.0},"unitCount":0,"unitIds":[]},"type":"Feature"},{"geometry":{"coordinates":[41.802968,9.626584],"type":"Point"},"id":"wattlas-plant-osm-way-218273347","properties":{"aliases":["Dire Dawa oil power plant"],"canonicalAnchor":"osm:way/218273347","canonicalCountryKey":"ET","capacityMw":40.0,"country":"ET","externalIds":{"osm":"way/218273347"},"geographyId":"ET-75662566B22109266514860","id":"wattlas-plant-osm-way-218273347","lifecycleCounts":{"operational":1},"locationPrecision":"exact","name":"Dire Dawa oil power plant","operatingCapacityCoverage":{"coveragePercent":100.0,"knownUnitCount":0,"method":"plant_aggregate","provenance":{"evidenceCount":0,"recordIds":["wattlas-record-osm-way-218273347"],"sourceIds":["openstreetmap-power"],"sourceTypes":["community_mapped"],"valueKind":"reported"},"totalUnitCount":0},"operatingCapacityMw":40.0,"operatingCapacityMwByTechnology":{"oil":40.0},"plannedCapacityCoverage":{"coveragePercent":0.0,"knownUnitCount":0,"method":"unavailable","totalUnitCount":0},"plannedCapacityMw":0.0,"plannedCapacityMwByTechnology":{},"recordCount":1,"recordIds":["wattlas-record-osm-way-218273347"],"sourceIds":["openstreetmap-power"],"sourceUrl":"https://www.openstreetmap.org/way/218273347","technologies":["oil"],"technologyMixMw":{"oil":40.0},"unitCount":0,"unitIds":[]},"type":"Feature"},{"geometry":{"coordinates":[39.352069,8.393183],"type":"Point"},"id":"wattlas-plant-osm-way-223098729","properties":{"aliases":["Awash II Hydroelectric Power Plant"],"canonicalAnchor":"osm:way/223098729","canonicalCountryKey":"ET","capacityMw":32.0,"country":"ET","externalIds":{"osm":"way/223098729"},"geographyId":"ET-75662566B9273833721501","id":"wattlas-plant-osm-way-223098729","lifecycleCounts":{"operational":1},"locationPrecision":"exact","name":"Awash II Hydroelectric Power Plant","operatingCapacityCoverage":{"coveragePercent":100.0,"knownUnitCount":0,"method":"plant_aggregate","provenance":{"evidenceCount":0,"recordIds":["wattlas-record-osm-way-223098729"],"sourceIds":["openstreetmap-power"],"sourceTypes":["community_mapped"],"valueKind":"reported"},"totalUnitCount":0},"operatingCapacityMw":32.0,"operatingCapacityMwByTechnology":{"hydro":32.0},"plannedCapacityCoverage":{"coveragePercent":0.0,"knownUnitCount":0,"method":"unavailable","totalUnitCount":0},"plannedCapacityMw":0.0,"plannedCapacityMwByTechnology":{},"recordCount":1,"recordIds":["wattlas-record-osm-way-223098729"],"sourceIds":["openstreetmap-power"],"sourceUrl":"https://www.openstreetmap.org/way/223098729","technologies":["hydro"],"technologyMixMw":{"hydro":32.0},"unitCount":0,"unitIds":[]},"type":"Feature"},{"geometry":{"coordinates":[39.360453,8.382011],"type":"Point"},"id":"wattlas-plant-osm-way-223098730","properties":{"aliases":["Awash III Hydroelectric Power Plant"],"canonicalAnchor":"osm:way/223098730","canonicalCountryKey":"ET","capacityMw":32.0,"country":"ET","externalIds":{"osm":"way/223098730"},"geographyId":"ET-75662566B9273833721501","id":"wattlas-plant-osm-way-223098730","lifecycleCounts":{"operational":1},"locationPrecision":"exact","name":"Awash III Hydroelectric Power Plant","operatingCapacityCoverage":{"coveragePercent":100.0,"knownUnitCount":0,"method":"plant_aggregate","provenance":{"evidenceCount":0,"recordIds":["wattlas-record-osm-way-223098730"],"sourceIds":["openstreetmap-power"],"sourceTypes":["community_mapped"],"valueKind":"reported"},"totalUnitCount":0},"operatingCapacityMw":32.0,"operatingCapacityMwByTechnology":{"hydro":32.0},"plannedCapacityCoverage":{"coveragePercent":0.0,"knownUnitCount":0,"method":"unavailable","totalUnitCount":0},"plannedCapacityMw":0.0,"plannedCapacityMwByTechnology":{},"recordCount":1,"recordIds":["wattlas-record-osm-way-223098730"],"sourceIds":["openstreetmap-power"],"sourceUrl":"https://www.openstreetmap.org/way/223098730","technologies":["hydro"],"technologyMixMw":{"hydro":32.0},"unitCount":0,"unitIds":[]},"type":"Feature"},{"geometry":{"coordinates":[39.158912,8.468516],"type":"Point"},"id":"wattlas-plant-osm-way-223098972","properties":{"aliases":["Koka Hydroelectric Power Plant"],"canonicalAnchor":"osm:way/223098972","canonicalCountryKey":"ET","capacityMw":43.0,"country":"ET","externalIds":{"osm":"way/223098972"},"geographyId":"ET-75662566B9273833721501","id":"wattlas-plant-osm-way-223098972","lifecycleCounts":{"operational":1},"locationPrecision":"exact","name":"Koka Hydroelectric Power Plant","operatingCapacityCoverage":{"coveragePercent":100.0,"knownUnitCount":0,"method":"plant_aggregate","provenance":{"evidenceCount":0,"recordIds":["wattlas-record-osm-way-223098972"],"sourceIds":["openstreetmap-power"],"sourceTypes":["community_mapped"],"valueKind":"reported"},"totalUnitCount":0},"operatingCapacityMw":43.0,"operatingCapacityMwByTechnology":{"hydro":43.0},"plannedCapacityCoverage":{"coveragePercent":0.0,"knownUnitCount":0,"method":"unavailable","totalUnitCount":0},"plannedCapacityMw":0.0,"plannedCapacityMwByTechnology":{},"recordCount":1,"recordIds":["wattlas-record-osm-way-223098972"],"sourceIds":["openstreetmap-power"],"sourceUrl":"https://www.openstreetmap.org/way/223098972","technologies":["hydro"],"technologyMixMw":{"hydro":43.0},"unitCount":0,"unitIds":[]},"type":"Feature"},{"geometry":{"coordinates":[38.716417,8.750649],"type":"Point"},"id":"wattlas-plant-osm-way-384797186","properties":{"aliases":["Aba Samuel Power Plant"],"canonicalAnchor":"osm:way/384797186","canonicalCountryKey":"ET","capacityMw":6.6,"country":"ET","externalIds":{"osm":"way/384797186"},"geographyId":"ET-75662566B9273833721501","id":"wattlas-plant-osm-way-384797186","lifecycleCounts":{"operational":1},"locationPrecision":"exact","name":"Aba Samuel Power Plant","operatingCapacityCoverage":{"coveragePercent":100.0,"knownUnitCount":0,"method":"plant_aggregate","provenance":{"evidenceCount":0,"recordIds":["wattlas-record-osm-way-384797186"],"sourceIds":["openstreetmap-power"],"sourceTypes":["community_mapped"],"valueKind":"reported"},"totalUnitCount":0},"operatingCapacityMw":6.6,"operatingCapacityMwByTechnology":{"hydro":6.6},"plannedCapacityCoverage":{"coveragePercent":0.0,"knownUnitCount":0,"method":"unavailable","totalUnitCount":0},"plannedCapacityMw":0.0,"plannedCapacityMwByTechnology":{},"recordCount":1,"recordIds":["wattlas-record-osm-way-384797186"],"sourceIds":["openstreetmap-power"],"sourceUrl":"https://www.openstreetmap.org/way/384797186","technologies":["hydro"],"technologyMixMw":{"hydro":6.6},"unitCount":0,"unitIds":[]},"type":"Feature"},{"geometry":{"coordinates":[36.051494,6.298706],"type":"Point"},"id":"wattlas-plant-osm-way-446260467","properties":{"aliases":["Gilgel Gibe V"],"canonicalAnchor":"osm:way/446260467","canonicalCountryKey":"ET","capacityMw":660.0,"country":"ET","externalIds":{"osm":"way/446260467"},"geographyId":"ET-75662566B72302855928957","id":"wattlas-plant-osm-way-446260467","lifecycleCounts":{"operational":1},"locationPrecision":"exact","name":"Gilgel Gibe V","operatingCapacityCoverage":{"coveragePercent":100.0,"knownUnitCount":0,"method":"plant_aggregate","provenance":{"evidenceCount":0,"recordIds":["wattlas-record-osm-way-446260467"],"sourceIds":["openstreetmap-power"],"sourceTypes":["community_mapped"],"valueKind":"reported"},"totalUnitCount":0},"operatingCapacityMw":660.0,"operatingCapacityMwByTechnology":{"hydro":660.0},"plannedCapacityCoverage":{"coveragePercent":0.0,"knownUnitCount":0,"method":"unavailable","totalUnitCount":0},"plannedCapacityMw":0.0,"plannedCapacityMwByTechnology":{},"recordCount":1,"recordIds":["wattlas-record-osm-way-446260467"],"sourceIds":["openstreetmap-power"],"sourceUrl":"https://www.openstreetmap.org/way/446260467","technologies":["hydro"],"technologyMixMw":{"hydro":660.0},"unitCount":0,"unitIds":[]},"type":"Feature"},{"geometry":{"coordinates":[35.440069,8.398082],"type":"Point"},"id":"wattlas-plant-osm-way-708386489","properties":{"aliases":["Sor"],"canonicalAnchor":"osm:way/708386489","canonicalCountryKey":"ET","capacityMw":5.0,"country":"ET","externalIds":{"osm":"way/708386489"},"geographyId":"ET-75662566B9273833721501","id":"wattlas-plant-osm-way-708386489","lifecycleCounts":{"operational":1},"locationPrecision":"exact","name":"Sor","operatingCapacityCoverage":{"coveragePercent":100.0,"knownUnitCount":0,"method":"plant_aggregate","provenance":{"evidenceCount":0,"recordIds":["wattlas-record-osm-way-708386489"],"sourceIds":["openstreetmap-power"],"sourceTypes":["community_mapped"],"valueKind":"reported"},"totalUnitCount":0},"operatingCapacityMw":5.0,"operatingCapacityMwByTechnology":{"hydro":5.0},"plannedCapacityCoverage":{"coveragePercent":0.0,"knownUnitCount":0,"method":"unavailable","totalUnitCount":0},"plannedCapacityMw":0.0,"plannedCapacityMwByTechnology":{},"recordCount":1,"recordIds":["wattlas-record-osm-way-708386489"],"sourceIds":["openstreetmap-power"],"sourceUrl":"https://www.openstreetmap.org/way/708386489","technologies":["hydro"],"technologyMixMw":{"hydro":5.0},"unitCount":0,"unitIds":[]},"type":"Feature"},{"geometry":{"coordinates":[39.692624,5.611458],"type":"Point"},"id":"wattlas-plant-osm-way-981043845","properties":{"aliases":["Genale–Dawa III Dam"],"canonicalAnchor":"osm:way/981043845","canonicalCountryKey":"ET","capacityMw":0.0,"country":"ET","externalIds":{"osm":"way/981043845"},"geographyId":"ET-75662566B9273833721501","id":"wattlas-plant-osm-way-981043845","lifecycleCounts":{"operational":1},"locationPrecision":"exact","name":"Genale–Dawa III Dam","operatingCapacityCoverage":{"coveragePercent":0.0,"knownUnitCount":0,"method":"unavailable","totalUnitCount":0},"operatingCapacityMw":0.0,"operatingCapacityMwByTechnology":{},"plannedCapacityCoverage":{"coveragePercent":0.0,"knownUnitCount":0,"method":"unavailable","totalUnitCount":0},"plannedCapacityMw":0.0,"plannedCapacityMwByTechnology":{},"recordCount":1,"recordIds":["wattlas-record-osm-way-981043845"],"sourceIds":["openstreetmap-power"],"sourceUrl":"https://www.openstreetmap.org/way/981043845","technologies":["hydro"],"technologyMixMw":{"hydro":0.0},"unitCount":0,"unitIds":[]},"type":"Feature"},{"geometry":{"coordinates":[39.775352,5.522923],"type":"Point"},"id":"wattlas-plant-wikidata-q108502649","properties":{"aliases":["Genale Dawa III Hydroelectric Power Plant"],"canonicalAnchor":"wikidata:Q108502649","canonicalCountryKey":"ET","capacityMw":254.0,"country":"ET","externalIds":{"osm":"way/1089422651","wikidata":"Q108502649"},"geographyId":"ET-75662566B9273833721501","id":"wattlas-plant-wikidata-q108502649","idAliases":["wattlas-plant-osm-way-1089422651"],"lifecycleCounts":{"operational":1},"locationPrecision":"exact","name":"Genale Dawa III Hydroelectric Power Plant","operatingCapacityCoverage":{"coveragePercent":100.0,"knownUnitCount":0,"method":"plant_aggregate","provenance":{"evidenceCount":0,"recordIds":["wattlas-record-osm-way-1089422651"],"sourceIds":["openstreetmap-power"],"sourceTypes":["community_mapped"],"valueKind":"reported"},"totalUnitCount":0},"operatingCapacityMw":254.0,"operatingCapacityMwByTechnology":{"hydro":254.0},"plannedCapacityCoverage":{"coveragePercent":0.0,"knownUnitCount":0,"method":"unavailable","totalUnitCount":0},"plannedCapacityMw":0.0,"plannedCapacityMwByTechnology":{},"recordCount":1,"recordIds":["wattlas-record-osm-way-1089422651"],"sourceIds":["openstreetmap-power"],"sourceUrl":"https://www.openstreetmap.org/way/1089422651","technologies":["hydro"],"technologyMixMw":{"hydro":254.0},"unitCount":0,"unitIds":[]},"type":"Feature"},{"geometry":{"coordinates":[37.300679,6.84322],"type":"Point"},"id":"wattlas-plant-wikidata-q1136922","properties":{"aliases":["Gilgel Gibe III Power Station"],"canonicalAnchor":"wikidata:Q1136922","canonicalCountryKey":"ET","capacityMw":1870.0,"country":"ET","externalIds":{"osm":"way/407077376","wikidata":"Q1136922"},"geographyId":"ET-75662566B72302855928957","id":"wattlas-plant-wikidata-q1136922","idAliases":["wattlas-plant-osm-way-407077376"],"lifecycleCounts":{"operational":1},"locationPrecision":"exact","name":"Gilgel Gibe III Power Station","operatingCapacityCoverage":{"coveragePercent":100.0,"knownUnitCount":0,"method":"plant_aggregate","provenance":{"evidenceCount":0,"recordIds":["wattlas-record-osm-way-407077376"],"sourceIds":["openstreetmap-power"],"sourceTypes":["community_mapped"],"valueKind":"reported"},"totalUnitCount":0},"operatingCapacityMw":1870.0,"operatingCapacityMwByTechnology":{"hydro":1870.0},"plannedCapacityCoverage":{"coveragePercent":0.0,"knownUnitCount":0,"method":"unavailable","totalUnitCount":0},"plannedCapacityMw":0.0,"plannedCapacityMwByTechnology":{},"recordCount":1,"recordIds":["wattlas-record-osm-way-407077376"],"sourceIds":["openstreetmap-power"],"sourceUrl":"https://www.openstreetmap.org/way/407077376","technologies":["hydro"],"technologyMixMw":{"hydro":1870.0},"unitCount":0,"unitIds":[]},"type":"Feature"},{"geometry":{"coordinates":[36.922833,11.817804],"type":"Point"},"id":"wattlas-plant-wikidata-q1142478","properties":{"aliases":["Beles Hydroelectric Power Plant"],"canonicalAnchor":"wikidata:Q1142478","canonicalCountryKey":"ET","capacityMw":460.0,"country":"ET","externalIds":{"osm":"way/1265626930","wikidata":"Q1142478","wikipedia":"en:Beles Hydroelectric Power Plant"},"geographyId":"ET-75662566B52684709481520","id":"wattlas-plant-wikidata-q1142478","idAliases":["wattlas-plant-osm-way-1265626930","wattlas-plant-wikipedia-en-beles-hydroelectric-power-plant"],"lifecycleCounts":{"operational":1},"locationPrecision":"exact","name":"Beles Hydroelectric Power Plant","operatingCapacityCoverage":{"coveragePercent":100.0,"knownUnitCount":0,"method":"plant_aggregate","provenance":{"evidenceCount":0,"recordIds":["wattlas-record-osm-way-1265626930"],"sourceIds":["openstreetmap-power"],"sourceTypes":["community_mapped"],"valueKind":"reported"},"totalUnitCount":0},"operatingCapacityMw":460.0,"operatingCapacityMwByTechnology":{"hydro":460.0},"plannedCapacityCoverage":{"coveragePercent":0.0,"knownUnitCount":0,"method":"unavailable","totalUnitCount":0},"plannedCapacityMw":0.0,"plannedCapacityMwByTechnology":{},"recordCount":1,"recordIds":["wattlas-record-osm-way-1265626930"],"sourceIds":["openstreetmap-power"],"sourceUrl":"https://www.openstreetmap.org/way/1265626930","technologies":["hydro"],"technologyMixMw":{"hydro":460.0},"unitCount":0,"unitIds":[]},"type":"Feature"},{"geometry":{"coordinates":[39.461533,7.224893],"type":"Point"},"id":"wattlas-plant-wikidata-q11988967","properties":{"aliases":["Melka Wakena Hydroelectric Power Station"],"canonicalAnchor":"wikidata:Q11988967","canonicalCountryKey":"ET","capacityMw":153.0,"country":"ET","externalIds":{"osm":"way/407077378","wikidata":"Q11988967","wikipedia":"en:Melka Wakena Hydroelectric Power Station"},"geographyId":"ET-75662566B9273833721501","id":"wattlas-plant-wikidata-q11988967","idAliases":["wattlas-plant-osm-way-407077378","wattlas-plant-wikipedia-en-melka-wakena-hydroelectric-power-station"],"lifecycleCounts":{"operational":1},"locationPrecision":"exact","name":"Melka Wakena Hydroelectric Power Station","operatingCapacityCoverage":{"coveragePercent":100.0,"knownUnitCount":0,"method":"plant_aggregate","provenance":{"evidenceCount":0,"recordIds":["wattlas-record-osm-way-407077378"],"sourceIds":["openstreetmap-power"],"sourceTypes":["community_mapped"],"valueKind":"reported"},"totalUnitCount":0},"operatingCapacityMw":153.0,"operatingCapacityMwByTechnology":{"hydro":153.0},"plannedCapacityCoverage":{"coveragePercent":0.0,"knownUnitCount":0,"method":"unavailable","totalUnitCount":0},"plannedCapacityMw":0.0,"plannedCapacityMwByTechnology":{},"recordCount":1,"recordIds":["wattlas-record-osm-way-407077378"],"sourceIds":["openstreetmap-power"],"sourceUrl":"https://www.openstreetmap.org/way/407077378","technologies":["hydro"],"technologyMixMw":{"hydro":153.0},"unitCount":0,"unitIds":[]},"type":"Feature"},{"geometry":{"coordinates":[35.091948,11.215734],"type":"Point"},"id":"wattlas-plant-wikidata-q1542454","properties":{"aliases":["ታላቁ የኢትዮጵያ ሕዳሴ ግድብ"],"canonicalAnchor":"wikidata:Q1542454","canonicalCountryKey":"ET","capacityMw":6000.0,"country":"ET","externalIds":{"osm":"relation/12112609","wikidata":"Q1542454"},"geographyId":"ET-75662566B16746670119676","id":"wattlas-plant-wikidata-q1542454","idAliases":["wattlas-plant-osm-relation-12112609"],"lifecycleCounts":{"operational":1},"locationPrecision":"exact","name":"ታላቁ የኢትዮጵያ ሕዳሴ ግድብ","operatingCapacityCoverage":{"coveragePercent":100.0,"knownUnitCount":0,"method":"plant_aggregate","provenance":{"evidenceCount":0,"recordIds":["wattlas-record-osm-relation-12112609"],"sourceIds":["openstreetmap-power"],"sourceTypes":["community_mapped"],"valueKind":"reported"},"totalUnitCount":0},"operatingCapacityMw":6000.0,"operatingCapacityMwByTechnology":{"hydro":6000.0},"plannedCapacityCoverage":{"coveragePercent":0.0,"knownUnitCount":0,"method":"unavailable","totalUnitCount":0},"plannedCapacityMw":0.0,"plannedCapacityMwByTechnology":{},"recordCount":1,"recordIds":["wattlas-record-osm-relation-12112609"],"sourceIds":["openstreetmap-power"],"sourceUrl":"https://www.openstreetmap.org/relation/12112609","technologies":["hydro"],"technologyMixMw":{"hydro":6000.0},"unitCount":0,"unitIds":[]},"type":"Feature"},{"geometry":{"coordinates":[37.589684,11.485946],"type":"Point"},"id":"wattlas-plant-wikidata-q15851020","properties":{"aliases":["Tis Abay I Hydroelectric Plant"],"canonicalAnchor":"wikidata:Q15851020","canonicalCountryKey":"ET","capacityMw":11.4,"country":"ET","externalIds":{"osm":"way/222688270","wikidata":"Q15851020"},"geographyId":"ET-75662566B52684709481520","id":"wattlas-plant-wikidata-q15851020","idAliases":["wattlas-plant-osm-way-222688270"],"lifecycleCounts":{"operational":1},"locationPrecision":"exact","name":"Tis Abay I Hydroelectric Plant","operatingCapacityCoverage":{"coveragePercent":100.0,"knownUnitCount":0,"method":"plant_aggregate","provenance":{"evidenceCount":0,"recordIds":["wattlas-record-osm-way-222688270"],"sourceIds":["openstreetmap-power"],"sourceTypes":["community_mapped"],"valueKind":"reported"},"totalUnitCount":0},"operatingCapacityMw":11.4,"operatingCapacityMwByTechnology":{"hydro":11.4},"plannedCapacityCoverage":{"coveragePercent":0.0,"knownUnitCount":0,"method":"unavailable","totalUnitCount":0},"plannedCapacityMw":0.0,"plannedCapacityMwByTechnology":{},"recordCount":1,"recordIds":["wattlas-record-osm-way-222688270"],"sourceIds":["openstreetmap-power"],"sourceUrl":"https://www.openstreetmap.org/way/222688270","technologies":["hydro"],"technologyMixMw":{"hydro":11.4},"unitCount":0,"unitIds":[]},"type":"Feature"},{"geometry":{"coordinates":[37.562448,7.756855],"type":"Point"},"id":"wattlas-plant-wikidata-q2884950","properties":{"aliases":["Gilgel Gibe II"],"canonicalAnchor":"wikidata:Q2884950","canonicalCountryKey":"ET","capacityMw":420.0,"country":"ET","externalIds":{"osm":"way/407077377","wikidata":"Q2884950","wikipedia":"en:Gilgel Gibe II Power Station"},"geographyId":"ET-75662566B72302855928957","id":"wattlas-plant-wikidata-q2884950","idAliases":["wattlas-plant-osm-way-407077377","wattlas-plant-wikipedia-en-gilgel-gibe-ii-power-station"],"lifecycleCounts":{"operational":1},"locationPrecision":"exact","name":"Gilgel Gibe II","operatingCapacityCoverage":{"coveragePercent":100.0,"knownUnitCount":0,"method":"plant_aggregate","provenance":{"evidenceCount":0,"recordIds":["wattlas-record-osm-way-407077377"],"sourceIds":["openstreetmap-power"],"sourceTypes":["community_mapped"],"valueKind":"reported"},"totalUnitCount":0},"operatingCapacityMw":420.0,"operatingCapacityMwByTechnology":{"hydro":420.0},"plannedCapacityCoverage":{"coveragePercent":0.0,"knownUnitCount":0,"method":"unavailable","totalUnitCount":0},"plannedCapacityMw":0.0,"plannedCapacityMwByTechnology":{},"recordCount":1,"recordIds":["wattlas-record-osm-way-407077377"],"sourceIds":["openstreetmap-power"],"sourceUrl":"https://www.openstreetmap.org/way/407077377","technologies":["hydro"],"technologyMixMw":{"hydro":420.0},"unitCount":0,"unitIds":[]},"type":"Feature"},{"geometry":{"coordinates":[37.41253,9.561283],"type":"Point"},"id":"wattlas-plant-wikidata-q3431210","properties":{"aliases":["Fincha Hydroelectric Power Station"],"canonicalAnchor":"wikidata:Q3431210","canonicalCountryKey":"ET","capacityMw":134.0,"country":"ET","externalIds":{"osm":"way/407077371","wikidata":"Q3431210","wikipedia":"en:Fincha Hydroelectric Power Station"},"geographyId":"ET-75662566B9273833721501","id":"wattlas-plant-wikidata-q3431210","idAliases":["wattlas-plant-osm-way-407077371","wattlas-plant-wikipedia-en-fincha-hydroelectric-power-station"],"lifecycleCounts":{"operational":1},"locationPrecision":"exact","name":"Fincha Hydroelectric Power Station","operatingCapacityCoverage":{"coveragePercent":100.0,"knownUnitCount":0,"method":"plant_aggregate","provenance":{"evidenceCount":0,"recordIds":["wattlas-record-osm-way-407077371"],"sourceIds":["openstreetmap-power"],"sourceTypes":["community_mapped"],"valueKind":"reported"},"totalUnitCount":0},"operatingCapacityMw":134.0,"operatingCapacityMwByTechnology":{"hydro":134.0},"plannedCapacityCoverage":{"coveragePercent":0.0,"knownUnitCount":0,"method":"unavailable","totalUnitCount":0},"plannedCapacityMw":0.0,"plannedCapacityMwByTechnology":{},"recordCount":1,"recordIds":["wattlas-record-osm-way-407077371"],"sourceIds":["openstreetmap-power"],"sourceUrl":"https://www.openstreetmap.org/way/407077371","technologies":["hydro"],"technologyMixMw":{"hydro":134.0},"unitCount":0,"unitIds":[]},"type":"Feature"},{"geometry":{"coordinates":[38.794606,7.788564],"type":"Point"},"id":"wattlas-plant-wikidata-q55603750","properties":{"aliases":["Aluto–Langano Geothermal Power Station"],"canonicalAnchor":"wikidata:Q55603750","canonicalCountryKey":"ET","capacityMw":7.3,"country":"ET","externalIds":{"osm":"way/845228293","wikidata":"Q55603750"},"geographyId":"ET-75662566B9273833721501","id":"wattlas-plant-wikidata-q55603750","idAliases":["wattlas-plant-osm-way-845228293"],"lifecycleCounts":{"operational":1},"locationPrecision":"exact","name":"Aluto–Langano Geothermal Power Station","operatingCapacityCoverage":{"coveragePercent":100.0,"knownUnitCount":0,"method":"plant_aggregate","provenance":{"evidenceCount":0,"recordIds":["wattlas-record-osm-way-845228293"],"sourceIds":["openstreetmap-power"],"sourceTypes":["community_mapped"],"valueKind":"reported"},"totalUnitCount":0},"operatingCapacityMw":7.3,"operatingCapacityMwByTechnology":{"geothermal":7.3},"plannedCapacityCoverage":{"coveragePercent":0.0,"knownUnitCount":0,"method":"unavailable","totalUnitCount":0},"plannedCapacityMw":0.0,"plannedCapacityMwByTechnology":{},"recordCount":1,"recordIds":["wattlas-record-osm-way-845228293"],"sourceIds":["openstreetmap-power"],"sourceUrl":"https://www.openstreetmap.org/way/845228293","technologies":["geothermal"],"technologyMixMw":{"geothermal":7.3},"unitCount":0,"unitIds":[]},"type":"Feature"},{"geometry":{"coordinates":[38.709735,8.975618],"type":"Point"},"id":"wattlas-plant-wikidata-q56290382","properties":{"aliases":["Reppie waste-to-energy plant"],"canonicalAnchor":"wikidata:Q56290382","canonicalCountryKey":"ET","capacityMw":50.0,"country":"ET","externalIds":{"osm":"way/538207268","wikidata":"Q56290382"},"geographyId":"ET-75662566B5378229891244","id":"wattlas-plant-wikidata-q56290382","idAliases":["wattlas-plant-osm-way-538207268"],"lifecycleCounts":{"operational":1},"locationPrecision":"exact","name":"Reppie waste-to-energy plant","operatingCapacityCoverage":{"coveragePercent":100.0,"knownUnitCount":0,"method":"plant_aggregate","provenance":{"evidenceCount":0,"recordIds":["wattlas-record-osm-way-538207268"],"sourceIds":["openstreetmap-power"],"sourceTypes":["community_mapped"],"valueKind":"reported"},"totalUnitCount":0},"operatingCapacityMw":50.0,"operatingCapacityMwByTechnology":{"other":50.0},"plannedCapacityCoverage":{"coveragePercent":0.0,"knownUnitCount":0,"method":"unavailable","totalUnitCount":0},"plannedCapacityMw":0.0,"plannedCapacityMwByTechnology":{},"recordCount":1,"recordIds":["wattlas-record-osm-way-538207268"],"sourceIds":["openstreetmap-power"],"sourceUrl":"https://www.openstreetmap.org/way/538207268","technologies":["other"],"technologyMixMw":{"other":50.0},"unitCount":0,"unitIds":[]},"type":"Feature"},{"geometry":{"coordinates":[37.368521,7.903458],"type":"Point"},"id":"wattlas-plant-wikidata-q65196209","properties":{"aliases":["Gilgel Gibe I Power Station"],"canonicalAnchor":"wikidata:Q65196209","canonicalCountryKey":"ET","capacityMw":184.0,"country":"ET","externalIds":{"osm":"way/828980237","wikidata":"Q65196209"},"geographyId":"ET-75662566B9273833721501","id":"wattlas-plant-wikidata-q65196209","idAliases":["wattlas-plant-osm-way-828980237"],"lifecycleCounts":{"operational":1},"locationPrecision":"exact","name":"Gilgel Gibe I Power Station","operatingCapacityCoverage":{"coveragePercent":100.0,"knownUnitCount":0,"method":"plant_aggregate","provenance":{"evidenceCount":0,"recordIds":["wattlas-record-osm-way-828980237"],"sourceIds":["openstreetmap-power"],"sourceTypes":["community_mapped"],"valueKind":"reported"},"totalUnitCount":0},"operatingCapacityMw":184.0,"operatingCapacityMwByTechnology":{"hydro":184.0},"plannedCapacityCoverage":{"coveragePercent":0.0,"knownUnitCount":0,"method":"unavailable","totalUnitCount":0},"plannedCapacityMw":0.0,"plannedCapacityMwByTechnology":{},"recordCount":1,"recordIds":["wattlas-record-osm-way-828980237"],"sourceIds":["openstreetmap-power"],"sourceUrl":"https://www.openstreetmap.org/way/828980237","technologies":["hydro"],"technologyMixMw":{"hydro":184.0},"unitCount":0,"unitIds":[]},"type":"Feature"},{"geometry":{"coordinates":[38.740769,13.349367],"type":"Point"},"id":"wattlas-plant-wikidata-q65196272","properties":{"aliases":["Tekezé Dam Power Station"],"canonicalAnchor":"wikidata:Q65196272","canonicalCountryKey":"ET","capacityMw":300.0,"country":"ET","externalIds":{"osm":"way/362859973","wikidata":"Q65196272"},"geographyId":"ET-75662566B45163836206557","id":"wattlas-plant-wikidata-q65196272","idAliases":["wattlas-plant-osm-way-362859973"],"lifecycleCounts":{"operational":1},"locationPrecision":"exact","name":"Tekezé Dam Power Station","operatingCapacityCoverage":{"coveragePercent":100.0,"knownUnitCount":0,"method":"plant_aggregate","provenance":{"evidenceCount":0,"recordIds":["wattlas-record-osm-way-362859973"],"sourceIds":["openstreetmap-power"],"sourceTypes":["community_mapped"],"valueKind":"reported"},"totalUnitCount":0},"operatingCapacityMw":300.0,"operatingCapacityMwByTechnology":{"hydro":300.0},"plannedCapacityCoverage":{"coveragePercent":0.0,"knownUnitCount":0,"method":"unavailable","totalUnitCount":0},"plannedCapacityMw":0.0,"plannedCapacityMwByTechnology":{},"recordCount":1,"recordIds":["wattlas-record-osm-way-362859973"],"sourceIds":["openstreetmap-power"],"sourceUrl":"https://www.openstreetmap.org/way/362859973","technologies":["hydro"],"technologyMixMw":{"hydro":300.0},"unitCount":0,"unitIds":[]},"type":"Feature"},{"geometry":{"coordinates":[37.599865,11.488767],"type":"Point"},"id":"wattlas-plant-wikidata-q65196279","properties":{"aliases":["Tis Abay II Hydroelectric Plant"],"canonicalAnchor":"wikidata:Q65196279","canonicalCountryKey":"ET","capacityMw":73.0,"country":"ET","externalIds":{"osm":"way/222688272","wikidata":"Q65196279"},"geographyId":"ET-75662566B52684709481520","id":"wattlas-plant-wikidata-q65196279","idAliases":["wattlas-plant-osm-way-222688272"],"lifecycleCounts":{"operational":1},"locationPrecision":"exact","name":"Tis Abay II Hydroelectric Plant","operatingCapacityCoverage":{"coveragePercent":100.0,"knownUnitCount":0,"method":"plant_aggregate","provenance":{"evidenceCount":0,"recordIds":["wattlas-record-osm-way-222688272"],"sourceIds":["openstreetmap-power"],"sourceTypes":["community_mapped"],"valueKind":"reported"},"totalUnitCount":0},"operatingCapacityMw":73.0,"operatingCapacityMwByTechnology":{"hydro":73.0},"plannedCapacityCoverage":{"coveragePercent":0.0,"knownUnitCount":0,"method":"unavailable","totalUnitCount":0},"plannedCapacityMw":0.0,"plannedCapacityMwByTechnology":{},"recordCount":1,"recordIds":["wattlas-record-osm-way-222688272"],"sourceIds":["openstreetmap-power"],"sourceUrl":"https://www.openstreetmap.org/way/222688272","technologies":["hydro"],"technologyMixMw":{"hydro":73.0},"unitCount":0,"unitIds":[]},"type":"Feature"},{"geometry":{"coordinates":[37.269224,9.788704],"type":"Point"},"id":"wattlas-plant-wikidata-q65196286","properties":{"aliases":["Amerti Neshi power plant"],"canonicalAnchor":"wikidata:Q65196286","canonicalCountryKey":"ET","capacityMw":95.0,"country":"ET","externalIds":{"osm":"way/845221791","wikidata":"Q65196286"},"geographyId":"ET-75662566B9273833721501","id":"wattlas-plant-wikidata-q65196286","idAliases":["wattlas-plant-osm-way-845221791"],"lifecycleCounts":{"operational":1},"locationPrecision":"exact","name":"Amerti Neshi power plant","operatingCapacityCoverage":{"coveragePercent":100.0,"knownUnitCount":0,"method":"plant_aggregate","provenance":{"evidenceCount":0,"recordIds":["wattlas-record-osm-way-845221791"],"sourceIds":["openstreetmap-power"],"sourceTypes":["community_mapped"],"valueKind":"reported"},"totalUnitCount":0},"operatingCapacityMw":95.0,"operatingCapacityMwByTechnology":{"hydro":95.0},"plannedCapacityCoverage":{"coveragePercent":0.0,"knownUnitCount":0,"method":"unavailable","totalUnitCount":0},"plannedCapacityMw":0.0,"plannedCapacityMwByTechnology":{},"recordCount":1,"recordIds":["wattlas-record-osm-way-845221791"],"sourceIds":["openstreetmap-power"],"sourceUrl":"https://www.openstreetmap.org/way/845221791","technologies":["hydro"],"technologyMixMw":{"hydro":95.0},"unitCount":0,"unitIds":[]},"type":"Feature"}],"type":"FeatureCollection"}