{"features":[{"geometry":{"coordinates":[74.654957,42.871747],"type":"Point"},"id":"wattlas-plant-gemplant-l100000103003","properties":{"aliases":["Bishkek power station","Unit 1","Unit 10, timepoint 1","Unit 10, timepoint 2","Unit 11, timepoint 1","Unit 11, timepoint 2","Unit 12, timepoint 1","Unit 12, timepoint 2","Unit 13, timepoint 1","Unit 13, timepoint 2","Unit 3","Unit 4","Unit 5","Unit 6, timepoint 1","Unit 6, timepoint 2","Unit 7, timepoint 1","Unit 7, timepoint 2","Unit 8, timepoint 1","Unit 8, timepoint 2","Unit 9, timepoint 1","Unit 9, timepoint 2"],"canonicalAnchor":"gemplant:L100000103003","canonicalCountryKey":"KG","capacityMw":1591.0,"country":"KG","externalIdAliases":{"gemUnit":["G100000100921","G100000100922","G100000100923","G100000100924","G100000100925","G100000100926","G100000100927","G100000100928","G100000100929","G100000100930","G100000100931","G100000100932","G100001017898","G100001017899","G100001017930","G100001017996","G100001017999","G100001018019","G100001048112","G100001048113"]},"externalIds":{"gemPlant":"L100000103003","gemUnit":"G100001018019"},"gemWikiUrl":"https://www.gem.wiki/Bishkek_power_station","geographyId":"KG-38789647B49701521312730","id":"wattlas-plant-gemplant-l100000103003","lifecycleCounts":{"announced":8,"cancelled":3,"operational":9},"locationPrecision":"exact","name":"Bishkek power station","operatingCapacityCoverage":{"coveragePercent":100.0,"knownUnitCount":9,"method":"complete_unit_sum","provenance":{"evidenceCount":0,"recordIds":["wattlas-record-gemunit-g100000100922","wattlas-record-gemunit-g100000100923","wattlas-record-gemunit-g100000100924","wattlas-record-gemunit-g100000100925","wattlas-record-gemunit-g100000100928","wattlas-record-gemunit-g100000100929","wattlas-record-gemunit-g100000100930","wattlas-record-gemunit-g100000100931","wattlas-record-gemunit-g100000100932"],"sourceIds":["gem-global-integrated-power-tracker"],"sourceTypes":["research_verified"],"valueKind":"reported"},"totalUnitCount":9},"operatingCapacityMw":813.0,"operatingCapacityMwByTechnology":{"coal":813.0},"plannedCapacityCoverage":{"coveragePercent":100.0,"knownUnitCount":8,"method":"complete_unit_sum","provenance":{"evidenceCount":0,"recordIds":["wattlas-record-gemunit-g100001017898","wattlas-record-gemunit-g100001017899","wattlas-record-gemunit-g100001017930","wattlas-record-gemunit-g100001017996","wattlas-record-gemunit-g100001017999","wattlas-record-gemunit-g100001018019","wattlas-record-gemunit-g100001048112","wattlas-record-gemunit-g100001048113"],"sourceIds":["gem-global-integrated-power-tracker"],"sourceTypes":["research_verified"],"valueKind":"reported"},"totalUnitCount":8},"plannedCapacityMw":778.0,"plannedCapacityMwByTechnology":{"gas":778.0},"recordCount":20,"recordIds":["wattlas-record-gemunit-g100000100921","wattlas-record-gemunit-g100000100922","wattlas-record-gemunit-g100000100923","wattlas-record-gemunit-g100000100924","wattlas-record-gemunit-g100000100925","wattlas-record-gemunit-g100000100926","wattlas-record-gemunit-g100000100927","wattlas-record-gemunit-g100000100928","wattlas-record-gemunit-g100000100929","wattlas-record-gemunit-g100000100930","wattlas-record-gemunit-g100000100931","wattlas-record-gemunit-g100000100932","wattlas-record-gemunit-g100001017898","wattlas-record-gemunit-g100001017899","wattlas-record-gemunit-g100001017930","wattlas-record-gemunit-g100001017996","wattlas-record-gemunit-g100001017999","wattlas-record-gemunit-g100001018019","wattlas-record-gemunit-g100001048112","wattlas-record-gemunit-g100001048113"],"sourceIds":["gem-global-integrated-power-tracker"],"sourceUrl":"https://www.gem.wiki/Bishkek_power_station","technologies":["coal","gas"],"technologyMixMw":{"coal":813.0,"gas":778.0},"unitCount":20,"unitIds":["gem-unit-G100000100921","gem-unit-G100000100922","gem-unit-G100000100923","gem-unit-G100000100924","gem-unit-G100000100925","gem-unit-G100000100926","gem-unit-G100000100927","gem-unit-G100000100928","gem-unit-G100000100929","gem-unit-G100000100930","gem-unit-G100000100931","gem-unit-G100000100932","gem-unit-G100001017898","gem-unit-G100001017899","gem-unit-G100001017930","gem-unit-G100001017996","gem-unit-G100001017999","gem-unit-G100001018019","gem-unit-G100001048112","gem-unit-G100001048113"]},"type":"Feature"},{"geometry":{"coordinates":[76.4101,41.492],"type":"Point"},"id":"wattlas-plant-gemplant-l100000602338","properties":{"aliases":["Akbulun hydroelectric plant"],"canonicalAnchor":"gemplant:L100000602338","canonicalCountryKey":"KG","capacityMw":87.0,"country":"KG","externalIds":{"gemPlant":"L100000602338","gemUnit":"G100000604202"},"gemWikiUrl":"https://www.gem.wiki/Akbulun_hydroelectric_plant","geographyId":"KG-38789647B68189783551847","id":"wattlas-plant-gemplant-l100000602338","lifecycleCounts":{"announced":1},"locationPrecision":"exact","name":"Akbulun hydroelectric plant","operatingCapacityCoverage":{"coveragePercent":0.0,"knownUnitCount":0,"method":"unavailable","totalUnitCount":0},"operatingCapacityMw":0.0,"operatingCapacityMwByTechnology":{},"plannedCapacityCoverage":{"coveragePercent":100.0,"knownUnitCount":1,"method":"complete_unit_sum","provenance":{"evidenceCount":0,"recordIds":["wattlas-record-gemunit-g100000604202"],"sourceIds":["gem-global-integrated-power-tracker"],"sourceTypes":["research_verified"],"valueKind":"reported"},"totalUnitCount":1},"plannedCapacityMw":87.0,"plannedCapacityMwByTechnology":{"hydro":87.0},"recordCount":1,"recordIds":["wattlas-record-gemunit-g100000604202"],"sourceIds":["gem-global-integrated-power-tracker"],"sourceUrl":"https://www.gem.wiki/Akbulun_hydroelectric_plant","technologies":["hydro"],"technologyMixMw":{"hydro":87.0},"unitCount":1,"unitIds":["gem-unit-G100000604202"]},"type":"Feature"},{"geometry":{"coordinates":[74.2972,41.3785],"type":"Point"},"id":"wattlas-plant-gemplant-l100000602339","properties":{"aliases":["Alabukin hydroelectric plant"],"canonicalAnchor":"gemplant:L100000602339","canonicalCountryKey":"KG","capacityMw":600.0,"country":"KG","externalIds":{"gemPlant":"L100000602339","gemUnit":"G100000602368"},"gemWikiUrl":"https://www.gem.wiki/Alabukin_hydroelectric_plant","geographyId":"KG-38789647B68189783551847","id":"wattlas-plant-gemplant-l100000602339","lifecycleCounts":{"announced":1},"locationPrecision":"exact","name":"Alabukin hydroelectric plant","operatingCapacityCoverage":{"coveragePercent":0.0,"knownUnitCount":0,"method":"unavailable","totalUnitCount":0},"operatingCapacityMw":0.0,"operatingCapacityMwByTechnology":{},"plannedCapacityCoverage":{"coveragePercent":100.0,"knownUnitCount":1,"method":"complete_unit_sum","provenance":{"evidenceCount":0,"recordIds":["wattlas-record-gemunit-g100000602368"],"sourceIds":["gem-global-integrated-power-tracker"],"sourceTypes":["research_verified"],"valueKind":"reported"},"totalUnitCount":1},"plannedCapacityMw":600.0,"plannedCapacityMwByTechnology":{"hydro":600.0},"recordCount":1,"recordIds":["wattlas-record-gemunit-g100000602368"],"sourceIds":["gem-global-integrated-power-tracker"],"sourceUrl":"https://www.gem.wiki/Alabukin_hydroelectric_plant","technologies":["hydro"],"technologyMixMw":{"hydro":600.0},"unitCount":1,"unitIds":["gem-unit-G100000602368"]},"type":"Feature"},{"geometry":{"coordinates":[74.309,40.8492],"type":"Point"},"id":"wattlas-plant-gemplant-l100000602340","properties":{"aliases":["Arpan-1 hydroelectric plant"],"canonicalAnchor":"gemplant:L100000602340","canonicalCountryKey":"KG","capacityMw":136.0,"country":"KG","externalIds":{"gemPlant":"L100000602340","gemUnit":"G100000602369"},"gemWikiUrl":"https://www.gem.wiki/Arpan-1_hydroelectric_plant","geographyId":"KG-38789647B68189783551847","id":"wattlas-plant-gemplant-l100000602340","lifecycleCounts":{"announced":1},"locationPrecision":"exact","name":"Arpan-1 hydroelectric plant","operatingCapacityCoverage":{"coveragePercent":0.0,"knownUnitCount":0,"method":"unavailable","totalUnitCount":0},"operatingCapacityMw":0.0,"operatingCapacityMwByTechnology":{},"plannedCapacityCoverage":{"coveragePercent":100.0,"knownUnitCount":1,"method":"complete_unit_sum","provenance":{"evidenceCount":0,"recordIds":["wattlas-record-gemunit-g100000602369"],"sourceIds":["gem-global-integrated-power-tracker"],"sourceTypes":["research_verified"],"valueKind":"reported"},"totalUnitCount":1},"plannedCapacityMw":136.0,"plannedCapacityMwByTechnology":{"hydro":136.0},"recordCount":1,"recordIds":["wattlas-record-gemunit-g100000602369"],"sourceIds":["gem-global-integrated-power-tracker"],"sourceUrl":"https://www.gem.wiki/Arpan-1_hydroelectric_plant","technologies":["hydro"],"technologyMixMw":{"hydro":136.0},"unitCount":1,"unitIds":["gem-unit-G100000602369"]},"type":"Feature"},{"geometry":{"coordinates":[75.8105,41.4642],"type":"Point"},"id":"wattlas-plant-gemplant-l100000602341","properties":{"aliases":["Atbashin-2 hydroelectric plant"],"canonicalAnchor":"gemplant:L100000602341","canonicalCountryKey":"KG","capacityMw":135.0,"country":"KG","externalIds":{"gemPlant":"L100000602341","gemUnit":"G100000604215"},"gemWikiUrl":"https://www.gem.wiki/Atbashin-2_hydroelectric_plant","geographyId":"KG-38789647B68189783551847","id":"wattlas-plant-gemplant-l100000602341","lifecycleCounts":{"announced":1},"locationPrecision":"exact","name":"Atbashin-2 hydroelectric plant","operatingCapacityCoverage":{"coveragePercent":0.0,"knownUnitCount":0,"method":"unavailable","totalUnitCount":0},"operatingCapacityMw":0.0,"operatingCapacityMwByTechnology":{},"plannedCapacityCoverage":{"coveragePercent":100.0,"knownUnitCount":1,"method":"complete_unit_sum","provenance":{"evidenceCount":0,"recordIds":["wattlas-record-gemunit-g100000604215"],"sourceIds":["gem-global-integrated-power-tracker"],"sourceTypes":["research_verified"],"valueKind":"reported"},"totalUnitCount":1},"plannedCapacityMw":135.0,"plannedCapacityMwByTechnology":{"hydro":135.0},"recordCount":1,"recordIds":["wattlas-record-gemunit-g100000604215"],"sourceIds":["gem-global-integrated-power-tracker"],"sourceUrl":"https://www.gem.wiki/Atbashin-2_hydroelectric_plant","technologies":["hydro"],"technologyMixMw":{"hydro":135.0},"unitCount":1,"unitIds":["gem-unit-G100000604215"]},"type":"Feature"},{"geometry":{"coordinates":[70.4545,41.6597],"type":"Point"},"id":"wattlas-plant-gemplant-l100000602342","properties":{"aliases":["Barkrau hydroelectric plant"],"canonicalAnchor":"gemplant:L100000602342","canonicalCountryKey":"KG","capacityMw":700.0,"country":"KG","externalIds":{"gemPlant":"L100000602342","gemUnit":"G100000604234"},"gemWikiUrl":"https://www.gem.wiki/Barkrau_hydroelectric_plant","geographyId":"KG-38789647B85532999857943","id":"wattlas-plant-gemplant-l100000602342","lifecycleCounts":{"announced":1},"locationPrecision":"exact","name":"Barkrau hydroelectric plant","operatingCapacityCoverage":{"coveragePercent":0.0,"knownUnitCount":0,"method":"unavailable","totalUnitCount":0},"operatingCapacityMw":0.0,"operatingCapacityMwByTechnology":{},"plannedCapacityCoverage":{"coveragePercent":100.0,"knownUnitCount":1,"method":"complete_unit_sum","provenance":{"evidenceCount":0,"recordIds":["wattlas-record-gemunit-g100000604234"],"sourceIds":["gem-global-integrated-power-tracker"],"sourceTypes":["research_verified"],"valueKind":"reported"},"totalUnitCount":1},"plannedCapacityMw":700.0,"plannedCapacityMwByTechnology":{"hydro":700.0},"recordCount":1,"recordIds":["wattlas-record-gemunit-g100000604234"],"sourceIds":["gem-global-integrated-power-tracker"],"sourceUrl":"https://www.gem.wiki/Barkrau_hydroelectric_plant","technologies":["hydro"],"technologyMixMw":{"hydro":700.0},"unitCount":1,"unitIds":["gem-unit-G100000604234"]},"type":"Feature"},{"geometry":{"coordinates":[75.072,41.4257],"type":"Point"},"id":"wattlas-plant-gemplant-l100000602343","properties":{"aliases":["Dzhilanaryk-1 hydroelectric plant"],"canonicalAnchor":"gemplant:L100000602343","canonicalCountryKey":"KG","capacityMw":80.0,"country":"KG","externalIds":{"gemPlant":"L100000602343","gemUnit":"G100000604363"},"gemWikiUrl":"https://www.gem.wiki/Dzhilanaryk-1_hydroelectric_plant","geographyId":"KG-38789647B68189783551847","id":"wattlas-plant-gemplant-l100000602343","lifecycleCounts":{"announced":1},"locationPrecision":"exact","name":"Dzhilanaryk-1 hydroelectric plant","operatingCapacityCoverage":{"coveragePercent":0.0,"knownUnitCount":0,"method":"unavailable","totalUnitCount":0},"operatingCapacityMw":0.0,"operatingCapacityMwByTechnology":{},"plannedCapacityCoverage":{"coveragePercent":100.0,"knownUnitCount":1,"method":"complete_unit_sum","provenance":{"evidenceCount":0,"recordIds":["wattlas-record-gemunit-g100000604363"],"sourceIds":["gem-global-integrated-power-tracker"],"sourceTypes":["research_verified"],"valueKind":"reported"},"totalUnitCount":1},"plannedCapacityMw":80.0,"plannedCapacityMwByTechnology":{"hydro":80.0},"recordCount":1,"recordIds":["wattlas-record-gemunit-g100000604363"],"sourceIds":["gem-global-integrated-power-tracker"],"sourceUrl":"https://www.gem.wiki/Dzhilanaryk-1_hydroelectric_plant","technologies":["hydro"],"technologyMixMw":{"hydro":80.0},"unitCount":1,"unitIds":["gem-unit-G100000604363"]},"type":"Feature"},{"geometry":{"coordinates":[74.8935,41.4215],"type":"Point"},"id":"wattlas-plant-gemplant-l100000602344","properties":{"aliases":["Dzhilanaryk-2 hydroelectric plant"],"canonicalAnchor":"gemplant:L100000602344","canonicalCountryKey":"KG","capacityMw":98.0,"country":"KG","externalIds":{"gemPlant":"L100000602344","gemUnit":"G100000604364"},"gemWikiUrl":"https://www.gem.wiki/Dzhilanaryk-2_hydroelectric_plant","geographyId":"KG-38789647B68189783551847","id":"wattlas-plant-gemplant-l100000602344","lifecycleCounts":{"announced":1},"locationPrecision":"exact","name":"Dzhilanaryk-2 hydroelectric plant","operatingCapacityCoverage":{"coveragePercent":0.0,"knownUnitCount":0,"method":"unavailable","totalUnitCount":0},"operatingCapacityMw":0.0,"operatingCapacityMwByTechnology":{},"plannedCapacityCoverage":{"coveragePercent":100.0,"knownUnitCount":1,"method":"complete_unit_sum","provenance":{"evidenceCount":0,"recordIds":["wattlas-record-gemunit-g100000604364"],"sourceIds":["gem-global-integrated-power-tracker"],"sourceTypes":["research_verified"],"valueKind":"reported"},"totalUnitCount":1},"plannedCapacityMw":98.0,"plannedCapacityMwByTechnology":{"hydro":98.0},"recordCount":1,"recordIds":["wattlas-record-gemunit-g100000604364"],"sourceIds":["gem-global-integrated-power-tracker"],"sourceUrl":"https://www.gem.wiki/Dzhilanaryk-2_hydroelectric_plant","technologies":["hydro"],"technologyMixMw":{"hydro":98.0},"unitCount":1,"unitIds":["gem-unit-G100000604364"]},"type":"Feature"},{"geometry":{"coordinates":[73.4367,41.7742],"type":"Point"},"id":"wattlas-plant-gemplant-l100000602345","properties":{"aliases":["Kambarata-1 hydroelectric plant"],"canonicalAnchor":"gemplant:L100000602345","canonicalCountryKey":"KG","capacityMw":1860.0,"country":"KG","externalIds":{"gemPlant":"L100000602345","gemUnit":"G100000602374"},"gemWikiUrl":"https://www.gem.wiki/Kambarata-1_hydroelectric_plant","geographyId":"KG-38789647B85532999857943","id":"wattlas-plant-gemplant-l100000602345","lifecycleCounts":{"under_construction":1},"locationPrecision":"exact","name":"Kambarata-1 hydroelectric plant","operatingCapacityCoverage":{"coveragePercent":0.0,"knownUnitCount":0,"method":"unavailable","totalUnitCount":0},"operatingCapacityMw":0.0,"operatingCapacityMwByTechnology":{},"plannedCapacityCoverage":{"coveragePercent":100.0,"knownUnitCount":1,"method":"complete_unit_sum","provenance":{"evidenceCount":0,"recordIds":["wattlas-record-gemunit-g100000602374"],"sourceIds":["gem-global-integrated-power-tracker"],"sourceTypes":["research_verified"],"valueKind":"reported"},"totalUnitCount":1},"plannedCapacityMw":1860.0,"plannedCapacityMwByTechnology":{"hydro":1860.0},"recordCount":1,"recordIds":["wattlas-record-gemunit-g100000602374"],"sourceIds":["gem-global-integrated-power-tracker"],"sourceUrl":"https://www.gem.wiki/Kambarata-1_hydroelectric_plant","technologies":["hydro"],"technologyMixMw":{"hydro":1860.0},"unitCount":1,"unitIds":["gem-unit-G100000602374"]},"type":"Feature"},{"geometry":{"coordinates":[73.3255,41.7761],"type":"Point"},"id":"wattlas-plant-gemplant-l100000602346","properties":{"aliases":["Kambarata-2 hydroelectric plant"],"canonicalAnchor":"gemplant:L100000602346","canonicalCountryKey":"KG","capacityMw":360.0,"country":"KG","externalIdAliases":{"gemUnit":["G100000602376","G100000604493"]},"externalIds":{"gemPlant":"L100000602346","gemUnit":"G100000604493"},"gemWikiUrl":"https://www.gem.wiki/Kambarata-2_hydroelectric_plant","geographyId":"KG-38789647B85532999857943","id":"wattlas-plant-gemplant-l100000602346","lifecycleCounts":{"announced":1,"operational":1},"locationPrecision":"exact","name":"Kambarata-2 hydroelectric plant","operatingCapacityCoverage":{"coveragePercent":100.0,"knownUnitCount":1,"method":"complete_unit_sum","provenance":{"evidenceCount":0,"recordIds":["wattlas-record-gemunit-g100000602376"],"sourceIds":["gem-global-integrated-power-tracker"],"sourceTypes":["research_verified"],"valueKind":"reported"},"totalUnitCount":1},"operatingCapacityMw":120.0,"operatingCapacityMwByTechnology":{"hydro":120.0},"plannedCapacityCoverage":{"coveragePercent":100.0,"knownUnitCount":1,"method":"complete_unit_sum","provenance":{"evidenceCount":0,"recordIds":["wattlas-record-gemunit-g100000604493"],"sourceIds":["gem-global-integrated-power-tracker"],"sourceTypes":["research_verified"],"valueKind":"reported"},"totalUnitCount":1},"plannedCapacityMw":240.0,"plannedCapacityMwByTechnology":{"hydro":240.0},"recordCount":2,"recordIds":["wattlas-record-gemunit-g100000602376","wattlas-record-gemunit-g100000604493"],"sourceIds":["gem-global-integrated-power-tracker"],"sourceUrl":"https://www.gem.wiki/Kambarata-2_hydroelectric_plant","technologies":["hydro"],"technologyMixMw":{"hydro":360.0},"unitCount":2,"unitIds":["gem-unit-G100000602376","gem-unit-G100000604493"]},"type":"Feature"},{"geometry":{"coordinates":[74.2228,41.3765],"type":"Point"},"id":"wattlas-plant-gemplant-l100000602347","properties":{"aliases":["Karabulun-1 hydroelectric plant"],"canonicalAnchor":"gemplant:L100000602347","canonicalCountryKey":"KG","capacityMw":149.0,"country":"KG","externalIds":{"gemPlant":"L100000602347","gemUnit":"G100000602377"},"gemWikiUrl":"https://www.gem.wiki/Karabulun-1_hydroelectric_plant","geographyId":"KG-38789647B68189783551847","id":"wattlas-plant-gemplant-l100000602347","lifecycleCounts":{"announced":1},"locationPrecision":"exact","name":"Karabulun-1 hydroelectric plant","operatingCapacityCoverage":{"coveragePercent":0.0,"knownUnitCount":0,"method":"unavailable","totalUnitCount":0},"operatingCapacityMw":0.0,"operatingCapacityMwByTechnology":{},"plannedCapacityCoverage":{"coveragePercent":100.0,"knownUnitCount":1,"method":"complete_unit_sum","provenance":{"evidenceCount":0,"recordIds":["wattlas-record-gemunit-g100000602377"],"sourceIds":["gem-global-integrated-power-tracker"],"sourceTypes":["research_verified"],"valueKind":"reported"},"totalUnitCount":1},"plannedCapacityMw":149.0,"plannedCapacityMwByTechnology":{"hydro":149.0},"recordCount":1,"recordIds":["wattlas-record-gemunit-g100000602377"],"sourceIds":["gem-global-integrated-power-tracker"],"sourceUrl":"https://www.gem.wiki/Karabulun-1_hydroelectric_plant","technologies":["hydro"],"technologyMixMw":{"hydro":149.0},"unitCount":1,"unitIds":["gem-unit-G100000602377"]},"type":"Feature"},{"geometry":{"coordinates":[73.9465,41.4743],"type":"Point"},"id":"wattlas-plant-gemplant-l100000602348","properties":{"aliases":["Karabulun-2 hydroelectric plant"],"canonicalAnchor":"gemplant:L100000602348","canonicalCountryKey":"KG","capacityMw":163.0,"country":"KG","externalIds":{"gemPlant":"L100000602348","gemUnit":"G100000602378"},"gemWikiUrl":"https://www.gem.wiki/Karabulun-2_hydroelectric_plant","geographyId":"KG-38789647B68189783551847","id":"wattlas-plant-gemplant-l100000602348","lifecycleCounts":{"announced":1},"locationPrecision":"exact","name":"Karabulun-2 hydroelectric plant","operatingCapacityCoverage":{"coveragePercent":0.0,"knownUnitCount":0,"method":"unavailable","totalUnitCount":0},"operatingCapacityMw":0.0,"operatingCapacityMwByTechnology":{},"plannedCapacityCoverage":{"coveragePercent":100.0,"knownUnitCount":1,"method":"complete_unit_sum","provenance":{"evidenceCount":0,"recordIds":["wattlas-record-gemunit-g100000602378"],"sourceIds":["gem-global-integrated-power-tracker"],"sourceTypes":["research_verified"],"valueKind":"reported"},"totalUnitCount":1},"plannedCapacityMw":163.0,"plannedCapacityMwByTechnology":{"hydro":163.0},"recordCount":1,"recordIds":["wattlas-record-gemunit-g100000602378"],"sourceIds":["gem-global-integrated-power-tracker"],"sourceUrl":"https://www.gem.wiki/Karabulun-2_hydroelectric_plant","technologies":["hydro"],"technologyMixMw":{"hydro":163.0},"unitCount":1,"unitIds":["gem-unit-G100000602378"]},"type":"Feature"},{"geometry":{"coordinates":[74.164,41.9788],"type":"Point"},"id":"wattlas-plant-gemplant-l100000602349","properties":{"aliases":["Kokemeren-1 hydroelectric plant"],"canonicalAnchor":"gemplant:L100000602349","canonicalCountryKey":"KG","capacityMw":360.0,"country":"KG","externalIds":{"gemPlant":"L100000602349","gemUnit":"G100000602379"},"gemWikiUrl":"https://www.gem.wiki/Kokemeren-1_hydroelectric_plant","geographyId":"KG-38789647B49701521312730","id":"wattlas-plant-gemplant-l100000602349","lifecycleCounts":{"announced":1},"locationPrecision":"exact","name":"Kokemeren-1 hydroelectric plant","operatingCapacityCoverage":{"coveragePercent":0.0,"knownUnitCount":0,"method":"unavailable","totalUnitCount":0},"operatingCapacityMw":0.0,"operatingCapacityMwByTechnology":{},"plannedCapacityCoverage":{"coveragePercent":100.0,"knownUnitCount":1,"method":"complete_unit_sum","provenance":{"evidenceCount":0,"recordIds":["wattlas-record-gemunit-g100000602379"],"sourceIds":["gem-global-integrated-power-tracker"],"sourceTypes":["research_verified"],"valueKind":"reported"},"totalUnitCount":1},"plannedCapacityMw":360.0,"plannedCapacityMwByTechnology":{"hydro":360.0},"recordCount":1,"recordIds":["wattlas-record-gemunit-g100000602379"],"sourceIds":["gem-global-integrated-power-tracker"],"sourceUrl":"https://www.gem.wiki/Kokemeren-1_hydroelectric_plant","technologies":["hydro"],"technologyMixMw":{"hydro":360.0},"unitCount":1,"unitIds":["gem-unit-G100000602379"]},"type":"Feature"},{"geometry":{"coordinates":[74.1743,41.9245],"type":"Point"},"id":"wattlas-plant-gemplant-l100000602350","properties":{"aliases":["Kokemeren-2 hydroelectric plant"],"canonicalAnchor":"gemplant:L100000602350","canonicalCountryKey":"KG","capacityMw":912.0,"country":"KG","externalIds":{"gemPlant":"L100000602350","gemUnit":"G100000602380"},"gemWikiUrl":"https://www.gem.wiki/Kokemeren-2_hydroelectric_plant","geographyId":"KG-38789647B49701521312730","id":"wattlas-plant-gemplant-l100000602350","lifecycleCounts":{"announced":1},"locationPrecision":"exact","name":"Kokemeren-2 hydroelectric plant","operatingCapacityCoverage":{"coveragePercent":0.0,"knownUnitCount":0,"method":"unavailable","totalUnitCount":0},"operatingCapacityMw":0.0,"operatingCapacityMwByTechnology":{},"plannedCapacityCoverage":{"coveragePercent":100.0,"knownUnitCount":1,"method":"complete_unit_sum","provenance":{"evidenceCount":0,"recordIds":["wattlas-record-gemunit-g100000602380"],"sourceIds":["gem-global-integrated-power-tracker"],"sourceTypes":["research_verified"],"valueKind":"reported"},"totalUnitCount":1},"plannedCapacityMw":912.0,"plannedCapacityMwByTechnology":{"hydro":912.0},"recordCount":1,"recordIds":["wattlas-record-gemunit-g100000602380"],"sourceIds":["gem-global-integrated-power-tracker"],"sourceUrl":"https://www.gem.wiki/Kokemeren-2_hydroelectric_plant","technologies":["hydro"],"technologyMixMw":{"hydro":912.0},"unitCount":1,"unitIds":["gem-unit-G100000602380"]},"type":"Feature"},{"geometry":{"coordinates":[72.3642,41.4988],"type":"Point"},"id":"wattlas-plant-gemplant-l100000602351","properties":{"aliases":["Kurpsai hydroelectric plant"],"canonicalAnchor":"gemplant:L100000602351","canonicalCountryKey":"KG","capacityMw":800.0,"country":"KG","externalIds":{"gemPlant":"L100000602351","gemUnit":"G100000602381"},"gemWikiUrl":"https://www.gem.wiki/Kurpsai_hydroelectric_plant","geographyId":"KG-38789647B85532999857943","id":"wattlas-plant-gemplant-l100000602351","lifecycleCounts":{"operational":1},"locationPrecision":"exact","name":"Kurpsai hydroelectric plant","operatingCapacityCoverage":{"coveragePercent":100.0,"knownUnitCount":1,"method":"complete_unit_sum","provenance":{"evidenceCount":0,"recordIds":["wattlas-record-gemunit-g100000602381"],"sourceIds":["gem-global-integrated-power-tracker"],"sourceTypes":["research_verified"],"valueKind":"reported"},"totalUnitCount":1},"operatingCapacityMw":800.0,"operatingCapacityMwByTechnology":{"hydro":800.0},"plannedCapacityCoverage":{"coveragePercent":0.0,"knownUnitCount":0,"method":"unavailable","totalUnitCount":0},"plannedCapacityMw":0.0,"plannedCapacityMwByTechnology":{},"recordCount":1,"recordIds":["wattlas-record-gemunit-g100000602381"],"sourceIds":["gem-global-integrated-power-tracker"],"sourceUrl":"https://www.gem.wiki/Kurpsai_hydroelectric_plant","technologies":["hydro"],"technologyMixMw":{"hydro":800.0},"unitCount":1,"unitIds":["gem-unit-G100000602381"]},"type":"Feature"},{"geometry":{"coordinates":[70.4388,41.6523],"type":"Point"},"id":"wattlas-plant-gemplant-l100000602352","properties":{"aliases":["Kyrgyzstan Lower Chatkal hydroelectric plant"],"canonicalAnchor":"gemplant:L100000602352","canonicalCountryKey":"KG","capacityMw":1100.0,"country":"KG","externalIds":{"gemPlant":"L100000602352","gemUnit":"G100000604569"},"gemWikiUrl":"https://www.gem.wiki/Kyrgyzstan_Lower_Chatkal_hydroelectric_plant","geographyId":"KG-38789647B85532999857943","id":"wattlas-plant-gemplant-l100000602352","lifecycleCounts":{"announced":1},"locationPrecision":"exact","name":"Kyrgyzstan Lower Chatkal hydroelectric plant","operatingCapacityCoverage":{"coveragePercent":0.0,"knownUnitCount":0,"method":"unavailable","totalUnitCount":0},"operatingCapacityMw":0.0,"operatingCapacityMwByTechnology":{},"plannedCapacityCoverage":{"coveragePercent":100.0,"knownUnitCount":1,"method":"complete_unit_sum","provenance":{"evidenceCount":0,"recordIds":["wattlas-record-gemunit-g100000604569"],"sourceIds":["gem-global-integrated-power-tracker"],"sourceTypes":["research_verified"],"valueKind":"reported"},"totalUnitCount":1},"plannedCapacityMw":1100.0,"plannedCapacityMwByTechnology":{"hydro":1100.0},"recordCount":1,"recordIds":["wattlas-record-gemunit-g100000604569"],"sourceIds":["gem-global-integrated-power-tracker"],"sourceUrl":"https://www.gem.wiki/Kyrgyzstan_Lower_Chatkal_hydroelectric_plant","technologies":["hydro"],"technologyMixMw":{"hydro":1100.0},"unitCount":1,"unitIds":["gem-unit-G100000604569"]},"type":"Feature"},{"geometry":{"coordinates":[74.2873,41.0704],"type":"Point"},"id":"wattlas-plant-gemplant-l100000602353","properties":{"aliases":["Makmal hydroelectric plant"],"canonicalAnchor":"gemplant:L100000602353","canonicalCountryKey":"KG","capacityMw":112.0,"country":"KG","externalIds":{"gemPlant":"L100000602353","gemUnit":"G100000602383"},"gemWikiUrl":"https://www.gem.wiki/Makmal_hydroelectric_plant","geographyId":"KG-38789647B68189783551847","id":"wattlas-plant-gemplant-l100000602353","lifecycleCounts":{"announced":1},"locationPrecision":"exact","name":"Makmal hydroelectric plant","operatingCapacityCoverage":{"coveragePercent":0.0,"knownUnitCount":0,"method":"unavailable","totalUnitCount":0},"operatingCapacityMw":0.0,"operatingCapacityMwByTechnology":{},"plannedCapacityCoverage":{"coveragePercent":100.0,"knownUnitCount":1,"method":"complete_unit_sum","provenance":{"evidenceCount":0,"recordIds":["wattlas-record-gemunit-g100000602383"],"sourceIds":["gem-global-integrated-power-tracker"],"sourceTypes":["research_verified"],"valueKind":"reported"},"totalUnitCount":1},"plannedCapacityMw":112.0,"plannedCapacityMwByTechnology":{"hydro":112.0},"recordCount":1,"recordIds":["wattlas-record-gemunit-g100000602383"],"sourceIds":["gem-global-integrated-power-tracker"],"sourceUrl":"https://www.gem.wiki/Makmal_hydroelectric_plant","technologies":["hydro"],"technologyMixMw":{"hydro":112.0},"unitCount":1,"unitIds":["gem-unit-G100000602383"]},"type":"Feature"},{"geometry":{"coordinates":[74.4962,41.2483],"type":"Point"},"id":"wattlas-plant-gemplant-l100000602354","properties":{"aliases":["Saz hydroelectric plant"],"canonicalAnchor":"gemplant:L100000602354","canonicalCountryKey":"KG","capacityMw":0.0,"country":"KG","externalIds":{"gemPlant":"L100000602354","gemUnit":"G100000602384"},"gemWikiUrl":"https://www.gem.wiki/Saz_hydroelectric_plant","geographyId":"KG-38789647B68189783551847","id":"wattlas-plant-gemplant-l100000602354","lifecycleCounts":{"paused":1},"locationPrecision":"exact","name":"Saz hydroelectric plant","operatingCapacityCoverage":{"coveragePercent":0.0,"knownUnitCount":0,"method":"unavailable","totalUnitCount":0},"operatingCapacityMw":0.0,"operatingCapacityMwByTechnology":{},"plannedCapacityCoverage":{"coveragePercent":0.0,"knownUnitCount":0,"method":"unavailable","totalUnitCount":0},"plannedCapacityMw":0.0,"plannedCapacityMwByTechnology":{},"recordCount":1,"recordIds":["wattlas-record-gemunit-g100000602384"],"sourceIds":["gem-global-integrated-power-tracker"],"sourceUrl":"https://www.gem.wiki/Saz_hydroelectric_plant","technologies":["hydro"],"technologyMixMw":{"hydro":0.0},"unitCount":1,"unitIds":["gem-unit-G100000602384"]},"type":"Feature"},{"geometry":{"coordinates":[72.1923,41.3121],"type":"Point"},"id":"wattlas-plant-gemplant-l100000602355","properties":{"aliases":["Shamaldy-Sai hydroelectric plant"],"canonicalAnchor":"gemplant:L100000602355","canonicalCountryKey":"KG","capacityMw":240.0,"country":"KG","externalIds":{"gemPlant":"L100000602355","gemUnit":"G100000602385"},"gemWikiUrl":"https://www.gem.wiki/Shamaldy-Sai_hydroelectric_plant","geographyId":"KG-38789647B85532999857943","id":"wattlas-plant-gemplant-l100000602355","lifecycleCounts":{"operational":1},"locationPrecision":"exact","name":"Shamaldy-Sai hydroelectric plant","operatingCapacityCoverage":{"coveragePercent":100.0,"knownUnitCount":1,"method":"complete_unit_sum","provenance":{"evidenceCount":0,"recordIds":["wattlas-record-gemunit-g100000602385"],"sourceIds":["gem-global-integrated-power-tracker"],"sourceTypes":["research_verified"],"valueKind":"reported"},"totalUnitCount":1},"operatingCapacityMw":240.0,"operatingCapacityMwByTechnology":{"hydro":240.0},"plannedCapacityCoverage":{"coveragePercent":0.0,"knownUnitCount":0,"method":"unavailable","totalUnitCount":0},"plannedCapacityMw":0.0,"plannedCapacityMwByTechnology":{},"recordCount":1,"recordIds":["wattlas-record-gemunit-g100000602385"],"sourceIds":["gem-global-integrated-power-tracker"],"sourceUrl":"https://www.gem.wiki/Shamaldy-Sai_hydroelectric_plant","technologies":["hydro"],"technologyMixMw":{"hydro":240.0},"unitCount":1,"unitIds":["gem-unit-G100000602385"]},"type":"Feature"},{"geometry":{"coordinates":[72.2319,41.4027],"type":"Point"},"id":"wattlas-plant-gemplant-l100000602356","properties":{"aliases":["Tash-Kumyr hydroelectric plant"],"canonicalAnchor":"gemplant:L100000602356","canonicalCountryKey":"KG","capacityMw":450.0,"country":"KG","externalIds":{"gemPlant":"L100000602356","gemUnit":"G100000602386"},"gemWikiUrl":"https://www.gem.wiki/Tash-Kumyr_hydroelectric_plant","geographyId":"KG-38789647B85532999857943","id":"wattlas-plant-gemplant-l100000602356","lifecycleCounts":{"operational":1},"locationPrecision":"exact","name":"Tash-Kumyr hydroelectric plant","operatingCapacityCoverage":{"coveragePercent":100.0,"knownUnitCount":1,"method":"complete_unit_sum","provenance":{"evidenceCount":0,"recordIds":["wattlas-record-gemunit-g100000602386"],"sourceIds":["gem-global-integrated-power-tracker"],"sourceTypes":["research_verified"],"valueKind":"reported"},"totalUnitCount":1},"operatingCapacityMw":450.0,"operatingCapacityMwByTechnology":{"hydro":450.0},"plannedCapacityCoverage":{"coveragePercent":0.0,"knownUnitCount":0,"method":"unavailable","totalUnitCount":0},"plannedCapacityMw":0.0,"plannedCapacityMwByTechnology":{},"recordCount":1,"recordIds":["wattlas-record-gemunit-g100000602386"],"sourceIds":["gem-global-integrated-power-tracker"],"sourceUrl":"https://www.gem.wiki/Tash-Kumyr_hydroelectric_plant","technologies":["hydro"],"technologyMixMw":{"hydro":450.0},"unitCount":1,"unitIds":["gem-unit-G100000602386"]},"type":"Feature"},{"geometry":{"coordinates":[73.9358,41.5368],"type":"Point"},"id":"wattlas-plant-gemplant-l100000602357","properties":{"aliases":["Toguztorouz hydroelectric plant"],"canonicalAnchor":"gemplant:L100000602357","canonicalCountryKey":"KG","capacityMw":248.0,"country":"KG","externalIds":{"gemPlant":"L100000602357","gemUnit":"G100000602387"},"gemWikiUrl":"https://www.gem.wiki/Toguztorouz_hydroelectric_plant","geographyId":"KG-38789647B68189783551847","id":"wattlas-plant-gemplant-l100000602357","lifecycleCounts":{"announced":1},"locationPrecision":"exact","name":"Toguztorouz hydroelectric plant","operatingCapacityCoverage":{"coveragePercent":0.0,"knownUnitCount":0,"method":"unavailable","totalUnitCount":0},"operatingCapacityMw":0.0,"operatingCapacityMwByTechnology":{},"plannedCapacityCoverage":{"coveragePercent":100.0,"knownUnitCount":1,"method":"complete_unit_sum","provenance":{"evidenceCount":0,"recordIds":["wattlas-record-gemunit-g100000602387"],"sourceIds":["gem-global-integrated-power-tracker"],"sourceTypes":["research_verified"],"valueKind":"reported"},"totalUnitCount":1},"plannedCapacityMw":248.0,"plannedCapacityMwByTechnology":{"hydro":248.0},"recordCount":1,"recordIds":["wattlas-record-gemunit-g100000602387"],"sourceIds":["gem-global-integrated-power-tracker"],"sourceUrl":"https://www.gem.wiki/Toguztorouz_hydroelectric_plant","technologies":["hydro"],"technologyMixMw":{"hydro":248.0},"unitCount":1,"unitIds":["gem-unit-G100000602387"]},"type":"Feature"},{"geometry":{"coordinates":[72.6358,41.6571],"type":"Point"},"id":"wattlas-plant-gemplant-l100000602358","properties":{"aliases":["Toktogul hydroelectric plant"],"canonicalAnchor":"gemplant:L100000602358","canonicalCountryKey":"KG","capacityMw":1320.0,"country":"KG","externalIds":{"gemPlant":"L100000602358","gemUnit":"G100000602388"},"gemWikiUrl":"https://www.gem.wiki/Toktogul_hydroelectric_plant","geographyId":"KG-38789647B85532999857943","id":"wattlas-plant-gemplant-l100000602358","lifecycleCounts":{"operational":1},"locationPrecision":"exact","name":"Toktogul hydroelectric plant","operatingCapacityCoverage":{"coveragePercent":100.0,"knownUnitCount":1,"method":"complete_unit_sum","provenance":{"evidenceCount":0,"recordIds":["wattlas-record-gemunit-g100000602388"],"sourceIds":["gem-global-integrated-power-tracker"],"sourceTypes":["research_verified"],"valueKind":"reported"},"totalUnitCount":1},"operatingCapacityMw":1320.0,"operatingCapacityMwByTechnology":{"hydro":1320.0},"plannedCapacityCoverage":{"coveragePercent":0.0,"knownUnitCount":0,"method":"unavailable","totalUnitCount":0},"plannedCapacityMw":0.0,"plannedCapacityMwByTechnology":{},"recordCount":1,"recordIds":["wattlas-record-gemunit-g100000602388"],"sourceIds":["gem-global-integrated-power-tracker"],"sourceUrl":"https://www.gem.wiki/Toktogul_hydroelectric_plant","technologies":["hydro"],"technologyMixMw":{"hydro":1320.0},"unitCount":1,"unitIds":["gem-unit-G100000602388"]},"type":"Feature"},{"geometry":{"coordinates":[72.1607,41.188],"type":"Point"},"id":"wattlas-plant-gemplant-l100000602359","properties":{"aliases":["Uch-Kurgan hydroelectric plant"],"canonicalAnchor":"gemplant:L100000602359","canonicalCountryKey":"KG","capacityMw":180.0,"country":"KG","externalIds":{"gemPlant":"L100000602359","gemUnit":"G100000602389"},"gemWikiUrl":"https://www.gem.wiki/Uch-Kurgan_hydroelectric_plant","geographyId":"KG-38789647B85532999857943","id":"wattlas-plant-gemplant-l100000602359","lifecycleCounts":{"operational":1},"locationPrecision":"exact","name":"Uch-Kurgan hydroelectric plant","operatingCapacityCoverage":{"coveragePercent":100.0,"knownUnitCount":1,"method":"complete_unit_sum","provenance":{"evidenceCount":0,"recordIds":["wattlas-record-gemunit-g100000602389"],"sourceIds":["gem-global-integrated-power-tracker"],"sourceTypes":["research_verified"],"valueKind":"reported"},"totalUnitCount":1},"operatingCapacityMw":180.0,"operatingCapacityMwByTechnology":{"hydro":180.0},"plannedCapacityCoverage":{"coveragePercent":0.0,"knownUnitCount":0,"method":"unavailable","totalUnitCount":0},"plannedCapacityMw":0.0,"plannedCapacityMwByTechnology":{},"recordCount":1,"recordIds":["wattlas-record-gemunit-g100000602389"],"sourceIds":["gem-global-integrated-power-tracker"],"sourceUrl":"https://www.gem.wiki/Uch-Kurgan_hydroelectric_plant","technologies":["hydro"],"technologyMixMw":{"hydro":180.0},"unitCount":1,"unitIds":["gem-unit-G100000602389"]},"type":"Feature"},{"geometry":{"coordinates":[73.0626,40.7702],"type":"Point"},"id":"wattlas-plant-gemplant-l100000603973","properties":{"aliases":["Andijan-1 hydroelectric plant"],"canonicalAnchor":"gemplant:L100000603973","canonicalCountryKey":"KG","capacityMw":140.0,"country":"KG","externalIds":{"gemPlant":"L100000603973","gemUnit":"G100000604011"},"gemWikiUrl":"https://www.gem.wiki/Andijan-1_hydroelectric_plant","geographyId":"KG-38789647B74878035894071","id":"wattlas-plant-gemplant-l100000603973","lifecycleCounts":{"operational":1},"locationPrecision":"exact","name":"Andijan-1 hydroelectric plant","operatingCapacityCoverage":{"coveragePercent":100.0,"knownUnitCount":1,"method":"complete_unit_sum","provenance":{"evidenceCount":0,"recordIds":["wattlas-record-gemunit-g100000604011"],"sourceIds":["gem-global-integrated-power-tracker"],"sourceTypes":["research_verified"],"valueKind":"reported"},"totalUnitCount":1},"operatingCapacityMw":140.0,"operatingCapacityMwByTechnology":{"hydro":140.0},"plannedCapacityCoverage":{"coveragePercent":0.0,"knownUnitCount":0,"method":"unavailable","totalUnitCount":0},"plannedCapacityMw":0.0,"plannedCapacityMwByTechnology":{},"recordCount":1,"recordIds":["wattlas-record-gemunit-g100000604011"],"sourceIds":["gem-global-integrated-power-tracker"],"sourceUrl":"https://www.gem.wiki/Andijan-1_hydroelectric_plant","technologies":["hydro"],"technologyMixMw":{"hydro":140.0},"unitCount":1,"unitIds":["gem-unit-G100000604011"]},"type":"Feature"},{"geometry":{"coordinates":[74.501024,42.828768],"type":"Point"},"id":"wattlas-plant-gemplant-l100001004358","properties":{"aliases":["Bishkek 2 power station","Unit 1"],"canonicalAnchor":"gemplant:L100001004358","canonicalCountryKey":"KG","capacityMw":271.0,"country":"KG","externalIds":{"gemPlant":"L100001004358","gemUnit":"G100001005096"},"gemWikiUrl":"https://www.gem.wiki/Bishkek_2_power_station","geographyId":"KG-38789647B49701521312730","id":"wattlas-plant-gemplant-l100001004358","lifecycleCounts":{"under_construction":1},"locationPrecision":"exact","name":"Bishkek 2 power station","operatingCapacityCoverage":{"coveragePercent":0.0,"knownUnitCount":0,"method":"unavailable","totalUnitCount":0},"operatingCapacityMw":0.0,"operatingCapacityMwByTechnology":{},"plannedCapacityCoverage":{"coveragePercent":100.0,"knownUnitCount":1,"method":"complete_unit_sum","provenance":{"evidenceCount":0,"recordIds":["wattlas-record-gemunit-g100001005096"],"sourceIds":["gem-global-integrated-power-tracker"],"sourceTypes":["research_verified"],"valueKind":"reported"},"totalUnitCount":1},"plannedCapacityMw":271.0,"plannedCapacityMwByTechnology":{"gas":271.0},"recordCount":1,"recordIds":["wattlas-record-gemunit-g100001005096"],"sourceIds":["gem-global-integrated-power-tracker"],"sourceUrl":"https://www.gem.wiki/Bishkek_2_power_station","technologies":["gas"],"technologyMixMw":{"gas":271.0},"unitCount":1,"unitIds":["gem-unit-G100001005096"]},"type":"Feature"},{"geometry":{"coordinates":[71.5997,42.6646],"type":"Point"},"id":"wattlas-plant-gemplant-l100001045886","properties":{"aliases":["Bala-Saruu hydroelectric plant"],"canonicalAnchor":"gemplant:L100001045886","canonicalCountryKey":"KG","capacityMw":25.0,"country":"KG","externalIds":{"gemPlant":"L100001045886","gemUnit":"G100001051725"},"gemWikiUrl":"https://www.gem.wiki/Bala-Saruu_hydroelectric_plant","geographyId":"KG-38789647B46237219042962","id":"wattlas-plant-gemplant-l100001045886","lifecycleCounts":{"operational":1},"locationPrecision":"exact","name":"Bala-Saruu hydroelectric plant","operatingCapacityCoverage":{"coveragePercent":100.0,"knownUnitCount":1,"method":"complete_unit_sum","provenance":{"evidenceCount":0,"recordIds":["wattlas-record-gemunit-g100001051725"],"sourceIds":["gem-global-integrated-power-tracker"],"sourceTypes":["research_verified"],"valueKind":"reported"},"totalUnitCount":1},"operatingCapacityMw":25.0,"operatingCapacityMwByTechnology":{"hydro":25.0},"plannedCapacityCoverage":{"coveragePercent":0.0,"knownUnitCount":0,"method":"unavailable","totalUnitCount":0},"plannedCapacityMw":0.0,"plannedCapacityMwByTechnology":{},"recordCount":1,"recordIds":["wattlas-record-gemunit-g100001051725"],"sourceIds":["gem-global-integrated-power-tracker"],"sourceUrl":"https://www.gem.wiki/Bala-Saruu_hydroelectric_plant","technologies":["hydro"],"technologyMixMw":{"hydro":25.0},"unitCount":1,"unitIds":["gem-unit-G100001051725"]},"type":"Feature"},{"geometry":{"coordinates":[73.0625,40.7688],"type":"Point"},"id":"wattlas-plant-gemplant-l100001045931","properties":{"aliases":["Andijan hydroelectric plant"],"canonicalAnchor":"gemplant:L100001045931","canonicalCountryKey":"KG","capacityMw":50.0,"country":"KG","externalIds":{"gemPlant":"L100001045931","gemUnit":"G100001051780"},"gemWikiUrl":"https://www.gem.wiki/Andijan_hydroelectric_plant","geographyId":"KG-38789647B74878035894071","id":"wattlas-plant-gemplant-l100001045931","lifecycleCounts":{"operational":1},"locationPrecision":"exact","name":"Andijan hydroelectric plant","operatingCapacityCoverage":{"coveragePercent":100.0,"knownUnitCount":1,"method":"complete_unit_sum","provenance":{"evidenceCount":0,"recordIds":["wattlas-record-gemunit-g100001051780"],"sourceIds":["gem-global-integrated-power-tracker"],"sourceTypes":["research_verified"],"valueKind":"reported"},"totalUnitCount":1},"operatingCapacityMw":50.0,"operatingCapacityMwByTechnology":{"hydro":50.0},"plannedCapacityCoverage":{"coveragePercent":0.0,"knownUnitCount":0,"method":"unavailable","totalUnitCount":0},"plannedCapacityMw":0.0,"plannedCapacityMwByTechnology":{},"recordCount":1,"recordIds":["wattlas-record-gemunit-g100001051780"],"sourceIds":["gem-global-integrated-power-tracker"],"sourceUrl":"https://www.gem.wiki/Andijan_hydroelectric_plant","technologies":["hydro"],"technologyMixMw":{"hydro":50.0},"unitCount":1,"unitIds":["gem-unit-G100001051780"]},"type":"Feature"},{"geometry":{"coordinates":[73.29341,40.78706],"type":"Point"},"id":"wattlas-plant-gemplant-l100001047469","properties":{"aliases":["1.0","Brentwood power station"],"canonicalAnchor":"gemplant:L100001047469","canonicalCountryKey":"KG","capacityMw":47.0,"country":"KG","externalIds":{"gemPlant":"L100001047469","gemUnit":"G100001054037"},"gemWikiUrl":"https://www.gem.wiki/Brentwood_power_station","geographyId":"KG-38789647B74878035894071","id":"wattlas-plant-gemplant-l100001047469","lifecycleCounts":{"operational":1},"locationPrecision":"exact","name":"Brentwood power station","operatingCapacityCoverage":{"coveragePercent":100.0,"knownUnitCount":1,"method":"complete_unit_sum","provenance":{"evidenceCount":0,"recordIds":["wattlas-record-gemunit-g100001054037"],"sourceIds":["gem-global-integrated-power-tracker"],"sourceTypes":["research_verified"],"valueKind":"reported"},"totalUnitCount":1},"operatingCapacityMw":47.0,"operatingCapacityMwByTechnology":{"gas":47.0},"plannedCapacityCoverage":{"coveragePercent":0.0,"knownUnitCount":0,"method":"unavailable","totalUnitCount":0},"plannedCapacityMw":0.0,"plannedCapacityMwByTechnology":{},"recordCount":1,"recordIds":["wattlas-record-gemunit-g100001054037"],"sourceIds":["gem-global-integrated-power-tracker"],"sourceUrl":"https://www.gem.wiki/Brentwood_power_station","technologies":["gas"],"technologyMixMw":{"gas":47.0},"unitCount":1,"unitIds":["gem-unit-G100001054037"]},"type":"Feature"},{"geometry":{"coordinates":[75.803,41.163],"type":"Point"},"id":"wattlas-plant-gemplant-l100001054759","properties":{"aliases":["At Bashy hydroelectric plant"],"canonicalAnchor":"gemplant:L100001054759","canonicalCountryKey":"KG","capacityMw":44.0,"country":"KG","externalIds":{"gemPlant":"L100001054759","gemUnit":"G100001062651"},"gemWikiUrl":"https://www.gem.wiki/At_Bashy_hydroelectric_plant","geographyId":"KG-38789647B68189783551847","id":"wattlas-plant-gemplant-l100001054759","lifecycleCounts":{"operational":1},"locationPrecision":"exact","name":"At Bashy hydroelectric plant","operatingCapacityCoverage":{"coveragePercent":100.0,"knownUnitCount":1,"method":"complete_unit_sum","provenance":{"evidenceCount":0,"recordIds":["wattlas-record-gemunit-g100001062651"],"sourceIds":["gem-global-integrated-power-tracker"],"sourceTypes":["research_verified"],"valueKind":"reported"},"totalUnitCount":1},"operatingCapacityMw":44.0,"operatingCapacityMwByTechnology":{"hydro":44.0},"plannedCapacityCoverage":{"coveragePercent":0.0,"knownUnitCount":0,"method":"unavailable","totalUnitCount":0},"plannedCapacityMw":0.0,"plannedCapacityMwByTechnology":{},"recordCount":1,"recordIds":["wattlas-record-gemunit-g100001062651"],"sourceIds":["gem-global-integrated-power-tracker"],"sourceUrl":"https://www.gem.wiki/At_Bashy_hydroelectric_plant","technologies":["hydro"],"technologyMixMw":{"hydro":44.0},"unitCount":1,"unitIds":["gem-unit-G100001062651"]},"type":"Feature"},{"geometry":{"coordinates":[73.441347,41.770902],"type":"Point"},"id":"wattlas-plant-osm-node-2632730997","properties":{"aliases":["Камбаратинская ГЭС-1"],"canonicalAnchor":"osm:node/2632730997","canonicalCountryKey":"KG","capacityMw":0.0,"country":"KG","externalIds":{"osm":"node/2632730997"},"geographyId":"KG-38789647B85532999857943","id":"wattlas-plant-osm-node-2632730997","lifecycleCounts":{"announced":1},"locationPrecision":"exact","name":"Камбаратинская ГЭС-1","operatingCapacityCoverage":{"coveragePercent":0.0,"knownUnitCount":0,"method":"unavailable","totalUnitCount":0},"operatingCapacityMw":0.0,"operatingCapacityMwByTechnology":{},"plannedCapacityCoverage":{"coveragePercent":0.0,"knownUnitCount":0,"method":"unavailable","totalUnitCount":0},"plannedCapacityMw":0.0,"plannedCapacityMwByTechnology":{},"recordCount":1,"recordIds":["wattlas-record-osm-node-2632730997"],"sourceIds":["openstreetmap-power"],"sourceUrl":"https://www.openstreetmap.org/node/2632730997","technologies":["other"],"technologyMixMw":{"other":0.0},"unitCount":0,"unitIds":[]},"type":"Feature"},{"geometry":{"coordinates":[73.061892,40.769329],"type":"Point"},"id":"wattlas-plant-osm-way-1161599341","properties":{"aliases":["Андижанская ГЭС"],"canonicalAnchor":"osm:way/1161599341","canonicalCountryKey":"KG","capacityMw":0.0,"country":"KG","externalIds":{"osm":"way/1161599341"},"geographyId":"KG-38789647B74878035894071","id":"wattlas-plant-osm-way-1161599341","lifecycleCounts":{"operational":1},"locationPrecision":"exact","name":"Андижанская ГЭС","operatingCapacityCoverage":{"coveragePercent":0.0,"knownUnitCount":0,"method":"unavailable","totalUnitCount":0},"operatingCapacityMw":0.0,"operatingCapacityMwByTechnology":{},"plannedCapacityCoverage":{"coveragePercent":0.0,"knownUnitCount":0,"method":"unavailable","totalUnitCount":0},"plannedCapacityMw":0.0,"plannedCapacityMwByTechnology":{},"recordCount":1,"recordIds":["wattlas-record-osm-way-1161599341"],"sourceIds":["openstreetmap-power"],"sourceUrl":"https://www.openstreetmap.org/way/1161599341","technologies":["hydro"],"technologyMixMw":{"hydro":0.0},"unitCount":0,"unitIds":[]},"type":"Feature"},{"geometry":{"coordinates":[72.088172,40.016367],"type":"Point"},"id":"wattlas-plant-osm-way-1359386364","properties":{"aliases":["Исфайрам МГЭС"],"canonicalAnchor":"osm:way/1359386364","canonicalCountryKey":"KG","capacityMw":0.0,"country":"KG","externalIds":{"osm":"way/1359386364"},"geographyId":"KG-38789647B43528262636538","id":"wattlas-plant-osm-way-1359386364","lifecycleCounts":{"operational":1},"locationPrecision":"exact","name":"Исфайрам МГЭС","operatingCapacityCoverage":{"coveragePercent":0.0,"knownUnitCount":0,"method":"unavailable","totalUnitCount":0},"operatingCapacityMw":0.0,"operatingCapacityMwByTechnology":{},"plannedCapacityCoverage":{"coveragePercent":0.0,"knownUnitCount":0,"method":"unavailable","totalUnitCount":0},"plannedCapacityMw":0.0,"plannedCapacityMwByTechnology":{},"recordCount":1,"recordIds":["wattlas-record-osm-way-1359386364"],"sourceIds":["openstreetmap-power"],"sourceUrl":"https://www.openstreetmap.org/way/1359386364","technologies":["hydro"],"technologyMixMw":{"hydro":0.0},"unitCount":0,"unitIds":[]},"type":"Feature"},{"geometry":{"coordinates":[74.592164,42.978309],"type":"Point"},"id":"wattlas-plant-osm-way-1395911511","properties":{"aliases":["Мусоросжигательный завод"],"canonicalAnchor":"osm:way/1395911511","canonicalCountryKey":"KG","capacityMw":460.0,"country":"KG","externalIds":{"osm":"way/1395911511"},"geographyId":"KG-38789647B49701521312730","id":"wattlas-plant-osm-way-1395911511","lifecycleCounts":{"operational":1},"locationPrecision":"exact","name":"Мусоросжигательный завод","operatingCapacityCoverage":{"coveragePercent":100.0,"knownUnitCount":0,"method":"plant_aggregate","provenance":{"evidenceCount":0,"recordIds":["wattlas-record-osm-way-1395911511"],"sourceIds":["openstreetmap-power"],"sourceTypes":["community_mapped"],"valueKind":"reported"},"totalUnitCount":0},"operatingCapacityMw":460.0,"operatingCapacityMwByTechnology":{"other":460.0},"plannedCapacityCoverage":{"coveragePercent":0.0,"knownUnitCount":0,"method":"unavailable","totalUnitCount":0},"plannedCapacityMw":0.0,"plannedCapacityMwByTechnology":{},"recordCount":1,"recordIds":["wattlas-record-osm-way-1395911511"],"sourceIds":["openstreetmap-power"],"sourceUrl":"https://www.openstreetmap.org/way/1395911511","technologies":["other"],"technologyMixMw":{"other":460.0},"unitCount":0,"unitIds":[]},"type":"Feature"},{"geometry":{"coordinates":[74.592248,42.978177],"type":"Point"},"id":"wattlas-plant-osm-way-1432258729","properties":{"aliases":["Мусоросжигательный завод"],"canonicalAnchor":"osm:way/1432258729","canonicalCountryKey":"KG","capacityMw":460.0,"country":"KG","externalIds":{"osm":"way/1432258729"},"geographyId":"KG-38789647B49701521312730","id":"wattlas-plant-osm-way-1432258729","lifecycleCounts":{"operational":1},"locationPrecision":"exact","name":"Мусоросжигательный завод","operatingCapacityCoverage":{"coveragePercent":100.0,"knownUnitCount":0,"method":"plant_aggregate","provenance":{"evidenceCount":0,"recordIds":["wattlas-record-osm-way-1432258729"],"sourceIds":["openstreetmap-power"],"sourceTypes":["community_mapped"],"valueKind":"reported"},"totalUnitCount":0},"operatingCapacityMw":460.0,"operatingCapacityMwByTechnology":{"other":460.0},"plannedCapacityCoverage":{"coveragePercent":0.0,"knownUnitCount":0,"method":"unavailable","totalUnitCount":0},"plannedCapacityMw":0.0,"plannedCapacityMwByTechnology":{},"recordCount":1,"recordIds":["wattlas-record-osm-way-1432258729"],"sourceIds":["openstreetmap-power"],"sourceUrl":"https://www.openstreetmap.org/way/1432258729","technologies":["other"],"technologyMixMw":{"other":460.0},"unitCount":0,"unitIds":[]},"type":"Feature"},{"geometry":{"coordinates":[75.852306,42.727876],"type":"Point"},"id":"wattlas-plant-osm-way-1448255940","properties":{"aliases":["СЭС \"Этернал Энергия\""],"canonicalAnchor":"osm:way/1448255940","canonicalCountryKey":"KG","capacityMw":100.0,"country":"KG","externalIds":{"osm":"way/1448255940"},"geographyId":"KG-38789647B49701521312730","id":"wattlas-plant-osm-way-1448255940","lifecycleCounts":{"operational":1},"locationPrecision":"exact","name":"СЭС \"Этернал Энергия\"","operatingCapacityCoverage":{"coveragePercent":100.0,"knownUnitCount":0,"method":"plant_aggregate","provenance":{"evidenceCount":0,"recordIds":["wattlas-record-osm-way-1448255940"],"sourceIds":["openstreetmap-power"],"sourceTypes":["community_mapped"],"valueKind":"reported"},"totalUnitCount":0},"operatingCapacityMw":100.0,"operatingCapacityMwByTechnology":{"solar":100.0},"plannedCapacityCoverage":{"coveragePercent":0.0,"knownUnitCount":0,"method":"unavailable","totalUnitCount":0},"plannedCapacityMw":0.0,"plannedCapacityMwByTechnology":{},"recordCount":1,"recordIds":["wattlas-record-osm-way-1448255940"],"sourceIds":["openstreetmap-power"],"sourceUrl":"https://www.openstreetmap.org/way/1448255940","technologies":["solar"],"technologyMixMw":{"solar":100.0},"unitCount":0,"unitIds":[]},"type":"Feature"},{"geometry":{"coordinates":[76.011571,42.340293],"type":"Point"},"id":"wattlas-plant-osm-way-1470801656","properties":{"aliases":["ГЭС Орто-Токой"],"canonicalAnchor":"osm:way/1470801656","canonicalCountryKey":"KG","capacityMw":21.0,"country":"KG","externalIds":{"osm":"way/1470801656"},"geographyId":"KG-38789647B68189783551847","id":"wattlas-plant-osm-way-1470801656","lifecycleCounts":{"operational":1},"locationPrecision":"exact","name":"ГЭС Орто-Токой","operatingCapacityCoverage":{"coveragePercent":100.0,"knownUnitCount":0,"method":"plant_aggregate","provenance":{"evidenceCount":0,"recordIds":["wattlas-record-osm-way-1470801656"],"sourceIds":["openstreetmap-power"],"sourceTypes":["community_mapped"],"valueKind":"reported"},"totalUnitCount":0},"operatingCapacityMw":21.0,"operatingCapacityMwByTechnology":{"hydro":21.0},"plannedCapacityCoverage":{"coveragePercent":0.0,"knownUnitCount":0,"method":"unavailable","totalUnitCount":0},"plannedCapacityMw":0.0,"plannedCapacityMwByTechnology":{},"recordCount":1,"recordIds":["wattlas-record-osm-way-1470801656"],"sourceIds":["openstreetmap-power"],"sourceUrl":"https://www.openstreetmap.org/way/1470801656","technologies":["hydro"],"technologyMixMw":{"hydro":21.0},"unitCount":0,"unitIds":[]},"type":"Feature"},{"geometry":{"coordinates":[74.003355,42.682525],"type":"Point"},"id":"wattlas-plant-osm-way-1470801657","properties":{"aliases":["Maryam"],"canonicalAnchor":"osm:way/1470801657","canonicalCountryKey":"KG","capacityMw":0.0,"country":"KG","externalIds":{"osm":"way/1470801657"},"geographyId":"KG-38789647B49701521312730","id":"wattlas-plant-osm-way-1470801657","lifecycleCounts":{"operational":1},"locationPrecision":"exact","name":"Maryam","operatingCapacityCoverage":{"coveragePercent":0.0,"knownUnitCount":0,"method":"unavailable","totalUnitCount":0},"operatingCapacityMw":0.0,"operatingCapacityMwByTechnology":{},"plannedCapacityCoverage":{"coveragePercent":0.0,"knownUnitCount":0,"method":"unavailable","totalUnitCount":0},"plannedCapacityMw":0.0,"plannedCapacityMwByTechnology":{},"recordCount":1,"recordIds":["wattlas-record-osm-way-1470801657"],"sourceIds":["openstreetmap-power"],"sourceUrl":"https://www.openstreetmap.org/way/1470801657","technologies":["hydro"],"technologyMixMw":{"hydro":0.0},"unitCount":0,"unitIds":[]},"type":"Feature"},{"geometry":{"coordinates":[75.510519,41.380978],"type":"Point"},"id":"wattlas-plant-osm-way-1473936818","properties":{"aliases":["Qulanaq HPP"],"canonicalAnchor":"osm:way/1473936818","canonicalCountryKey":"KG","capacityMw":100.0,"country":"KG","externalIds":{"osm":"way/1473936818"},"geographyId":"KG-38789647B68189783551847","id":"wattlas-plant-osm-way-1473936818","lifecycleCounts":{"operational":1},"locationPrecision":"exact","name":"Qulanaq HPP","operatingCapacityCoverage":{"coveragePercent":100.0,"knownUnitCount":0,"method":"plant_aggregate","provenance":{"evidenceCount":0,"recordIds":["wattlas-record-osm-way-1473936818"],"sourceIds":["openstreetmap-power"],"sourceTypes":["community_mapped"],"valueKind":"reported"},"totalUnitCount":0},"operatingCapacityMw":100.0,"operatingCapacityMwByTechnology":{"hydro":100.0},"plannedCapacityCoverage":{"coveragePercent":0.0,"knownUnitCount":0,"method":"unavailable","totalUnitCount":0},"plannedCapacityMw":0.0,"plannedCapacityMwByTechnology":{},"recordCount":1,"recordIds":["wattlas-record-osm-way-1473936818"],"sourceIds":["openstreetmap-power"],"sourceUrl":"https://www.openstreetmap.org/way/1473936818","technologies":["hydro"],"technologyMixMw":{"hydro":100.0},"unitCount":0,"unitIds":[]},"type":"Feature"},{"geometry":{"coordinates":[72.224815,41.398877],"type":"Point"},"id":"wattlas-plant-osm-way-1492720141","properties":{"aliases":["СЭС Таш-Көмүр"],"canonicalAnchor":"osm:way/1492720141","canonicalCountryKey":"KG","capacityMw":0.0,"country":"KG","externalIds":{"osm":"way/1492720141"},"geographyId":"KG-38789647B85532999857943","id":"wattlas-plant-osm-way-1492720141","lifecycleCounts":{"operational":1},"locationPrecision":"exact","name":"СЭС Таш-Көмүр","operatingCapacityCoverage":{"coveragePercent":0.0,"knownUnitCount":0,"method":"unavailable","totalUnitCount":0},"operatingCapacityMw":0.0,"operatingCapacityMwByTechnology":{},"plannedCapacityCoverage":{"coveragePercent":0.0,"knownUnitCount":0,"method":"unavailable","totalUnitCount":0},"plannedCapacityMw":0.0,"plannedCapacityMwByTechnology":{},"recordCount":1,"recordIds":["wattlas-record-osm-way-1492720141"],"sourceIds":["openstreetmap-power"],"sourceUrl":"https://www.openstreetmap.org/way/1492720141","technologies":["solar"],"technologyMixMw":{"solar":0.0},"unitCount":0,"unitIds":[]},"type":"Feature"},{"geometry":{"coordinates":[74.232243,42.615945],"type":"Point"},"id":"wattlas-plant-osm-way-1501668609","properties":{"aliases":["ГЭС «Сокулук-3»"],"canonicalAnchor":"osm:way/1501668609","canonicalCountryKey":"KG","capacityMw":9.7,"country":"KG","externalIds":{"osm":"way/1501668609"},"geographyId":"KG-38789647B49701521312730","id":"wattlas-plant-osm-way-1501668609","lifecycleCounts":{"operational":1},"locationPrecision":"exact","name":"ГЭС «Сокулук-3»","operatingCapacityCoverage":{"coveragePercent":100.0,"knownUnitCount":0,"method":"plant_aggregate","provenance":{"evidenceCount":0,"recordIds":["wattlas-record-osm-way-1501668609"],"sourceIds":["openstreetmap-power"],"sourceTypes":["community_mapped"],"valueKind":"reported"},"totalUnitCount":0},"operatingCapacityMw":9.7,"operatingCapacityMwByTechnology":{"hydro":9.7},"plannedCapacityCoverage":{"coveragePercent":0.0,"knownUnitCount":0,"method":"unavailable","totalUnitCount":0},"plannedCapacityMw":0.0,"plannedCapacityMwByTechnology":{},"recordCount":1,"recordIds":["wattlas-record-osm-way-1501668609"],"sourceIds":["openstreetmap-power"],"sourceUrl":"https://www.openstreetmap.org/way/1501668609","technologies":["hydro"],"technologyMixMw":{"hydro":9.7},"unitCount":0,"unitIds":[]},"type":"Feature"},{"geometry":{"coordinates":[74.228843,42.571198],"type":"Point"},"id":"wattlas-plant-osm-way-1501669026","properties":{"aliases":["ГЭС «Туюк»"],"canonicalAnchor":"osm:way/1501669026","canonicalCountryKey":"KG","capacityMw":5.9,"country":"KG","externalIds":{"osm":"way/1501669026"},"geographyId":"KG-38789647B49701521312730","id":"wattlas-plant-osm-way-1501669026","lifecycleCounts":{"operational":1},"locationPrecision":"exact","name":"ГЭС «Туюк»","operatingCapacityCoverage":{"coveragePercent":100.0,"knownUnitCount":0,"method":"plant_aggregate","provenance":{"evidenceCount":0,"recordIds":["wattlas-record-osm-way-1501669026"],"sourceIds":["openstreetmap-power"],"sourceTypes":["community_mapped"],"valueKind":"reported"},"totalUnitCount":0},"operatingCapacityMw":5.9,"operatingCapacityMwByTechnology":{"hydro":5.9},"plannedCapacityCoverage":{"coveragePercent":0.0,"knownUnitCount":0,"method":"unavailable","totalUnitCount":0},"plannedCapacityMw":0.0,"plannedCapacityMwByTechnology":{},"recordCount":1,"recordIds":["wattlas-record-osm-way-1501669026"],"sourceIds":["openstreetmap-power"],"sourceUrl":"https://www.openstreetmap.org/way/1501669026","technologies":["hydro"],"technologyMixMw":{"hydro":5.9},"unitCount":0,"unitIds":[]},"type":"Feature"},{"geometry":{"coordinates":[76.379271,42.519536],"type":"Point"},"id":"wattlas-plant-osm-way-1529680325","properties":{"aliases":["СЭС ROX Фаза I"],"canonicalAnchor":"osm:way/1529680325","canonicalCountryKey":"KG","capacityMw":175.0,"country":"KG","externalIds":{"osm":"way/1529680325"},"geographyId":"KG-38789647B57762434555293","id":"wattlas-plant-osm-way-1529680325","lifecycleCounts":{"operational":1},"locationPrecision":"exact","name":"СЭС ROX Фаза I","operatingCapacityCoverage":{"coveragePercent":100.0,"knownUnitCount":0,"method":"plant_aggregate","provenance":{"evidenceCount":0,"recordIds":["wattlas-record-osm-way-1529680325"],"sourceIds":["openstreetmap-power"],"sourceTypes":["community_mapped"],"valueKind":"reported"},"totalUnitCount":0},"operatingCapacityMw":175.0,"operatingCapacityMwByTechnology":{"solar":175.0},"plannedCapacityCoverage":{"coveragePercent":0.0,"knownUnitCount":0,"method":"unavailable","totalUnitCount":0},"plannedCapacityMw":0.0,"plannedCapacityMwByTechnology":{},"recordCount":1,"recordIds":["wattlas-record-osm-way-1529680325"],"sourceIds":["openstreetmap-power"],"sourceUrl":"https://www.openstreetmap.org/way/1529680325","technologies":["solar"],"technologyMixMw":{"solar":175.0},"unitCount":0,"unitIds":[]},"type":"Feature"},{"geometry":{"coordinates":[76.468651,42.532495],"type":"Point"},"id":"wattlas-plant-osm-way-1529689610","properties":{"aliases":["СЭС «Бишкек Солар» Фаза I"],"canonicalAnchor":"osm:way/1529689610","canonicalCountryKey":"KG","capacityMw":100.0,"country":"KG","externalIds":{"osm":"way/1529689610"},"geographyId":"KG-38789647B57762434555293","id":"wattlas-plant-osm-way-1529689610","lifecycleCounts":{"operational":1},"locationPrecision":"exact","name":"СЭС «Бишкек Солар» Фаза I","operatingCapacityCoverage":{"coveragePercent":100.0,"knownUnitCount":0,"method":"plant_aggregate","provenance":{"evidenceCount":0,"recordIds":["wattlas-record-osm-way-1529689610"],"sourceIds":["openstreetmap-power"],"sourceTypes":["community_mapped"],"valueKind":"reported"},"totalUnitCount":0},"operatingCapacityMw":100.0,"operatingCapacityMwByTechnology":{"solar":100.0},"plannedCapacityCoverage":{"coveragePercent":0.0,"knownUnitCount":0,"method":"unavailable","totalUnitCount":0},"plannedCapacityMw":0.0,"plannedCapacityMwByTechnology":{},"recordCount":1,"recordIds":["wattlas-record-osm-way-1529689610"],"sourceIds":["openstreetmap-power"],"sourceUrl":"https://www.openstreetmap.org/way/1529689610","technologies":["solar"],"technologyMixMw":{"solar":100.0},"unitCount":0,"unitIds":[]},"type":"Feature"},{"geometry":{"coordinates":[71.598028,42.667829],"type":"Point"},"id":"wattlas-plant-osm-way-1531786812","properties":{"aliases":["ГЕС Бала-Саруу"],"canonicalAnchor":"osm:way/1531786812","canonicalCountryKey":"KG","capacityMw":25.0,"country":"KG","externalIds":{"osm":"way/1531786812"},"geographyId":"KG-38789647B46237219042962","id":"wattlas-plant-osm-way-1531786812","lifecycleCounts":{"operational":1},"locationPrecision":"exact","name":"ГЕС Бала-Саруу","operatingCapacityCoverage":{"coveragePercent":100.0,"knownUnitCount":0,"method":"plant_aggregate","provenance":{"evidenceCount":0,"recordIds":["wattlas-record-osm-way-1531786812"],"sourceIds":["openstreetmap-power"],"sourceTypes":["community_mapped"],"valueKind":"reported"},"totalUnitCount":0},"operatingCapacityMw":25.0,"operatingCapacityMwByTechnology":{"hydro":25.0},"plannedCapacityCoverage":{"coveragePercent":0.0,"knownUnitCount":0,"method":"unavailable","totalUnitCount":0},"plannedCapacityMw":0.0,"plannedCapacityMwByTechnology":{},"recordCount":1,"recordIds":["wattlas-record-osm-way-1531786812"],"sourceIds":["openstreetmap-power"],"sourceUrl":"https://www.openstreetmap.org/way/1531786812","technologies":["hydro"],"technologyMixMw":{"hydro":25.0},"unitCount":0,"unitIds":[]},"type":"Feature"},{"geometry":{"coordinates":[75.749142,42.781436],"type":"Point"},"id":"wattlas-plant-osm-way-169428515","properties":{"aliases":["ГЭС"],"canonicalAnchor":"osm:way/169428515","canonicalCountryKey":"KG","capacityMw":0.0,"country":"KG","externalIds":{"osm":"way/169428515"},"geographyId":"KG-38789647B49701521312730","id":"wattlas-plant-osm-way-169428515","lifecycleCounts":{"operational":1},"locationPrecision":"exact","name":"ГЭС","operatingCapacityCoverage":{"coveragePercent":0.0,"knownUnitCount":0,"method":"unavailable","totalUnitCount":0},"operatingCapacityMw":0.0,"operatingCapacityMwByTechnology":{},"plannedCapacityCoverage":{"coveragePercent":0.0,"knownUnitCount":0,"method":"unavailable","totalUnitCount":0},"plannedCapacityMw":0.0,"plannedCapacityMwByTechnology":{},"recordCount":1,"recordIds":["wattlas-record-osm-way-169428515"],"sourceIds":["openstreetmap-power"],"sourceUrl":"https://www.openstreetmap.org/way/169428515","technologies":["hydro"],"technologyMixMw":{"hydro":0.0},"unitCount":0,"unitIds":[]},"type":"Feature"},{"geometry":{"coordinates":[74.688209,42.995278],"type":"Point"},"id":"wattlas-plant-osm-way-178115451","properties":{"aliases":["Alamedin small HPP"],"canonicalAnchor":"osm:way/178115451","canonicalCountryKey":"KG","capacityMw":0.0,"country":"KG","externalIds":{"osm":"way/178115451"},"geographyId":"KG-38789647B49701521312730","id":"wattlas-plant-osm-way-178115451","lifecycleCounts":{"operational":1},"locationPrecision":"exact","name":"Alamedin small HPP","operatingCapacityCoverage":{"coveragePercent":0.0,"knownUnitCount":0,"method":"unavailable","totalUnitCount":0},"operatingCapacityMw":0.0,"operatingCapacityMwByTechnology":{},"plannedCapacityCoverage":{"coveragePercent":0.0,"knownUnitCount":0,"method":"unavailable","totalUnitCount":0},"plannedCapacityMw":0.0,"plannedCapacityMwByTechnology":{},"recordCount":1,"recordIds":["wattlas-record-osm-way-178115451"],"sourceIds":["openstreetmap-power"],"sourceUrl":"https://www.openstreetmap.org/way/178115451","technologies":["hydro"],"technologyMixMw":{"hydro":0.0},"unitCount":0,"unitIds":[]},"type":"Feature"},{"geometry":{"coordinates":[74.697475,42.875479],"type":"Point"},"id":"wattlas-plant-osm-way-178594213","properties":{"aliases":["Лебединовская ГЭС"],"canonicalAnchor":"osm:way/178594213","canonicalCountryKey":"KG","capacityMw":7.6,"country":"KG","externalIds":{"osm":"way/178594213"},"geographyId":"KG-38789647B49701521312730","id":"wattlas-plant-osm-way-178594213","lifecycleCounts":{"operational":1},"locationPrecision":"exact","name":"Лебединовская ГЭС","operatingCapacityCoverage":{"coveragePercent":100.0,"knownUnitCount":0,"method":"plant_aggregate","provenance":{"evidenceCount":0,"recordIds":["wattlas-record-osm-way-178594213"],"sourceIds":["openstreetmap-power"],"sourceTypes":["community_mapped"],"valueKind":"reported"},"totalUnitCount":0},"operatingCapacityMw":7.6,"operatingCapacityMwByTechnology":{"hydro":7.6},"plannedCapacityCoverage":{"coveragePercent":0.0,"knownUnitCount":0,"method":"unavailable","totalUnitCount":0},"plannedCapacityMw":0.0,"plannedCapacityMwByTechnology":{},"recordCount":1,"recordIds":["wattlas-record-osm-way-178594213"],"sourceIds":["openstreetmap-power"],"sourceUrl":"https://www.openstreetmap.org/way/178594213","technologies":["hydro"],"technologyMixMw":{"hydro":7.6},"unitCount":0,"unitIds":[]},"type":"Feature"},{"geometry":{"coordinates":[73.896513,42.639623],"type":"Point"},"id":"wattlas-plant-osm-way-234739411","properties":{"aliases":["Issyk-Ata"],"canonicalAnchor":"osm:way/234739411","canonicalCountryKey":"KG","capacityMw":0.0,"country":"KG","externalIds":{"osm":"way/234739411"},"geographyId":"KG-38789647B49701521312730","id":"wattlas-plant-osm-way-234739411","lifecycleCounts":{"operational":1},"locationPrecision":"exact","name":"Issyk-Ata","operatingCapacityCoverage":{"coveragePercent":0.0,"knownUnitCount":0,"method":"unavailable","totalUnitCount":0},"operatingCapacityMw":0.0,"operatingCapacityMwByTechnology":{},"plannedCapacityCoverage":{"coveragePercent":0.0,"knownUnitCount":0,"method":"unavailable","totalUnitCount":0},"plannedCapacityMw":0.0,"plannedCapacityMwByTechnology":{},"recordCount":1,"recordIds":["wattlas-record-osm-way-234739411"],"sourceIds":["openstreetmap-power"],"sourceUrl":"https://www.openstreetmap.org/way/234739411","technologies":["hydro"],"technologyMixMw":{"hydro":0.0},"unitCount":0,"unitIds":[]},"type":"Feature"},{"geometry":{"coordinates":[75.63697,41.369701],"type":"Point"},"id":"wattlas-plant-osm-way-412766262","properties":{"aliases":["Ат-Башы ГЕС"],"canonicalAnchor":"osm:way/412766262","canonicalCountryKey":"KG","capacityMw":0.0,"country":"KG","externalIds":{"osm":"way/412766262"},"geographyId":"KG-38789647B68189783551847","id":"wattlas-plant-osm-way-412766262","lifecycleCounts":{"operational":1},"locationPrecision":"exact","name":"Ат-Башы ГЕС","operatingCapacityCoverage":{"coveragePercent":0.0,"knownUnitCount":0,"method":"unavailable","totalUnitCount":0},"operatingCapacityMw":0.0,"operatingCapacityMwByTechnology":{},"plannedCapacityCoverage":{"coveragePercent":0.0,"knownUnitCount":0,"method":"unavailable","totalUnitCount":0},"plannedCapacityMw":0.0,"plannedCapacityMwByTechnology":{},"recordCount":1,"recordIds":["wattlas-record-osm-way-412766262"],"sourceIds":["openstreetmap-power"],"sourceUrl":"https://www.openstreetmap.org/way/412766262","technologies":["hydro"],"technologyMixMw":{"hydro":0.0},"unitCount":0,"unitIds":[]},"type":"Feature"},{"geometry":{"coordinates":[71.714356,40.093492],"type":"Point"},"id":"wattlas-plant-osm-way-485059332","properties":{"aliases":["Жидалик ГЭС"],"canonicalAnchor":"osm:way/485059332","canonicalCountryKey":"KG","capacityMw":0.0,"country":"KG","externalIds":{"osm":"way/485059332"},"geographyId":"KG-38789647B43528262636538","id":"wattlas-plant-osm-way-485059332","lifecycleCounts":{"operational":1},"locationPrecision":"exact","name":"Жидалик ГЭС","operatingCapacityCoverage":{"coveragePercent":0.0,"knownUnitCount":0,"method":"unavailable","totalUnitCount":0},"operatingCapacityMw":0.0,"operatingCapacityMwByTechnology":{},"plannedCapacityCoverage":{"coveragePercent":0.0,"knownUnitCount":0,"method":"unavailable","totalUnitCount":0},"plannedCapacityMw":0.0,"plannedCapacityMwByTechnology":{},"recordCount":1,"recordIds":["wattlas-record-osm-way-485059332"],"sourceIds":["openstreetmap-power"],"sourceUrl":"https://www.openstreetmap.org/way/485059332","technologies":["hydro"],"technologyMixMw":{"hydro":0.0},"unitCount":0,"unitIds":[]},"type":"Feature"},{"geometry":{"coordinates":[72.12971,40.268333],"type":"Point"},"id":"wattlas-plant-osm-way-605889499","properties":{"aliases":["Котельная"],"canonicalAnchor":"osm:way/605889499","canonicalCountryKey":"KG","capacityMw":0.0,"country":"KG","externalIds":{"osm":"way/605889499"},"geographyId":"KG-38789647B43528262636538","id":"wattlas-plant-osm-way-605889499","lifecycleCounts":{"operational":1},"locationPrecision":"exact","name":"Котельная","operatingCapacityCoverage":{"coveragePercent":0.0,"knownUnitCount":0,"method":"unavailable","totalUnitCount":0},"operatingCapacityMw":0.0,"operatingCapacityMwByTechnology":{},"plannedCapacityCoverage":{"coveragePercent":0.0,"knownUnitCount":0,"method":"unavailable","totalUnitCount":0},"plannedCapacityMw":0.0,"plannedCapacityMwByTechnology":{},"recordCount":1,"recordIds":["wattlas-record-osm-way-605889499"],"sourceIds":["openstreetmap-power"],"sourceUrl":"https://www.openstreetmap.org/way/605889499","technologies":["coal"],"technologyMixMw":{"coal":0.0},"unitCount":0,"unitIds":[]},"type":"Feature"},{"geometry":{"coordinates":[75.052812,42.688023],"type":"Point"},"id":"wattlas-plant-osm-way-773873889","properties":{"aliases":["Issyk-Ata"],"canonicalAnchor":"osm:way/773873889","canonicalCountryKey":"KG","capacityMw":0.0,"country":"KG","externalIds":{"osm":"way/773873889"},"geographyId":"KG-38789647B49701521312730","id":"wattlas-plant-osm-way-773873889","lifecycleCounts":{"operational":1},"locationPrecision":"exact","name":"Issyk-Ata","operatingCapacityCoverage":{"coveragePercent":0.0,"knownUnitCount":0,"method":"unavailable","totalUnitCount":0},"operatingCapacityMw":0.0,"operatingCapacityMwByTechnology":{},"plannedCapacityCoverage":{"coveragePercent":0.0,"knownUnitCount":0,"method":"unavailable","totalUnitCount":0},"plannedCapacityMw":0.0,"plannedCapacityMwByTechnology":{},"recordCount":1,"recordIds":["wattlas-record-osm-way-773873889"],"sourceIds":["openstreetmap-power"],"sourceUrl":"https://www.openstreetmap.org/way/773873889","technologies":["hydro"],"technologyMixMw":{"hydro":0.0},"unitCount":0,"unitIds":[]},"type":"Feature"},{"geometry":{"coordinates":[74.658382,42.871542],"type":"Point"},"id":"wattlas-plant-wikidata-q11961156","properties":{"aliases":["Бишкек ЖЭБи"],"canonicalAnchor":"wikidata:Q11961156","canonicalCountryKey":"KG","capacityMw":812.0,"country":"KG","externalIds":{"osm":"way/25487063","wikidata":"Q11961156"},"geographyId":"KG-38789647B49701521312730","id":"wattlas-plant-wikidata-q11961156","idAliases":["wattlas-plant-osm-way-25487063"],"lifecycleCounts":{"operational":1},"locationPrecision":"exact","name":"Бишкек ЖЭБи","operatingCapacityCoverage":{"coveragePercent":100.0,"knownUnitCount":0,"method":"plant_aggregate","provenance":{"evidenceCount":0,"recordIds":["wattlas-record-osm-way-25487063"],"sourceIds":["openstreetmap-power"],"sourceTypes":["community_mapped"],"valueKind":"reported"},"totalUnitCount":0},"operatingCapacityMw":812.0,"operatingCapacityMwByTechnology":{"coal":812.0},"plannedCapacityCoverage":{"coveragePercent":0.0,"knownUnitCount":0,"method":"unavailable","totalUnitCount":0},"plannedCapacityMw":0.0,"plannedCapacityMwByTechnology":{},"recordCount":1,"recordIds":["wattlas-record-osm-way-25487063"],"sourceIds":["openstreetmap-power"],"sourceUrl":"https://www.openstreetmap.org/way/25487063","technologies":["coal"],"technologyMixMw":{"coal":812.0},"unitCount":0,"unitIds":[]},"type":"Feature"},{"geometry":{"coordinates":[72.806119,40.572335],"type":"Point"},"id":"wattlas-plant-wikidata-q21662043","properties":{"aliases":["Ошская ТЭЦ"],"canonicalAnchor":"wikidata:Q21662043","canonicalCountryKey":"KG","capacityMw":50.0,"country":"KG","externalIds":{"osm":"way/70975872","wikidata":"Q21662043"},"geographyId":"KG-38789647B74878035894071","id":"wattlas-plant-wikidata-q21662043","idAliases":["wattlas-plant-osm-way-70975872"],"lifecycleCounts":{"operational":1},"locationPrecision":"exact","name":"Ошская ТЭЦ","operatingCapacityCoverage":{"coveragePercent":100.0,"knownUnitCount":0,"method":"plant_aggregate","provenance":{"evidenceCount":0,"recordIds":["wattlas-record-osm-way-70975872"],"sourceIds":["openstreetmap-power"],"sourceTypes":["community_mapped"],"valueKind":"reported"},"totalUnitCount":0},"operatingCapacityMw":50.0,"operatingCapacityMwByTechnology":{"coal":50.0},"plannedCapacityCoverage":{"coveragePercent":0.0,"knownUnitCount":0,"method":"unavailable","totalUnitCount":0},"plannedCapacityMw":0.0,"plannedCapacityMwByTechnology":{},"recordCount":1,"recordIds":["wattlas-record-osm-way-70975872"],"sourceIds":["openstreetmap-power"],"sourceUrl":"https://www.openstreetmap.org/way/70975872","technologies":["coal"],"technologyMixMw":{"coal":50.0},"unitCount":0,"unitIds":[]},"type":"Feature"},{"geometry":{"coordinates":[72.635836,41.656646],"type":"Point"},"id":"wattlas-plant-wikidata-q278196","properties":{"aliases":["Токтогульская ГЭС"],"canonicalAnchor":"wikidata:Q278196","canonicalCountryKey":"KG","capacityMw":1200.0,"country":"KG","externalIds":{"osm":"way/83913812","wikidata":"Q278196"},"geographyId":"KG-38789647B85532999857943","id":"wattlas-plant-wikidata-q278196","idAliases":["wattlas-plant-osm-way-83913812"],"lifecycleCounts":{"operational":1},"locationPrecision":"exact","name":"Токтогульская ГЭС","operatingCapacityCoverage":{"coveragePercent":100.0,"knownUnitCount":0,"method":"plant_aggregate","provenance":{"evidenceCount":0,"recordIds":["wattlas-record-osm-way-83913812"],"sourceIds":["openstreetmap-power"],"sourceTypes":["community_mapped"],"valueKind":"reported"},"totalUnitCount":0},"operatingCapacityMw":1200.0,"operatingCapacityMwByTechnology":{"hydro":1200.0},"plannedCapacityCoverage":{"coveragePercent":0.0,"knownUnitCount":0,"method":"unavailable","totalUnitCount":0},"plannedCapacityMw":0.0,"plannedCapacityMwByTechnology":{},"recordCount":1,"recordIds":["wattlas-record-osm-way-83913812"],"sourceIds":["openstreetmap-power"],"sourceUrl":"https://www.openstreetmap.org/way/83913812","technologies":["hydro"],"technologyMixMw":{"hydro":1200.0},"unitCount":0,"unitIds":[]},"type":"Feature"},{"geometry":{"coordinates":[73.325578,41.776133],"type":"Point"},"id":"wattlas-plant-wikidata-q4210760","properties":{"aliases":["Камбаратинская ГЭС-2"],"canonicalAnchor":"wikidata:Q4210760","canonicalCountryKey":"KG","capacityMw":360.0,"country":"KG","externalIds":{"osm":"way/564442523","wikidata":"Q4210760"},"geographyId":"KG-38789647B85532999857943","id":"wattlas-plant-wikidata-q4210760","idAliases":["wattlas-plant-osm-way-564442523"],"lifecycleCounts":{"operational":1},"locationPrecision":"exact","name":"Камбаратинская ГЭС-2","operatingCapacityCoverage":{"coveragePercent":100.0,"knownUnitCount":0,"method":"plant_aggregate","provenance":{"evidenceCount":0,"recordIds":["wattlas-record-osm-way-564442523"],"sourceIds":["openstreetmap-power"],"sourceTypes":["community_mapped"],"valueKind":"reported"},"totalUnitCount":0},"operatingCapacityMw":360.0,"operatingCapacityMwByTechnology":{"hydro":360.0},"plannedCapacityCoverage":{"coveragePercent":0.0,"knownUnitCount":0,"method":"unavailable","totalUnitCount":0},"plannedCapacityMw":0.0,"plannedCapacityMwByTechnology":{},"recordCount":1,"recordIds":["wattlas-record-osm-way-564442523"],"sourceIds":["openstreetmap-power"],"sourceUrl":"https://www.openstreetmap.org/way/564442523","technologies":["hydro"],"technologyMixMw":{"hydro":360.0},"unitCount":0,"unitIds":[]},"type":"Feature"},{"geometry":{"coordinates":[72.231921,41.402722],"type":"Point"},"id":"wattlas-plant-wikidata-q4453025","properties":{"aliases":["ГЭС Таш-Көмүр"],"canonicalAnchor":"wikidata:Q4453025","canonicalCountryKey":"KG","capacityMw":450.0,"country":"KG","externalIds":{"osm":"way/218048934","wikidata":"Q4453025"},"geographyId":"KG-38789647B85532999857943","id":"wattlas-plant-wikidata-q4453025","idAliases":["wattlas-plant-osm-way-218048934"],"lifecycleCounts":{"operational":1},"locationPrecision":"exact","name":"ГЭС Таш-Көмүр","operatingCapacityCoverage":{"coveragePercent":100.0,"knownUnitCount":0,"method":"plant_aggregate","provenance":{"evidenceCount":0,"recordIds":["wattlas-record-osm-way-218048934"],"sourceIds":["openstreetmap-power"],"sourceTypes":["community_mapped"],"valueKind":"reported"},"totalUnitCount":0},"operatingCapacityMw":450.0,"operatingCapacityMwByTechnology":{"hydro":450.0},"plannedCapacityCoverage":{"coveragePercent":0.0,"knownUnitCount":0,"method":"unavailable","totalUnitCount":0},"plannedCapacityMw":0.0,"plannedCapacityMwByTechnology":{},"recordCount":1,"recordIds":["wattlas-record-osm-way-218048934"],"sourceIds":["openstreetmap-power"],"sourceUrl":"https://www.openstreetmap.org/way/218048934","technologies":["hydro"],"technologyMixMw":{"hydro":450.0},"unitCount":0,"unitIds":[]},"type":"Feature"},{"geometry":{"coordinates":[72.16056,41.187971],"type":"Point"},"id":"wattlas-plant-wikidata-q4479261","properties":{"aliases":["Үч-Коргон ГЭСи"],"canonicalAnchor":"wikidata:Q4479261","canonicalCountryKey":"KG","capacityMw":180.0,"country":"KG","externalIds":{"osm":"way/64684464","wikidata":"Q4479261","wikipedia":"ky:Үч-Коргон ГЭСи"},"geographyId":"KG-38789647B85532999857943","id":"wattlas-plant-wikidata-q4479261","idAliases":["wattlas-plant-osm-way-64684464","wattlas-plant-wikipedia-ky"],"lifecycleCounts":{"operational":1},"locationPrecision":"exact","name":"Үч-Коргон ГЭСи","operatingCapacityCoverage":{"coveragePercent":100.0,"knownUnitCount":0,"method":"plant_aggregate","provenance":{"evidenceCount":0,"recordIds":["wattlas-record-osm-way-64684464"],"sourceIds":["openstreetmap-power"],"sourceTypes":["community_mapped"],"valueKind":"reported"},"totalUnitCount":0},"operatingCapacityMw":180.0,"operatingCapacityMwByTechnology":{"hydro":180.0},"plannedCapacityCoverage":{"coveragePercent":0.0,"knownUnitCount":0,"method":"unavailable","totalUnitCount":0},"plannedCapacityMw":0.0,"plannedCapacityMwByTechnology":{},"recordCount":1,"recordIds":["wattlas-record-osm-way-64684464"],"sourceIds":["openstreetmap-power"],"sourceUrl":"https://www.openstreetmap.org/way/64684464","technologies":["hydro"],"technologyMixMw":{"hydro":180.0},"unitCount":0,"unitIds":[]},"type":"Feature"},{"geometry":{"coordinates":[72.192442,41.312161],"type":"Point"},"id":"wattlas-plant-wikidata-q6034718","properties":{"aliases":["Шамалдысайская ГЭС"],"canonicalAnchor":"wikidata:Q6034718","canonicalCountryKey":"KG","capacityMw":240.0,"country":"KG","externalIds":{"osm":"way/218198451","wikidata":"Q6034718"},"geographyId":"KG-38789647B85532999857943","id":"wattlas-plant-wikidata-q6034718","idAliases":["wattlas-plant-osm-way-218198451"],"lifecycleCounts":{"operational":1},"locationPrecision":"exact","name":"Шамалдысайская ГЭС","operatingCapacityCoverage":{"coveragePercent":100.0,"knownUnitCount":0,"method":"plant_aggregate","provenance":{"evidenceCount":0,"recordIds":["wattlas-record-osm-way-218198451"],"sourceIds":["openstreetmap-power"],"sourceTypes":["community_mapped"],"valueKind":"reported"},"totalUnitCount":0},"operatingCapacityMw":240.0,"operatingCapacityMwByTechnology":{"hydro":240.0},"plannedCapacityCoverage":{"coveragePercent":0.0,"knownUnitCount":0,"method":"unavailable","totalUnitCount":0},"plannedCapacityMw":0.0,"plannedCapacityMwByTechnology":{},"recordCount":1,"recordIds":["wattlas-record-osm-way-218198451"],"sourceIds":["openstreetmap-power"],"sourceUrl":"https://www.openstreetmap.org/way/218198451","technologies":["hydro"],"technologyMixMw":{"hydro":240.0},"unitCount":0,"unitIds":[]},"type":"Feature"},{"geometry":{"coordinates":[72.364471,41.498394],"type":"Point"},"id":"wattlas-plant-wikidata-q65196504","properties":{"aliases":["Курпсайская ГЭС"],"canonicalAnchor":"wikidata:Q65196504","canonicalCountryKey":"KG","capacityMw":800.0,"country":"KG","externalIds":{"osm":"way/252086125","wikidata":"Q65196504"},"geographyId":"KG-38789647B85532999857943","id":"wattlas-plant-wikidata-q65196504","idAliases":["wattlas-plant-osm-way-252086125"],"lifecycleCounts":{"operational":1},"locationPrecision":"exact","name":"Курпсайская ГЭС","operatingCapacityCoverage":{"coveragePercent":100.0,"knownUnitCount":0,"method":"plant_aggregate","provenance":{"evidenceCount":0,"recordIds":["wattlas-record-osm-way-252086125"],"sourceIds":["openstreetmap-power"],"sourceTypes":["community_mapped"],"valueKind":"reported"},"totalUnitCount":0},"operatingCapacityMw":800.0,"operatingCapacityMwByTechnology":{"hydro":800.0},"plannedCapacityCoverage":{"coveragePercent":0.0,"knownUnitCount":0,"method":"unavailable","totalUnitCount":0},"plannedCapacityMw":0.0,"plannedCapacityMwByTechnology":{},"recordCount":1,"recordIds":["wattlas-record-osm-way-252086125"],"sourceIds":["openstreetmap-power"],"sourceUrl":"https://www.openstreetmap.org/way/252086125","technologies":["hydro"],"technologyMixMw":{"hydro":800.0},"unitCount":0,"unitIds":[]},"type":"Feature"}],"type":"FeatureCollection"}