{"features":[{"geometry":{"coordinates":[129.750091,41.783681],"type":"Point"},"id":"wattlas-plant-gemplant-l100000103103","properties":{"aliases":["Chongjin City power station","Unit 1","Unit 2","Unit 3"],"canonicalAnchor":"gemplant:L100000103103","canonicalCountryKey":"KP","capacityMw":150.0,"country":"KP","externalIdAliases":{"gemUnit":["G100000101525","G100000101526","G100000101527"]},"externalIds":{"gemPlant":"L100000103103","gemUnit":"G100000101527"},"gemWikiUrl":"https://www.gem.wiki/Chongjin_City_power_station","geographyId":"KP-3916807B66197610677259","id":"wattlas-plant-gemplant-l100000103103","lifecycleCounts":{"operational":3},"locationPrecision":"exact","name":"Chongjin City power station","operatingCapacityCoverage":{"coveragePercent":100.0,"knownUnitCount":3,"method":"complete_unit_sum","provenance":{"evidenceCount":0,"recordIds":["wattlas-record-gemunit-g100000101525","wattlas-record-gemunit-g100000101526","wattlas-record-gemunit-g100000101527"],"sourceIds":["gem-global-integrated-power-tracker"],"sourceTypes":["research_verified"],"valueKind":"reported"},"totalUnitCount":3},"operatingCapacityMw":150.0,"operatingCapacityMwByTechnology":{"coal":150.0},"plannedCapacityCoverage":{"coveragePercent":0.0,"knownUnitCount":0,"method":"unavailable","totalUnitCount":0},"plannedCapacityMw":0.0,"plannedCapacityMwByTechnology":{},"recordCount":3,"recordIds":["wattlas-record-gemunit-g100000101525","wattlas-record-gemunit-g100000101526","wattlas-record-gemunit-g100000101527"],"sourceIds":["gem-global-integrated-power-tracker"],"sourceUrl":"https://www.gem.wiki/Chongjin_City_power_station","technologies":["coal"],"technologyMixMw":{"coal":150.0},"unitCount":3,"unitIds":["gem-unit-G100000101525","gem-unit-G100000101526","gem-unit-G100000101527"]},"type":"Feature"},{"geometry":{"coordinates":[125.66883,39.65655],"type":"Point"},"id":"wattlas-plant-gemplant-l100000103104","properties":{"aliases":["Cheongcheon-Gang power station","Unit 1","Unit 2","Unit 3","Unit 4"],"canonicalAnchor":"gemplant:L100000103104","canonicalCountryKey":"KP","capacityMw":200.0,"country":"KP","externalIdAliases":{"gemUnit":["G100000101409","G100000101410","G100000101411","G100000101412"]},"externalIds":{"gemPlant":"L100000103104","gemUnit":"G100000101412"},"gemWikiUrl":"https://www.gem.wiki/Cheongcheon-Gang_power_station","geographyId":"KP-3916807B57216784573597","id":"wattlas-plant-gemplant-l100000103104","lifecycleCounts":{"operational":4},"locationPrecision":"exact","name":"Cheongcheon-Gang power station","operatingCapacityCoverage":{"coveragePercent":100.0,"knownUnitCount":4,"method":"complete_unit_sum","provenance":{"evidenceCount":0,"recordIds":["wattlas-record-gemunit-g100000101409","wattlas-record-gemunit-g100000101410","wattlas-record-gemunit-g100000101411","wattlas-record-gemunit-g100000101412"],"sourceIds":["gem-global-integrated-power-tracker"],"sourceTypes":["research_verified"],"valueKind":"reported"},"totalUnitCount":4},"operatingCapacityMw":200.0,"operatingCapacityMwByTechnology":{"coal":200.0},"plannedCapacityCoverage":{"coveragePercent":0.0,"knownUnitCount":0,"method":"unavailable","totalUnitCount":0},"plannedCapacityMw":0.0,"plannedCapacityMwByTechnology":{},"recordCount":4,"recordIds":["wattlas-record-gemunit-g100000101409","wattlas-record-gemunit-g100000101410","wattlas-record-gemunit-g100000101411","wattlas-record-gemunit-g100000101412"],"sourceIds":["gem-global-integrated-power-tracker"],"sourceUrl":"https://www.gem.wiki/Cheongcheon-Gang_power_station","technologies":["coal"],"technologyMixMw":{"coal":200.0},"unitCount":4,"unitIds":["gem-unit-G100000101409","gem-unit-G100000101410","gem-unit-G100000101411","gem-unit-G100000101412"]},"type":"Feature"},{"geometry":{"coordinates":[126.305072,39.586142],"type":"Point"},"id":"wattlas-plant-gemplant-l100000103106","properties":{"aliases":["Pukchang power station","Unit 1","Unit 10","Unit 11","Unit 12","Unit 13","Unit 14","Unit 15","Unit 16","Unit 17","Unit 18","Unit 19","Unit 2","Unit 20","Unit 3","Unit 4","Unit 5","Unit 6","Unit 7","Unit 8","Unit 9"],"canonicalAnchor":"gemplant:L100000103106","canonicalCountryKey":"KP","capacityMw":1600.0,"country":"KP","externalIdAliases":{"gemUnit":["G100000108206","G100000108207","G100000108208","G100000108209","G100000108210","G100000108211","G100000108212","G100000108213","G100000108214","G100000108215","G100000108216","G100000108217","G100000108218","G100000108219","G100000108220","G100000108221","G100000115130","G100000115131","G100000115132","G100000115133"]},"externalIds":{"gemPlant":"L100000103106","gemUnit":"G100000108221"},"gemWikiUrl":"https://www.gem.wiki/Pukchang_power_station","geographyId":"KP-3916807B57216784573597","id":"wattlas-plant-gemplant-l100000103106","lifecycleCounts":{"operational":16,"paused":4},"locationPrecision":"exact","name":"Pukchang power station","operatingCapacityCoverage":{"coveragePercent":100.0,"knownUnitCount":16,"method":"complete_unit_sum","provenance":{"evidenceCount":0,"recordIds":["wattlas-record-gemunit-g100000108207","wattlas-record-gemunit-g100000108208","wattlas-record-gemunit-g100000108209","wattlas-record-gemunit-g100000108210","wattlas-record-gemunit-g100000108211","wattlas-record-gemunit-g100000108212","wattlas-record-gemunit-g100000108213","wattlas-record-gemunit-g100000108217","wattlas-record-gemunit-g100000108218","wattlas-record-gemunit-g100000108219","wattlas-record-gemunit-g100000108220","wattlas-record-gemunit-g100000108221","wattlas-record-gemunit-g100000115130","wattlas-record-gemunit-g100000115131","wattlas-record-gemunit-g100000115132","wattlas-record-gemunit-g100000115133"],"sourceIds":["gem-global-integrated-power-tracker"],"sourceTypes":["research_verified"],"valueKind":"reported"},"totalUnitCount":16},"operatingCapacityMw":1600.0,"operatingCapacityMwByTechnology":{"coal":1600.0},"plannedCapacityCoverage":{"coveragePercent":0.0,"knownUnitCount":0,"method":"unavailable","totalUnitCount":0},"plannedCapacityMw":0.0,"plannedCapacityMwByTechnology":{},"recordCount":20,"recordIds":["wattlas-record-gemunit-g100000108206","wattlas-record-gemunit-g100000108207","wattlas-record-gemunit-g100000108208","wattlas-record-gemunit-g100000108209","wattlas-record-gemunit-g100000108210","wattlas-record-gemunit-g100000108211","wattlas-record-gemunit-g100000108212","wattlas-record-gemunit-g100000108213","wattlas-record-gemunit-g100000108214","wattlas-record-gemunit-g100000108215","wattlas-record-gemunit-g100000108216","wattlas-record-gemunit-g100000108217","wattlas-record-gemunit-g100000108218","wattlas-record-gemunit-g100000108219","wattlas-record-gemunit-g100000108220","wattlas-record-gemunit-g100000108221","wattlas-record-gemunit-g100000115130","wattlas-record-gemunit-g100000115131","wattlas-record-gemunit-g100000115132","wattlas-record-gemunit-g100000115133"],"sourceIds":["gem-global-integrated-power-tracker"],"sourceUrl":"https://www.gem.wiki/Pukchang_power_station","technologies":["coal"],"technologyMixMw":{"coal":1600.0},"unitCount":20,"unitIds":["gem-unit-G100000108206","gem-unit-G100000108207","gem-unit-G100000108208","gem-unit-G100000108209","gem-unit-G100000108210","gem-unit-G100000108211","gem-unit-G100000108212","gem-unit-G100000108213","gem-unit-G100000108214","gem-unit-G100000108215","gem-unit-G100000108216","gem-unit-G100000108217","gem-unit-G100000108218","gem-unit-G100000108219","gem-unit-G100000108220","gem-unit-G100000108221","gem-unit-G100000115130","gem-unit-G100000115131","gem-unit-G100000115132","gem-unit-G100000115133"]},"type":"Feature"},{"geometry":{"coordinates":[125.968168,39.401456],"type":"Point"},"id":"wattlas-plant-gemplant-l100000103107","properties":{"aliases":["Sunchon power station","Unit 1","Unit 2","Unit 3","Unit 4"],"canonicalAnchor":"gemplant:L100000103107","canonicalCountryKey":"KP","capacityMw":200.0,"country":"KP","externalIdAliases":{"gemUnit":["G100000109716","G100000109717","G100000109718","G100000109719"]},"externalIds":{"gemPlant":"L100000103107","gemUnit":"G100000109719"},"gemWikiUrl":"https://www.gem.wiki/Sunchon_power_station","geographyId":"KP-3916807B57216784573597","id":"wattlas-plant-gemplant-l100000103107","lifecycleCounts":{"operational":4},"locationPrecision":"exact","name":"Sunchon power station","operatingCapacityCoverage":{"coveragePercent":100.0,"knownUnitCount":4,"method":"complete_unit_sum","provenance":{"evidenceCount":0,"recordIds":["wattlas-record-gemunit-g100000109716","wattlas-record-gemunit-g100000109717","wattlas-record-gemunit-g100000109718","wattlas-record-gemunit-g100000109719"],"sourceIds":["gem-global-integrated-power-tracker"],"sourceTypes":["research_verified"],"valueKind":"reported"},"totalUnitCount":4},"operatingCapacityMw":200.0,"operatingCapacityMwByTechnology":{"coal":200.0},"plannedCapacityCoverage":{"coveragePercent":0.0,"knownUnitCount":0,"method":"unavailable","totalUnitCount":0},"plannedCapacityMw":0.0,"plannedCapacityMwByTechnology":{},"recordCount":4,"recordIds":["wattlas-record-gemunit-g100000109716","wattlas-record-gemunit-g100000109717","wattlas-record-gemunit-g100000109718","wattlas-record-gemunit-g100000109719"],"sourceIds":["gem-global-integrated-power-tracker"],"sourceUrl":"https://www.gem.wiki/Sunchon_power_station","technologies":["coal"],"technologyMixMw":{"coal":200.0},"unitCount":4,"unitIds":["gem-unit-G100000109716","gem-unit-G100000109717","gem-unit-G100000109718","gem-unit-G100000109719"]},"type":"Feature"},{"geometry":{"coordinates":[125.687584,38.969298],"type":"Point"},"id":"wattlas-plant-gemplant-l100000103108","properties":{"aliases":["East Pyongyang power station","Unit 1","Unit 2","Unit 3","Unit 4"],"canonicalAnchor":"gemplant:L100000103108","canonicalCountryKey":"KP","capacityMw":200.0,"country":"KP","externalIdAliases":{"gemUnit":["G100000102560","G100000102561","G100000102562","G100000102563"]},"externalIds":{"gemPlant":"L100000103108","gemUnit":"G100000102563"},"gemWikiUrl":"https://www.gem.wiki/East_Pyongyang_power_station","geographyId":"KP-3916807B24987303688366","id":"wattlas-plant-gemplant-l100000103108","lifecycleCounts":{"operational":4},"locationPrecision":"exact","name":"East Pyongyang power station","operatingCapacityCoverage":{"coveragePercent":100.0,"knownUnitCount":4,"method":"complete_unit_sum","provenance":{"evidenceCount":0,"recordIds":["wattlas-record-gemunit-g100000102560","wattlas-record-gemunit-g100000102561","wattlas-record-gemunit-g100000102562","wattlas-record-gemunit-g100000102563"],"sourceIds":["gem-global-integrated-power-tracker"],"sourceTypes":["research_verified"],"valueKind":"reported"},"totalUnitCount":4},"operatingCapacityMw":200.0,"operatingCapacityMwByTechnology":{"coal":200.0},"plannedCapacityCoverage":{"coveragePercent":0.0,"knownUnitCount":0,"method":"unavailable","totalUnitCount":0},"plannedCapacityMw":0.0,"plannedCapacityMwByTechnology":{},"recordCount":4,"recordIds":["wattlas-record-gemunit-g100000102560","wattlas-record-gemunit-g100000102561","wattlas-record-gemunit-g100000102562","wattlas-record-gemunit-g100000102563"],"sourceIds":["gem-global-integrated-power-tracker"],"sourceUrl":"https://www.gem.wiki/East_Pyongyang_power_station","technologies":["coal"],"technologyMixMw":{"coal":200.0},"unitCount":4,"unitIds":["gem-unit-G100000102560","gem-unit-G100000102561","gem-unit-G100000102562","gem-unit-G100000102563"]},"type":"Feature"},{"geometry":{"coordinates":[126.161939,39.001994],"type":"Point"},"id":"wattlas-plant-gemplant-l100000103109","properties":{"aliases":["--","Kangdong power station"],"canonicalAnchor":"gemplant:L100000103109","canonicalCountryKey":"KP","capacityMw":0.0,"country":"KP","externalIds":{"gemPlant":"L100000103109","gemUnit":"G100000105544"},"gemWikiUrl":"https://www.gem.wiki/Kangdong_power_station","geographyId":"KP-3916807B24987303688366","id":"wattlas-plant-gemplant-l100000103109","lifecycleCounts":{"cancelled":1},"locationPrecision":"exact","name":"Kangdong power station","operatingCapacityCoverage":{"coveragePercent":0.0,"knownUnitCount":0,"method":"unavailable","totalUnitCount":0},"operatingCapacityMw":0.0,"operatingCapacityMwByTechnology":{},"plannedCapacityCoverage":{"coveragePercent":0.0,"knownUnitCount":0,"method":"unavailable","totalUnitCount":0},"plannedCapacityMw":0.0,"plannedCapacityMwByTechnology":{},"recordCount":1,"recordIds":["wattlas-record-gemunit-g100000105544"],"sourceIds":["gem-global-integrated-power-tracker"],"sourceUrl":"https://www.gem.wiki/Kangdong_power_station","technologies":["coal"],"technologyMixMw":{"coal":0.0},"unitCount":1,"unitIds":["gem-unit-G100000105544"]},"type":"Feature"},{"geometry":{"coordinates":[125.710939,39.009295],"type":"Point"},"id":"wattlas-plant-gemplant-l100000103110","properties":{"aliases":["Pyongyang power station","Unit 1","Unit 10","Unit 11","Unit 2","Unit 3","Unit 4","Unit 5","Unit 6","Unit 7","Unit 8","Unit 9"],"canonicalAnchor":"gemplant:L100000103110","canonicalCountryKey":"KP","capacityMw":700.0,"country":"KP","externalIdAliases":{"gemUnit":["G100000108257","G100000108258","G100000108259","G100000108260","G100000108261","G100000108262","G100000108263","G100000108264","G100000115134","G100000115135","G100000115136"]},"externalIds":{"gemPlant":"L100000103110","gemUnit":"G100000115134"},"gemWikiUrl":"https://www.gem.wiki/Pyongyang_power_station","geographyId":"KP-3916807B24987303688366","id":"wattlas-plant-gemplant-l100000103110","lifecycleCounts":{"operational":11},"locationPrecision":"exact","name":"Pyongyang power station","operatingCapacityCoverage":{"coveragePercent":100.0,"knownUnitCount":11,"method":"complete_unit_sum","provenance":{"evidenceCount":0,"recordIds":["wattlas-record-gemunit-g100000108257","wattlas-record-gemunit-g100000108258","wattlas-record-gemunit-g100000108259","wattlas-record-gemunit-g100000108260","wattlas-record-gemunit-g100000108261","wattlas-record-gemunit-g100000108262","wattlas-record-gemunit-g100000108263","wattlas-record-gemunit-g100000108264","wattlas-record-gemunit-g100000115134","wattlas-record-gemunit-g100000115135","wattlas-record-gemunit-g100000115136"],"sourceIds":["gem-global-integrated-power-tracker"],"sourceTypes":["research_verified"],"valueKind":"reported"},"totalUnitCount":11},"operatingCapacityMw":700.0,"operatingCapacityMwByTechnology":{"coal":700.0},"plannedCapacityCoverage":{"coveragePercent":0.0,"knownUnitCount":0,"method":"unavailable","totalUnitCount":0},"plannedCapacityMw":0.0,"plannedCapacityMwByTechnology":{},"recordCount":11,"recordIds":["wattlas-record-gemunit-g100000108257","wattlas-record-gemunit-g100000108258","wattlas-record-gemunit-g100000108259","wattlas-record-gemunit-g100000108260","wattlas-record-gemunit-g100000108261","wattlas-record-gemunit-g100000108262","wattlas-record-gemunit-g100000108263","wattlas-record-gemunit-g100000108264","wattlas-record-gemunit-g100000115134","wattlas-record-gemunit-g100000115135","wattlas-record-gemunit-g100000115136"],"sourceIds":["gem-global-integrated-power-tracker"],"sourceUrl":"https://www.gem.wiki/Pyongyang_power_station","technologies":["coal"],"technologyMixMw":{"coal":700.0},"unitCount":11,"unitIds":["gem-unit-G100000108257","gem-unit-G100000108258","gem-unit-G100000108259","gem-unit-G100000108260","gem-unit-G100000108261","gem-unit-G100000108262","gem-unit-G100000108263","gem-unit-G100000108264","gem-unit-G100000115134","gem-unit-G100000115135","gem-unit-G100000115136"]},"type":"Feature"},{"geometry":{"coordinates":[130.382448,42.32849],"type":"Point"},"id":"wattlas-plant-gemplant-l100000104459","properties":{"aliases":["Sonbong power station","Unit 1","Unit 2","Unit 3"],"canonicalAnchor":"gemplant:L100000104459","canonicalCountryKey":"KP","capacityMw":200.0,"country":"KP","externalIdAliases":{"gemUnit":["G100000113905","G100000115630","G100000115631"]},"externalIds":{"gemPlant":"L100000104459","gemUnit":"G100000115631"},"gemWikiUrl":"https://www.gem.wiki/Sonbong_power_station","geographyId":"KP-3916807B66197610677259","id":"wattlas-plant-gemplant-l100000104459","lifecycleCounts":{"operational":3},"locationPrecision":"exact","name":"Sonbong power station","operatingCapacityCoverage":{"coveragePercent":100.0,"knownUnitCount":3,"method":"complete_unit_sum","provenance":{"evidenceCount":0,"recordIds":["wattlas-record-gemunit-g100000113905","wattlas-record-gemunit-g100000115630","wattlas-record-gemunit-g100000115631"],"sourceIds":["gem-global-integrated-power-tracker"],"sourceTypes":["research_verified"],"valueKind":"reported"},"totalUnitCount":3},"operatingCapacityMw":200.0,"operatingCapacityMwByTechnology":{"coal":200.0},"plannedCapacityCoverage":{"coveragePercent":0.0,"knownUnitCount":0,"method":"unavailable","totalUnitCount":0},"plannedCapacityMw":0.0,"plannedCapacityMwByTechnology":{},"recordCount":3,"recordIds":["wattlas-record-gemunit-g100000113905","wattlas-record-gemunit-g100000115630","wattlas-record-gemunit-g100000115631"],"sourceIds":["gem-global-integrated-power-tracker"],"sourceUrl":"https://www.gem.wiki/Sonbong_power_station","technologies":["coal"],"technologyMixMw":{"coal":200.0},"unitCount":3,"unitIds":["gem-unit-G100000113905","gem-unit-G100000115630","gem-unit-G100000115631"]},"type":"Feature"},{"geometry":{"coordinates":[125.7551,39.7959],"type":"Point"},"id":"wattlas-plant-gemplant-l100000500428","properties":{"aliases":["1.0","2.0","3.0","Nyongbyon nuclear power plant"],"canonicalAnchor":"gemplant:L100000500428","canonicalCountryKey":"KP","capacityMw":35.0,"country":"KP","externalIdAliases":{"gemUnit":["G100000501227","G100000501228","G100000501229"]},"externalIds":{"gemPlant":"L100000500428","gemUnit":"G100000501229"},"gemWikiUrl":"https://www.gem.wiki/Nyongbyon_nuclear_power_plant","geographyId":"KP-3916807B80386364257881","id":"wattlas-plant-gemplant-l100000500428","lifecycleCounts":{"cancelled":1,"operational":1,"under_construction":1},"locationPrecision":"exact","name":"Nyongbyon nuclear power plant","operatingCapacityCoverage":{"coveragePercent":100.0,"knownUnitCount":1,"method":"complete_unit_sum","provenance":{"evidenceCount":0,"recordIds":["wattlas-record-gemunit-g100000501227"],"sourceIds":["gem-global-integrated-power-tracker"],"sourceTypes":["research_verified"],"valueKind":"reported"},"totalUnitCount":1},"operatingCapacityMw":5.0,"operatingCapacityMwByTechnology":{"gas":5.0},"plannedCapacityCoverage":{"coveragePercent":100.0,"knownUnitCount":1,"method":"complete_unit_sum","provenance":{"evidenceCount":0,"recordIds":["wattlas-record-gemunit-g100000501229"],"sourceIds":["gem-global-integrated-power-tracker"],"sourceTypes":["research_verified"],"valueKind":"reported"},"totalUnitCount":1},"plannedCapacityMw":30.0,"plannedCapacityMwByTechnology":{"nuclear":30.0},"recordCount":3,"recordIds":["wattlas-record-gemunit-g100000501227","wattlas-record-gemunit-g100000501228","wattlas-record-gemunit-g100000501229"],"sourceIds":["gem-global-integrated-power-tracker"],"sourceUrl":"https://www.gem.wiki/Nyongbyon_nuclear_power_plant","technologies":["gas","nuclear"],"technologyMixMw":{"gas":5.0,"nuclear":30.0},"unitCount":3,"unitIds":["gem-unit-G100000501227","gem-unit-G100000501228","gem-unit-G100000501229"]},"type":"Feature"},{"geometry":{"coordinates":[128.3409,40.0947],"type":"Point"},"id":"wattlas-plant-gemplant-l100000500429","properties":{"aliases":["1.0","2.0","Sinpo nuclear power plant"],"canonicalAnchor":"gemplant:L100000500429","canonicalCountryKey":"KP","capacityMw":0.0,"country":"KP","externalIdAliases":{"gemUnit":["G100000501230","G100000501231"]},"externalIds":{"gemPlant":"L100000500429","gemUnit":"G100000501231"},"gemWikiUrl":"https://www.gem.wiki/Sinpo_nuclear_power_plant","geographyId":"KP-3916807B59695090380014","id":"wattlas-plant-gemplant-l100000500429","lifecycleCounts":{"cancelled":2},"locationPrecision":"exact","name":"Sinpo nuclear power plant","operatingCapacityCoverage":{"coveragePercent":0.0,"knownUnitCount":0,"method":"unavailable","totalUnitCount":0},"operatingCapacityMw":0.0,"operatingCapacityMwByTechnology":{},"plannedCapacityCoverage":{"coveragePercent":0.0,"knownUnitCount":0,"method":"unavailable","totalUnitCount":0},"plannedCapacityMw":0.0,"plannedCapacityMwByTechnology":{},"recordCount":2,"recordIds":["wattlas-record-gemunit-g100000501230","wattlas-record-gemunit-g100000501231"],"sourceIds":["gem-global-integrated-power-tracker"],"sourceUrl":"https://www.gem.wiki/Sinpo_nuclear_power_plant","technologies":["nuclear"],"technologyMixMw":{"nuclear":0.0},"unitCount":2,"unitIds":["gem-unit-G100000501230","gem-unit-G100000501231"]},"type":"Feature"},{"geometry":{"coordinates":[125.5694,39.9277],"type":"Point"},"id":"wattlas-plant-gemplant-l100000500430","properties":{"aliases":["--","Taechon nuclear power plant"],"canonicalAnchor":"gemplant:L100000500430","canonicalCountryKey":"KP","capacityMw":0.0,"country":"KP","externalIds":{"gemPlant":"L100000500430","gemUnit":"G100000501232"},"gemWikiUrl":"https://www.gem.wiki/Taechon_nuclear_power_plant","geographyId":"KP-3916807B80386364257881","id":"wattlas-plant-gemplant-l100000500430","lifecycleCounts":{"cancelled":1},"locationPrecision":"exact","name":"Taechon nuclear power plant","operatingCapacityCoverage":{"coveragePercent":0.0,"knownUnitCount":0,"method":"unavailable","totalUnitCount":0},"operatingCapacityMw":0.0,"operatingCapacityMwByTechnology":{},"plannedCapacityCoverage":{"coveragePercent":0.0,"knownUnitCount":0,"method":"unavailable","totalUnitCount":0},"plannedCapacityMw":0.0,"plannedCapacityMwByTechnology":{},"recordCount":1,"recordIds":["wattlas-record-gemunit-g100000501232"],"sourceIds":["gem-global-integrated-power-tracker"],"sourceUrl":"https://www.gem.wiki/Taechon_nuclear_power_plant","technologies":["gas"],"technologyMixMw":{"gas":0.0},"unitCount":1,"unitIds":["gem-unit-G100000501232"]},"type":"Feature"},{"geometry":{"coordinates":[127.5389,38.9544],"type":"Point"},"id":"wattlas-plant-gemplant-l100000602859","properties":{"aliases":["Anbyon Youth hydroelectric plant"],"canonicalAnchor":"gemplant:L100000602859","canonicalCountryKey":"KP","capacityMw":100.0,"country":"KP","externalIdAliases":{"gemUnit":["G100000602892","G100000604210"]},"externalIds":{"gemPlant":"L100000602859","gemUnit":"G100000604210"},"gemWikiUrl":"https://www.gem.wiki/Anbyon_Youth_hydroelectric_plant","geographyId":"KP-3916807B60771411413787","id":"wattlas-plant-gemplant-l100000602859","lifecycleCounts":{"cancelled":1,"operational":1},"locationPrecision":"exact","name":"Anbyon Youth hydroelectric plant","operatingCapacityCoverage":{"coveragePercent":100.0,"knownUnitCount":1,"method":"complete_unit_sum","provenance":{"evidenceCount":0,"recordIds":["wattlas-record-gemunit-g100000602892"],"sourceIds":["gem-global-integrated-power-tracker"],"sourceTypes":["research_verified"],"valueKind":"reported"},"totalUnitCount":1},"operatingCapacityMw":100.0,"operatingCapacityMwByTechnology":{"hydro":100.0},"plannedCapacityCoverage":{"coveragePercent":0.0,"knownUnitCount":0,"method":"unavailable","totalUnitCount":0},"plannedCapacityMw":0.0,"plannedCapacityMwByTechnology":{},"recordCount":2,"recordIds":["wattlas-record-gemunit-g100000602892","wattlas-record-gemunit-g100000604210"],"sourceIds":["gem-global-integrated-power-tracker"],"sourceUrl":"https://www.gem.wiki/Anbyon_Youth_hydroelectric_plant","technologies":["hydro"],"technologyMixMw":{"hydro":100.0},"unitCount":2,"unitIds":["gem-unit-G100000602892","gem-unit-G100000604210"]},"type":"Feature"},{"geometry":{"coordinates":[127.5389,38.9544],"type":"Point"},"id":"wattlas-plant-gemplant-l100000602860","properties":{"aliases":["Anbyon Youth No 2 hydroelectric plant"],"canonicalAnchor":"gemplant:L100000602860","canonicalCountryKey":"KP","capacityMw":100.0,"country":"KP","externalIds":{"gemPlant":"L100000602860","gemUnit":"G100000602893"},"gemWikiUrl":"https://www.gem.wiki/Anbyon_Youth_No_2_hydroelectric_plant","geographyId":"KP-3916807B60771411413787","id":"wattlas-plant-gemplant-l100000602860","lifecycleCounts":{"operational":1},"locationPrecision":"exact","name":"Anbyon Youth No 2 hydroelectric plant","operatingCapacityCoverage":{"coveragePercent":100.0,"knownUnitCount":1,"method":"complete_unit_sum","provenance":{"evidenceCount":0,"recordIds":["wattlas-record-gemunit-g100000602893"],"sourceIds":["gem-global-integrated-power-tracker"],"sourceTypes":["research_verified"],"valueKind":"reported"},"totalUnitCount":1},"operatingCapacityMw":100.0,"operatingCapacityMwByTechnology":{"hydro":100.0},"plannedCapacityCoverage":{"coveragePercent":0.0,"knownUnitCount":0,"method":"unavailable","totalUnitCount":0},"plannedCapacityMw":0.0,"plannedCapacityMwByTechnology":{},"recordCount":1,"recordIds":["wattlas-record-gemunit-g100000602893"],"sourceIds":["gem-global-integrated-power-tracker"],"sourceUrl":"https://www.gem.wiki/Anbyon_Youth_No_2_hydroelectric_plant","technologies":["hydro"],"technologyMixMw":{"hydro":100.0},"unitCount":1,"unitIds":["gem-unit-G100000602893"]},"type":"Feature"},{"geometry":{"coordinates":[126.3499,40.1811],"type":"Point"},"id":"wattlas-plant-gemplant-l100000602864","properties":{"aliases":["Huichon 1 hydroelectric plant"],"canonicalAnchor":"gemplant:L100000602864","canonicalCountryKey":"KP","capacityMw":150.0,"country":"KP","externalIds":{"gemPlant":"L100000602864","gemUnit":"G100000602897"},"gemWikiUrl":"https://www.gem.wiki/Huichon_1_hydroelectric_plant","geographyId":"KP-3916807B5646338397672","id":"wattlas-plant-gemplant-l100000602864","lifecycleCounts":{"operational":1},"locationPrecision":"exact","name":"Huichon 1 hydroelectric plant","operatingCapacityCoverage":{"coveragePercent":100.0,"knownUnitCount":1,"method":"complete_unit_sum","provenance":{"evidenceCount":0,"recordIds":["wattlas-record-gemunit-g100000602897"],"sourceIds":["gem-global-integrated-power-tracker"],"sourceTypes":["research_verified"],"valueKind":"reported"},"totalUnitCount":1},"operatingCapacityMw":150.0,"operatingCapacityMwByTechnology":{"hydro":150.0},"plannedCapacityCoverage":{"coveragePercent":0.0,"knownUnitCount":0,"method":"unavailable","totalUnitCount":0},"plannedCapacityMw":0.0,"plannedCapacityMwByTechnology":{},"recordCount":1,"recordIds":["wattlas-record-gemunit-g100000602897"],"sourceIds":["gem-global-integrated-power-tracker"],"sourceUrl":"https://www.gem.wiki/Huichon_1_hydroelectric_plant","technologies":["hydro"],"technologyMixMw":{"hydro":150.0},"unitCount":1,"unitIds":["gem-unit-G100000602897"]},"type":"Feature"},{"geometry":{"coordinates":[126.3499,40.1811],"type":"Point"},"id":"wattlas-plant-gemplant-l100000602865","properties":{"aliases":["Huichon 2 hydroelectric plant"],"canonicalAnchor":"gemplant:L100000602865","canonicalCountryKey":"KP","capacityMw":150.0,"country":"KP","externalIds":{"gemPlant":"L100000602865","gemUnit":"G100000602898"},"gemWikiUrl":"https://www.gem.wiki/Huichon_2_hydroelectric_plant","geographyId":"KP-3916807B5646338397672","id":"wattlas-plant-gemplant-l100000602865","lifecycleCounts":{"operational":1},"locationPrecision":"exact","name":"Huichon 2 hydroelectric plant","operatingCapacityCoverage":{"coveragePercent":100.0,"knownUnitCount":1,"method":"complete_unit_sum","provenance":{"evidenceCount":0,"recordIds":["wattlas-record-gemunit-g100000602898"],"sourceIds":["gem-global-integrated-power-tracker"],"sourceTypes":["research_verified"],"valueKind":"reported"},"totalUnitCount":1},"operatingCapacityMw":150.0,"operatingCapacityMwByTechnology":{"hydro":150.0},"plannedCapacityCoverage":{"coveragePercent":0.0,"knownUnitCount":0,"method":"unavailable","totalUnitCount":0},"plannedCapacityMw":0.0,"plannedCapacityMwByTechnology":{},"recordCount":1,"recordIds":["wattlas-record-gemunit-g100000602898"],"sourceIds":["gem-global-integrated-power-tracker"],"sourceUrl":"https://www.gem.wiki/Huichon_2_hydroelectric_plant","technologies":["hydro"],"technologyMixMw":{"hydro":150.0},"unitCount":1,"unitIds":["gem-unit-G100000602898"]},"type":"Feature"},{"geometry":{"coordinates":[127.5781,40.0549],"type":"Point"},"id":"wattlas-plant-gemplant-l100000602867","properties":{"aliases":["Jangjingang hydroelectric plant"],"canonicalAnchor":"gemplant:L100000602867","canonicalCountryKey":"KP","capacityMw":381.0,"country":"KP","externalIds":{"gemPlant":"L100000602867","gemUnit":"G100000602900"},"gemWikiUrl":"https://www.gem.wiki/Jangjingang_hydroelectric_plant","geographyId":"KP-3916807B59695090380014","id":"wattlas-plant-gemplant-l100000602867","lifecycleCounts":{"operational":1},"locationPrecision":"exact","name":"Jangjingang hydroelectric plant","operatingCapacityCoverage":{"coveragePercent":100.0,"knownUnitCount":1,"method":"complete_unit_sum","provenance":{"evidenceCount":0,"recordIds":["wattlas-record-gemunit-g100000602900"],"sourceIds":["gem-global-integrated-power-tracker"],"sourceTypes":["research_verified"],"valueKind":"reported"},"totalUnitCount":1},"operatingCapacityMw":381.0,"operatingCapacityMwByTechnology":{"hydro":381.0},"plannedCapacityCoverage":{"coveragePercent":0.0,"knownUnitCount":0,"method":"unavailable","totalUnitCount":0},"plannedCapacityMw":0.0,"plannedCapacityMwByTechnology":{},"recordCount":1,"recordIds":["wattlas-record-gemunit-g100000602900"],"sourceIds":["gem-global-integrated-power-tracker"],"sourceUrl":"https://www.gem.wiki/Jangjingang_hydroelectric_plant","technologies":["hydro"],"technologyMixMw":{"hydro":381.0},"unitCount":1,"unitIds":["gem-unit-G100000602900"]},"type":"Feature"},{"geometry":{"coordinates":[126.3501,40.1802],"type":"Point"},"id":"wattlas-plant-gemplant-l100000602868","properties":{"aliases":["Kanggye Youth hydroelectric plant"],"canonicalAnchor":"gemplant:L100000602868","canonicalCountryKey":"KP","capacityMw":218.0,"country":"KP","externalIds":{"gemPlant":"L100000602868","gemUnit":"G100000602901"},"gemWikiUrl":"https://www.gem.wiki/Kanggye_Youth_hydroelectric_plant","geographyId":"KP-3916807B5646338397672","id":"wattlas-plant-gemplant-l100000602868","lifecycleCounts":{"operational":1},"locationPrecision":"exact","name":"Kanggye Youth hydroelectric plant","operatingCapacityCoverage":{"coveragePercent":100.0,"knownUnitCount":1,"method":"complete_unit_sum","provenance":{"evidenceCount":0,"recordIds":["wattlas-record-gemunit-g100000602901"],"sourceIds":["gem-global-integrated-power-tracker"],"sourceTypes":["research_verified"],"valueKind":"reported"},"totalUnitCount":1},"operatingCapacityMw":218.0,"operatingCapacityMwByTechnology":{"hydro":218.0},"plannedCapacityCoverage":{"coveragePercent":0.0,"knownUnitCount":0,"method":"unavailable","totalUnitCount":0},"plannedCapacityMw":0.0,"plannedCapacityMwByTechnology":{},"recordCount":1,"recordIds":["wattlas-record-gemunit-g100000602901"],"sourceIds":["gem-global-integrated-power-tracker"],"sourceUrl":"https://www.gem.wiki/Kanggye_Youth_hydroelectric_plant","technologies":["hydro"],"technologyMixMw":{"hydro":218.0},"unitCount":1,"unitIds":["gem-unit-G100000602901"]},"type":"Feature"},{"geometry":{"coordinates":[129.3896,41.3478],"type":"Point"},"id":"wattlas-plant-gemplant-l100000602869","properties":{"aliases":["Orangchon hydroelectric plant"],"canonicalAnchor":"gemplant:L100000602869","canonicalCountryKey":"KP","capacityMw":134.0,"country":"KP","externalIds":{"gemPlant":"L100000602869","gemUnit":"G100000602902"},"gemWikiUrl":"https://www.gem.wiki/Orangchon_hydroelectric_plant","geographyId":"KP-3916807B66197610677259","id":"wattlas-plant-gemplant-l100000602869","lifecycleCounts":{"operational":1},"locationPrecision":"exact","name":"Orangchon hydroelectric plant","operatingCapacityCoverage":{"coveragePercent":100.0,"knownUnitCount":1,"method":"complete_unit_sum","provenance":{"evidenceCount":0,"recordIds":["wattlas-record-gemunit-g100000602902"],"sourceIds":["gem-global-integrated-power-tracker"],"sourceTypes":["research_verified"],"valueKind":"reported"},"totalUnitCount":1},"operatingCapacityMw":134.0,"operatingCapacityMwByTechnology":{"hydro":134.0},"plannedCapacityCoverage":{"coveragePercent":0.0,"knownUnitCount":0,"method":"unavailable","totalUnitCount":0},"plannedCapacityMw":0.0,"plannedCapacityMwByTechnology":{},"recordCount":1,"recordIds":["wattlas-record-gemunit-g100000602902"],"sourceIds":["gem-global-integrated-power-tracker"],"sourceUrl":"https://www.gem.wiki/Orangchon_hydroelectric_plant","technologies":["hydro"],"technologyMixMw":{"hydro":134.0},"unitCount":1,"unitIds":["gem-unit-G100000602902"]},"type":"Feature"},{"geometry":{"coordinates":[126.3478,39.7735],"type":"Point"},"id":"wattlas-plant-gemplant-l100000602874","properties":{"aliases":["Taedonggang hydroelectric plant"],"canonicalAnchor":"gemplant:L100000602874","canonicalCountryKey":"KP","capacityMw":200.0,"country":"KP","externalIds":{"gemPlant":"L100000602874","gemUnit":"G100000602907"},"gemWikiUrl":"https://www.gem.wiki/Taedonggang_hydroelectric_plant","geographyId":"KP-3916807B57216784573597","id":"wattlas-plant-gemplant-l100000602874","lifecycleCounts":{"operational":1},"locationPrecision":"exact","name":"Taedonggang hydroelectric plant","operatingCapacityCoverage":{"coveragePercent":100.0,"knownUnitCount":1,"method":"complete_unit_sum","provenance":{"evidenceCount":0,"recordIds":["wattlas-record-gemunit-g100000602907"],"sourceIds":["gem-global-integrated-power-tracker"],"sourceTypes":["research_verified"],"valueKind":"reported"},"totalUnitCount":1},"operatingCapacityMw":200.0,"operatingCapacityMwByTechnology":{"hydro":200.0},"plannedCapacityCoverage":{"coveragePercent":0.0,"knownUnitCount":0,"method":"unavailable","totalUnitCount":0},"plannedCapacityMw":0.0,"plannedCapacityMwByTechnology":{},"recordCount":1,"recordIds":["wattlas-record-gemunit-g100000602907"],"sourceIds":["gem-global-integrated-power-tracker"],"sourceUrl":"https://www.gem.wiki/Taedonggang_hydroelectric_plant","technologies":["hydro"],"technologyMixMw":{"hydro":200.0},"unitCount":1,"unitIds":["gem-unit-G100000602907"]},"type":"Feature"},{"geometry":{"coordinates":[124.9629,40.4615],"type":"Point"},"id":"wattlas-plant-gemplant-l100000604076","properties":{"aliases":["Shuifeng hydroelectric plant"],"canonicalAnchor":"gemplant:L100000604076","canonicalCountryKey":"KP","capacityMw":630.0,"country":"KP","externalIds":{"gemPlant":"L100000604076","gemUnit":"G100000604115"},"gemWikiUrl":"https://www.gem.wiki/Shuifeng_hydroelectric_plant","geographyId":"KP-3916807B80386364257881","id":"wattlas-plant-gemplant-l100000604076","lifecycleCounts":{"operational":1},"locationPrecision":"exact","name":"Shuifeng hydroelectric plant","operatingCapacityCoverage":{"coveragePercent":100.0,"knownUnitCount":1,"method":"complete_unit_sum","provenance":{"evidenceCount":0,"recordIds":["wattlas-record-gemunit-g100000604115"],"sourceIds":["gem-global-integrated-power-tracker"],"sourceTypes":["research_verified"],"valueKind":"reported"},"totalUnitCount":1},"operatingCapacityMw":630.0,"operatingCapacityMwByTechnology":{"hydro":630.0},"plannedCapacityCoverage":{"coveragePercent":0.0,"knownUnitCount":0,"method":"unavailable","totalUnitCount":0},"plannedCapacityMw":0.0,"plannedCapacityMwByTechnology":{},"recordCount":1,"recordIds":["wattlas-record-gemunit-g100000604115"],"sourceIds":["gem-global-integrated-power-tracker"],"sourceUrl":"https://www.gem.wiki/Shuifeng_hydroelectric_plant","technologies":["hydro"],"technologyMixMw":{"hydro":630.0},"unitCount":1,"unitIds":["gem-unit-G100000604115"]},"type":"Feature"},{"geometry":{"coordinates":[127.1112,39.0364],"type":"Point"},"id":"wattlas-plant-gemplant-l100001080263","properties":{"aliases":["Wonsan Civilian hydroelectric plant"],"canonicalAnchor":"gemplant:L100001080263","canonicalCountryKey":"KP","capacityMw":40.0,"country":"KP","externalIds":{"gemPlant":"L100001080263","gemUnit":"G100001090139"},"gemWikiUrl":"https://www.gem.wiki/Wonsan_Civilian_hydroelectric_plant","geographyId":"KP-3916807B60771411413787","id":"wattlas-plant-gemplant-l100001080263","lifecycleCounts":{"operational":1},"locationPrecision":"exact","name":"Wonsan Civilian hydroelectric plant","operatingCapacityCoverage":{"coveragePercent":100.0,"knownUnitCount":1,"method":"complete_unit_sum","provenance":{"evidenceCount":0,"recordIds":["wattlas-record-gemunit-g100001090139"],"sourceIds":["gem-global-integrated-power-tracker"],"sourceTypes":["research_verified"],"valueKind":"reported"},"totalUnitCount":1},"operatingCapacityMw":40.0,"operatingCapacityMwByTechnology":{"hydro":40.0},"plannedCapacityCoverage":{"coveragePercent":0.0,"knownUnitCount":0,"method":"unavailable","totalUnitCount":0},"plannedCapacityMw":0.0,"plannedCapacityMwByTechnology":{},"recordCount":1,"recordIds":["wattlas-record-gemunit-g100001090139"],"sourceIds":["gem-global-integrated-power-tracker"],"sourceUrl":"https://www.gem.wiki/Wonsan_Civilian_hydroelectric_plant","technologies":["hydro"],"technologyMixMw":{"hydro":40.0},"unitCount":1,"unitIds":["gem-unit-G100001090139"]},"type":"Feature"},{"geometry":{"coordinates":[125.716513,39.673849],"type":"Point"},"id":"wattlas-plant-osm-way-1017072751","properties":{"aliases":["청천강화력발전소"],"canonicalAnchor":"osm:way/1017072751","canonicalCountryKey":"KP","capacityMw":200.0,"country":"KP","externalIds":{"osm":"way/1017072751"},"geographyId":"KP-3916807B57216784573597","id":"wattlas-plant-osm-way-1017072751","lifecycleCounts":{"operational":1},"locationPrecision":"exact","name":"청천강화력발전소","operatingCapacityCoverage":{"coveragePercent":100.0,"knownUnitCount":0,"method":"plant_aggregate","provenance":{"evidenceCount":0,"recordIds":["wattlas-record-osm-way-1017072751"],"sourceIds":["openstreetmap-power"],"sourceTypes":["community_mapped"],"valueKind":"reported"},"totalUnitCount":0},"operatingCapacityMw":200.0,"operatingCapacityMwByTechnology":{"coal":200.0},"plannedCapacityCoverage":{"coveragePercent":0.0,"knownUnitCount":0,"method":"unavailable","totalUnitCount":0},"plannedCapacityMw":0.0,"plannedCapacityMwByTechnology":{},"recordCount":1,"recordIds":["wattlas-record-osm-way-1017072751"],"sourceIds":["openstreetmap-power"],"sourceUrl":"https://www.openstreetmap.org/way/1017072751","technologies":["coal"],"technologyMixMw":{"coal":200.0},"unitCount":0,"unitIds":[]},"type":"Feature"},{"geometry":{"coordinates":[126.596508,40.978294],"type":"Point"},"id":"wattlas-plant-osm-way-1121948308","properties":{"aliases":["강계수차식발전소"],"canonicalAnchor":"osm:way/1121948308","canonicalCountryKey":"KP","capacityMw":0.0,"country":"KP","externalIds":{"osm":"way/1121948308"},"geographyId":"KP-3916807B5646338397672","id":"wattlas-plant-osm-way-1121948308","lifecycleCounts":{"operational":1},"locationPrecision":"exact","name":"강계수차식발전소","operatingCapacityCoverage":{"coveragePercent":0.0,"knownUnitCount":0,"method":"unavailable","totalUnitCount":0},"operatingCapacityMw":0.0,"operatingCapacityMwByTechnology":{},"plannedCapacityCoverage":{"coveragePercent":0.0,"knownUnitCount":0,"method":"unavailable","totalUnitCount":0},"plannedCapacityMw":0.0,"plannedCapacityMwByTechnology":{},"recordCount":1,"recordIds":["wattlas-record-osm-way-1121948308"],"sourceIds":["openstreetmap-power"],"sourceUrl":"https://www.openstreetmap.org/way/1121948308","technologies":["hydro"],"technologyMixMw":{"hydro":0.0},"unitCount":0,"unitIds":[]},"type":"Feature"},{"geometry":{"coordinates":[126.611994,40.984456],"type":"Point"},"id":"wattlas-plant-osm-way-1121948321","properties":{"aliases":["북천1호발전소"],"canonicalAnchor":"osm:way/1121948321","canonicalCountryKey":"KP","capacityMw":0.0,"country":"KP","externalIds":{"osm":"way/1121948321"},"geographyId":"KP-3916807B5646338397672","id":"wattlas-plant-osm-way-1121948321","lifecycleCounts":{"operational":1},"locationPrecision":"exact","name":"북천1호발전소","operatingCapacityCoverage":{"coveragePercent":0.0,"knownUnitCount":0,"method":"unavailable","totalUnitCount":0},"operatingCapacityMw":0.0,"operatingCapacityMwByTechnology":{},"plannedCapacityCoverage":{"coveragePercent":0.0,"knownUnitCount":0,"method":"unavailable","totalUnitCount":0},"plannedCapacityMw":0.0,"plannedCapacityMwByTechnology":{},"recordCount":1,"recordIds":["wattlas-record-osm-way-1121948321"],"sourceIds":["openstreetmap-power"],"sourceUrl":"https://www.openstreetmap.org/way/1121948321","technologies":["hydro"],"technologyMixMw":{"hydro":0.0},"unitCount":0,"unitIds":[]},"type":"Feature"},{"geometry":{"coordinates":[126.619346,40.992523],"type":"Point"},"id":"wattlas-plant-osm-way-1121948322","properties":{"aliases":["북천2호발전소"],"canonicalAnchor":"osm:way/1121948322","canonicalCountryKey":"KP","capacityMw":0.0,"country":"KP","externalIds":{"osm":"way/1121948322"},"geographyId":"KP-3916807B5646338397672","id":"wattlas-plant-osm-way-1121948322","lifecycleCounts":{"operational":1},"locationPrecision":"exact","name":"북천2호발전소","operatingCapacityCoverage":{"coveragePercent":0.0,"knownUnitCount":0,"method":"unavailable","totalUnitCount":0},"operatingCapacityMw":0.0,"operatingCapacityMwByTechnology":{},"plannedCapacityCoverage":{"coveragePercent":0.0,"knownUnitCount":0,"method":"unavailable","totalUnitCount":0},"plannedCapacityMw":0.0,"plannedCapacityMwByTechnology":{},"recordCount":1,"recordIds":["wattlas-record-osm-way-1121948322"],"sourceIds":["openstreetmap-power"],"sourceUrl":"https://www.openstreetmap.org/way/1121948322","technologies":["hydro"],"technologyMixMw":{"hydro":0.0},"unitCount":0,"unitIds":[]},"type":"Feature"},{"geometry":{"coordinates":[126.627812,41.005444],"type":"Point"},"id":"wattlas-plant-osm-way-1121948330","properties":{"aliases":["북천3호발전소"],"canonicalAnchor":"osm:way/1121948330","canonicalCountryKey":"KP","capacityMw":0.0,"country":"KP","externalIds":{"osm":"way/1121948330"},"geographyId":"KP-3916807B5646338397672","id":"wattlas-plant-osm-way-1121948330","lifecycleCounts":{"operational":1},"locationPrecision":"exact","name":"북천3호발전소","operatingCapacityCoverage":{"coveragePercent":0.0,"knownUnitCount":0,"method":"unavailable","totalUnitCount":0},"operatingCapacityMw":0.0,"operatingCapacityMwByTechnology":{},"plannedCapacityCoverage":{"coveragePercent":0.0,"knownUnitCount":0,"method":"unavailable","totalUnitCount":0},"plannedCapacityMw":0.0,"plannedCapacityMwByTechnology":{},"recordCount":1,"recordIds":["wattlas-record-osm-way-1121948330"],"sourceIds":["openstreetmap-power"],"sourceUrl":"https://www.openstreetmap.org/way/1121948330","technologies":["hydro"],"technologyMixMw":{"hydro":0.0},"unitCount":0,"unitIds":[]},"type":"Feature"},{"geometry":{"coordinates":[126.636028,41.014085],"type":"Point"},"id":"wattlas-plant-osm-way-1121948331","properties":{"aliases":["북천4호발전소"],"canonicalAnchor":"osm:way/1121948331","canonicalCountryKey":"KP","capacityMw":0.0,"country":"KP","externalIds":{"osm":"way/1121948331"},"geographyId":"KP-3916807B5646338397672","id":"wattlas-plant-osm-way-1121948331","lifecycleCounts":{"operational":1},"locationPrecision":"exact","name":"북천4호발전소","operatingCapacityCoverage":{"coveragePercent":0.0,"knownUnitCount":0,"method":"unavailable","totalUnitCount":0},"operatingCapacityMw":0.0,"operatingCapacityMwByTechnology":{},"plannedCapacityCoverage":{"coveragePercent":0.0,"knownUnitCount":0,"method":"unavailable","totalUnitCount":0},"plannedCapacityMw":0.0,"plannedCapacityMwByTechnology":{},"recordCount":1,"recordIds":["wattlas-record-osm-way-1121948331"],"sourceIds":["openstreetmap-power"],"sourceUrl":"https://www.openstreetmap.org/way/1121948331","technologies":["hydro"],"technologyMixMw":{"hydro":0.0},"unitCount":0,"unitIds":[]},"type":"Feature"},{"geometry":{"coordinates":[126.661193,41.054466],"type":"Point"},"id":"wattlas-plant-osm-way-1121948332","properties":{"aliases":["장강3호발전소"],"canonicalAnchor":"osm:way/1121948332","canonicalCountryKey":"KP","capacityMw":0.0,"country":"KP","externalIds":{"osm":"way/1121948332"},"geographyId":"KP-3916807B5646338397672","id":"wattlas-plant-osm-way-1121948332","lifecycleCounts":{"operational":1},"locationPrecision":"exact","name":"장강3호발전소","operatingCapacityCoverage":{"coveragePercent":0.0,"knownUnitCount":0,"method":"unavailable","totalUnitCount":0},"operatingCapacityMw":0.0,"operatingCapacityMwByTechnology":{},"plannedCapacityCoverage":{"coveragePercent":0.0,"knownUnitCount":0,"method":"unavailable","totalUnitCount":0},"plannedCapacityMw":0.0,"plannedCapacityMwByTechnology":{},"recordCount":1,"recordIds":["wattlas-record-osm-way-1121948332"],"sourceIds":["openstreetmap-power"],"sourceUrl":"https://www.openstreetmap.org/way/1121948332","technologies":["hydro"],"technologyMixMw":{"hydro":0.0},"unitCount":0,"unitIds":[]},"type":"Feature"},{"geometry":{"coordinates":[126.667231,41.061389],"type":"Point"},"id":"wattlas-plant-osm-way-1121948339","properties":{"aliases":["장강2호발전소"],"canonicalAnchor":"osm:way/1121948339","canonicalCountryKey":"KP","capacityMw":0.0,"country":"KP","externalIds":{"osm":"way/1121948339"},"geographyId":"KP-3916807B5646338397672","id":"wattlas-plant-osm-way-1121948339","lifecycleCounts":{"operational":1},"locationPrecision":"exact","name":"장강2호발전소","operatingCapacityCoverage":{"coveragePercent":0.0,"knownUnitCount":0,"method":"unavailable","totalUnitCount":0},"operatingCapacityMw":0.0,"operatingCapacityMwByTechnology":{},"plannedCapacityCoverage":{"coveragePercent":0.0,"knownUnitCount":0,"method":"unavailable","totalUnitCount":0},"plannedCapacityMw":0.0,"plannedCapacityMwByTechnology":{},"recordCount":1,"recordIds":["wattlas-record-osm-way-1121948339"],"sourceIds":["openstreetmap-power"],"sourceUrl":"https://www.openstreetmap.org/way/1121948339","technologies":["hydro"],"technologyMixMw":{"hydro":0.0},"unitCount":0,"unitIds":[]},"type":"Feature"},{"geometry":{"coordinates":[126.686219,41.063601],"type":"Point"},"id":"wattlas-plant-osm-way-1121948341","properties":{"aliases":["장강5호발전소"],"canonicalAnchor":"osm:way/1121948341","canonicalCountryKey":"KP","capacityMw":0.0,"country":"KP","externalIds":{"osm":"way/1121948341"},"geographyId":"KP-3916807B5646338397672","id":"wattlas-plant-osm-way-1121948341","lifecycleCounts":{"operational":1},"locationPrecision":"exact","name":"장강5호발전소","operatingCapacityCoverage":{"coveragePercent":0.0,"knownUnitCount":0,"method":"unavailable","totalUnitCount":0},"operatingCapacityMw":0.0,"operatingCapacityMwByTechnology":{},"plannedCapacityCoverage":{"coveragePercent":0.0,"knownUnitCount":0,"method":"unavailable","totalUnitCount":0},"plannedCapacityMw":0.0,"plannedCapacityMwByTechnology":{},"recordCount":1,"recordIds":["wattlas-record-osm-way-1121948341"],"sourceIds":["openstreetmap-power"],"sourceUrl":"https://www.openstreetmap.org/way/1121948341","technologies":["hydro"],"technologyMixMw":{"hydro":0.0},"unitCount":0,"unitIds":[]},"type":"Feature"},{"geometry":{"coordinates":[126.70984,41.067675],"type":"Point"},"id":"wattlas-plant-osm-way-1121948342","properties":{"aliases":["성장천소형발전소"],"canonicalAnchor":"osm:way/1121948342","canonicalCountryKey":"KP","capacityMw":0.0,"country":"KP","externalIds":{"osm":"way/1121948342"},"geographyId":"KP-3916807B5646338397672","id":"wattlas-plant-osm-way-1121948342","lifecycleCounts":{"operational":1},"locationPrecision":"exact","name":"성장천소형발전소","operatingCapacityCoverage":{"coveragePercent":0.0,"knownUnitCount":0,"method":"unavailable","totalUnitCount":0},"operatingCapacityMw":0.0,"operatingCapacityMwByTechnology":{},"plannedCapacityCoverage":{"coveragePercent":0.0,"knownUnitCount":0,"method":"unavailable","totalUnitCount":0},"plannedCapacityMw":0.0,"plannedCapacityMwByTechnology":{},"recordCount":1,"recordIds":["wattlas-record-osm-way-1121948342"],"sourceIds":["openstreetmap-power"],"sourceUrl":"https://www.openstreetmap.org/way/1121948342","technologies":["hydro"],"technologyMixMw":{"hydro":0.0},"unitCount":0,"unitIds":[]},"type":"Feature"},{"geometry":{"coordinates":[125.754995,39.794659],"type":"Point"},"id":"wattlas-plant-osm-way-1410158137","properties":{"aliases":["25MW 실험용 경수로 부지"],"canonicalAnchor":"osm:way/1410158137","canonicalCountryKey":"KP","capacityMw":25.0,"country":"KP","externalIds":{"osm":"way/1410158137"},"geographyId":"KP-3916807B80386364257881","id":"wattlas-plant-osm-way-1410158137","lifecycleCounts":{"operational":1},"locationPrecision":"exact","name":"25MW 실험용 경수로 부지","operatingCapacityCoverage":{"coveragePercent":100.0,"knownUnitCount":0,"method":"plant_aggregate","provenance":{"evidenceCount":0,"recordIds":["wattlas-record-osm-way-1410158137"],"sourceIds":["openstreetmap-power"],"sourceTypes":["community_mapped"],"valueKind":"reported"},"totalUnitCount":0},"operatingCapacityMw":25.0,"operatingCapacityMwByTechnology":{"nuclear":25.0},"plannedCapacityCoverage":{"coveragePercent":0.0,"knownUnitCount":0,"method":"unavailable","totalUnitCount":0},"plannedCapacityMw":0.0,"plannedCapacityMwByTechnology":{},"recordCount":1,"recordIds":["wattlas-record-osm-way-1410158137"],"sourceIds":["openstreetmap-power"],"sourceUrl":"https://www.openstreetmap.org/way/1410158137","technologies":["nuclear"],"technologyMixMw":{"nuclear":25.0},"unitCount":0,"unitIds":[]},"type":"Feature"},{"geometry":{"coordinates":[125.750535,39.807349],"type":"Point"},"id":"wattlas-plant-osm-way-1410158204","properties":{"aliases":["IRT-2000 Reactor Site"],"canonicalAnchor":"osm:way/1410158204","canonicalCountryKey":"KP","capacityMw":8.0,"country":"KP","externalIds":{"osm":"way/1410158204"},"geographyId":"KP-3916807B80386364257881","id":"wattlas-plant-osm-way-1410158204","lifecycleCounts":{"operational":1},"locationPrecision":"exact","name":"IRT-2000 Reactor Site","operatingCapacityCoverage":{"coveragePercent":100.0,"knownUnitCount":0,"method":"plant_aggregate","provenance":{"evidenceCount":0,"recordIds":["wattlas-record-osm-way-1410158204"],"sourceIds":["openstreetmap-power"],"sourceTypes":["community_mapped"],"valueKind":"reported"},"totalUnitCount":0},"operatingCapacityMw":8.0,"operatingCapacityMwByTechnology":{"nuclear":8.0},"plannedCapacityCoverage":{"coveragePercent":0.0,"knownUnitCount":0,"method":"unavailable","totalUnitCount":0},"plannedCapacityMw":0.0,"plannedCapacityMwByTechnology":{},"recordCount":1,"recordIds":["wattlas-record-osm-way-1410158204"],"sourceIds":["openstreetmap-power"],"sourceUrl":"https://www.openstreetmap.org/way/1410158204","technologies":["nuclear"],"technologyMixMw":{"nuclear":8.0},"unitCount":0,"unitIds":[]},"type":"Feature"},{"geometry":{"coordinates":[126.304516,39.586179],"type":"Point"},"id":"wattlas-plant-osm-way-179486153","properties":{"aliases":["북창화력발전련합기업소"],"canonicalAnchor":"osm:way/179486153","canonicalCountryKey":"KP","capacityMw":160.0,"country":"KP","externalIds":{"osm":"way/179486153"},"geographyId":"KP-3916807B57216784573597","id":"wattlas-plant-osm-way-179486153","lifecycleCounts":{"operational":1},"locationPrecision":"exact","name":"북창화력발전련합기업소","operatingCapacityCoverage":{"coveragePercent":100.0,"knownUnitCount":0,"method":"plant_aggregate","provenance":{"evidenceCount":0,"recordIds":["wattlas-record-osm-way-179486153"],"sourceIds":["openstreetmap-power"],"sourceTypes":["community_mapped"],"valueKind":"reported"},"totalUnitCount":0},"operatingCapacityMw":160.0,"operatingCapacityMwByTechnology":{"coal":160.0},"plannedCapacityCoverage":{"coveragePercent":0.0,"knownUnitCount":0,"method":"unavailable","totalUnitCount":0},"plannedCapacityMw":0.0,"plannedCapacityMwByTechnology":{},"recordCount":1,"recordIds":["wattlas-record-osm-way-179486153"],"sourceIds":["openstreetmap-power"],"sourceUrl":"https://www.openstreetmap.org/way/179486153","technologies":["coal"],"technologyMixMw":{"coal":160.0},"unitCount":0,"unitIds":[]},"type":"Feature"},{"geometry":{"coordinates":[125.968065,39.401489],"type":"Point"},"id":"wattlas-plant-osm-way-180106739","properties":{"aliases":["순천화력발전소"],"canonicalAnchor":"osm:way/180106739","canonicalCountryKey":"KP","capacityMw":0.0,"country":"KP","externalIds":{"osm":"way/180106739"},"geographyId":"KP-3916807B57216784573597","id":"wattlas-plant-osm-way-180106739","lifecycleCounts":{"operational":1},"locationPrecision":"exact","name":"순천화력발전소","operatingCapacityCoverage":{"coveragePercent":0.0,"knownUnitCount":0,"method":"unavailable","totalUnitCount":0},"operatingCapacityMw":0.0,"operatingCapacityMwByTechnology":{},"plannedCapacityCoverage":{"coveragePercent":0.0,"knownUnitCount":0,"method":"unavailable","totalUnitCount":0},"plannedCapacityMw":0.0,"plannedCapacityMwByTechnology":{},"recordCount":1,"recordIds":["wattlas-record-osm-way-180106739"],"sourceIds":["openstreetmap-power"],"sourceUrl":"https://www.openstreetmap.org/way/180106739","technologies":["coal"],"technologyMixMw":{"coal":0.0},"unitCount":0,"unitIds":[]},"type":"Feature"},{"geometry":{"coordinates":[130.380643,42.327831],"type":"Point"},"id":"wattlas-plant-osm-way-199510599","properties":{"aliases":["선봉 발전소"],"canonicalAnchor":"osm:way/199510599","canonicalCountryKey":"KP","capacityMw":0.0,"country":"KP","externalIds":{"osm":"way/199510599"},"geographyId":"KP-3916807B66197610677259","id":"wattlas-plant-osm-way-199510599","lifecycleCounts":{"operational":1},"locationPrecision":"exact","name":"선봉 발전소","operatingCapacityCoverage":{"coveragePercent":0.0,"knownUnitCount":0,"method":"unavailable","totalUnitCount":0},"operatingCapacityMw":0.0,"operatingCapacityMwByTechnology":{},"plannedCapacityCoverage":{"coveragePercent":0.0,"knownUnitCount":0,"method":"unavailable","totalUnitCount":0},"plannedCapacityMw":0.0,"plannedCapacityMwByTechnology":{},"recordCount":1,"recordIds":["wattlas-record-osm-way-199510599"],"sourceIds":["openstreetmap-power"],"sourceUrl":"https://www.openstreetmap.org/way/199510599","technologies":["oil"],"technologyMixMw":{"oil":0.0},"unitCount":0,"unitIds":[]},"type":"Feature"},{"geometry":{"coordinates":[125.688746,38.969437],"type":"Point"},"id":"wattlas-plant-osm-way-203353012","properties":{"aliases":["동평양화력발전소"],"canonicalAnchor":"osm:way/203353012","canonicalCountryKey":"KP","capacityMw":500.0,"country":"KP","externalIds":{"osm":"way/203353012"},"geographyId":"KP-3916807B24987303688366","id":"wattlas-plant-osm-way-203353012","lifecycleCounts":{"operational":1},"locationPrecision":"exact","name":"동평양화력발전소","operatingCapacityCoverage":{"coveragePercent":100.0,"knownUnitCount":0,"method":"plant_aggregate","provenance":{"evidenceCount":0,"recordIds":["wattlas-record-osm-way-203353012"],"sourceIds":["openstreetmap-power"],"sourceTypes":["community_mapped"],"valueKind":"reported"},"totalUnitCount":0},"operatingCapacityMw":500.0,"operatingCapacityMwByTechnology":{"coal":500.0},"plannedCapacityCoverage":{"coveragePercent":0.0,"knownUnitCount":0,"method":"unavailable","totalUnitCount":0},"plannedCapacityMw":0.0,"plannedCapacityMwByTechnology":{},"recordCount":1,"recordIds":["wattlas-record-osm-way-203353012"],"sourceIds":["openstreetmap-power"],"sourceUrl":"https://www.openstreetmap.org/way/203353012","technologies":["coal"],"technologyMixMw":{"coal":500.0},"unitCount":0,"unitIds":[]},"type":"Feature"},{"geometry":{"coordinates":[125.762714,39.789151],"type":"Point"},"id":"wattlas-plant-osm-way-215133938","properties":{"aliases":["영변 50MW 원자로"],"canonicalAnchor":"osm:way/215133938","canonicalCountryKey":"KP","capacityMw":50.0,"country":"KP","externalIds":{"osm":"way/215133938"},"geographyId":"KP-3916807B80386364257881","id":"wattlas-plant-osm-way-215133938","lifecycleCounts":{"operational":1},"locationPrecision":"exact","name":"영변 50MW 원자로","operatingCapacityCoverage":{"coveragePercent":100.0,"knownUnitCount":0,"method":"plant_aggregate","provenance":{"evidenceCount":0,"recordIds":["wattlas-record-osm-way-215133938"],"sourceIds":["openstreetmap-power"],"sourceTypes":["community_mapped"],"valueKind":"reported"},"totalUnitCount":0},"operatingCapacityMw":50.0,"operatingCapacityMwByTechnology":{"nuclear":50.0},"plannedCapacityCoverage":{"coveragePercent":0.0,"knownUnitCount":0,"method":"unavailable","totalUnitCount":0},"plannedCapacityMw":0.0,"plannedCapacityMwByTechnology":{},"recordCount":1,"recordIds":["wattlas-record-osm-way-215133938"],"sourceIds":["openstreetmap-power"],"sourceUrl":"https://www.openstreetmap.org/way/215133938","technologies":["nuclear"],"technologyMixMw":{"nuclear":50.0},"unitCount":0,"unitIds":[]},"type":"Feature"},{"geometry":{"coordinates":[125.754748,39.797658],"type":"Point"},"id":"wattlas-plant-osm-way-215200901","properties":{"aliases":["영변 5MW 원자로 부지"],"canonicalAnchor":"osm:way/215200901","canonicalCountryKey":"KP","capacityMw":5.0,"country":"KP","externalIds":{"osm":"way/215200901"},"geographyId":"KP-3916807B80386364257881","id":"wattlas-plant-osm-way-215200901","lifecycleCounts":{"operational":1},"locationPrecision":"exact","name":"영변 5MW 원자로 부지","operatingCapacityCoverage":{"coveragePercent":100.0,"knownUnitCount":0,"method":"plant_aggregate","provenance":{"evidenceCount":0,"recordIds":["wattlas-record-osm-way-215200901"],"sourceIds":["openstreetmap-power"],"sourceTypes":["community_mapped"],"valueKind":"reported"},"totalUnitCount":0},"operatingCapacityMw":5.0,"operatingCapacityMwByTechnology":{"nuclear":5.0},"plannedCapacityCoverage":{"coveragePercent":0.0,"knownUnitCount":0,"method":"unavailable","totalUnitCount":0},"plannedCapacityMw":0.0,"plannedCapacityMwByTechnology":{},"recordCount":1,"recordIds":["wattlas-record-osm-way-215200901"],"sourceIds":["openstreetmap-power"],"sourceUrl":"https://www.openstreetmap.org/way/215200901","technologies":["nuclear"],"technologyMixMw":{"nuclear":5.0},"unitCount":0,"unitIds":[]},"type":"Feature"},{"geometry":{"coordinates":[125.711593,39.009283],"type":"Point"},"id":"wattlas-plant-osm-way-345657539","properties":{"aliases":["평양화력발전소"],"canonicalAnchor":"osm:way/345657539","canonicalCountryKey":"KP","capacityMw":700.0,"country":"KP","externalIds":{"osm":"way/345657539"},"geographyId":"KP-3916807B24987303688366","id":"wattlas-plant-osm-way-345657539","lifecycleCounts":{"operational":1},"locationPrecision":"exact","name":"평양화력발전소","operatingCapacityCoverage":{"coveragePercent":100.0,"knownUnitCount":0,"method":"plant_aggregate","provenance":{"evidenceCount":0,"recordIds":["wattlas-record-osm-way-345657539"],"sourceIds":["openstreetmap-power"],"sourceTypes":["community_mapped"],"valueKind":"reported"},"totalUnitCount":0},"operatingCapacityMw":700.0,"operatingCapacityMwByTechnology":{"other":700.0},"plannedCapacityCoverage":{"coveragePercent":0.0,"knownUnitCount":0,"method":"unavailable","totalUnitCount":0},"plannedCapacityMw":0.0,"plannedCapacityMwByTechnology":{},"recordCount":1,"recordIds":["wattlas-record-osm-way-345657539"],"sourceIds":["openstreetmap-power"],"sourceUrl":"https://www.openstreetmap.org/way/345657539","technologies":["other"],"technologyMixMw":{"other":700.0},"unitCount":0,"unitIds":[]},"type":"Feature"},{"geometry":{"coordinates":[127.106962,39.572946],"type":"Point"},"id":"wattlas-plant-osm-way-516635868","properties":{"aliases":["금야강군민발전소"],"canonicalAnchor":"osm:way/516635868","canonicalCountryKey":"KP","capacityMw":0.0,"country":"KP","externalIds":{"osm":"way/516635868"},"geographyId":"KP-3916807B59695090380014","id":"wattlas-plant-osm-way-516635868","lifecycleCounts":{"operational":1},"locationPrecision":"exact","name":"금야강군민발전소","operatingCapacityCoverage":{"coveragePercent":0.0,"knownUnitCount":0,"method":"unavailable","totalUnitCount":0},"operatingCapacityMw":0.0,"operatingCapacityMwByTechnology":{},"plannedCapacityCoverage":{"coveragePercent":0.0,"knownUnitCount":0,"method":"unavailable","totalUnitCount":0},"plannedCapacityMw":0.0,"plannedCapacityMwByTechnology":{},"recordCount":1,"recordIds":["wattlas-record-osm-way-516635868"],"sourceIds":["openstreetmap-power"],"sourceUrl":"https://www.openstreetmap.org/way/516635868","technologies":["hydro"],"technologyMixMw":{"hydro":0.0},"unitCount":0,"unitIds":[]},"type":"Feature"},{"geometry":{"coordinates":[128.270348,40.723855],"type":"Point"},"id":"wattlas-plant-osm-way-652865857","properties":{"aliases":["내정댐"],"canonicalAnchor":"osm:way/652865857","canonicalCountryKey":"KP","capacityMw":0.0,"country":"KP","externalIds":{"osm":"way/652865857"},"geographyId":"KP-3916807B2118550659035","id":"wattlas-plant-osm-way-652865857","lifecycleCounts":{"operational":1},"locationPrecision":"exact","name":"내정댐","operatingCapacityCoverage":{"coveragePercent":0.0,"knownUnitCount":0,"method":"unavailable","totalUnitCount":0},"operatingCapacityMw":0.0,"operatingCapacityMwByTechnology":{},"plannedCapacityCoverage":{"coveragePercent":0.0,"knownUnitCount":0,"method":"unavailable","totalUnitCount":0},"plannedCapacityMw":0.0,"plannedCapacityMwByTechnology":{},"recordCount":1,"recordIds":["wattlas-record-osm-way-652865857"],"sourceIds":["openstreetmap-power"],"sourceUrl":"https://www.openstreetmap.org/way/652865857","technologies":["hydro"],"technologyMixMw":{"hydro":0.0},"unitCount":0,"unitIds":[]},"type":"Feature"},{"geometry":{"coordinates":[125.929609,39.784381],"type":"Point"},"id":"wattlas-plant-osm-way-708040655","properties":{"aliases":["희천 10호 발전소"],"canonicalAnchor":"osm:way/708040655","canonicalCountryKey":"KP","capacityMw":0.0,"country":"KP","externalIds":{"osm":"way/708040655"},"geographyId":"KP-3916807B57216784573597","id":"wattlas-plant-osm-way-708040655","lifecycleCounts":{"operational":1},"locationPrecision":"exact","name":"희천 10호 발전소","operatingCapacityCoverage":{"coveragePercent":0.0,"knownUnitCount":0,"method":"unavailable","totalUnitCount":0},"operatingCapacityMw":0.0,"operatingCapacityMwByTechnology":{},"plannedCapacityCoverage":{"coveragePercent":0.0,"knownUnitCount":0,"method":"unavailable","totalUnitCount":0},"plannedCapacityMw":0.0,"plannedCapacityMwByTechnology":{},"recordCount":1,"recordIds":["wattlas-record-osm-way-708040655"],"sourceIds":["openstreetmap-power"],"sourceUrl":"https://www.openstreetmap.org/way/708040655","technologies":["hydro"],"technologyMixMw":{"hydro":0.0},"unitCount":0,"unitIds":[]},"type":"Feature"},{"geometry":{"coordinates":[129.752344,41.76284],"type":"Point"},"id":"wattlas-plant-osm-way-944437907","properties":{"aliases":["김책발전소"],"canonicalAnchor":"osm:way/944437907","canonicalCountryKey":"KP","capacityMw":0.0,"country":"KP","externalIds":{"osm":"way/944437907"},"geographyId":"KP-3916807B66197610677259","id":"wattlas-plant-osm-way-944437907","lifecycleCounts":{"operational":1},"locationPrecision":"exact","name":"김책발전소","operatingCapacityCoverage":{"coveragePercent":0.0,"knownUnitCount":0,"method":"unavailable","totalUnitCount":0},"operatingCapacityMw":0.0,"operatingCapacityMwByTechnology":{},"plannedCapacityCoverage":{"coveragePercent":0.0,"knownUnitCount":0,"method":"unavailable","totalUnitCount":0},"plannedCapacityMw":0.0,"plannedCapacityMwByTechnology":{},"recordCount":1,"recordIds":["wattlas-record-osm-way-944437907"],"sourceIds":["openstreetmap-power"],"sourceUrl":"https://www.openstreetmap.org/way/944437907","technologies":["coal"],"technologyMixMw":{"coal":0.0},"unitCount":0,"unitIds":[]},"type":"Feature"},{"geometry":{"coordinates":[129.750582,41.783116],"type":"Point"},"id":"wattlas-plant-osm-way-971211490","properties":{"aliases":["청진화력발전소"],"canonicalAnchor":"osm:way/971211490","canonicalCountryKey":"KP","capacityMw":150.0,"country":"KP","externalIds":{"osm":"way/971211490"},"geographyId":"KP-3916807B66197610677259","id":"wattlas-plant-osm-way-971211490","lifecycleCounts":{"operational":1},"locationPrecision":"exact","name":"청진화력발전소","operatingCapacityCoverage":{"coveragePercent":100.0,"knownUnitCount":0,"method":"plant_aggregate","provenance":{"evidenceCount":0,"recordIds":["wattlas-record-osm-way-971211490"],"sourceIds":["openstreetmap-power"],"sourceTypes":["community_mapped"],"valueKind":"reported"},"totalUnitCount":0},"operatingCapacityMw":150.0,"operatingCapacityMwByTechnology":{"coal":150.0},"plannedCapacityCoverage":{"coveragePercent":0.0,"knownUnitCount":0,"method":"unavailable","totalUnitCount":0},"plannedCapacityMw":0.0,"plannedCapacityMwByTechnology":{},"recordCount":1,"recordIds":["wattlas-record-osm-way-971211490"],"sourceIds":["openstreetmap-power"],"sourceUrl":"https://www.openstreetmap.org/way/971211490","technologies":["coal"],"technologyMixMw":{"coal":150.0},"unitCount":0,"unitIds":[]},"type":"Feature"},{"geometry":{"coordinates":[128.155537,41.318313],"type":"Point"},"id":"wattlas-plant-osm-way-983797929","properties":{"aliases":["삼수댐"],"canonicalAnchor":"osm:way/983797929","canonicalCountryKey":"KP","capacityMw":0.0,"country":"KP","externalIds":{"osm":"way/983797929"},"geographyId":"KP-3916807B2118550659035","id":"wattlas-plant-osm-way-983797929","lifecycleCounts":{"operational":1},"locationPrecision":"exact","name":"삼수댐","operatingCapacityCoverage":{"coveragePercent":0.0,"knownUnitCount":0,"method":"unavailable","totalUnitCount":0},"operatingCapacityMw":0.0,"operatingCapacityMwByTechnology":{},"plannedCapacityCoverage":{"coveragePercent":0.0,"knownUnitCount":0,"method":"unavailable","totalUnitCount":0},"plannedCapacityMw":0.0,"plannedCapacityMwByTechnology":{},"recordCount":1,"recordIds":["wattlas-record-osm-way-983797929"],"sourceIds":["openstreetmap-power"],"sourceUrl":"https://www.openstreetmap.org/way/983797929","technologies":["hydro"],"technologyMixMw":{"hydro":0.0},"unitCount":0,"unitIds":[]},"type":"Feature"},{"geometry":{"coordinates":[124.962638,40.461848],"type":"Point"},"id":"wattlas-plant-wikidata-q708579","properties":{"aliases":["水丰水库 / 수풍언제"],"canonicalAnchor":"wikidata:Q708579","canonicalCountryKey":"KP","capacityMw":0.0,"country":"KP","externalIds":{"osm":"way/74727575","wikidata":"Q708579","wikipedia":"de:Supung-Talsperre"},"geographyId":"KP-3916807B80386364257881","id":"wattlas-plant-wikidata-q708579","idAliases":["wattlas-plant-osm-way-74727575","wattlas-plant-wikipedia-de-supung-talsperre"],"lifecycleCounts":{"operational":1},"locationPrecision":"exact","name":"水丰水库 / 수풍언제","operatingCapacityCoverage":{"coveragePercent":0.0,"knownUnitCount":0,"method":"unavailable","totalUnitCount":0},"operatingCapacityMw":0.0,"operatingCapacityMwByTechnology":{},"plannedCapacityCoverage":{"coveragePercent":0.0,"knownUnitCount":0,"method":"unavailable","totalUnitCount":0},"plannedCapacityMw":0.0,"plannedCapacityMwByTechnology":{},"recordCount":1,"recordIds":["wattlas-record-osm-way-74727575"],"sourceIds":["openstreetmap-power"],"sourceUrl":"https://www.openstreetmap.org/way/74727575","technologies":["hydro"],"technologyMixMw":{"hydro":0.0},"unitCount":0,"unitIds":[]},"type":"Feature"}],"type":"FeatureCollection"}