{"features":[{"geometry":{"coordinates":[48.6564,-18.8031],"type":"Point"},"id":"wattlas-plant-gemplant-l100000602424","properties":{"aliases":["Andekaleka hydroelectric plant"],"canonicalAnchor":"gemplant:L100000602424","canonicalCountryKey":"MG","capacityMw":91.0,"country":"MG","externalIds":{"gemPlant":"L100000602424","gemUnit":"G100000602455"},"gemWikiUrl":"https://www.gem.wiki/Andekaleka_hydroelectric_plant","geographyId":"MG-27540722B68428456346892","id":"wattlas-plant-gemplant-l100000602424","lifecycleCounts":{"operational":1},"locationPrecision":"exact","name":"Andekaleka hydroelectric plant","operatingCapacityCoverage":{"coveragePercent":100.0,"knownUnitCount":1,"method":"complete_unit_sum","provenance":{"evidenceCount":0,"recordIds":["wattlas-record-gemunit-g100000602455"],"sourceIds":["gem-global-integrated-power-tracker"],"sourceTypes":["research_verified"],"valueKind":"reported"},"totalUnitCount":1},"operatingCapacityMw":91.0,"operatingCapacityMwByTechnology":{"hydro":91.0},"plannedCapacityCoverage":{"coveragePercent":0.0,"knownUnitCount":0,"method":"unavailable","totalUnitCount":0},"plannedCapacityMw":0.0,"plannedCapacityMwByTechnology":{},"recordCount":1,"recordIds":["wattlas-record-gemunit-g100000602455"],"sourceIds":["gem-global-integrated-power-tracker"],"sourceUrl":"https://www.gem.wiki/Andekaleka_hydroelectric_plant","technologies":["hydro"],"technologyMixMw":{"hydro":91.0},"unitCount":1,"unitIds":["gem-unit-G100000602455"]},"type":"Feature"},{"geometry":{"coordinates":[47.4067,-19.567],"type":"Point"},"id":"wattlas-plant-gemplant-l100000602426","properties":{"aliases":["Sahofika hydroelectric plant"],"canonicalAnchor":"gemplant:L100000602426","canonicalCountryKey":"MG","capacityMw":192.0,"country":"MG","externalIds":{"gemPlant":"L100000602426","gemUnit":"G100000602457"},"gemWikiUrl":"https://www.gem.wiki/Sahofika_hydroelectric_plant","geographyId":"MG-27540722B16458597550107","id":"wattlas-plant-gemplant-l100000602426","lifecycleCounts":{"announced":1},"locationPrecision":"exact","name":"Sahofika hydroelectric plant","operatingCapacityCoverage":{"coveragePercent":0.0,"knownUnitCount":0,"method":"unavailable","totalUnitCount":0},"operatingCapacityMw":0.0,"operatingCapacityMwByTechnology":{},"plannedCapacityCoverage":{"coveragePercent":100.0,"knownUnitCount":1,"method":"complete_unit_sum","provenance":{"evidenceCount":0,"recordIds":["wattlas-record-gemunit-g100000602457"],"sourceIds":["gem-global-integrated-power-tracker"],"sourceTypes":["research_verified"],"valueKind":"reported"},"totalUnitCount":1},"plannedCapacityMw":192.0,"plannedCapacityMwByTechnology":{"hydro":192.0},"recordCount":1,"recordIds":["wattlas-record-gemunit-g100000602457"],"sourceIds":["gem-global-integrated-power-tracker"],"sourceUrl":"https://www.gem.wiki/Sahofika_hydroelectric_plant","technologies":["hydro"],"technologyMixMw":{"hydro":192.0},"unitCount":1,"unitIds":["gem-unit-G100000602457"]},"type":"Feature"},{"geometry":{"coordinates":[47.445,-19.489],"type":"Point"},"id":"wattlas-plant-gemplant-l100000800020","properties":{"aliases":["1.0","2.0","Ambatolampy solar farm"],"canonicalAnchor":"gemplant:L100000800020","canonicalCountryKey":"MG","capacityMw":40.0,"country":"MG","externalIdAliases":{"gemUnit":["G100000800021","G100000800022"]},"externalIds":{"gemPlant":"L100000800020","gemUnit":"G100000800022"},"gemWikiUrl":"https://www.gem.wiki/Ambatolampy_solar_farm","geographyId":"MG-27540722B16458597550107","id":"wattlas-plant-gemplant-l100000800020","lifecycleCounts":{"operational":2},"locationPrecision":"exact","name":"Ambatolampy solar farm","operatingCapacityCoverage":{"coveragePercent":100.0,"knownUnitCount":2,"method":"complete_unit_sum","provenance":{"evidenceCount":0,"recordIds":["wattlas-record-gemunit-g100000800021","wattlas-record-gemunit-g100000800022"],"sourceIds":["gem-global-integrated-power-tracker"],"sourceTypes":["research_verified"],"valueKind":"reported"},"totalUnitCount":2},"operatingCapacityMw":40.0,"operatingCapacityMwByTechnology":{"solar":40.0},"plannedCapacityCoverage":{"coveragePercent":0.0,"knownUnitCount":0,"method":"unavailable","totalUnitCount":0},"plannedCapacityMw":0.0,"plannedCapacityMwByTechnology":{},"recordCount":2,"recordIds":["wattlas-record-gemunit-g100000800021","wattlas-record-gemunit-g100000800022"],"sourceIds":["gem-global-integrated-power-tracker"],"sourceUrl":"https://www.gem.wiki/Ambatolampy_solar_farm","technologies":["solar"],"technologyMixMw":{"solar":40.0},"unitCount":2,"unitIds":["gem-unit-G100000800021","gem-unit-G100000800022"]},"type":"Feature"},{"geometry":{"coordinates":[49.3595,-12.2707],"type":"Point"},"id":"wattlas-plant-gemplant-l100001020897","properties":{"aliases":["--","Antsiranana Province solar project"],"canonicalAnchor":"gemplant:L100001020897","canonicalCountryKey":"MG","capacityMw":2.4,"country":"MG","externalIds":{"gemPlant":"L100001020897","gemUnit":"G100001023866"},"gemWikiUrl":"https://www.gem.wiki/Antsiranana_Province_solar_project","geographyId":"MG-27540722B39676432794686","id":"wattlas-plant-gemplant-l100001020897","lifecycleCounts":{"operational":1},"locationPrecision":"exact","name":"Antsiranana Province solar project","operatingCapacityCoverage":{"coveragePercent":100.0,"knownUnitCount":1,"method":"complete_unit_sum","provenance":{"evidenceCount":0,"recordIds":["wattlas-record-gemunit-g100001023866"],"sourceIds":["gem-global-integrated-power-tracker"],"sourceTypes":["research_verified"],"valueKind":"reported"},"totalUnitCount":1},"operatingCapacityMw":2.4,"operatingCapacityMwByTechnology":{"solar":2.4},"plannedCapacityCoverage":{"coveragePercent":0.0,"knownUnitCount":0,"method":"unavailable","totalUnitCount":0},"plannedCapacityMw":0.0,"plannedCapacityMwByTechnology":{},"recordCount":1,"recordIds":["wattlas-record-gemunit-g100001023866"],"sourceIds":["gem-global-integrated-power-tracker"],"sourceUrl":"https://www.gem.wiki/Antsiranana_Province_solar_project","technologies":["solar"],"technologyMixMw":{"solar":2.4},"unitCount":1,"unitIds":["gem-unit-G100001023866"]},"type":"Feature"},{"geometry":{"coordinates":[47.9295,-18.9213],"type":"Point"},"id":"wattlas-plant-gemplant-l100001025637","properties":{"aliases":["Mandraka hydroelectric plant"],"canonicalAnchor":"gemplant:L100001025637","canonicalCountryKey":"MG","capacityMw":24.0,"country":"MG","externalIds":{"gemPlant":"L100001025637","gemUnit":"G100001030407"},"gemWikiUrl":"https://www.gem.wiki/Mandraka_hydroelectric_plant","geographyId":"MG-27540722B10144800929043","id":"wattlas-plant-gemplant-l100001025637","lifecycleCounts":{"operational":1},"locationPrecision":"exact","name":"Mandraka hydroelectric plant","operatingCapacityCoverage":{"coveragePercent":100.0,"knownUnitCount":1,"method":"complete_unit_sum","provenance":{"evidenceCount":0,"recordIds":["wattlas-record-gemunit-g100001030407"],"sourceIds":["gem-global-integrated-power-tracker"],"sourceTypes":["research_verified"],"valueKind":"reported"},"totalUnitCount":1},"operatingCapacityMw":24.0,"operatingCapacityMwByTechnology":{"hydro":24.0},"plannedCapacityCoverage":{"coveragePercent":0.0,"knownUnitCount":0,"method":"unavailable","totalUnitCount":0},"plannedCapacityMw":0.0,"plannedCapacityMwByTechnology":{},"recordCount":1,"recordIds":["wattlas-record-gemunit-g100001030407"],"sourceIds":["gem-global-integrated-power-tracker"],"sourceUrl":"https://www.gem.wiki/Mandraka_hydroelectric_plant","technologies":["hydro"],"technologyMixMw":{"hydro":24.0},"unitCount":1,"unitIds":["gem-unit-G100001030407"]},"type":"Feature"},{"geometry":{"coordinates":[46.4203,-15.7047],"type":"Point"},"id":"wattlas-plant-gemplant-l100001064418","properties":{"aliases":["--","Andranotakatra solar farm"],"canonicalAnchor":"gemplant:L100001064418","canonicalCountryKey":"MG","capacityMw":17.0,"country":"MG","externalIds":{"gemPlant":"L100001064418","gemUnit":"G100001074121"},"gemWikiUrl":"https://www.gem.wiki/Andranotakatra_solar_farm","geographyId":"MG-27540722B20664439648320","id":"wattlas-plant-gemplant-l100001064418","lifecycleCounts":{"operational":1},"locationPrecision":"exact","name":"Andranotakatra solar farm","operatingCapacityCoverage":{"coveragePercent":100.0,"knownUnitCount":1,"method":"complete_unit_sum","provenance":{"evidenceCount":0,"recordIds":["wattlas-record-gemunit-g100001074121"],"sourceIds":["gem-global-integrated-power-tracker"],"sourceTypes":["research_verified"],"valueKind":"reported"},"totalUnitCount":1},"operatingCapacityMw":17.0,"operatingCapacityMwByTechnology":{"solar":17.0},"plannedCapacityCoverage":{"coveragePercent":0.0,"knownUnitCount":0,"method":"unavailable","totalUnitCount":0},"plannedCapacityMw":0.0,"plannedCapacityMwByTechnology":{},"recordCount":1,"recordIds":["wattlas-record-gemunit-g100001074121"],"sourceIds":["gem-global-integrated-power-tracker"],"sourceUrl":"https://www.gem.wiki/Andranotakatra_solar_farm","technologies":["solar"],"technologyMixMw":{"solar":17.0},"unitCount":1,"unitIds":["gem-unit-G100001074121"]},"type":"Feature"},{"geometry":{"coordinates":[50.2535,-14.8509],"type":"Point"},"id":"wattlas-plant-gemplant-l100001064810","properties":{"aliases":["--","District D'Antalaha solar project"],"canonicalAnchor":"gemplant:L100001064810","canonicalCountryKey":"MG","capacityMw":1.2,"country":"MG","externalIds":{"gemPlant":"L100001064810","gemUnit":"G100001074596"},"gemWikiUrl":"https://www.gem.wiki/District_D'Antalaha_solar_project","geographyId":"MG-27540722B96967449701393","id":"wattlas-plant-gemplant-l100001064810","lifecycleCounts":{"operational":1},"locationPrecision":"exact","name":"District D'Antalaha solar project","operatingCapacityCoverage":{"coveragePercent":100.0,"knownUnitCount":1,"method":"complete_unit_sum","provenance":{"evidenceCount":0,"recordIds":["wattlas-record-gemunit-g100001074596"],"sourceIds":["gem-global-integrated-power-tracker"],"sourceTypes":["research_verified"],"valueKind":"reported"},"totalUnitCount":1},"operatingCapacityMw":1.2,"operatingCapacityMwByTechnology":{"solar":1.2},"plannedCapacityCoverage":{"coveragePercent":0.0,"knownUnitCount":0,"method":"unavailable","totalUnitCount":0},"plannedCapacityMw":0.0,"plannedCapacityMwByTechnology":{},"recordCount":1,"recordIds":["wattlas-record-gemunit-g100001074596"],"sourceIds":["gem-global-integrated-power-tracker"],"sourceUrl":"https://www.gem.wiki/District_D'Antalaha_solar_project","technologies":["solar"],"technologyMixMw":{"solar":1.2},"unitCount":1,"unitIds":["gem-unit-G100001074596"]},"type":"Feature"},{"geometry":{"coordinates":[45.1209,-24.0],"type":"Point"},"id":"wattlas-plant-gemplant-l100001064811","properties":{"aliases":["--","Ampanihy Ouest solar project"],"canonicalAnchor":"gemplant:L100001064811","canonicalCountryKey":"MG","capacityMw":1.5,"country":"MG","externalIds":{"gemPlant":"L100001064811","gemUnit":"G100001074597"},"gemWikiUrl":"https://www.gem.wiki/Ampanihy_Ouest_solar_project","geographyId":"MG-27540722B7206368911185","id":"wattlas-plant-gemplant-l100001064811","lifecycleCounts":{"operational":1},"locationPrecision":"exact","name":"Ampanihy Ouest solar project","operatingCapacityCoverage":{"coveragePercent":100.0,"knownUnitCount":1,"method":"complete_unit_sum","provenance":{"evidenceCount":0,"recordIds":["wattlas-record-gemunit-g100001074597"],"sourceIds":["gem-global-integrated-power-tracker"],"sourceTypes":["research_verified"],"valueKind":"reported"},"totalUnitCount":1},"operatingCapacityMw":1.5,"operatingCapacityMwByTechnology":{"solar":1.5},"plannedCapacityCoverage":{"coveragePercent":0.0,"knownUnitCount":0,"method":"unavailable","totalUnitCount":0},"plannedCapacityMw":0.0,"plannedCapacityMwByTechnology":{},"recordCount":1,"recordIds":["wattlas-record-gemunit-g100001074597"],"sourceIds":["gem-global-integrated-power-tracker"],"sourceUrl":"https://www.gem.wiki/Ampanihy_Ouest_solar_project","technologies":["solar"],"technologyMixMw":{"solar":1.5},"unitCount":1,"unitIds":["gem-unit-G100001074597"]},"type":"Feature"},{"geometry":{"coordinates":[47.4405,-19.4002],"type":"Point"},"id":"wattlas-plant-gemplant-l100001064812","properties":{"aliases":["--","Ambatolampy solar project"],"canonicalAnchor":"gemplant:L100001064812","canonicalCountryKey":"MG","capacityMw":1.4,"country":"MG","externalIds":{"gemPlant":"L100001064812","gemUnit":"G100001074598"},"gemWikiUrl":"https://www.gem.wiki/Ambatolampy_solar_project","geographyId":"MG-27540722B16458597550107","id":"wattlas-plant-gemplant-l100001064812","lifecycleCounts":{"operational":1},"locationPrecision":"exact","name":"Ambatolampy solar project","operatingCapacityCoverage":{"coveragePercent":100.0,"knownUnitCount":1,"method":"complete_unit_sum","provenance":{"evidenceCount":0,"recordIds":["wattlas-record-gemunit-g100001074598"],"sourceIds":["gem-global-integrated-power-tracker"],"sourceTypes":["research_verified"],"valueKind":"reported"},"totalUnitCount":1},"operatingCapacityMw":1.4,"operatingCapacityMwByTechnology":{"solar":1.4},"plannedCapacityCoverage":{"coveragePercent":0.0,"knownUnitCount":0,"method":"unavailable","totalUnitCount":0},"plannedCapacityMw":0.0,"plannedCapacityMwByTechnology":{},"recordCount":1,"recordIds":["wattlas-record-gemunit-g100001074598"],"sourceIds":["gem-global-integrated-power-tracker"],"sourceUrl":"https://www.gem.wiki/Ambatolampy_solar_project","technologies":["solar"],"technologyMixMw":{"solar":1.4},"unitCount":1,"unitIds":["gem-unit-G100001074598"]},"type":"Feature"},{"geometry":{"coordinates":[46.4218,-15.7031],"type":"Point"},"id":"wattlas-plant-gemplant-l100001064813","properties":{"aliases":["--","Mahajanga Ii solar project"],"canonicalAnchor":"gemplant:L100001064813","canonicalCountryKey":"MG","capacityMw":1.7,"country":"MG","externalIds":{"gemPlant":"L100001064813","gemUnit":"G100001074599"},"gemWikiUrl":"https://www.gem.wiki/Mahajanga_Ii_solar_project","geographyId":"MG-27540722B20664439648320","id":"wattlas-plant-gemplant-l100001064813","lifecycleCounts":{"operational":1},"locationPrecision":"exact","name":"Mahajanga Ii solar project","operatingCapacityCoverage":{"coveragePercent":100.0,"knownUnitCount":1,"method":"complete_unit_sum","provenance":{"evidenceCount":0,"recordIds":["wattlas-record-gemunit-g100001074599"],"sourceIds":["gem-global-integrated-power-tracker"],"sourceTypes":["research_verified"],"valueKind":"reported"},"totalUnitCount":1},"operatingCapacityMw":1.7,"operatingCapacityMwByTechnology":{"solar":1.7},"plannedCapacityCoverage":{"coveragePercent":0.0,"knownUnitCount":0,"method":"unavailable","totalUnitCount":0},"plannedCapacityMw":0.0,"plannedCapacityMwByTechnology":{},"recordCount":1,"recordIds":["wattlas-record-gemunit-g100001074599"],"sourceIds":["gem-global-integrated-power-tracker"],"sourceUrl":"https://www.gem.wiki/Mahajanga_Ii_solar_project","technologies":["solar"],"technologyMixMw":{"solar":1.7},"unitCount":1,"unitIds":["gem-unit-G100001074599"]},"type":"Feature"},{"geometry":{"coordinates":[46.804,-25.0014],"type":"Point"},"id":"wattlas-plant-gemplant-l100001064814","properties":{"aliases":["--","Anosy solar project"],"canonicalAnchor":"gemplant:L100001064814","canonicalCountryKey":"MG","capacityMw":1.1,"country":"MG","externalIds":{"gemPlant":"L100001064814","gemUnit":"G100001074600"},"gemWikiUrl":"https://www.gem.wiki/Anosy_solar_project","geographyId":"MG-27540722B69979521515872","id":"wattlas-plant-gemplant-l100001064814","lifecycleCounts":{"operational":1},"locationPrecision":"exact","name":"Anosy solar project","operatingCapacityCoverage":{"coveragePercent":100.0,"knownUnitCount":1,"method":"complete_unit_sum","provenance":{"evidenceCount":0,"recordIds":["wattlas-record-gemunit-g100001074600"],"sourceIds":["gem-global-integrated-power-tracker"],"sourceTypes":["research_verified"],"valueKind":"reported"},"totalUnitCount":1},"operatingCapacityMw":1.1,"operatingCapacityMwByTechnology":{"solar":1.1},"plannedCapacityCoverage":{"coveragePercent":0.0,"knownUnitCount":0,"method":"unavailable","totalUnitCount":0},"plannedCapacityMw":0.0,"plannedCapacityMwByTechnology":{},"recordCount":1,"recordIds":["wattlas-record-gemunit-g100001074600"],"sourceIds":["gem-global-integrated-power-tracker"],"sourceUrl":"https://www.gem.wiki/Anosy_solar_project","technologies":["solar"],"technologyMixMw":{"solar":1.1},"unitCount":1,"unitIds":["gem-unit-G100001074600"]},"type":"Feature"},{"geometry":{"coordinates":[43.7162,-23.3616],"type":"Point"},"id":"wattlas-plant-gemplant-l100001064815","properties":{"aliases":["--","Toliary-Ii solar project"],"canonicalAnchor":"gemplant:L100001064815","canonicalCountryKey":"MG","capacityMw":4.3,"country":"MG","externalIds":{"gemPlant":"L100001064815","gemUnit":"G100001074601"},"gemWikiUrl":"https://www.gem.wiki/Toliary-Ii_solar_project","geographyId":"MG-27540722B7206368911185","id":"wattlas-plant-gemplant-l100001064815","lifecycleCounts":{"operational":1},"locationPrecision":"exact","name":"Toliary-Ii solar project","operatingCapacityCoverage":{"coveragePercent":100.0,"knownUnitCount":1,"method":"complete_unit_sum","provenance":{"evidenceCount":0,"recordIds":["wattlas-record-gemunit-g100001074601"],"sourceIds":["gem-global-integrated-power-tracker"],"sourceTypes":["research_verified"],"valueKind":"reported"},"totalUnitCount":1},"operatingCapacityMw":4.3,"operatingCapacityMwByTechnology":{"solar":4.3},"plannedCapacityCoverage":{"coveragePercent":0.0,"knownUnitCount":0,"method":"unavailable","totalUnitCount":0},"plannedCapacityMw":0.0,"plannedCapacityMwByTechnology":{},"recordCount":1,"recordIds":["wattlas-record-gemunit-g100001074601"],"sourceIds":["gem-global-integrated-power-tracker"],"sourceUrl":"https://www.gem.wiki/Toliary-Ii_solar_project","technologies":["solar"],"technologyMixMw":{"solar":4.3},"unitCount":1,"unitIds":["gem-unit-G100001074601"]},"type":"Feature"},{"geometry":{"coordinates":[46.9467,-25.0556],"type":"Point"},"id":"wattlas-plant-gemplant-l100001064816","properties":{"aliases":["--","Tolanaro solar project"],"canonicalAnchor":"gemplant:L100001064816","canonicalCountryKey":"MG","capacityMw":8.5,"country":"MG","externalIds":{"gemPlant":"L100001064816","gemUnit":"G100001074602"},"gemWikiUrl":"https://www.gem.wiki/Tolanaro_solar_project","geographyId":"MG-27540722B69979521515872","id":"wattlas-plant-gemplant-l100001064816","lifecycleCounts":{"operational":1},"locationPrecision":"exact","name":"Tolanaro solar project","operatingCapacityCoverage":{"coveragePercent":100.0,"knownUnitCount":1,"method":"complete_unit_sum","provenance":{"evidenceCount":0,"recordIds":["wattlas-record-gemunit-g100001074602"],"sourceIds":["gem-global-integrated-power-tracker"],"sourceTypes":["research_verified"],"valueKind":"reported"},"totalUnitCount":1},"operatingCapacityMw":8.5,"operatingCapacityMwByTechnology":{"solar":8.5},"plannedCapacityCoverage":{"coveragePercent":0.0,"knownUnitCount":0,"method":"unavailable","totalUnitCount":0},"plannedCapacityMw":0.0,"plannedCapacityMwByTechnology":{},"recordCount":1,"recordIds":["wattlas-record-gemunit-g100001074602"],"sourceIds":["gem-global-integrated-power-tracker"],"sourceUrl":"https://www.gem.wiki/Tolanaro_solar_project","technologies":["solar"],"technologyMixMw":{"solar":8.5},"unitCount":1,"unitIds":["gem-unit-G100001074602"]},"type":"Feature"},{"geometry":{"coordinates":[50.1183,-14.2905],"type":"Point"},"id":"wattlas-plant-gemplant-l100001064817","properties":{"aliases":["--","District De Sambava solar project"],"canonicalAnchor":"gemplant:L100001064817","canonicalCountryKey":"MG","capacityMw":2.2,"country":"MG","externalIds":{"gemPlant":"L100001064817","gemUnit":"G100001074603"},"gemWikiUrl":"https://www.gem.wiki/District_De_Sambava_solar_project","geographyId":"MG-27540722B96967449701393","id":"wattlas-plant-gemplant-l100001064817","lifecycleCounts":{"operational":1},"locationPrecision":"exact","name":"District De Sambava solar project","operatingCapacityCoverage":{"coveragePercent":100.0,"knownUnitCount":1,"method":"complete_unit_sum","provenance":{"evidenceCount":0,"recordIds":["wattlas-record-gemunit-g100001074603"],"sourceIds":["gem-global-integrated-power-tracker"],"sourceTypes":["research_verified"],"valueKind":"reported"},"totalUnitCount":1},"operatingCapacityMw":2.2,"operatingCapacityMwByTechnology":{"solar":2.2},"plannedCapacityCoverage":{"coveragePercent":0.0,"knownUnitCount":0,"method":"unavailable","totalUnitCount":0},"plannedCapacityMw":0.0,"plannedCapacityMwByTechnology":{},"recordCount":1,"recordIds":["wattlas-record-gemunit-g100001074603"],"sourceIds":["gem-global-integrated-power-tracker"],"sourceUrl":"https://www.gem.wiki/District_De_Sambava_solar_project","technologies":["solar"],"technologyMixMw":{"solar":2.2},"unitCount":1,"unitIds":["gem-unit-G100001074603"]},"type":"Feature"},{"geometry":{"coordinates":[47.409857,-19.565826],"type":"Point"},"id":"wattlas-plant-osm-node-12778259071","properties":{"aliases":["Centrale hydroélectrique de Sahofika"],"canonicalAnchor":"osm:node/12778259071","canonicalCountryKey":"MG","capacityMw":0.0,"country":"MG","externalIds":{"osm":"node/12778259071"},"geographyId":"MG-27540722B16458597550107","id":"wattlas-plant-osm-node-12778259071","lifecycleCounts":{"under_construction":1},"locationPrecision":"exact","name":"Centrale hydroélectrique de Sahofika","operatingCapacityCoverage":{"coveragePercent":0.0,"knownUnitCount":0,"method":"unavailable","totalUnitCount":0},"operatingCapacityMw":0.0,"operatingCapacityMwByTechnology":{},"plannedCapacityCoverage":{"coveragePercent":0.0,"knownUnitCount":0,"method":"unavailable","totalUnitCount":0},"plannedCapacityMw":0.0,"plannedCapacityMwByTechnology":{},"recordCount":1,"recordIds":["wattlas-record-osm-node-12778259071"],"sourceIds":["openstreetmap-power"],"sourceUrl":"https://www.openstreetmap.org/node/12778259071","technologies":["other"],"technologyMixMw":{"other":0.0},"unitCount":0,"unitIds":[]},"type":"Feature"},{"geometry":{"coordinates":[46.421878,-15.703282],"type":"Point"},"id":"wattlas-plant-osm-way-1107226095","properties":{"aliases":["Mapped power plant · OSM 1107226095"],"canonicalAnchor":"osm:way/1107226095","canonicalCountryKey":"MG","capacityMw":12.0,"country":"MG","externalIds":{"osm":"way/1107226095"},"geographyId":"MG-27540722B20664439648320","id":"wattlas-plant-osm-way-1107226095","lifecycleCounts":{"operational":1},"locationPrecision":"exact","name":"Mapped power plant · OSM 1107226095","operatingCapacityCoverage":{"coveragePercent":100.0,"knownUnitCount":0,"method":"plant_aggregate","provenance":{"evidenceCount":0,"recordIds":["wattlas-record-osm-way-1107226095"],"sourceIds":["openstreetmap-power"],"sourceTypes":["community_mapped"],"valueKind":"reported"},"totalUnitCount":0},"operatingCapacityMw":12.0,"operatingCapacityMwByTechnology":{"solar":12.0},"plannedCapacityCoverage":{"coveragePercent":0.0,"knownUnitCount":0,"method":"unavailable","totalUnitCount":0},"plannedCapacityMw":0.0,"plannedCapacityMwByTechnology":{},"recordCount":1,"recordIds":["wattlas-record-osm-way-1107226095"],"sourceIds":["openstreetmap-power"],"sourceUrl":"https://www.openstreetmap.org/way/1107226095","technologies":["solar"],"technologyMixMw":{"solar":12.0},"unitCount":0,"unitIds":[]},"type":"Feature"},{"geometry":{"coordinates":[47.444981,-19.488441],"type":"Point"},"id":"wattlas-plant-osm-way-1202039777","properties":{"aliases":["Centrale Solaire de Ambatolampy"],"canonicalAnchor":"osm:way/1202039777","canonicalCountryKey":"MG","capacityMw":40.0,"country":"MG","externalIds":{"osm":"way/1202039777"},"geographyId":"MG-27540722B16458597550107","id":"wattlas-plant-osm-way-1202039777","lifecycleCounts":{"operational":1},"locationPrecision":"exact","name":"Centrale Solaire de Ambatolampy","operatingCapacityCoverage":{"coveragePercent":100.0,"knownUnitCount":0,"method":"plant_aggregate","provenance":{"evidenceCount":0,"recordIds":["wattlas-record-osm-way-1202039777"],"sourceIds":["openstreetmap-power"],"sourceTypes":["community_mapped"],"valueKind":"reported"},"totalUnitCount":0},"operatingCapacityMw":40.0,"operatingCapacityMwByTechnology":{"solar":40.0},"plannedCapacityCoverage":{"coveragePercent":0.0,"knownUnitCount":0,"method":"unavailable","totalUnitCount":0},"plannedCapacityMw":0.0,"plannedCapacityMwByTechnology":{},"recordCount":1,"recordIds":["wattlas-record-osm-way-1202039777"],"sourceIds":["openstreetmap-power"],"sourceUrl":"https://www.openstreetmap.org/way/1202039777","technologies":["solar"],"technologyMixMw":{"solar":40.0},"unitCount":0,"unitIds":[]},"type":"Feature"},{"geometry":{"coordinates":[46.947664,-25.054591],"type":"Point"},"id":"wattlas-plant-osm-way-1266700506","properties":{"aliases":["Ehoala Solar Park"],"canonicalAnchor":"osm:way/1266700506","canonicalCountryKey":"MG","capacityMw":8.0,"country":"MG","externalIds":{"osm":"way/1266700506"},"geographyId":"MG-27540722B69979521515872","id":"wattlas-plant-osm-way-1266700506","lifecycleCounts":{"operational":1},"locationPrecision":"exact","name":"Ehoala Solar Park","operatingCapacityCoverage":{"coveragePercent":100.0,"knownUnitCount":0,"method":"plant_aggregate","provenance":{"evidenceCount":0,"recordIds":["wattlas-record-osm-way-1266700506"],"sourceIds":["openstreetmap-power"],"sourceTypes":["community_mapped"],"valueKind":"reported"},"totalUnitCount":0},"operatingCapacityMw":8.0,"operatingCapacityMwByTechnology":{"solar":8.0},"plannedCapacityCoverage":{"coveragePercent":0.0,"knownUnitCount":0,"method":"unavailable","totalUnitCount":0},"plannedCapacityMw":0.0,"plannedCapacityMwByTechnology":{},"recordCount":1,"recordIds":["wattlas-record-osm-way-1266700506"],"sourceIds":["openstreetmap-power"],"sourceUrl":"https://www.openstreetmap.org/way/1266700506","technologies":["solar"],"technologyMixMw":{"solar":8.0},"unitCount":0,"unitIds":[]},"type":"Feature"},{"geometry":{"coordinates":[49.285383,-12.316292],"type":"Point"},"id":"wattlas-plant-osm-way-1310425190","properties":{"aliases":["Diego (Ramena)"],"canonicalAnchor":"osm:way/1310425190","canonicalCountryKey":"MG","capacityMw":1.7,"country":"MG","externalIds":{"osm":"way/1310425190"},"geographyId":"MG-27540722B39676432794686","id":"wattlas-plant-osm-way-1310425190","lifecycleCounts":{"operational":1},"locationPrecision":"exact","name":"Diego (Ramena)","operatingCapacityCoverage":{"coveragePercent":100.0,"knownUnitCount":0,"method":"plant_aggregate","provenance":{"evidenceCount":0,"recordIds":["wattlas-record-osm-way-1310425190"],"sourceIds":["openstreetmap-power"],"sourceTypes":["community_mapped"],"valueKind":"reported"},"totalUnitCount":0},"operatingCapacityMw":1.7,"operatingCapacityMwByTechnology":{"solar":1.7},"plannedCapacityCoverage":{"coveragePercent":0.0,"knownUnitCount":0,"method":"unavailable","totalUnitCount":0},"plannedCapacityMw":0.0,"plannedCapacityMwByTechnology":{},"recordCount":1,"recordIds":["wattlas-record-osm-way-1310425190"],"sourceIds":["openstreetmap-power"],"sourceUrl":"https://www.openstreetmap.org/way/1310425190","technologies":["solar"],"technologyMixMw":{"solar":1.7},"unitCount":0,"unitIds":[]},"type":"Feature"},{"geometry":{"coordinates":[45.120928,-23.999982],"type":"Point"},"id":"wattlas-plant-osm-way-1328295529","properties":{"aliases":["Molo Graphite"],"canonicalAnchor":"osm:way/1328295529","canonicalCountryKey":"MG","capacityMw":2.6,"country":"MG","externalIds":{"osm":"way/1328295529"},"geographyId":"MG-27540722B7206368911185","id":"wattlas-plant-osm-way-1328295529","lifecycleCounts":{"operational":1},"locationPrecision":"exact","name":"Molo Graphite","operatingCapacityCoverage":{"coveragePercent":100.0,"knownUnitCount":0,"method":"plant_aggregate","provenance":{"evidenceCount":0,"recordIds":["wattlas-record-osm-way-1328295529"],"sourceIds":["openstreetmap-power"],"sourceTypes":["community_mapped"],"valueKind":"reported"},"totalUnitCount":0},"operatingCapacityMw":2.6,"operatingCapacityMwByTechnology":{"solar":2.6},"plannedCapacityCoverage":{"coveragePercent":0.0,"knownUnitCount":0,"method":"unavailable","totalUnitCount":0},"plannedCapacityMw":0.0,"plannedCapacityMwByTechnology":{},"recordCount":1,"recordIds":["wattlas-record-osm-way-1328295529"],"sourceIds":["openstreetmap-power"],"sourceUrl":"https://www.openstreetmap.org/way/1328295529","technologies":["solar"],"technologyMixMw":{"solar":2.6},"unitCount":0,"unitIds":[]},"type":"Feature"},{"geometry":{"coordinates":[45.124091,-24.002504],"type":"Point"},"id":"wattlas-plant-osm-way-1328295550","properties":{"aliases":["Mapped power plant · OSM 1328295550"],"canonicalAnchor":"osm:way/1328295550","canonicalCountryKey":"MG","capacityMw":3.1,"country":"MG","externalIds":{"osm":"way/1328295550"},"geographyId":"MG-27540722B7206368911185","id":"wattlas-plant-osm-way-1328295550","lifecycleCounts":{"operational":1},"locationPrecision":"exact","name":"Mapped power plant · OSM 1328295550","operatingCapacityCoverage":{"coveragePercent":100.0,"knownUnitCount":0,"method":"plant_aggregate","provenance":{"evidenceCount":0,"recordIds":["wattlas-record-osm-way-1328295550"],"sourceIds":["openstreetmap-power"],"sourceTypes":["community_mapped"],"valueKind":"reported"},"totalUnitCount":0},"operatingCapacityMw":3.1,"operatingCapacityMwByTechnology":{"other":3.1},"plannedCapacityCoverage":{"coveragePercent":0.0,"knownUnitCount":0,"method":"unavailable","totalUnitCount":0},"plannedCapacityMw":0.0,"plannedCapacityMwByTechnology":{},"recordCount":1,"recordIds":["wattlas-record-osm-way-1328295550"],"sourceIds":["openstreetmap-power"],"sourceUrl":"https://www.openstreetmap.org/way/1328295550","technologies":["other"],"technologyMixMw":{"other":3.1},"unitCount":0,"unitIds":[]},"type":"Feature"},{"geometry":{"coordinates":[47.271609,-18.783225],"type":"Point"},"id":"wattlas-plant-osm-way-1352909430","properties":{"aliases":["Farahantsana"],"canonicalAnchor":"osm:way/1352909430","canonicalCountryKey":"MG","capacityMw":0.0,"country":"MG","externalIds":{"osm":"way/1352909430"},"geographyId":"MG-27540722B8147071737362","id":"wattlas-plant-osm-way-1352909430","lifecycleCounts":{"operational":1},"locationPrecision":"exact","name":"Farahantsana","operatingCapacityCoverage":{"coveragePercent":0.0,"knownUnitCount":0,"method":"unavailable","totalUnitCount":0},"operatingCapacityMw":0.0,"operatingCapacityMwByTechnology":{},"plannedCapacityCoverage":{"coveragePercent":0.0,"knownUnitCount":0,"method":"unavailable","totalUnitCount":0},"plannedCapacityMw":0.0,"plannedCapacityMwByTechnology":{},"recordCount":1,"recordIds":["wattlas-record-osm-way-1352909430"],"sourceIds":["openstreetmap-power"],"sourceUrl":"https://www.openstreetmap.org/way/1352909430","technologies":["hydro"],"technologyMixMw":{"hydro":0.0},"unitCount":0,"unitIds":[]},"type":"Feature"},{"geometry":{"coordinates":[47.259673,-18.779693],"type":"Point"},"id":"wattlas-plant-osm-way-1352909432","properties":{"aliases":["Farahantsana 1"],"canonicalAnchor":"osm:way/1352909432","canonicalCountryKey":"MG","capacityMw":28.0,"country":"MG","externalIds":{"osm":"way/1352909432"},"geographyId":"MG-27540722B8147071737362","id":"wattlas-plant-osm-way-1352909432","lifecycleCounts":{"operational":1},"locationPrecision":"exact","name":"Farahantsana 1","operatingCapacityCoverage":{"coveragePercent":100.0,"knownUnitCount":0,"method":"plant_aggregate","provenance":{"evidenceCount":0,"recordIds":["wattlas-record-osm-way-1352909432"],"sourceIds":["openstreetmap-power"],"sourceTypes":["community_mapped"],"valueKind":"reported"},"totalUnitCount":0},"operatingCapacityMw":28.0,"operatingCapacityMwByTechnology":{"hydro":28.0},"plannedCapacityCoverage":{"coveragePercent":0.0,"knownUnitCount":0,"method":"unavailable","totalUnitCount":0},"plannedCapacityMw":0.0,"plannedCapacityMwByTechnology":{},"recordCount":1,"recordIds":["wattlas-record-osm-way-1352909432"],"sourceIds":["openstreetmap-power"],"sourceUrl":"https://www.openstreetmap.org/way/1352909432","technologies":["hydro"],"technologyMixMw":{"hydro":28.0},"unitCount":0,"unitIds":[]},"type":"Feature"},{"geometry":{"coordinates":[43.715866,-23.3615],"type":"Point"},"id":"wattlas-plant-osm-way-1380280133","properties":{"aliases":["Mapped power plant · OSM 1380280133"],"canonicalAnchor":"osm:way/1380280133","canonicalCountryKey":"MG","capacityMw":2.9,"country":"MG","externalIds":{"osm":"way/1380280133"},"geographyId":"MG-27540722B7206368911185","id":"wattlas-plant-osm-way-1380280133","lifecycleCounts":{"operational":1},"locationPrecision":"exact","name":"Mapped power plant · OSM 1380280133","operatingCapacityCoverage":{"coveragePercent":100.0,"knownUnitCount":0,"method":"plant_aggregate","provenance":{"evidenceCount":0,"recordIds":["wattlas-record-osm-way-1380280133"],"sourceIds":["openstreetmap-power"],"sourceTypes":["community_mapped"],"valueKind":"reported"},"totalUnitCount":0},"operatingCapacityMw":2.9,"operatingCapacityMwByTechnology":{"solar":2.9},"plannedCapacityCoverage":{"coveragePercent":0.0,"knownUnitCount":0,"method":"unavailable","totalUnitCount":0},"plannedCapacityMw":0.0,"plannedCapacityMwByTechnology":{},"recordCount":1,"recordIds":["wattlas-record-osm-way-1380280133"],"sourceIds":["openstreetmap-power"],"sourceUrl":"https://www.openstreetmap.org/way/1380280133","technologies":["solar"],"technologyMixMw":{"solar":2.9},"unitCount":0,"unitIds":[]},"type":"Feature"},{"geometry":{"coordinates":[43.715793,-23.364206],"type":"Point"},"id":"wattlas-plant-osm-way-1380284278","properties":{"aliases":["Centrale thermique JIRAMA"],"canonicalAnchor":"osm:way/1380284278","canonicalCountryKey":"MG","capacityMw":9.0,"country":"MG","externalIds":{"osm":"way/1380284278"},"geographyId":"MG-27540722B7206368911185","id":"wattlas-plant-osm-way-1380284278","lifecycleCounts":{"operational":1},"locationPrecision":"exact","name":"Centrale thermique JIRAMA","operatingCapacityCoverage":{"coveragePercent":100.0,"knownUnitCount":0,"method":"plant_aggregate","provenance":{"evidenceCount":0,"recordIds":["wattlas-record-osm-way-1380284278"],"sourceIds":["openstreetmap-power"],"sourceTypes":["community_mapped"],"valueKind":"reported"},"totalUnitCount":0},"operatingCapacityMw":9.0,"operatingCapacityMwByTechnology":{"other":9.0},"plannedCapacityCoverage":{"coveragePercent":0.0,"knownUnitCount":0,"method":"unavailable","totalUnitCount":0},"plannedCapacityMw":0.0,"plannedCapacityMwByTechnology":{},"recordCount":1,"recordIds":["wattlas-record-osm-way-1380284278"],"sourceIds":["openstreetmap-power"],"sourceUrl":"https://www.openstreetmap.org/way/1380284278","technologies":["other"],"technologyMixMw":{"other":9.0},"unitCount":0,"unitIds":[]},"type":"Feature"},{"geometry":{"coordinates":[44.316377,-20.275853],"type":"Point"},"id":"wattlas-plant-osm-way-1380286586","properties":{"aliases":["Mapped power plant · OSM 1380286586"],"canonicalAnchor":"osm:way/1380286586","canonicalCountryKey":"MG","capacityMw":1.4,"country":"MG","externalIds":{"osm":"way/1380286586"},"geographyId":"MG-27540722B66660932242608","id":"wattlas-plant-osm-way-1380286586","lifecycleCounts":{"operational":1},"locationPrecision":"exact","name":"Mapped power plant · OSM 1380286586","operatingCapacityCoverage":{"coveragePercent":100.0,"knownUnitCount":0,"method":"plant_aggregate","provenance":{"evidenceCount":0,"recordIds":["wattlas-record-osm-way-1380286586"],"sourceIds":["openstreetmap-power"],"sourceTypes":["community_mapped"],"valueKind":"reported"},"totalUnitCount":0},"operatingCapacityMw":1.4,"operatingCapacityMwByTechnology":{"solar":1.4},"plannedCapacityCoverage":{"coveragePercent":0.0,"knownUnitCount":0,"method":"unavailable","totalUnitCount":0},"plannedCapacityMw":0.0,"plannedCapacityMwByTechnology":{},"recordCount":1,"recordIds":["wattlas-record-osm-way-1380286586"],"sourceIds":["openstreetmap-power"],"sourceUrl":"https://www.openstreetmap.org/way/1380286586","technologies":["solar"],"technologyMixMw":{"solar":1.4},"unitCount":0,"unitIds":[]},"type":"Feature"},{"geometry":{"coordinates":[47.833899,-19.247809],"type":"Point"},"id":"wattlas-plant-osm-way-178639826","properties":{"aliases":["Centrale de Tsiazompaniry"],"canonicalAnchor":"osm:way/178639826","canonicalCountryKey":"MG","capacityMw":5.2,"country":"MG","externalIds":{"osm":"way/178639826"},"geographyId":"MG-27540722B10144800929043","id":"wattlas-plant-osm-way-178639826","lifecycleCounts":{"operational":1},"locationPrecision":"exact","name":"Centrale de Tsiazompaniry","operatingCapacityCoverage":{"coveragePercent":100.0,"knownUnitCount":0,"method":"plant_aggregate","provenance":{"evidenceCount":0,"recordIds":["wattlas-record-osm-way-178639826"],"sourceIds":["openstreetmap-power"],"sourceTypes":["community_mapped"],"valueKind":"reported"},"totalUnitCount":0},"operatingCapacityMw":5.2,"operatingCapacityMwByTechnology":{"hydro":5.2},"plannedCapacityCoverage":{"coveragePercent":0.0,"knownUnitCount":0,"method":"unavailable","totalUnitCount":0},"plannedCapacityMw":0.0,"plannedCapacityMwByTechnology":{},"recordCount":1,"recordIds":["wattlas-record-osm-way-178639826"],"sourceIds":["openstreetmap-power"],"sourceUrl":"https://www.openstreetmap.org/way/178639826","technologies":["hydro"],"technologyMixMw":{"hydro":5.2},"unitCount":0,"unitIds":[]},"type":"Feature"},{"geometry":{"coordinates":[47.083174,-20.118865],"type":"Point"},"id":"wattlas-plant-osm-way-205754792","properties":{"aliases":["Centrale Hydroélectrique de Sahanivotry"],"canonicalAnchor":"osm:way/205754792","canonicalCountryKey":"MG","capacityMw":16.5,"country":"MG","externalIds":{"osm":"way/205754792"},"geographyId":"MG-27540722B16458597550107","id":"wattlas-plant-osm-way-205754792","lifecycleCounts":{"operational":1},"locationPrecision":"exact","name":"Centrale Hydroélectrique de Sahanivotry","operatingCapacityCoverage":{"coveragePercent":100.0,"knownUnitCount":0,"method":"plant_aggregate","provenance":{"evidenceCount":0,"recordIds":["wattlas-record-osm-way-205754792"],"sourceIds":["openstreetmap-power"],"sourceTypes":["community_mapped"],"valueKind":"reported"},"totalUnitCount":0},"operatingCapacityMw":16.5,"operatingCapacityMwByTechnology":{"hydro":16.5},"plannedCapacityCoverage":{"coveragePercent":0.0,"knownUnitCount":0,"method":"unavailable","totalUnitCount":0},"plannedCapacityMw":0.0,"plannedCapacityMwByTechnology":{},"recordCount":1,"recordIds":["wattlas-record-osm-way-205754792"],"sourceIds":["openstreetmap-power"],"sourceUrl":"https://www.openstreetmap.org/way/205754792","technologies":["hydro"],"technologyMixMw":{"hydro":16.5},"unitCount":0,"unitIds":[]},"type":"Feature"},{"geometry":{"coordinates":[49.556762,-15.54868],"type":"Point"},"id":"wattlas-plant-osm-way-550249567","properties":{"aliases":["Centrale de Maroantsetra"],"canonicalAnchor":"osm:way/550249567","canonicalCountryKey":"MG","capacityMw":2.5,"country":"MG","externalIds":{"osm":"way/550249567"},"geographyId":"MG-27540722B29762949035073","id":"wattlas-plant-osm-way-550249567","lifecycleCounts":{"operational":1},"locationPrecision":"exact","name":"Centrale de Maroantsetra","operatingCapacityCoverage":{"coveragePercent":100.0,"knownUnitCount":0,"method":"plant_aggregate","provenance":{"evidenceCount":0,"recordIds":["wattlas-record-osm-way-550249567"],"sourceIds":["openstreetmap-power"],"sourceTypes":["community_mapped"],"valueKind":"reported"},"totalUnitCount":0},"operatingCapacityMw":2.5,"operatingCapacityMwByTechnology":{"hydro":2.5},"plannedCapacityCoverage":{"coveragePercent":0.0,"knownUnitCount":0,"method":"unavailable","totalUnitCount":0},"plannedCapacityMw":0.0,"plannedCapacityMwByTechnology":{},"recordCount":1,"recordIds":["wattlas-record-osm-way-550249567"],"sourceIds":["openstreetmap-power"],"sourceUrl":"https://www.openstreetmap.org/way/550249567","technologies":["hydro"],"technologyMixMw":{"hydro":2.5},"unitCount":0,"unitIds":[]},"type":"Feature"},{"geometry":{"coordinates":[47.437927,-21.256902],"type":"Point"},"id":"wattlas-plant-osm-way-581190212","properties":{"aliases":["Centrale d'Namorona"],"canonicalAnchor":"osm:way/581190212","canonicalCountryKey":"MG","capacityMw":5.6,"country":"MG","externalIds":{"osm":"way/581190212"},"geographyId":"MG-27540722B59950383788875","id":"wattlas-plant-osm-way-581190212","lifecycleCounts":{"operational":1},"locationPrecision":"exact","name":"Centrale d'Namorona","operatingCapacityCoverage":{"coveragePercent":100.0,"knownUnitCount":0,"method":"plant_aggregate","provenance":{"evidenceCount":0,"recordIds":["wattlas-record-osm-way-581190212"],"sourceIds":["openstreetmap-power"],"sourceTypes":["community_mapped"],"valueKind":"reported"},"totalUnitCount":0},"operatingCapacityMw":5.6,"operatingCapacityMwByTechnology":{"hydro":5.6},"plannedCapacityCoverage":{"coveragePercent":0.0,"knownUnitCount":0,"method":"unavailable","totalUnitCount":0},"plannedCapacityMw":0.0,"plannedCapacityMwByTechnology":{},"recordCount":1,"recordIds":["wattlas-record-osm-way-581190212"],"sourceIds":["openstreetmap-power"],"sourceUrl":"https://www.openstreetmap.org/way/581190212","technologies":["hydro"],"technologyMixMw":{"hydro":5.6},"unitCount":0,"unitIds":[]},"type":"Feature"},{"geometry":{"coordinates":[47.549224,-18.929433],"type":"Point"},"id":"wattlas-plant-osm-way-670996674","properties":{"aliases":["Jirama Mandroseza"],"canonicalAnchor":"osm:way/670996674","canonicalCountryKey":"MG","capacityMw":40.0,"country":"MG","externalIds":{"osm":"way/670996674"},"geographyId":"MG-27540722B10144800929043","id":"wattlas-plant-osm-way-670996674","lifecycleCounts":{"operational":1},"locationPrecision":"exact","name":"Jirama Mandroseza","operatingCapacityCoverage":{"coveragePercent":100.0,"knownUnitCount":0,"method":"plant_aggregate","provenance":{"evidenceCount":0,"recordIds":["wattlas-record-osm-way-670996674"],"sourceIds":["openstreetmap-power"],"sourceTypes":["community_mapped"],"valueKind":"reported"},"totalUnitCount":0},"operatingCapacityMw":40.0,"operatingCapacityMwByTechnology":{"oil":40.0},"plannedCapacityCoverage":{"coveragePercent":0.0,"knownUnitCount":0,"method":"unavailable","totalUnitCount":0},"plannedCapacityMw":0.0,"plannedCapacityMwByTechnology":{},"recordCount":1,"recordIds":["wattlas-record-osm-way-670996674"],"sourceIds":["openstreetmap-power"],"sourceUrl":"https://www.openstreetmap.org/way/670996674","technologies":["oil"],"technologyMixMw":{"oil":40.0},"unitCount":0,"unitIds":[]},"type":"Feature"},{"geometry":{"coordinates":[48.656546,-18.803176],"type":"Point"},"id":"wattlas-plant-osm-way-702056059","properties":{"aliases":["Centrale d'Andekaleka"],"canonicalAnchor":"osm:way/702056059","canonicalCountryKey":"MG","capacityMw":91.0,"country":"MG","externalIds":{"osm":"way/702056059"},"geographyId":"MG-27540722B68428456346892","id":"wattlas-plant-osm-way-702056059","lifecycleCounts":{"operational":1},"locationPrecision":"exact","name":"Centrale d'Andekaleka","operatingCapacityCoverage":{"coveragePercent":100.0,"knownUnitCount":0,"method":"plant_aggregate","provenance":{"evidenceCount":0,"recordIds":["wattlas-record-osm-way-702056059"],"sourceIds":["openstreetmap-power"],"sourceTypes":["community_mapped"],"valueKind":"reported"},"totalUnitCount":0},"operatingCapacityMw":91.0,"operatingCapacityMwByTechnology":{"hydro":91.0},"plannedCapacityCoverage":{"coveragePercent":0.0,"knownUnitCount":0,"method":"unavailable","totalUnitCount":0},"plannedCapacityMw":0.0,"plannedCapacityMwByTechnology":{},"recordCount":1,"recordIds":["wattlas-record-osm-way-702056059"],"sourceIds":["openstreetmap-power"],"sourceUrl":"https://www.openstreetmap.org/way/702056059","technologies":["hydro"],"technologyMixMw":{"hydro":91.0},"unitCount":0,"unitIds":[]},"type":"Feature"},{"geometry":{"coordinates":[47.6918,-19.00591],"type":"Point"},"id":"wattlas-plant-osm-way-702064685","properties":{"aliases":["Centrale d'Antelomita II"],"canonicalAnchor":"osm:way/702064685","canonicalCountryKey":"MG","capacityMw":4.1,"country":"MG","externalIds":{"osm":"way/702064685"},"geographyId":"MG-27540722B10144800929043","id":"wattlas-plant-osm-way-702064685","lifecycleCounts":{"operational":1},"locationPrecision":"exact","name":"Centrale d'Antelomita II","operatingCapacityCoverage":{"coveragePercent":100.0,"knownUnitCount":0,"method":"plant_aggregate","provenance":{"evidenceCount":0,"recordIds":["wattlas-record-osm-way-702064685"],"sourceIds":["openstreetmap-power"],"sourceTypes":["community_mapped"],"valueKind":"reported"},"totalUnitCount":0},"operatingCapacityMw":4.1,"operatingCapacityMwByTechnology":{"hydro":4.1},"plannedCapacityCoverage":{"coveragePercent":0.0,"knownUnitCount":0,"method":"unavailable","totalUnitCount":0},"plannedCapacityMw":0.0,"plannedCapacityMwByTechnology":{},"recordCount":1,"recordIds":["wattlas-record-osm-way-702064685"],"sourceIds":["openstreetmap-power"],"sourceUrl":"https://www.openstreetmap.org/way/702064685","technologies":["hydro"],"technologyMixMw":{"hydro":4.1},"unitCount":0,"unitIds":[]},"type":"Feature"},{"geometry":{"coordinates":[47.068876,-19.940469],"type":"Point"},"id":"wattlas-plant-osm-way-702069812","properties":{"aliases":["Centrale Hydroélectrique de Manandona"],"canonicalAnchor":"osm:way/702069812","canonicalCountryKey":"MG","capacityMw":1.6,"country":"MG","externalIds":{"osm":"way/702069812"},"geographyId":"MG-27540722B16458597550107","id":"wattlas-plant-osm-way-702069812","lifecycleCounts":{"operational":1},"locationPrecision":"exact","name":"Centrale Hydroélectrique de Manandona","operatingCapacityCoverage":{"coveragePercent":100.0,"knownUnitCount":0,"method":"plant_aggregate","provenance":{"evidenceCount":0,"recordIds":["wattlas-record-osm-way-702069812"],"sourceIds":["openstreetmap-power"],"sourceTypes":["community_mapped"],"valueKind":"reported"},"totalUnitCount":0},"operatingCapacityMw":1.6,"operatingCapacityMwByTechnology":{"hydro":1.6},"plannedCapacityCoverage":{"coveragePercent":0.0,"knownUnitCount":0,"method":"unavailable","totalUnitCount":0},"plannedCapacityMw":0.0,"plannedCapacityMwByTechnology":{},"recordCount":1,"recordIds":["wattlas-record-osm-way-702069812"],"sourceIds":["openstreetmap-power"],"sourceUrl":"https://www.openstreetmap.org/way/702069812","technologies":["hydro"],"technologyMixMw":{"hydro":1.6},"unitCount":0,"unitIds":[]},"type":"Feature"},{"geometry":{"coordinates":[49.181026,-18.135847],"type":"Point"},"id":"wattlas-plant-osm-way-702083814","properties":{"aliases":["Centrale de Volobe"],"canonicalAnchor":"osm:way/702083814","canonicalCountryKey":"MG","capacityMw":6.8,"country":"MG","externalIds":{"osm":"way/702083814"},"geographyId":"MG-27540722B68428456346892","id":"wattlas-plant-osm-way-702083814","lifecycleCounts":{"operational":1},"locationPrecision":"exact","name":"Centrale de Volobe","operatingCapacityCoverage":{"coveragePercent":100.0,"knownUnitCount":0,"method":"plant_aggregate","provenance":{"evidenceCount":0,"recordIds":["wattlas-record-osm-way-702083814"],"sourceIds":["openstreetmap-power"],"sourceTypes":["community_mapped"],"valueKind":"reported"},"totalUnitCount":0},"operatingCapacityMw":6.8,"operatingCapacityMwByTechnology":{"hydro":6.8},"plannedCapacityCoverage":{"coveragePercent":0.0,"knownUnitCount":0,"method":"unavailable","totalUnitCount":0},"plannedCapacityMw":0.0,"plannedCapacityMwByTechnology":{},"recordCount":1,"recordIds":["wattlas-record-osm-way-702083814"],"sourceIds":["openstreetmap-power"],"sourceUrl":"https://www.openstreetmap.org/way/702083814","technologies":["hydro"],"technologyMixMw":{"hydro":6.8},"unitCount":0,"unitIds":[]},"type":"Feature"},{"geometry":{"coordinates":[46.875819,-25.006417],"type":"Point"},"id":"wattlas-plant-osm-way-818757868","properties":{"aliases":["Pompage Solaire"],"canonicalAnchor":"osm:way/818757868","canonicalCountryKey":"MG","capacityMw":0.0,"country":"MG","externalIds":{"osm":"way/818757868"},"geographyId":"MG-27540722B69979521515872","id":"wattlas-plant-osm-way-818757868","lifecycleCounts":{"operational":1},"locationPrecision":"exact","name":"Pompage Solaire","operatingCapacityCoverage":{"coveragePercent":0.0,"knownUnitCount":0,"method":"unavailable","totalUnitCount":0},"operatingCapacityMw":0.0,"operatingCapacityMwByTechnology":{},"plannedCapacityCoverage":{"coveragePercent":0.0,"knownUnitCount":0,"method":"unavailable","totalUnitCount":0},"plannedCapacityMw":0.0,"plannedCapacityMwByTechnology":{},"recordCount":1,"recordIds":["wattlas-record-osm-way-818757868"],"sourceIds":["openstreetmap-power"],"sourceUrl":"https://www.openstreetmap.org/way/818757868","technologies":["solar"],"technologyMixMw":{"solar":0.0},"unitCount":0,"unitIds":[]},"type":"Feature"},{"geometry":{"coordinates":[47.59887,-18.931122],"type":"Point"},"id":"wattlas-plant-osm-way-857377496","properties":{"aliases":["Mapped power plant · OSM 857377496"],"canonicalAnchor":"osm:way/857377496","canonicalCountryKey":"MG","capacityMw":0.0,"country":"MG","externalIds":{"osm":"way/857377496"},"geographyId":"MG-27540722B10144800929043","id":"wattlas-plant-osm-way-857377496","lifecycleCounts":{"operational":1},"locationPrecision":"exact","name":"Mapped power plant · OSM 857377496","operatingCapacityCoverage":{"coveragePercent":0.0,"knownUnitCount":0,"method":"unavailable","totalUnitCount":0},"operatingCapacityMw":0.0,"operatingCapacityMwByTechnology":{},"plannedCapacityCoverage":{"coveragePercent":0.0,"knownUnitCount":0,"method":"unavailable","totalUnitCount":0},"plannedCapacityMw":0.0,"plannedCapacityMwByTechnology":{},"recordCount":1,"recordIds":["wattlas-record-osm-way-857377496"],"sourceIds":["openstreetmap-power"],"sourceUrl":"https://www.openstreetmap.org/way/857377496","technologies":["oil"],"technologyMixMw":{"oil":0.0},"unitCount":0,"unitIds":[]},"type":"Feature"},{"geometry":{"coordinates":[47.599702,-18.935059],"type":"Point"},"id":"wattlas-plant-osm-way-857377497","properties":{"aliases":["Mapped power plant · OSM 857377497"],"canonicalAnchor":"osm:way/857377497","canonicalCountryKey":"MG","capacityMw":0.0,"country":"MG","externalIds":{"osm":"way/857377497"},"geographyId":"MG-27540722B10144800929043","id":"wattlas-plant-osm-way-857377497","lifecycleCounts":{"operational":1},"locationPrecision":"exact","name":"Mapped power plant · OSM 857377497","operatingCapacityCoverage":{"coveragePercent":0.0,"knownUnitCount":0,"method":"unavailable","totalUnitCount":0},"operatingCapacityMw":0.0,"operatingCapacityMwByTechnology":{},"plannedCapacityCoverage":{"coveragePercent":0.0,"knownUnitCount":0,"method":"unavailable","totalUnitCount":0},"plannedCapacityMw":0.0,"plannedCapacityMwByTechnology":{},"recordCount":1,"recordIds":["wattlas-record-osm-way-857377497"],"sourceIds":["openstreetmap-power"],"sourceUrl":"https://www.openstreetmap.org/way/857377497","technologies":["oil"],"technologyMixMw":{"oil":0.0},"unitCount":0,"unitIds":[]},"type":"Feature"},{"geometry":{"coordinates":[47.598632,-18.931509],"type":"Point"},"id":"wattlas-plant-osm-way-857377499","properties":{"aliases":["Mapped power plant · OSM 857377499"],"canonicalAnchor":"osm:way/857377499","canonicalCountryKey":"MG","capacityMw":66.0,"country":"MG","externalIds":{"osm":"way/857377499"},"geographyId":"MG-27540722B10144800929043","id":"wattlas-plant-osm-way-857377499","lifecycleCounts":{"operational":1},"locationPrecision":"exact","name":"Mapped power plant · OSM 857377499","operatingCapacityCoverage":{"coveragePercent":100.0,"knownUnitCount":0,"method":"plant_aggregate","provenance":{"evidenceCount":0,"recordIds":["wattlas-record-osm-way-857377499"],"sourceIds":["openstreetmap-power"],"sourceTypes":["community_mapped"],"valueKind":"reported"},"totalUnitCount":0},"operatingCapacityMw":66.0,"operatingCapacityMwByTechnology":{"oil":66.0},"plannedCapacityCoverage":{"coveragePercent":0.0,"knownUnitCount":0,"method":"unavailable","totalUnitCount":0},"plannedCapacityMw":0.0,"plannedCapacityMwByTechnology":{},"recordCount":1,"recordIds":["wattlas-record-osm-way-857377499"],"sourceIds":["openstreetmap-power"],"sourceUrl":"https://www.openstreetmap.org/way/857377499","technologies":["oil"],"technologyMixMw":{"oil":66.0},"unitCount":0,"unitIds":[]},"type":"Feature"},{"geometry":{"coordinates":[48.61925,-18.794009],"type":"Point"},"id":"wattlas-plant-wikidata-q16247139","properties":{"aliases":["Barrage d'Andekaleka"],"canonicalAnchor":"wikidata:Q16247139","canonicalCountryKey":"MG","capacityMw":0.0,"country":"MG","externalIds":{"osm":"way/506145670","wikidata":"Q16247139"},"geographyId":"MG-27540722B68428456346892","id":"wattlas-plant-wikidata-q16247139","idAliases":["wattlas-plant-osm-way-506145670"],"lifecycleCounts":{"operational":1},"locationPrecision":"exact","name":"Barrage d'Andekaleka","operatingCapacityCoverage":{"coveragePercent":0.0,"knownUnitCount":0,"method":"unavailable","totalUnitCount":0},"operatingCapacityMw":0.0,"operatingCapacityMwByTechnology":{},"plannedCapacityCoverage":{"coveragePercent":0.0,"knownUnitCount":0,"method":"unavailable","totalUnitCount":0},"plannedCapacityMw":0.0,"plannedCapacityMwByTechnology":{},"recordCount":1,"recordIds":["wattlas-record-osm-way-506145670"],"sourceIds":["openstreetmap-power"],"sourceUrl":"https://www.openstreetmap.org/way/506145670","technologies":["hydro"],"technologyMixMw":{"hydro":0.0},"unitCount":0,"unitIds":[]},"type":"Feature"},{"geometry":{"coordinates":[47.703342,-19.011979],"type":"Point"},"id":"wattlas-plant-wikidata-q16868940","properties":{"aliases":["Centrale d'Antelomita I"],"canonicalAnchor":"wikidata:Q16868940","canonicalCountryKey":"MG","capacityMw":4.1,"country":"MG","externalIds":{"osm":"way/702064686","wikidata":"Q16868940"},"geographyId":"MG-27540722B10144800929043","id":"wattlas-plant-wikidata-q16868940","idAliases":["wattlas-plant-osm-way-702064686"],"lifecycleCounts":{"operational":1},"locationPrecision":"exact","name":"Centrale d'Antelomita I","operatingCapacityCoverage":{"coveragePercent":100.0,"knownUnitCount":0,"method":"plant_aggregate","provenance":{"evidenceCount":0,"recordIds":["wattlas-record-osm-way-702064686"],"sourceIds":["openstreetmap-power"],"sourceTypes":["community_mapped"],"valueKind":"reported"},"totalUnitCount":0},"operatingCapacityMw":4.1,"operatingCapacityMwByTechnology":{"hydro":4.1},"plannedCapacityCoverage":{"coveragePercent":0.0,"knownUnitCount":0,"method":"unavailable","totalUnitCount":0},"plannedCapacityMw":0.0,"plannedCapacityMwByTechnology":{},"recordCount":1,"recordIds":["wattlas-record-osm-way-702064686"],"sourceIds":["openstreetmap-power"],"sourceUrl":"https://www.openstreetmap.org/way/702064686","technologies":["hydro"],"technologyMixMw":{"hydro":4.1},"unitCount":0,"unitIds":[]},"type":"Feature"},{"geometry":{"coordinates":[47.92946,-18.921308],"type":"Point"},"id":"wattlas-plant-wikidata-q16894585-1e6b3b9168","properties":{"aliases":["Mapped power plant · OSM 722566009"],"canonicalAnchor":"wikidata:Q16894585","canonicalCountryKey":"MG","capacityMw":0.0,"country":"MG","externalIds":{"osm":"way/722566009","wikidata":"Q16894585"},"geographyId":"MG-27540722B10144800929043","id":"wattlas-plant-wikidata-q16894585-1e6b3b9168","idAliases":["wattlas-plant-osm-way-722566009","wattlas-plant-wikidata-q16894585"],"lifecycleCounts":{"operational":1},"locationPrecision":"exact","name":"Mapped power plant · OSM 722566009","operatingCapacityCoverage":{"coveragePercent":0.0,"knownUnitCount":0,"method":"unavailable","totalUnitCount":0},"operatingCapacityMw":0.0,"operatingCapacityMwByTechnology":{},"plannedCapacityCoverage":{"coveragePercent":0.0,"knownUnitCount":0,"method":"unavailable","totalUnitCount":0},"plannedCapacityMw":0.0,"plannedCapacityMwByTechnology":{},"recordCount":1,"recordIds":["wattlas-record-osm-way-722566009"],"sourceIds":["openstreetmap-power"],"sourceUrl":"https://www.openstreetmap.org/way/722566009","technologies":["hydro"],"technologyMixMw":{"hydro":0.0},"unitCount":0,"unitIds":[]},"type":"Feature"},{"geometry":{"coordinates":[47.947134,-18.926376],"type":"Point"},"id":"wattlas-plant-wikidata-q16894585-d844ab234c","properties":{"aliases":["Centrale de la Mandraka"],"canonicalAnchor":"wikidata:Q16894585","canonicalCountryKey":"MG","capacityMw":24.0,"country":"MG","externalIds":{"osm":"way/308371677","wikidata":"Q16894585"},"geographyId":"MG-27540722B10144800929043","id":"wattlas-plant-wikidata-q16894585-d844ab234c","idAliases":["wattlas-plant-osm-way-308371677"],"lifecycleCounts":{"operational":1},"locationPrecision":"exact","name":"Centrale de la Mandraka","operatingCapacityCoverage":{"coveragePercent":100.0,"knownUnitCount":0,"method":"plant_aggregate","provenance":{"evidenceCount":0,"recordIds":["wattlas-record-osm-way-308371677"],"sourceIds":["openstreetmap-power"],"sourceTypes":["community_mapped"],"valueKind":"reported"},"totalUnitCount":0},"operatingCapacityMw":24.0,"operatingCapacityMwByTechnology":{"hydro":24.0},"plannedCapacityCoverage":{"coveragePercent":0.0,"knownUnitCount":0,"method":"unavailable","totalUnitCount":0},"plannedCapacityMw":0.0,"plannedCapacityMwByTechnology":{},"recordCount":1,"recordIds":["wattlas-record-osm-way-308371677"],"sourceIds":["openstreetmap-power"],"sourceUrl":"https://www.openstreetmap.org/way/308371677","technologies":["hydro"],"technologyMixMw":{"hydro":24.0},"unitCount":0,"unitIds":[]},"type":"Feature"}],"type":"FeatureCollection"}