{"features":[{"geometry":{"coordinates":[114.554981,48.079288],"type":"Point"},"id":"wattlas-plant-gemplant-l100000103033","properties":{"aliases":["Dornod power station","Unit 1","Unit 2"],"canonicalAnchor":"gemplant:L100000103033","canonicalCountryKey":"MN","capacityMw":86.0,"country":"MN","externalIdAliases":{"gemUnit":["G100000101519","G100000101520"]},"externalIds":{"gemPlant":"L100000103033","gemUnit":"G100000101520"},"gemWikiUrl":"https://www.gem.wiki/Dornod_power_station","geographyId":"MN-14279143B35762276870520","id":"wattlas-plant-gemplant-l100000103033","lifecycleCounts":{"operational":2},"locationPrecision":"exact","name":"Dornod power station","operatingCapacityCoverage":{"coveragePercent":100.0,"knownUnitCount":2,"method":"complete_unit_sum","provenance":{"evidenceCount":0,"recordIds":["wattlas-record-gemunit-g100000101519","wattlas-record-gemunit-g100000101520"],"sourceIds":["gem-global-integrated-power-tracker"],"sourceTypes":["research_verified"],"valueKind":"reported"},"totalUnitCount":2},"operatingCapacityMw":86.0,"operatingCapacityMwByTechnology":{"coal":86.0},"plannedCapacityCoverage":{"coveragePercent":0.0,"knownUnitCount":0,"method":"unavailable","totalUnitCount":0},"plannedCapacityMw":0.0,"plannedCapacityMwByTechnology":{},"recordCount":2,"recordIds":["wattlas-record-gemunit-g100000101519","wattlas-record-gemunit-g100000101520"],"sourceIds":["gem-global-integrated-power-tracker"],"sourceUrl":"https://www.gem.wiki/Dornod_power_station","technologies":["coal"],"technologyMixMw":{"coal":86.0},"unitCount":2,"unitIds":["gem-unit-G100000101519","gem-unit-G100000101520"]},"type":"Feature"},{"geometry":{"coordinates":[107.890865,47.272341],"type":"Point"},"id":"wattlas-plant-gemplant-l100000103034","properties":{"aliases":["Buuruljuut power station","Unit 1","Unit 2","Unit 3","Unit 4"],"canonicalAnchor":"gemplant:L100000103034","canonicalCountryKey":"MN","capacityMw":600.0,"country":"MN","externalIdAliases":{"gemUnit":["G100000101138","G100000101139","G100001022884","G100001022885"]},"externalIds":{"gemPlant":"L100000103034","gemUnit":"G100001022885"},"gemWikiUrl":"https://www.gem.wiki/Buuruljuut_power_station","geographyId":"MN-14279143B76228648820573","id":"wattlas-plant-gemplant-l100000103034","lifecycleCounts":{"announced":2,"operational":2},"locationPrecision":"exact","name":"Buuruljuut power station","operatingCapacityCoverage":{"coveragePercent":100.0,"knownUnitCount":2,"method":"complete_unit_sum","provenance":{"evidenceCount":0,"recordIds":["wattlas-record-gemunit-g100000101138","wattlas-record-gemunit-g100000101139"],"sourceIds":["gem-global-integrated-power-tracker"],"sourceTypes":["research_verified"],"valueKind":"reported"},"totalUnitCount":2},"operatingCapacityMw":300.0,"operatingCapacityMwByTechnology":{"coal":300.0},"plannedCapacityCoverage":{"coveragePercent":100.0,"knownUnitCount":2,"method":"complete_unit_sum","provenance":{"evidenceCount":0,"recordIds":["wattlas-record-gemunit-g100001022884","wattlas-record-gemunit-g100001022885"],"sourceIds":["gem-global-integrated-power-tracker"],"sourceTypes":["research_verified"],"valueKind":"reported"},"totalUnitCount":2},"plannedCapacityMw":300.0,"plannedCapacityMwByTechnology":{"coal":300.0},"recordCount":4,"recordIds":["wattlas-record-gemunit-g100000101138","wattlas-record-gemunit-g100000101139","wattlas-record-gemunit-g100001022884","wattlas-record-gemunit-g100001022885"],"sourceIds":["gem-global-integrated-power-tracker"],"sourceUrl":"https://www.gem.wiki/Buuruljuut_power_station","technologies":["coal"],"technologyMixMw":{"coal":600.0},"unitCount":4,"unitIds":["gem-unit-G100000101138","gem-unit-G100000101139","gem-unit-G100001022884","gem-unit-G100001022885"]},"type":"Feature"},{"geometry":{"coordinates":[104.098,49.0408],"type":"Point"},"id":"wattlas-plant-gemplant-l100000103040","properties":{"aliases":["Erdenet power station","Unit 4"],"canonicalAnchor":"gemplant:L100000103040","canonicalCountryKey":"MN","capacityMw":35.0,"country":"MN","externalIds":{"gemPlant":"L100000103040","gemUnit":"G100000102675"},"gemWikiUrl":"https://www.gem.wiki/Erdenet_power_station","geographyId":"MN-14279143B15424694570155","id":"wattlas-plant-gemplant-l100000103040","lifecycleCounts":{"operational":1},"locationPrecision":"exact","name":"Erdenet power station","operatingCapacityCoverage":{"coveragePercent":100.0,"knownUnitCount":1,"method":"complete_unit_sum","provenance":{"evidenceCount":0,"recordIds":["wattlas-record-gemunit-g100000102675"],"sourceIds":["gem-global-integrated-power-tracker"],"sourceTypes":["research_verified"],"valueKind":"reported"},"totalUnitCount":1},"operatingCapacityMw":35.0,"operatingCapacityMwByTechnology":{"coal":35.0},"plannedCapacityCoverage":{"coveragePercent":0.0,"knownUnitCount":0,"method":"unavailable","totalUnitCount":0},"plannedCapacityMw":0.0,"plannedCapacityMwByTechnology":{},"recordCount":1,"recordIds":["wattlas-record-gemunit-g100000102675"],"sourceIds":["gem-global-integrated-power-tracker"],"sourceUrl":"https://www.gem.wiki/Erdenet_power_station","technologies":["coal"],"technologyMixMw":{"coal":35.0},"unitCount":1,"unitIds":["gem-unit-G100000102675"]},"type":"Feature"},{"geometry":{"coordinates":[108.355172,47.745697],"type":"Point"},"id":"wattlas-plant-gemplant-l100000103042","properties":{"aliases":["Baganuur power station","Unit 1","Unit 2"],"canonicalAnchor":"gemplant:L100000103042","canonicalCountryKey":"MN","capacityMw":400.0,"country":"MN","externalIdAliases":{"gemUnit":["G100000100427","G100000100428"]},"externalIds":{"gemPlant":"L100000103042","gemUnit":"G100000100428"},"gemWikiUrl":"https://www.gem.wiki/Baganuur_power_station","geographyId":"MN-14279143B69842940795179","id":"wattlas-plant-gemplant-l100000103042","lifecycleCounts":{"announced":2},"locationPrecision":"exact","name":"Baganuur power station","operatingCapacityCoverage":{"coveragePercent":0.0,"knownUnitCount":0,"method":"unavailable","totalUnitCount":0},"operatingCapacityMw":0.0,"operatingCapacityMwByTechnology":{},"plannedCapacityCoverage":{"coveragePercent":100.0,"knownUnitCount":2,"method":"complete_unit_sum","provenance":{"evidenceCount":0,"recordIds":["wattlas-record-gemunit-g100000100427","wattlas-record-gemunit-g100000100428"],"sourceIds":["gem-global-integrated-power-tracker"],"sourceTypes":["research_verified"],"valueKind":"reported"},"totalUnitCount":2},"plannedCapacityMw":400.0,"plannedCapacityMwByTechnology":{"coal":400.0},"recordCount":2,"recordIds":["wattlas-record-gemunit-g100000100427","wattlas-record-gemunit-g100000100428"],"sourceIds":["gem-global-integrated-power-tracker"],"sourceUrl":"https://www.gem.wiki/Baganuur_power_station","technologies":["coal"],"technologyMixMw":{"coal":400.0},"unitCount":2,"unitIds":["gem-unit-G100000100427","gem-unit-G100000100428"]},"type":"Feature"},{"geometry":{"coordinates":[106.865055,47.895556],"type":"Point"},"id":"wattlas-plant-gemplant-l100000103043","properties":{"aliases":["Ulaanbaatar-3 power station","Unit 10","Unit 10 (old)","Unit 11","Unit 11 (old)","Unit 12","Unit 9"],"canonicalAnchor":"gemplant:L100000103043","canonicalCountryKey":"MN","capacityMw":350.0,"country":"MN","externalIdAliases":{"gemUnit":["G100000110442","G100000113966","G100000114162","G100000115304","G100001022804","G100001022805"]},"externalIds":{"gemPlant":"L100000103043","gemUnit":"G100000110442"},"gemWikiUrl":"https://www.gem.wiki/Ulaanbaatar-3_power_station","geographyId":"MN-14279143B69842940795179","id":"wattlas-plant-gemplant-l100000103043","lifecycleCounts":{"announced":3,"cancelled":2,"operational":1},"locationPrecision":"exact","name":"Ulaanbaatar-3 power station","operatingCapacityCoverage":{"coveragePercent":100.0,"knownUnitCount":1,"method":"complete_unit_sum","provenance":{"evidenceCount":0,"recordIds":["wattlas-record-gemunit-g100000110442"],"sourceIds":["gem-global-integrated-power-tracker"],"sourceTypes":["research_verified"],"valueKind":"reported"},"totalUnitCount":1},"operatingCapacityMw":50.0,"operatingCapacityMwByTechnology":{"coal":50.0},"plannedCapacityCoverage":{"coveragePercent":100.0,"knownUnitCount":3,"method":"complete_unit_sum","provenance":{"evidenceCount":0,"recordIds":["wattlas-record-gemunit-g100000115304","wattlas-record-gemunit-g100001022804","wattlas-record-gemunit-g100001022805"],"sourceIds":["gem-global-integrated-power-tracker"],"sourceTypes":["research_verified"],"valueKind":"reported"},"totalUnitCount":3},"plannedCapacityMw":300.0,"plannedCapacityMwByTechnology":{"coal":300.0},"recordCount":6,"recordIds":["wattlas-record-gemunit-g100000110442","wattlas-record-gemunit-g100000113966","wattlas-record-gemunit-g100000114162","wattlas-record-gemunit-g100000115304","wattlas-record-gemunit-g100001022804","wattlas-record-gemunit-g100001022805"],"sourceIds":["gem-global-integrated-power-tracker"],"sourceUrl":"https://www.gem.wiki/Ulaanbaatar-3_power_station","technologies":["coal"],"technologyMixMw":{"coal":350.0},"unitCount":6,"unitIds":["gem-unit-G100000110442","gem-unit-G100000113966","gem-unit-G100000114162","gem-unit-G100000115304","gem-unit-G100001022804","gem-unit-G100001022805"]},"type":"Feature"},{"geometry":{"coordinates":[106.8036,47.8938],"type":"Point"},"id":"wattlas-plant-gemplant-l100000103044","properties":{"aliases":["Ulaanbaatar-4 power station","Unit 1","Unit 2","Unit 3","Unit 4","Unit 5","Unit 6","Unit 7","Unit 8"],"canonicalAnchor":"gemplant:L100000103044","canonicalCountryKey":"MN","capacityMw":789.0,"country":"MN","externalIdAliases":{"gemUnit":["G100000110443","G100000110444","G100000110445","G100000110446","G100000110447","G100000110448","G100000110449","G100000113967"]},"externalIds":{"gemPlant":"L100000103044","gemUnit":"G100000110449"},"gemWikiUrl":"https://www.gem.wiki/Ulaanbaatar-4_power_station","geographyId":"MN-14279143B69842940795179","id":"wattlas-plant-gemplant-l100000103044","lifecycleCounts":{"cancelled":1,"operational":7},"locationPrecision":"exact","name":"Ulaanbaatar-4 power station","operatingCapacityCoverage":{"coveragePercent":100.0,"knownUnitCount":7,"method":"complete_unit_sum","provenance":{"evidenceCount":0,"recordIds":["wattlas-record-gemunit-g100000110443","wattlas-record-gemunit-g100000110444","wattlas-record-gemunit-g100000110445","wattlas-record-gemunit-g100000110446","wattlas-record-gemunit-g100000110447","wattlas-record-gemunit-g100000110448","wattlas-record-gemunit-g100000113967"],"sourceIds":["gem-global-integrated-power-tracker"],"sourceTypes":["research_verified"],"valueKind":"reported"},"totalUnitCount":7},"operatingCapacityMw":789.0,"operatingCapacityMwByTechnology":{"coal":789.0},"plannedCapacityCoverage":{"coveragePercent":0.0,"knownUnitCount":0,"method":"unavailable","totalUnitCount":0},"plannedCapacityMw":0.0,"plannedCapacityMwByTechnology":{},"recordCount":8,"recordIds":["wattlas-record-gemunit-g100000110443","wattlas-record-gemunit-g100000110444","wattlas-record-gemunit-g100000110445","wattlas-record-gemunit-g100000110446","wattlas-record-gemunit-g100000110447","wattlas-record-gemunit-g100000110448","wattlas-record-gemunit-g100000110449","wattlas-record-gemunit-g100000113967"],"sourceIds":["gem-global-integrated-power-tracker"],"sourceUrl":"https://www.gem.wiki/Ulaanbaatar-4_power_station","technologies":["coal"],"technologyMixMw":{"coal":789.0},"unitCount":8,"unitIds":["gem-unit-G100000110443","gem-unit-G100000110444","gem-unit-G100000110445","gem-unit-G100000110446","gem-unit-G100000110447","gem-unit-G100000110448","gem-unit-G100000110449","gem-unit-G100000113967"]},"type":"Feature"},{"geometry":{"coordinates":[106.807786,47.905143],"type":"Point"},"id":"wattlas-plant-gemplant-l100000103046-66c618feda","properties":{"aliases":["Ulaanbaatar-5 power station","Unit 1","Unit 2"],"canonicalAnchor":"gemplant:L100000103046","canonicalCountryKey":"MN","capacityMw":300.0,"country":"MN","externalIdAliases":{"gemUnit":["G100001050388","G100001073831"]},"externalIds":{"gemPlant":"L100000103046","gemUnit":"G100001073831"},"gemWikiUrl":"https://www.gem.wiki/Ulaanbaatar-5_power_station","geographyId":"MN-14279143B69842940795179","id":"wattlas-plant-gemplant-l100000103046-66c618feda","lifecycleCounts":{"announced":2},"locationPrecision":"exact","name":"Ulaanbaatar-5 power station","operatingCapacityCoverage":{"coveragePercent":0.0,"knownUnitCount":0,"method":"unavailable","totalUnitCount":0},"operatingCapacityMw":0.0,"operatingCapacityMwByTechnology":{},"plannedCapacityCoverage":{"coveragePercent":100.0,"knownUnitCount":2,"method":"complete_unit_sum","provenance":{"evidenceCount":0,"recordIds":["wattlas-record-gemunit-g100001050388","wattlas-record-gemunit-g100001073831"],"sourceIds":["gem-global-integrated-power-tracker"],"sourceTypes":["research_verified"],"valueKind":"reported"},"totalUnitCount":2},"plannedCapacityMw":300.0,"plannedCapacityMwByTechnology":{"coal":300.0},"recordCount":2,"recordIds":["wattlas-record-gemunit-g100001050388","wattlas-record-gemunit-g100001073831"],"sourceIds":["gem-global-integrated-power-tracker"],"sourceUrl":"https://www.gem.wiki/Ulaanbaatar-5_power_station","technologies":["coal"],"technologyMixMw":{"coal":300.0},"unitCount":2,"unitIds":["gem-unit-G100001050388","gem-unit-G100001073831"]},"type":"Feature"},{"geometry":{"coordinates":[97.609039,48.642233],"type":"Point"},"id":"wattlas-plant-gemplant-l100000103047","properties":{"aliases":["Telmen Thermal Power Plant","Unit 1","Unit 2"],"canonicalAnchor":"gemplant:L100000103047","canonicalCountryKey":"MN","capacityMw":0.0,"country":"MN","externalIdAliases":{"gemUnit":["G100000109996","G100000109997"]},"externalIds":{"gemPlant":"L100000103047","gemUnit":"G100000109997"},"gemWikiUrl":"https://www.gem.wiki/Telmen_Thermal_Power_Plant","geographyId":"MN-14279143B63368554420497","id":"wattlas-plant-gemplant-l100000103047","lifecycleCounts":{"cancelled":2},"locationPrecision":"exact","name":"Telmen Thermal Power Plant","operatingCapacityCoverage":{"coveragePercent":0.0,"knownUnitCount":0,"method":"unavailable","totalUnitCount":0},"operatingCapacityMw":0.0,"operatingCapacityMwByTechnology":{},"plannedCapacityCoverage":{"coveragePercent":0.0,"knownUnitCount":0,"method":"unavailable","totalUnitCount":0},"plannedCapacityMw":0.0,"plannedCapacityMwByTechnology":{},"recordCount":2,"recordIds":["wattlas-record-gemunit-g100000109996","wattlas-record-gemunit-g100000109997"],"sourceIds":["gem-global-integrated-power-tracker"],"sourceUrl":"https://www.gem.wiki/Telmen_Thermal_Power_Plant","technologies":["coal"],"technologyMixMw":{"coal":0.0},"unitCount":2,"unitIds":["gem-unit-G100000109996","gem-unit-G100000109997"]},"type":"Feature"},{"geometry":{"coordinates":[105.9576,49.4366],"type":"Point"},"id":"wattlas-plant-gemplant-l100000103048","properties":{"aliases":["Darkhan power station","Unit 5"],"canonicalAnchor":"gemplant:L100000103048","canonicalCountryKey":"MN","capacityMw":35.0,"country":"MN","externalIds":{"gemPlant":"L100000103048","gemUnit":"G100000113471"},"gemWikiUrl":"https://www.gem.wiki/Darkhan_power_station","geographyId":"MN-14279143B32551742065768","id":"wattlas-plant-gemplant-l100000103048","lifecycleCounts":{"operational":1},"locationPrecision":"exact","name":"Darkhan power station","operatingCapacityCoverage":{"coveragePercent":100.0,"knownUnitCount":1,"method":"complete_unit_sum","provenance":{"evidenceCount":0,"recordIds":["wattlas-record-gemunit-g100000113471"],"sourceIds":["gem-global-integrated-power-tracker"],"sourceTypes":["research_verified"],"valueKind":"reported"},"totalUnitCount":1},"operatingCapacityMw":35.0,"operatingCapacityMwByTechnology":{"coal":35.0},"plannedCapacityCoverage":{"coveragePercent":0.0,"knownUnitCount":0,"method":"unavailable","totalUnitCount":0},"plannedCapacityMw":0.0,"plannedCapacityMwByTechnology":{},"recordCount":1,"recordIds":["wattlas-record-gemunit-g100000113471"],"sourceIds":["gem-global-integrated-power-tracker"],"sourceUrl":"https://www.gem.wiki/Darkhan_power_station","technologies":["coal"],"technologyMixMw":{"coal":35.0},"unitCount":1,"unitIds":["gem-unit-G100000113471"]},"type":"Feature"},{"geometry":{"coordinates":[107.813511,47.060277],"type":"Point"},"id":"wattlas-plant-gemplant-l100000104673","properties":{"aliases":["--","Tsaidamnuur power station"],"canonicalAnchor":"gemplant:L100000104673","canonicalCountryKey":"MN","capacityMw":0.0,"country":"MN","externalIds":{"gemPlant":"L100000104673","gemUnit":"G100000114524"},"gemWikiUrl":"https://www.gem.wiki/Tsaidamnuur_power_station","geographyId":"MN-14279143B76228648820573","id":"wattlas-plant-gemplant-l100000104673","lifecycleCounts":{"cancelled":1},"locationPrecision":"exact","name":"Tsaidamnuur power station","operatingCapacityCoverage":{"coveragePercent":0.0,"knownUnitCount":0,"method":"unavailable","totalUnitCount":0},"operatingCapacityMw":0.0,"operatingCapacityMwByTechnology":{},"plannedCapacityCoverage":{"coveragePercent":0.0,"knownUnitCount":0,"method":"unavailable","totalUnitCount":0},"plannedCapacityMw":0.0,"plannedCapacityMwByTechnology":{},"recordCount":1,"recordIds":["wattlas-record-gemunit-g100000114524"],"sourceIds":["gem-global-integrated-power-tracker"],"sourceUrl":"https://www.gem.wiki/Tsaidamnuur_power_station","technologies":["coal"],"technologyMixMw":{"coal":0.0},"unitCount":1,"unitIds":["gem-unit-G100000114524"]},"type":"Feature"},{"geometry":{"coordinates":[106.211654,50.183121],"type":"Point"},"id":"wattlas-plant-gemplant-l100000104984","properties":{"aliases":["Sukhbaatar power station","Unit 1","Unit 2","Unit 3"],"canonicalAnchor":"gemplant:L100000104984","canonicalCountryKey":"MN","capacityMw":210.0,"country":"MN","externalIdAliases":{"gemUnit":["G100000115760","G100001073586","G100001073587"]},"externalIds":{"gemPlant":"L100000104984","gemUnit":"G100001073587"},"gemWikiUrl":"https://www.gem.wiki/Sukhbaatar_power_station","geographyId":"MN-14279143B84215380438566","id":"wattlas-plant-gemplant-l100000104984","lifecycleCounts":{"announced":1,"under_construction":2},"locationPrecision":"exact","name":"Sukhbaatar power station","operatingCapacityCoverage":{"coveragePercent":0.0,"knownUnitCount":0,"method":"unavailable","totalUnitCount":0},"operatingCapacityMw":0.0,"operatingCapacityMwByTechnology":{},"plannedCapacityCoverage":{"coveragePercent":100.0,"knownUnitCount":3,"method":"complete_unit_sum","provenance":{"evidenceCount":0,"recordIds":["wattlas-record-gemunit-g100000115760","wattlas-record-gemunit-g100001073586","wattlas-record-gemunit-g100001073587"],"sourceIds":["gem-global-integrated-power-tracker"],"sourceTypes":["research_verified"],"valueKind":"reported"},"totalUnitCount":3},"plannedCapacityMw":210.0,"plannedCapacityMwByTechnology":{"coal":210.0},"recordCount":3,"recordIds":["wattlas-record-gemunit-g100000115760","wattlas-record-gemunit-g100001073586","wattlas-record-gemunit-g100001073587"],"sourceIds":["gem-global-integrated-power-tracker"],"sourceUrl":"https://www.gem.wiki/Sukhbaatar_power_station","technologies":["coal"],"technologyMixMw":{"coal":210.0},"unitCount":3,"unitIds":["gem-unit-G100000115760","gem-unit-G100001073586","gem-unit-G100001073587"]},"type":"Feature"},{"geometry":{"coordinates":[91.3402,48.6614],"type":"Point"},"id":"wattlas-plant-gemplant-l100000602490","properties":{"aliases":["Erdeneburen hydroelectric plant"],"canonicalAnchor":"gemplant:L100000602490","canonicalCountryKey":"MN","capacityMw":90.0,"country":"MN","externalIds":{"gemPlant":"L100000602490","gemUnit":"G100000602521"},"gemWikiUrl":"https://www.gem.wiki/Erdeneburen_hydroelectric_plant","geographyId":"MN-14279143B22317554045022","id":"wattlas-plant-gemplant-l100000602490","lifecycleCounts":{"under_construction":1},"locationPrecision":"exact","name":"Erdeneburen hydroelectric plant","operatingCapacityCoverage":{"coveragePercent":0.0,"knownUnitCount":0,"method":"unavailable","totalUnitCount":0},"operatingCapacityMw":0.0,"operatingCapacityMwByTechnology":{},"plannedCapacityCoverage":{"coveragePercent":100.0,"knownUnitCount":1,"method":"complete_unit_sum","provenance":{"evidenceCount":0,"recordIds":["wattlas-record-gemunit-g100000602521"],"sourceIds":["gem-global-integrated-power-tracker"],"sourceTypes":["research_verified"],"valueKind":"reported"},"totalUnitCount":1},"plannedCapacityMw":90.0,"plannedCapacityMwByTechnology":{"hydro":90.0},"recordCount":1,"recordIds":["wattlas-record-gemunit-g100000602521"],"sourceIds":["gem-global-integrated-power-tracker"],"sourceUrl":"https://www.gem.wiki/Erdeneburen_hydroelectric_plant","technologies":["hydro"],"technologyMixMw":{"hydro":90.0},"unitCount":1,"unitIds":["gem-unit-G100000602521"]},"type":"Feature"},{"geometry":{"coordinates":[110.196,44.9101],"type":"Point"},"id":"wattlas-plant-gemplant-l100000800923","properties":{"aliases":["--","Desert solar farm"],"canonicalAnchor":"gemplant:L100000800923","canonicalCountryKey":"MN","capacityMw":30.0,"country":"MN","externalIds":{"gemPlant":"L100000800923","gemUnit":"G100000801070"},"gemWikiUrl":"https://www.gem.wiki/Desert_solar_farm","geographyId":"MN-14279143B47638406449643","id":"wattlas-plant-gemplant-l100000800923","lifecycleCounts":{"operational":1},"locationPrecision":"exact","name":"Desert solar farm","operatingCapacityCoverage":{"coveragePercent":100.0,"knownUnitCount":1,"method":"complete_unit_sum","provenance":{"evidenceCount":0,"recordIds":["wattlas-record-gemunit-g100000801070"],"sourceIds":["gem-global-integrated-power-tracker"],"sourceTypes":["research_verified"],"valueKind":"reported"},"totalUnitCount":1},"operatingCapacityMw":30.0,"operatingCapacityMwByTechnology":{"solar":30.0},"plannedCapacityCoverage":{"coveragePercent":0.0,"knownUnitCount":0,"method":"unavailable","totalUnitCount":0},"plannedCapacityMw":0.0,"plannedCapacityMwByTechnology":{},"recordCount":1,"recordIds":["wattlas-record-gemunit-g100000801070"],"sourceIds":["gem-global-integrated-power-tracker"],"sourceUrl":"https://www.gem.wiki/Desert_solar_farm","technologies":["solar"],"technologyMixMw":{"solar":30.0},"unitCount":1,"unitIds":["gem-unit-G100000801070"]},"type":"Feature"},{"geometry":{"coordinates":[108.3526,46.3181],"type":"Point"},"id":"wattlas-plant-gemplant-l100000830732","properties":{"aliases":["--","Sumber Soum solar project"],"canonicalAnchor":"gemplant:L100000830732","canonicalCountryKey":"MN","capacityMw":17.3,"country":"MN","externalIds":{"gemPlant":"L100000830732","gemUnit":"G100000834599"},"gemWikiUrl":"https://www.gem.wiki/Sumber_Soum_solar_project","geographyId":"MN-14279143B31648094269757","id":"wattlas-plant-gemplant-l100000830732","lifecycleCounts":{"operational":1},"locationPrecision":"exact","name":"Sumber Soum solar project","operatingCapacityCoverage":{"coveragePercent":100.0,"knownUnitCount":1,"method":"complete_unit_sum","provenance":{"evidenceCount":0,"recordIds":["wattlas-record-gemunit-g100000834599"],"sourceIds":["gem-global-integrated-power-tracker"],"sourceTypes":["research_verified"],"valueKind":"reported"},"totalUnitCount":1},"operatingCapacityMw":17.3,"operatingCapacityMwByTechnology":{"solar":17.3},"plannedCapacityCoverage":{"coveragePercent":0.0,"knownUnitCount":0,"method":"unavailable","totalUnitCount":0},"plannedCapacityMw":0.0,"plannedCapacityMwByTechnology":{},"recordCount":1,"recordIds":["wattlas-record-gemunit-g100000834599"],"sourceIds":["gem-global-integrated-power-tracker"],"sourceUrl":"https://www.gem.wiki/Sumber_Soum_solar_project","technologies":["solar"],"technologyMixMw":{"solar":17.3},"unitCount":1,"unitIds":["gem-unit-G100000834599"]},"type":"Feature"},{"geometry":{"coordinates":[108.0391,47.163],"type":"Point"},"id":"wattlas-plant-gemplant-l100000900732","properties":{"aliases":["--","Salkhit wind farm"],"canonicalAnchor":"gemplant:L100000900732","canonicalCountryKey":"MN","capacityMw":50.0,"country":"MN","externalIds":{"gemPlant":"L100000900732","gemUnit":"G100000900838"},"gemWikiUrl":"https://www.gem.wiki/Salkhit_wind_farm","geographyId":"MN-14279143B76228648820573","id":"wattlas-plant-gemplant-l100000900732","lifecycleCounts":{"operational":1},"locationPrecision":"exact","name":"Salkhit wind farm","operatingCapacityCoverage":{"coveragePercent":100.0,"knownUnitCount":1,"method":"complete_unit_sum","provenance":{"evidenceCount":0,"recordIds":["wattlas-record-gemunit-g100000900838"],"sourceIds":["gem-global-integrated-power-tracker"],"sourceTypes":["research_verified"],"valueKind":"reported"},"totalUnitCount":1},"operatingCapacityMw":50.0,"operatingCapacityMwByTechnology":{"wind":50.0},"plannedCapacityCoverage":{"coveragePercent":0.0,"knownUnitCount":0,"method":"unavailable","totalUnitCount":0},"plannedCapacityMw":0.0,"plannedCapacityMwByTechnology":{},"recordCount":1,"recordIds":["wattlas-record-gemunit-g100000900838"],"sourceIds":["gem-global-integrated-power-tracker"],"sourceUrl":"https://www.gem.wiki/Salkhit_wind_farm","technologies":["wind"],"technologyMixMw":{"wind":50.0},"unitCount":1,"unitIds":["gem-unit-G100000900838"]},"type":"Feature"},{"geometry":{"coordinates":[110.2493,44.9161],"type":"Point"},"id":"wattlas-plant-gemplant-l100000901009","properties":{"aliases":["--","Sainshand wind farm"],"canonicalAnchor":"gemplant:L100000901009","canonicalCountryKey":"MN","capacityMw":55.0,"country":"MN","externalIds":{"gemPlant":"L100000901009","gemUnit":"G100000901164"},"gemWikiUrl":"https://www.gem.wiki/Sainshand_wind_farm","geographyId":"MN-14279143B47638406449643","id":"wattlas-plant-gemplant-l100000901009","lifecycleCounts":{"operational":1},"locationPrecision":"exact","name":"Sainshand wind farm","operatingCapacityCoverage":{"coveragePercent":100.0,"knownUnitCount":1,"method":"complete_unit_sum","provenance":{"evidenceCount":0,"recordIds":["wattlas-record-gemunit-g100000901164"],"sourceIds":["gem-global-integrated-power-tracker"],"sourceTypes":["research_verified"],"valueKind":"reported"},"totalUnitCount":1},"operatingCapacityMw":55.0,"operatingCapacityMwByTechnology":{"wind":55.0},"plannedCapacityCoverage":{"coveragePercent":0.0,"knownUnitCount":0,"method":"unavailable","totalUnitCount":0},"plannedCapacityMw":0.0,"plannedCapacityMwByTechnology":{},"recordCount":1,"recordIds":["wattlas-record-gemunit-g100000901164"],"sourceIds":["gem-global-integrated-power-tracker"],"sourceUrl":"https://www.gem.wiki/Sainshand_wind_farm","technologies":["wind"],"technologyMixMw":{"wind":55.0},"unitCount":1,"unitIds":["gem-unit-G100000901164"]},"type":"Feature"},{"geometry":{"coordinates":[106.5142,48.032],"type":"Point"},"id":"wattlas-plant-gemplant-l100001024029","properties":{"aliases":["--","Ulaanbaatar solar project I"],"canonicalAnchor":"gemplant:L100001024029","canonicalCountryKey":"MN","capacityMw":18.0,"country":"MN","externalIds":{"gemPlant":"L100001024029","gemUnit":"G100001028710"},"gemWikiUrl":"https://www.gem.wiki/Ulaanbaatar_solar_project_I","geographyId":"MN-14279143B69842940795179","id":"wattlas-plant-gemplant-l100001024029","lifecycleCounts":{"operational":1},"locationPrecision":"exact","name":"Ulaanbaatar solar project I","operatingCapacityCoverage":{"coveragePercent":100.0,"knownUnitCount":1,"method":"complete_unit_sum","provenance":{"evidenceCount":0,"recordIds":["wattlas-record-gemunit-g100001028710"],"sourceIds":["gem-global-integrated-power-tracker"],"sourceTypes":["research_verified"],"valueKind":"reported"},"totalUnitCount":1},"operatingCapacityMw":18.0,"operatingCapacityMwByTechnology":{"solar":18.0},"plannedCapacityCoverage":{"coveragePercent":0.0,"knownUnitCount":0,"method":"unavailable","totalUnitCount":0},"plannedCapacityMw":0.0,"plannedCapacityMwByTechnology":{},"recordCount":1,"recordIds":["wattlas-record-gemunit-g100001028710"],"sourceIds":["gem-global-integrated-power-tracker"],"sourceUrl":"https://www.gem.wiki/Ulaanbaatar_solar_project_I","technologies":["solar"],"technologyMixMw":{"solar":18.0},"unitCount":1,"unitIds":["gem-unit-G100001028710"]},"type":"Feature"},{"geometry":{"coordinates":[105.9408,49.4002],"type":"Point"},"id":"wattlas-plant-gemplant-l100001024030","properties":{"aliases":["--","Darkhan-Uul solar project"],"canonicalAnchor":"gemplant:L100001024030","canonicalCountryKey":"MN","capacityMw":18.0,"country":"MN","externalIds":{"gemPlant":"L100001024030","gemUnit":"G100001028711"},"gemWikiUrl":"https://www.gem.wiki/Darkhan-Uul_solar_project","geographyId":"MN-14279143B32551742065768","id":"wattlas-plant-gemplant-l100001024030","lifecycleCounts":{"operational":1},"locationPrecision":"exact","name":"Darkhan-Uul solar project","operatingCapacityCoverage":{"coveragePercent":100.0,"knownUnitCount":1,"method":"complete_unit_sum","provenance":{"evidenceCount":0,"recordIds":["wattlas-record-gemunit-g100001028711"],"sourceIds":["gem-global-integrated-power-tracker"],"sourceTypes":["research_verified"],"valueKind":"reported"},"totalUnitCount":1},"operatingCapacityMw":18.0,"operatingCapacityMwByTechnology":{"solar":18.0},"plannedCapacityCoverage":{"coveragePercent":0.0,"knownUnitCount":0,"method":"unavailable","totalUnitCount":0},"plannedCapacityMw":0.0,"plannedCapacityMwByTechnology":{},"recordCount":1,"recordIds":["wattlas-record-gemunit-g100001028711"],"sourceIds":["gem-global-integrated-power-tracker"],"sourceUrl":"https://www.gem.wiki/Darkhan-Uul_solar_project","technologies":["solar"],"technologyMixMw":{"solar":18.0},"unitCount":1,"unitIds":["gem-unit-G100001028711"]},"type":"Feature"},{"geometry":{"coordinates":[94.9233,44.6201],"type":"Point"},"id":"wattlas-plant-gemplant-l100001024031","properties":{"aliases":["--","Altai solar project"],"canonicalAnchor":"gemplant:L100001024031","canonicalCountryKey":"MN","capacityMw":1.8,"country":"MN","externalIds":{"gemPlant":"L100001024031","gemUnit":"G100001028712"},"gemWikiUrl":"https://www.gem.wiki/Altai_solar_project","geographyId":"MN-14279143B39885639062119","id":"wattlas-plant-gemplant-l100001024031","lifecycleCounts":{"operational":1},"locationPrecision":"exact","name":"Altai solar project","operatingCapacityCoverage":{"coveragePercent":100.0,"knownUnitCount":1,"method":"complete_unit_sum","provenance":{"evidenceCount":0,"recordIds":["wattlas-record-gemunit-g100001028712"],"sourceIds":["gem-global-integrated-power-tracker"],"sourceTypes":["research_verified"],"valueKind":"reported"},"totalUnitCount":1},"operatingCapacityMw":1.8,"operatingCapacityMwByTechnology":{"solar":1.8},"plannedCapacityCoverage":{"coveragePercent":0.0,"knownUnitCount":0,"method":"unavailable","totalUnitCount":0},"plannedCapacityMw":0.0,"plannedCapacityMwByTechnology":{},"recordCount":1,"recordIds":["wattlas-record-gemunit-g100001028712"],"sourceIds":["gem-global-integrated-power-tracker"],"sourceUrl":"https://www.gem.wiki/Altai_solar_project","technologies":["solar"],"technologyMixMw":{"solar":1.8},"unitCount":1,"unitIds":["gem-unit-G100001028712"]},"type":"Feature"},{"geometry":{"coordinates":[106.7854,47.8321],"type":"Point"},"id":"wattlas-plant-gemplant-l100001024032","properties":{"aliases":["--","Ulaanbaatar solar project II"],"canonicalAnchor":"gemplant:L100001024032","canonicalCountryKey":"MN","capacityMw":1.6,"country":"MN","externalIds":{"gemPlant":"L100001024032","gemUnit":"G100001028713"},"gemWikiUrl":"https://www.gem.wiki/Ulaanbaatar_solar_project_II","geographyId":"MN-14279143B69842940795179","id":"wattlas-plant-gemplant-l100001024032","lifecycleCounts":{"operational":1},"locationPrecision":"exact","name":"Ulaanbaatar solar project II","operatingCapacityCoverage":{"coveragePercent":100.0,"knownUnitCount":1,"method":"complete_unit_sum","provenance":{"evidenceCount":0,"recordIds":["wattlas-record-gemunit-g100001028713"],"sourceIds":["gem-global-integrated-power-tracker"],"sourceTypes":["research_verified"],"valueKind":"reported"},"totalUnitCount":1},"operatingCapacityMw":1.6,"operatingCapacityMwByTechnology":{"solar":1.6},"plannedCapacityCoverage":{"coveragePercent":0.0,"knownUnitCount":0,"method":"unavailable","totalUnitCount":0},"plannedCapacityMw":0.0,"plannedCapacityMwByTechnology":{},"recordCount":1,"recordIds":["wattlas-record-gemunit-g100001028713"],"sourceIds":["gem-global-integrated-power-tracker"],"sourceUrl":"https://www.gem.wiki/Ulaanbaatar_solar_project_II","technologies":["solar"],"technologyMixMw":{"solar":1.6},"unitCount":1,"unitIds":["gem-unit-G100001028713"]},"type":"Feature"},{"geometry":{"coordinates":[107.6708,45.7096],"type":"Point"},"id":"wattlas-plant-gemplant-l100001065181","properties":{"aliases":["--","Bayanjargalan solar project"],"canonicalAnchor":"gemplant:L100001065181","canonicalCountryKey":"MN","capacityMw":15.9,"country":"MN","externalIds":{"gemPlant":"L100001065181","gemUnit":"G100001074967"},"gemWikiUrl":"https://www.gem.wiki/Bayanjargalan_solar_project","geographyId":"MN-14279143B59026071325992","id":"wattlas-plant-gemplant-l100001065181","lifecycleCounts":{"operational":1},"locationPrecision":"exact","name":"Bayanjargalan solar project","operatingCapacityCoverage":{"coveragePercent":100.0,"knownUnitCount":1,"method":"complete_unit_sum","provenance":{"evidenceCount":0,"recordIds":["wattlas-record-gemunit-g100001074967"],"sourceIds":["gem-global-integrated-power-tracker"],"sourceTypes":["research_verified"],"valueKind":"reported"},"totalUnitCount":1},"operatingCapacityMw":15.9,"operatingCapacityMwByTechnology":{"solar":15.9},"plannedCapacityCoverage":{"coveragePercent":0.0,"knownUnitCount":0,"method":"unavailable","totalUnitCount":0},"plannedCapacityMw":0.0,"plannedCapacityMwByTechnology":{},"recordCount":1,"recordIds":["wattlas-record-gemunit-g100001074967"],"sourceIds":["gem-global-integrated-power-tracker"],"sourceUrl":"https://www.gem.wiki/Bayanjargalan_solar_project","technologies":["solar"],"technologyMixMw":{"solar":15.9},"unitCount":1,"unitIds":["gem-unit-G100001074967"]},"type":"Feature"},{"geometry":{"coordinates":[91.7411,48.1044],"type":"Point"},"id":"wattlas-plant-gemplant-l100001065182","properties":{"aliases":["--","Buyant solar project"],"canonicalAnchor":"gemplant:L100001065182","canonicalCountryKey":"MN","capacityMw":6.1,"country":"MN","externalIds":{"gemPlant":"L100001065182","gemUnit":"G100001074968"},"gemWikiUrl":"https://www.gem.wiki/Buyant_solar_project","geographyId":"MN-14279143B22317554045022","id":"wattlas-plant-gemplant-l100001065182","lifecycleCounts":{"operational":1},"locationPrecision":"exact","name":"Buyant solar project","operatingCapacityCoverage":{"coveragePercent":100.0,"knownUnitCount":1,"method":"complete_unit_sum","provenance":{"evidenceCount":0,"recordIds":["wattlas-record-gemunit-g100001074968"],"sourceIds":["gem-global-integrated-power-tracker"],"sourceTypes":["research_verified"],"valueKind":"reported"},"totalUnitCount":1},"operatingCapacityMw":6.1,"operatingCapacityMwByTechnology":{"solar":6.1},"plannedCapacityCoverage":{"coveragePercent":0.0,"knownUnitCount":0,"method":"unavailable","totalUnitCount":0},"plannedCapacityMw":0.0,"plannedCapacityMwByTechnology":{},"recordCount":1,"recordIds":["wattlas-record-gemunit-g100001074968"],"sourceIds":["gem-global-integrated-power-tracker"],"sourceUrl":"https://www.gem.wiki/Buyant_solar_project","technologies":["solar"],"technologyMixMw":{"solar":6.1},"unitCount":1,"unitIds":["gem-unit-G100001074968"]},"type":"Feature"},{"geometry":{"coordinates":[96.4777,47.5981],"type":"Point"},"id":"wattlas-plant-gemplant-l100001065183","properties":{"aliases":["--","Aldarkhaan solar project"],"canonicalAnchor":"gemplant:L100001065183","canonicalCountryKey":"MN","capacityMw":5.0,"country":"MN","externalIds":{"gemPlant":"L100001065183","gemUnit":"G100001074969"},"gemWikiUrl":"https://www.gem.wiki/Aldarkhaan_solar_project","geographyId":"MN-14279143B63368554420497","id":"wattlas-plant-gemplant-l100001065183","lifecycleCounts":{"operational":1},"locationPrecision":"exact","name":"Aldarkhaan solar project","operatingCapacityCoverage":{"coveragePercent":100.0,"knownUnitCount":1,"method":"complete_unit_sum","provenance":{"evidenceCount":0,"recordIds":["wattlas-record-gemunit-g100001074969"],"sourceIds":["gem-global-integrated-power-tracker"],"sourceTypes":["research_verified"],"valueKind":"reported"},"totalUnitCount":1},"operatingCapacityMw":5.0,"operatingCapacityMwByTechnology":{"solar":5.0},"plannedCapacityCoverage":{"coveragePercent":0.0,"knownUnitCount":0,"method":"unavailable","totalUnitCount":0},"plannedCapacityMw":0.0,"plannedCapacityMwByTechnology":{},"recordCount":1,"recordIds":["wattlas-record-gemunit-g100001074969"],"sourceIds":["gem-global-integrated-power-tracker"],"sourceUrl":"https://www.gem.wiki/Aldarkhaan_solar_project","technologies":["solar"],"technologyMixMw":{"solar":5.0},"unitCount":1,"unitIds":["gem-unit-G100001074969"]},"type":"Feature"},{"geometry":{"coordinates":[96.3156,46.4253],"type":"Point"},"id":"wattlas-plant-gemplant-l100001065184","properties":{"aliases":["--","Taishir solar project"],"canonicalAnchor":"gemplant:L100001065184","canonicalCountryKey":"MN","capacityMw":14.4,"country":"MN","externalIds":{"gemPlant":"L100001065184","gemUnit":"G100001074970"},"gemWikiUrl":"https://www.gem.wiki/Taishir_solar_project","geographyId":"MN-14279143B39885639062119","id":"wattlas-plant-gemplant-l100001065184","lifecycleCounts":{"operational":1},"locationPrecision":"exact","name":"Taishir solar project","operatingCapacityCoverage":{"coveragePercent":100.0,"knownUnitCount":1,"method":"complete_unit_sum","provenance":{"evidenceCount":0,"recordIds":["wattlas-record-gemunit-g100001074970"],"sourceIds":["gem-global-integrated-power-tracker"],"sourceTypes":["research_verified"],"valueKind":"reported"},"totalUnitCount":1},"operatingCapacityMw":14.4,"operatingCapacityMwByTechnology":{"solar":14.4},"plannedCapacityCoverage":{"coveragePercent":0.0,"knownUnitCount":0,"method":"unavailable","totalUnitCount":0},"plannedCapacityMw":0.0,"plannedCapacityMwByTechnology":{},"recordCount":1,"recordIds":["wattlas-record-gemunit-g100001074970"],"sourceIds":["gem-global-integrated-power-tracker"],"sourceUrl":"https://www.gem.wiki/Taishir_solar_project","technologies":["solar"],"technologyMixMw":{"solar":14.4},"unitCount":1,"unitIds":["gem-unit-G100001074970"]},"type":"Feature"},{"geometry":{"coordinates":[100.2055,49.6158],"type":"Point"},"id":"wattlas-plant-gemplant-l100001065185","properties":{"aliases":["--","Murun solar project"],"canonicalAnchor":"gemplant:L100001065185","canonicalCountryKey":"MN","capacityMw":19.1,"country":"MN","externalIds":{"gemPlant":"L100001065185","gemUnit":"G100001074971"},"gemWikiUrl":"https://www.gem.wiki/Murun_solar_project","geographyId":"MN-14279143B20985490361275","id":"wattlas-plant-gemplant-l100001065185","lifecycleCounts":{"operational":1},"locationPrecision":"exact","name":"Murun solar project","operatingCapacityCoverage":{"coveragePercent":100.0,"knownUnitCount":1,"method":"complete_unit_sum","provenance":{"evidenceCount":0,"recordIds":["wattlas-record-gemunit-g100001074971"],"sourceIds":["gem-global-integrated-power-tracker"],"sourceTypes":["research_verified"],"valueKind":"reported"},"totalUnitCount":1},"operatingCapacityMw":19.1,"operatingCapacityMwByTechnology":{"solar":19.1},"plannedCapacityCoverage":{"coveragePercent":0.0,"knownUnitCount":0,"method":"unavailable","totalUnitCount":0},"plannedCapacityMw":0.0,"plannedCapacityMwByTechnology":{},"recordCount":1,"recordIds":["wattlas-record-gemunit-g100001074971"],"sourceIds":["gem-global-integrated-power-tracker"],"sourceUrl":"https://www.gem.wiki/Murun_solar_project","technologies":["solar"],"technologyMixMw":{"solar":19.1},"unitCount":1,"unitIds":["gem-unit-G100001074971"]},"type":"Feature"},{"geometry":{"coordinates":[111.7248,43.7951],"type":"Point"},"id":"wattlas-plant-gemplant-l100001065186","properties":{"aliases":["--","Zamiin Uud solar project"],"canonicalAnchor":"gemplant:L100001065186","canonicalCountryKey":"MN","capacityMw":16.6,"country":"MN","externalIds":{"gemPlant":"L100001065186","gemUnit":"G100001074972"},"gemWikiUrl":"https://www.gem.wiki/Zamiin_Uud_solar_project","geographyId":"MN-14279143B47638406449643","id":"wattlas-plant-gemplant-l100001065186","lifecycleCounts":{"operational":1},"locationPrecision":"exact","name":"Zamiin Uud solar project","operatingCapacityCoverage":{"coveragePercent":100.0,"knownUnitCount":1,"method":"complete_unit_sum","provenance":{"evidenceCount":0,"recordIds":["wattlas-record-gemunit-g100001074972"],"sourceIds":["gem-global-integrated-power-tracker"],"sourceTypes":["research_verified"],"valueKind":"reported"},"totalUnitCount":1},"operatingCapacityMw":16.6,"operatingCapacityMwByTechnology":{"solar":16.6},"plannedCapacityCoverage":{"coveragePercent":0.0,"knownUnitCount":0,"method":"unavailable","totalUnitCount":0},"plannedCapacityMw":0.0,"plannedCapacityMwByTechnology":{},"recordCount":1,"recordIds":["wattlas-record-gemunit-g100001074972"],"sourceIds":["gem-global-integrated-power-tracker"],"sourceUrl":"https://www.gem.wiki/Zamiin_Uud_solar_project","technologies":["solar"],"technologyMixMw":{"solar":16.6},"unitCount":1,"unitIds":["gem-unit-G100001074972"]},"type":"Feature"},{"geometry":{"coordinates":[96.3155,46.4252],"type":"Point"},"id":"wattlas-plant-gemplant-l100001080835","properties":{"aliases":["--","Serven solar farm"],"canonicalAnchor":"gemplant:L100001080835","canonicalCountryKey":"MN","capacityMw":10.0,"country":"MN","externalIds":{"gemPlant":"L100001080835","gemUnit":"G100001090790"},"gemWikiUrl":"https://www.gem.wiki/Serven_solar_farm","geographyId":"MN-14279143B39885639062119","id":"wattlas-plant-gemplant-l100001080835","lifecycleCounts":{"operational":1},"locationPrecision":"exact","name":"Serven solar farm","operatingCapacityCoverage":{"coveragePercent":100.0,"knownUnitCount":1,"method":"complete_unit_sum","provenance":{"evidenceCount":0,"recordIds":["wattlas-record-gemunit-g100001090790"],"sourceIds":["gem-global-integrated-power-tracker"],"sourceTypes":["research_verified"],"valueKind":"reported"},"totalUnitCount":1},"operatingCapacityMw":10.0,"operatingCapacityMwByTechnology":{"solar":10.0},"plannedCapacityCoverage":{"coveragePercent":0.0,"knownUnitCount":0,"method":"unavailable","totalUnitCount":0},"plannedCapacityMw":0.0,"plannedCapacityMwByTechnology":{},"recordCount":1,"recordIds":["wattlas-record-gemunit-g100001090790"],"sourceIds":["gem-global-integrated-power-tracker"],"sourceUrl":"https://www.gem.wiki/Serven_solar_farm","technologies":["solar"],"technologyMixMw":{"solar":10.0},"unitCount":1,"unitIds":["gem-unit-G100001090790"]},"type":"Feature"},{"geometry":{"coordinates":[107.211835,47.573971],"type":"Point"},"id":"wattlas-plant-osm-relation-13429746","properties":{"aliases":["Салхит СЦС"],"canonicalAnchor":"osm:relation/13429746","canonicalCountryKey":"MN","capacityMw":49.6,"country":"MN","externalIds":{"osm":"relation/13429746"},"geographyId":"MN-14279143B76228648820573","id":"wattlas-plant-osm-relation-13429746","lifecycleCounts":{"operational":1},"locationPrecision":"exact","name":"Салхит СЦС","operatingCapacityCoverage":{"coveragePercent":100.0,"knownUnitCount":0,"method":"plant_aggregate","provenance":{"evidenceCount":0,"recordIds":["wattlas-record-osm-relation-13429746"],"sourceIds":["openstreetmap-power"],"sourceTypes":["community_mapped"],"valueKind":"reported"},"totalUnitCount":0},"operatingCapacityMw":49.6,"operatingCapacityMwByTechnology":{"wind":49.6},"plannedCapacityCoverage":{"coveragePercent":0.0,"knownUnitCount":0,"method":"unavailable","totalUnitCount":0},"plannedCapacityMw":0.0,"plannedCapacityMwByTechnology":{},"recordCount":1,"recordIds":["wattlas-record-osm-relation-13429746"],"sourceIds":["openstreetmap-power"],"sourceUrl":"https://www.openstreetmap.org/relation/13429746","technologies":["wind"],"technologyMixMw":{"wind":49.6},"unitCount":0,"unitIds":[]},"type":"Feature"},{"geometry":{"coordinates":[110.258522,44.92371],"type":"Point"},"id":"wattlas-plant-osm-relation-13429747","properties":{"aliases":["Сайншанд СЦС"],"canonicalAnchor":"osm:relation/13429747","canonicalCountryKey":"MN","capacityMw":55.0,"country":"MN","externalIds":{"osm":"relation/13429747"},"geographyId":"MN-14279143B47638406449643","id":"wattlas-plant-osm-relation-13429747","lifecycleCounts":{"operational":1},"locationPrecision":"exact","name":"Сайншанд СЦС","operatingCapacityCoverage":{"coveragePercent":100.0,"knownUnitCount":0,"method":"plant_aggregate","provenance":{"evidenceCount":0,"recordIds":["wattlas-record-osm-relation-13429747"],"sourceIds":["openstreetmap-power"],"sourceTypes":["community_mapped"],"valueKind":"reported"},"totalUnitCount":0},"operatingCapacityMw":55.0,"operatingCapacityMwByTechnology":{"wind":55.0},"plannedCapacityCoverage":{"coveragePercent":0.0,"knownUnitCount":0,"method":"unavailable","totalUnitCount":0},"plannedCapacityMw":0.0,"plannedCapacityMwByTechnology":{},"recordCount":1,"recordIds":["wattlas-record-osm-relation-13429747"],"sourceIds":["openstreetmap-power"],"sourceUrl":"https://www.openstreetmap.org/relation/13429747","technologies":["wind"],"technologyMixMw":{"wind":55.0},"unitCount":0,"unitIds":[]},"type":"Feature"},{"geometry":{"coordinates":[105.610883,43.559033],"type":"Point"},"id":"wattlas-plant-osm-relation-13429748","properties":{"aliases":["Цэций СЦС"],"canonicalAnchor":"osm:relation/13429748","canonicalCountryKey":"MN","capacityMw":50.0,"country":"MN","externalIds":{"osm":"relation/13429748"},"geographyId":"MN-14279143B52126529381065","id":"wattlas-plant-osm-relation-13429748","lifecycleCounts":{"operational":1},"locationPrecision":"exact","name":"Цэций СЦС","operatingCapacityCoverage":{"coveragePercent":100.0,"knownUnitCount":0,"method":"plant_aggregate","provenance":{"evidenceCount":0,"recordIds":["wattlas-record-osm-relation-13429748"],"sourceIds":["openstreetmap-power"],"sourceTypes":["community_mapped"],"valueKind":"reported"},"totalUnitCount":0},"operatingCapacityMw":50.0,"operatingCapacityMwByTechnology":{"wind":50.0},"plannedCapacityCoverage":{"coveragePercent":0.0,"knownUnitCount":0,"method":"unavailable","totalUnitCount":0},"plannedCapacityMw":0.0,"plannedCapacityMwByTechnology":{},"recordCount":1,"recordIds":["wattlas-record-osm-relation-13429748"],"sourceIds":["openstreetmap-power"],"sourceUrl":"https://www.openstreetmap.org/relation/13429748","technologies":["wind"],"technologyMixMw":{"wind":50.0},"unitCount":0,"unitIds":[]},"type":"Feature"},{"geometry":{"coordinates":[92.079526,49.974852],"type":"Point"},"id":"wattlas-plant-osm-way-1001513807","properties":{"aliases":["Улаангомын Дулааны II-р Станц"],"canonicalAnchor":"osm:way/1001513807","canonicalCountryKey":"MN","capacityMw":0.0,"country":"MN","externalIds":{"osm":"way/1001513807"},"geographyId":"MN-14279143B81467460095364","id":"wattlas-plant-osm-way-1001513807","lifecycleCounts":{"operational":1},"locationPrecision":"exact","name":"Улаангомын Дулааны II-р Станц","operatingCapacityCoverage":{"coveragePercent":0.0,"knownUnitCount":0,"method":"unavailable","totalUnitCount":0},"operatingCapacityMw":0.0,"operatingCapacityMwByTechnology":{},"plannedCapacityCoverage":{"coveragePercent":0.0,"knownUnitCount":0,"method":"unavailable","totalUnitCount":0},"plannedCapacityMw":0.0,"plannedCapacityMwByTechnology":{},"recordCount":1,"recordIds":["wattlas-record-osm-way-1001513807"],"sourceIds":["openstreetmap-power"],"sourceUrl":"https://www.openstreetmap.org/way/1001513807","technologies":["coal"],"technologyMixMw":{"coal":0.0},"unitCount":0,"unitIds":[]},"type":"Feature"},{"geometry":{"coordinates":[106.430536,49.233114],"type":"Point"},"id":"wattlas-plant-osm-way-1001513808","properties":{"aliases":["Дулаан шарын гол"],"canonicalAnchor":"osm:way/1001513808","canonicalCountryKey":"MN","capacityMw":0.0,"country":"MN","externalIds":{"osm":"way/1001513808"},"geographyId":"MN-14279143B32551742065768","id":"wattlas-plant-osm-way-1001513808","lifecycleCounts":{"operational":1},"locationPrecision":"exact","name":"Дулаан шарын гол","operatingCapacityCoverage":{"coveragePercent":0.0,"knownUnitCount":0,"method":"unavailable","totalUnitCount":0},"operatingCapacityMw":0.0,"operatingCapacityMwByTechnology":{},"plannedCapacityCoverage":{"coveragePercent":0.0,"knownUnitCount":0,"method":"unavailable","totalUnitCount":0},"plannedCapacityMw":0.0,"plannedCapacityMwByTechnology":{},"recordCount":1,"recordIds":["wattlas-record-osm-way-1001513808"],"sourceIds":["openstreetmap-power"],"sourceUrl":"https://www.openstreetmap.org/way/1001513808","technologies":["coal"],"technologyMixMw":{"coal":0.0},"unitCount":0,"unitIds":[]},"type":"Feature"},{"geometry":{"coordinates":[108.355046,47.74494],"type":"Point"},"id":"wattlas-plant-osm-way-1001513809","properties":{"aliases":["Багануур дулааны станц"],"canonicalAnchor":"osm:way/1001513809","canonicalCountryKey":"MN","capacityMw":0.0,"country":"MN","externalIds":{"osm":"way/1001513809"},"geographyId":"MN-14279143B69842940795179","id":"wattlas-plant-osm-way-1001513809","lifecycleCounts":{"operational":1},"locationPrecision":"exact","name":"Багануур дулааны станц","operatingCapacityCoverage":{"coveragePercent":0.0,"knownUnitCount":0,"method":"unavailable","totalUnitCount":0},"operatingCapacityMw":0.0,"operatingCapacityMwByTechnology":{},"plannedCapacityCoverage":{"coveragePercent":0.0,"knownUnitCount":0,"method":"unavailable","totalUnitCount":0},"plannedCapacityMw":0.0,"plannedCapacityMwByTechnology":{},"recordCount":1,"recordIds":["wattlas-record-osm-way-1001513809"],"sourceIds":["openstreetmap-power"],"sourceUrl":"https://www.openstreetmap.org/way/1001513809","technologies":["coal"],"technologyMixMw":{"coal":0.0},"unitCount":0,"unitIds":[]},"type":"Feature"},{"geometry":{"coordinates":[104.147199,49.04447],"type":"Point"},"id":"wattlas-plant-osm-way-1001513812","properties":{"aliases":["Эрдэнэт үйлдвэр ДЦС"],"canonicalAnchor":"osm:way/1001513812","canonicalCountryKey":"MN","capacityMw":53.0,"country":"MN","externalIds":{"osm":"way/1001513812"},"geographyId":"MN-14279143B15424694570155","id":"wattlas-plant-osm-way-1001513812","lifecycleCounts":{"operational":1},"locationPrecision":"exact","name":"Эрдэнэт үйлдвэр ДЦС","operatingCapacityCoverage":{"coveragePercent":100.0,"knownUnitCount":0,"method":"plant_aggregate","provenance":{"evidenceCount":0,"recordIds":["wattlas-record-osm-way-1001513812"],"sourceIds":["openstreetmap-power"],"sourceTypes":["community_mapped"],"valueKind":"reported"},"totalUnitCount":0},"operatingCapacityMw":53.0,"operatingCapacityMwByTechnology":{"coal":53.0},"plannedCapacityCoverage":{"coveragePercent":0.0,"knownUnitCount":0,"method":"unavailable","totalUnitCount":0},"plannedCapacityMw":0.0,"plannedCapacityMwByTechnology":{},"recordCount":1,"recordIds":["wattlas-record-osm-way-1001513812"],"sourceIds":["openstreetmap-power"],"sourceUrl":"https://www.openstreetmap.org/way/1001513812","technologies":["coal"],"technologyMixMw":{"coal":53.0},"unitCount":0,"unitIds":[]},"type":"Feature"},{"geometry":{"coordinates":[104.435416,43.569971],"type":"Point"},"id":"wattlas-plant-osm-way-1001513813","properties":{"aliases":["Даланзадгадын ДЦС"],"canonicalAnchor":"osm:way/1001513813","canonicalCountryKey":"MN","capacityMw":6.0,"country":"MN","externalIds":{"osm":"way/1001513813"},"geographyId":"MN-14279143B52126529381065","id":"wattlas-plant-osm-way-1001513813","lifecycleCounts":{"operational":1},"locationPrecision":"exact","name":"Даланзадгадын ДЦС","operatingCapacityCoverage":{"coveragePercent":100.0,"knownUnitCount":0,"method":"plant_aggregate","provenance":{"evidenceCount":0,"recordIds":["wattlas-record-osm-way-1001513813"],"sourceIds":["openstreetmap-power"],"sourceTypes":["community_mapped"],"valueKind":"reported"},"totalUnitCount":0},"operatingCapacityMw":6.0,"operatingCapacityMwByTechnology":{"coal":6.0},"plannedCapacityCoverage":{"coveragePercent":0.0,"knownUnitCount":0,"method":"unavailable","totalUnitCount":0},"plannedCapacityMw":0.0,"plannedCapacityMwByTechnology":{},"recordCount":1,"recordIds":["wattlas-record-osm-way-1001513813"],"sourceIds":["openstreetmap-power"],"sourceUrl":"https://www.openstreetmap.org/way/1001513813","technologies":["coal"],"technologyMixMw":{"coal":6.0},"unitCount":0,"unitIds":[]},"type":"Feature"},{"geometry":{"coordinates":[106.809192,47.90514],"type":"Point"},"id":"wattlas-plant-osm-way-1001513814","properties":{"aliases":["Дулааны 2-р цахилгаан станц"],"canonicalAnchor":"osm:way/1001513814","canonicalCountryKey":"MN","capacityMw":21.5,"country":"MN","externalIds":{"osm":"way/1001513814"},"geographyId":"MN-14279143B69842940795179","id":"wattlas-plant-osm-way-1001513814","lifecycleCounts":{"operational":1},"locationPrecision":"exact","name":"Дулааны 2-р цахилгаан станц","operatingCapacityCoverage":{"coveragePercent":100.0,"knownUnitCount":0,"method":"plant_aggregate","provenance":{"evidenceCount":0,"recordIds":["wattlas-record-osm-way-1001513814"],"sourceIds":["openstreetmap-power"],"sourceTypes":["community_mapped"],"valueKind":"reported"},"totalUnitCount":0},"operatingCapacityMw":21.5,"operatingCapacityMwByTechnology":{"coal":21.5},"plannedCapacityCoverage":{"coveragePercent":0.0,"knownUnitCount":0,"method":"unavailable","totalUnitCount":0},"plannedCapacityMw":0.0,"plannedCapacityMwByTechnology":{},"recordCount":1,"recordIds":["wattlas-record-osm-way-1001513814"],"sourceIds":["openstreetmap-power"],"sourceUrl":"https://www.openstreetmap.org/way/1001513814","technologies":["coal"],"technologyMixMw":{"coal":21.5},"unitCount":0,"unitIds":[]},"type":"Feature"},{"geometry":{"coordinates":[112.954923,46.167721],"type":"Point"},"id":"wattlas-plant-osm-way-1060211986","properties":{"aliases":["Халзан дулаан ОНӨҮГ"],"canonicalAnchor":"osm:way/1060211986","canonicalCountryKey":"MN","capacityMw":0.0,"country":"MN","externalIds":{"osm":"way/1060211986"},"geographyId":"MN-14279143B54746499726346","id":"wattlas-plant-osm-way-1060211986","lifecycleCounts":{"operational":1},"locationPrecision":"exact","name":"Халзан дулаан ОНӨҮГ","operatingCapacityCoverage":{"coveragePercent":0.0,"knownUnitCount":0,"method":"unavailable","totalUnitCount":0},"operatingCapacityMw":0.0,"operatingCapacityMwByTechnology":{},"plannedCapacityCoverage":{"coveragePercent":0.0,"knownUnitCount":0,"method":"unavailable","totalUnitCount":0},"plannedCapacityMw":0.0,"plannedCapacityMwByTechnology":{},"recordCount":1,"recordIds":["wattlas-record-osm-way-1060211986"],"sourceIds":["openstreetmap-power"],"sourceUrl":"https://www.openstreetmap.org/way/1060211986","technologies":["other"],"technologyMixMw":{"other":0.0},"unitCount":0,"unitIds":[]},"type":"Feature"},{"geometry":{"coordinates":[106.865527,47.894673],"type":"Point"},"id":"wattlas-plant-osm-way-108195352","properties":{"aliases":["Дулааны 3-р цахилгаан станц"],"canonicalAnchor":"osm:way/108195352","canonicalCountryKey":"MN","capacityMw":198.0,"country":"MN","externalIds":{"osm":"way/108195352"},"geographyId":"MN-14279143B69842940795179","id":"wattlas-plant-osm-way-108195352","lifecycleCounts":{"operational":1},"locationPrecision":"exact","name":"Дулааны 3-р цахилгаан станц","operatingCapacityCoverage":{"coveragePercent":100.0,"knownUnitCount":0,"method":"plant_aggregate","provenance":{"evidenceCount":0,"recordIds":["wattlas-record-osm-way-108195352"],"sourceIds":["openstreetmap-power"],"sourceTypes":["community_mapped"],"valueKind":"reported"},"totalUnitCount":0},"operatingCapacityMw":198.0,"operatingCapacityMwByTechnology":{"coal":198.0},"plannedCapacityCoverage":{"coveragePercent":0.0,"knownUnitCount":0,"method":"unavailable","totalUnitCount":0},"plannedCapacityMw":0.0,"plannedCapacityMwByTechnology":{},"recordCount":1,"recordIds":["wattlas-record-osm-way-108195352"],"sourceIds":["openstreetmap-power"],"sourceUrl":"https://www.openstreetmap.org/way/108195352","technologies":["coal"],"technologyMixMw":{"coal":198.0},"unitCount":0,"unitIds":[]},"type":"Feature"},{"geometry":{"coordinates":[91.928492,48.251778],"type":"Point"},"id":"wattlas-plant-osm-way-1109968015","properties":{"aliases":["Ховд нар"],"canonicalAnchor":"osm:way/1109968015","canonicalCountryKey":"MN","capacityMw":10.0,"country":"MN","externalIds":{"osm":"way/1109968015"},"geographyId":"MN-14279143B22317554045022","id":"wattlas-plant-osm-way-1109968015","lifecycleCounts":{"operational":1},"locationPrecision":"exact","name":"Ховд нар","operatingCapacityCoverage":{"coveragePercent":100.0,"knownUnitCount":0,"method":"plant_aggregate","provenance":{"evidenceCount":0,"recordIds":["wattlas-record-osm-way-1109968015"],"sourceIds":["openstreetmap-power"],"sourceTypes":["community_mapped"],"valueKind":"reported"},"totalUnitCount":0},"operatingCapacityMw":10.0,"operatingCapacityMwByTechnology":{"solar":10.0},"plannedCapacityCoverage":{"coveragePercent":0.0,"knownUnitCount":0,"method":"unavailable","totalUnitCount":0},"plannedCapacityMw":0.0,"plannedCapacityMwByTechnology":{},"recordCount":1,"recordIds":["wattlas-record-osm-way-1109968015"],"sourceIds":["openstreetmap-power"],"sourceUrl":"https://www.openstreetmap.org/way/1109968015","technologies":["solar"],"technologyMixMw":{"solar":10.0},"unitCount":0,"unitIds":[]},"type":"Feature"},{"geometry":{"coordinates":[106.603698,47.864798],"type":"Point"},"id":"wattlas-plant-osm-way-1293449424","properties":{"aliases":["Songino Battery Storage Power Station"],"canonicalAnchor":"osm:way/1293449424","canonicalCountryKey":"MN","capacityMw":80.0,"country":"MN","externalIds":{"osm":"way/1293449424"},"geographyId":"MN-14279143B69842940795179","id":"wattlas-plant-osm-way-1293449424","lifecycleCounts":{"operational":1},"locationPrecision":"exact","name":"Songino Battery Storage Power Station","operatingCapacityCoverage":{"coveragePercent":100.0,"knownUnitCount":0,"method":"plant_aggregate","provenance":{"evidenceCount":0,"recordIds":["wattlas-record-osm-way-1293449424"],"sourceIds":["openstreetmap-power"],"sourceTypes":["community_mapped"],"valueKind":"reported"},"totalUnitCount":0},"operatingCapacityMw":80.0,"operatingCapacityMwByTechnology":{"other":80.0},"plannedCapacityCoverage":{"coveragePercent":0.0,"knownUnitCount":0,"method":"unavailable","totalUnitCount":0},"plannedCapacityMw":0.0,"plannedCapacityMwByTechnology":{},"recordCount":1,"recordIds":["wattlas-record-osm-way-1293449424"],"sourceIds":["openstreetmap-power"],"sourceUrl":"https://www.openstreetmap.org/way/1293449424","technologies":["other"],"technologyMixMw":{"other":80.0},"unitCount":0,"unitIds":[]},"type":"Feature"},{"geometry":{"coordinates":[107.891378,47.272398],"type":"Point"},"id":"wattlas-plant-osm-way-1349184290","properties":{"aliases":["Бөөрөлжүүтийн цахилгаан станц"],"canonicalAnchor":"osm:way/1349184290","canonicalCountryKey":"MN","capacityMw":600.0,"country":"MN","externalIds":{"osm":"way/1349184290"},"geographyId":"MN-14279143B76228648820573","id":"wattlas-plant-osm-way-1349184290","lifecycleCounts":{"operational":1},"locationPrecision":"exact","name":"Бөөрөлжүүтийн цахилгаан станц","operatingCapacityCoverage":{"coveragePercent":100.0,"knownUnitCount":0,"method":"plant_aggregate","provenance":{"evidenceCount":0,"recordIds":["wattlas-record-osm-way-1349184290"],"sourceIds":["openstreetmap-power"],"sourceTypes":["community_mapped"],"valueKind":"reported"},"totalUnitCount":0},"operatingCapacityMw":600.0,"operatingCapacityMwByTechnology":{"coal":600.0},"plannedCapacityCoverage":{"coveragePercent":0.0,"knownUnitCount":0,"method":"unavailable","totalUnitCount":0},"plannedCapacityMw":0.0,"plannedCapacityMwByTechnology":{},"recordCount":1,"recordIds":["wattlas-record-osm-way-1349184290"],"sourceIds":["openstreetmap-power"],"sourceUrl":"https://www.openstreetmap.org/way/1349184290","technologies":["coal"],"technologyMixMw":{"coal":600.0},"unitCount":0,"unitIds":[]},"type":"Feature"},{"geometry":{"coordinates":[116.252183,46.964136],"type":"Point"},"id":"wattlas-plant-osm-way-1374660291","properties":{"aliases":["19-р цооног"],"canonicalAnchor":"osm:way/1374660291","canonicalCountryKey":"MN","capacityMw":0.0,"country":"MN","externalIds":{"osm":"way/1374660291"},"geographyId":"MN-14279143B35762276870520","id":"wattlas-plant-osm-way-1374660291","lifecycleCounts":{"operational":1},"locationPrecision":"exact","name":"19-р цооног","operatingCapacityCoverage":{"coveragePercent":0.0,"knownUnitCount":0,"method":"unavailable","totalUnitCount":0},"operatingCapacityMw":0.0,"operatingCapacityMwByTechnology":{},"plannedCapacityCoverage":{"coveragePercent":0.0,"knownUnitCount":0,"method":"unavailable","totalUnitCount":0},"plannedCapacityMw":0.0,"plannedCapacityMwByTechnology":{},"recordCount":1,"recordIds":["wattlas-record-osm-way-1374660291"],"sourceIds":["openstreetmap-power"],"sourceUrl":"https://www.openstreetmap.org/way/1374660291","technologies":["oil"],"technologyMixMw":{"oil":0.0},"unitCount":0,"unitIds":[]},"type":"Feature"},{"geometry":{"coordinates":[100.205382,49.615817],"type":"Point"},"id":"wattlas-plant-osm-way-1391814990","properties":{"aliases":["Хөвсгөл нарны цахилгаан станц"],"canonicalAnchor":"osm:way/1391814990","canonicalCountryKey":"MN","capacityMw":10.0,"country":"MN","externalIds":{"osm":"way/1391814990"},"geographyId":"MN-14279143B20985490361275","id":"wattlas-plant-osm-way-1391814990","lifecycleCounts":{"operational":1},"locationPrecision":"exact","name":"Хөвсгөл нарны цахилгаан станц","operatingCapacityCoverage":{"coveragePercent":100.0,"knownUnitCount":0,"method":"plant_aggregate","provenance":{"evidenceCount":0,"recordIds":["wattlas-record-osm-way-1391814990"],"sourceIds":["openstreetmap-power"],"sourceTypes":["community_mapped"],"valueKind":"reported"},"totalUnitCount":0},"operatingCapacityMw":10.0,"operatingCapacityMwByTechnology":{"solar":10.0},"plannedCapacityCoverage":{"coveragePercent":0.0,"knownUnitCount":0,"method":"unavailable","totalUnitCount":0},"plannedCapacityMw":0.0,"plannedCapacityMwByTechnology":{},"recordCount":1,"recordIds":["wattlas-record-osm-way-1391814990"],"sourceIds":["openstreetmap-power"],"sourceUrl":"https://www.openstreetmap.org/way/1391814990","technologies":["solar"],"technologyMixMw":{"solar":10.0},"unitCount":0,"unitIds":[]},"type":"Feature"},{"geometry":{"coordinates":[104.096228,49.041478],"type":"Point"},"id":"wattlas-plant-osm-way-178171212","properties":{"aliases":["Эрдэнэт ДЦС"],"canonicalAnchor":"osm:way/178171212","canonicalCountryKey":"MN","capacityMw":67.0,"country":"MN","externalIds":{"osm":"way/178171212"},"geographyId":"MN-14279143B15424694570155","id":"wattlas-plant-osm-way-178171212","lifecycleCounts":{"operational":1},"locationPrecision":"exact","name":"Эрдэнэт ДЦС","operatingCapacityCoverage":{"coveragePercent":100.0,"knownUnitCount":0,"method":"plant_aggregate","provenance":{"evidenceCount":0,"recordIds":["wattlas-record-osm-way-178171212"],"sourceIds":["openstreetmap-power"],"sourceTypes":["community_mapped"],"valueKind":"reported"},"totalUnitCount":0},"operatingCapacityMw":67.0,"operatingCapacityMwByTechnology":{"coal":67.0},"plannedCapacityCoverage":{"coveragePercent":0.0,"knownUnitCount":0,"method":"unavailable","totalUnitCount":0},"plannedCapacityMw":0.0,"plannedCapacityMwByTechnology":{},"recordCount":1,"recordIds":["wattlas-record-osm-way-178171212"],"sourceIds":["openstreetmap-power"],"sourceUrl":"https://www.openstreetmap.org/way/178171212","technologies":["coal"],"technologyMixMw":{"coal":67.0},"unitCount":0,"unitIds":[]},"type":"Feature"},{"geometry":{"coordinates":[114.554515,48.079402],"type":"Point"},"id":"wattlas-plant-osm-way-190548312","properties":{"aliases":["Дорнод бүсийн эрчим хүчний систем"],"canonicalAnchor":"osm:way/190548312","canonicalCountryKey":"MN","capacityMw":36.0,"country":"MN","externalIds":{"osm":"way/190548312"},"geographyId":"MN-14279143B35762276870520","id":"wattlas-plant-osm-way-190548312","lifecycleCounts":{"operational":1},"locationPrecision":"exact","name":"Дорнод бүсийн эрчим хүчний систем","operatingCapacityCoverage":{"coveragePercent":100.0,"knownUnitCount":0,"method":"plant_aggregate","provenance":{"evidenceCount":0,"recordIds":["wattlas-record-osm-way-190548312"],"sourceIds":["openstreetmap-power"],"sourceTypes":["community_mapped"],"valueKind":"reported"},"totalUnitCount":0},"operatingCapacityMw":36.0,"operatingCapacityMwByTechnology":{"coal":36.0},"plannedCapacityCoverage":{"coveragePercent":0.0,"knownUnitCount":0,"method":"unavailable","totalUnitCount":0},"plannedCapacityMw":0.0,"plannedCapacityMwByTechnology":{},"recordCount":1,"recordIds":["wattlas-record-osm-way-190548312"],"sourceIds":["openstreetmap-power"],"sourceUrl":"https://www.openstreetmap.org/way/190548312","technologies":["coal"],"technologyMixMw":{"coal":36.0},"unitCount":0,"unitIds":[]},"type":"Feature"},{"geometry":{"coordinates":[97.207243,47.686476],"type":"Point"},"id":"wattlas-plant-osm-way-336752216","properties":{"aliases":["Богдын голын УЦС"],"canonicalAnchor":"osm:way/336752216","canonicalCountryKey":"MN","capacityMw":2.0,"country":"MN","externalIds":{"osm":"way/336752216"},"geographyId":"MN-14279143B63368554420497","id":"wattlas-plant-osm-way-336752216","lifecycleCounts":{"operational":1},"locationPrecision":"exact","name":"Богдын голын УЦС","operatingCapacityCoverage":{"coveragePercent":100.0,"knownUnitCount":0,"method":"plant_aggregate","provenance":{"evidenceCount":0,"recordIds":["wattlas-record-osm-way-336752216"],"sourceIds":["openstreetmap-power"],"sourceTypes":["community_mapped"],"valueKind":"reported"},"totalUnitCount":0},"operatingCapacityMw":2.0,"operatingCapacityMwByTechnology":{"hydro":2.0},"plannedCapacityCoverage":{"coveragePercent":0.0,"knownUnitCount":0,"method":"unavailable","totalUnitCount":0},"plannedCapacityMw":0.0,"plannedCapacityMwByTechnology":{},"recordCount":1,"recordIds":["wattlas-record-osm-way-336752216"],"sourceIds":["openstreetmap-power"],"sourceUrl":"https://www.openstreetmap.org/way/336752216","technologies":["hydro"],"technologyMixMw":{"hydro":2.0},"unitCount":0,"unitIds":[]},"type":"Feature"},{"geometry":{"coordinates":[106.901937,47.928958],"type":"Point"},"id":"wattlas-plant-osm-way-347455305","properties":{"aliases":["ЦАХИЛГААН ХАНГАМЖИЙН 3-p ХУВИАРИЛАХ БАЙГУУЛАМЖ"],"canonicalAnchor":"osm:way/347455305","canonicalCountryKey":"MN","capacityMw":0.0,"country":"MN","externalIds":{"osm":"way/347455305"},"geographyId":"MN-14279143B69842940795179","id":"wattlas-plant-osm-way-347455305","lifecycleCounts":{"operational":1},"locationPrecision":"exact","name":"ЦАХИЛГААН ХАНГАМЖИЙН 3-p ХУВИАРИЛАХ БАЙГУУЛАМЖ","operatingCapacityCoverage":{"coveragePercent":0.0,"knownUnitCount":0,"method":"unavailable","totalUnitCount":0},"operatingCapacityMw":0.0,"operatingCapacityMwByTechnology":{},"plannedCapacityCoverage":{"coveragePercent":0.0,"knownUnitCount":0,"method":"unavailable","totalUnitCount":0},"plannedCapacityMw":0.0,"plannedCapacityMwByTechnology":{},"recordCount":1,"recordIds":["wattlas-record-osm-way-347455305"],"sourceIds":["openstreetmap-power"],"sourceUrl":"https://www.openstreetmap.org/way/347455305","technologies":["other"],"technologyMixMw":{"other":0.0},"unitCount":0,"unitIds":[]},"type":"Feature"},{"geometry":{"coordinates":[111.904207,43.718412],"type":"Point"},"id":"wattlas-plant-osm-way-387105814","properties":{"aliases":["Дулааны станц"],"canonicalAnchor":"osm:way/387105814","canonicalCountryKey":"MN","capacityMw":0.0,"country":"MN","externalIds":{"osm":"way/387105814"},"geographyId":"MN-14279143B47638406449643","id":"wattlas-plant-osm-way-387105814","lifecycleCounts":{"operational":1},"locationPrecision":"exact","name":"Дулааны станц","operatingCapacityCoverage":{"coveragePercent":0.0,"knownUnitCount":0,"method":"unavailable","totalUnitCount":0},"operatingCapacityMw":0.0,"operatingCapacityMwByTechnology":{},"plannedCapacityCoverage":{"coveragePercent":0.0,"knownUnitCount":0,"method":"unavailable","totalUnitCount":0},"plannedCapacityMw":0.0,"plannedCapacityMwByTechnology":{},"recordCount":1,"recordIds":["wattlas-record-osm-way-387105814"],"sourceIds":["openstreetmap-power"],"sourceUrl":"https://www.openstreetmap.org/way/387105814","technologies":["coal"],"technologyMixMw":{"coal":0.0},"unitCount":0,"unitIds":[]},"type":"Feature"},{"geometry":{"coordinates":[105.957492,49.436421],"type":"Point"},"id":"wattlas-plant-osm-way-478803890","properties":{"aliases":["Дарханы дулааны цахилгаан станц"],"canonicalAnchor":"osm:way/478803890","canonicalCountryKey":"MN","capacityMw":83.0,"country":"MN","externalIds":{"osm":"way/478803890"},"geographyId":"MN-14279143B32551742065768","id":"wattlas-plant-osm-way-478803890","lifecycleCounts":{"operational":1},"locationPrecision":"exact","name":"Дарханы дулааны цахилгаан станц","operatingCapacityCoverage":{"coveragePercent":100.0,"knownUnitCount":0,"method":"plant_aggregate","provenance":{"evidenceCount":0,"recordIds":["wattlas-record-osm-way-478803890"],"sourceIds":["openstreetmap-power"],"sourceTypes":["community_mapped"],"valueKind":"reported"},"totalUnitCount":0},"operatingCapacityMw":83.0,"operatingCapacityMwByTechnology":{"coal":83.0},"plannedCapacityCoverage":{"coveragePercent":0.0,"knownUnitCount":0,"method":"unavailable","totalUnitCount":0},"plannedCapacityMw":0.0,"plannedCapacityMwByTechnology":{},"recordCount":1,"recordIds":["wattlas-record-osm-way-478803890"],"sourceIds":["openstreetmap-power"],"sourceUrl":"https://www.openstreetmap.org/way/478803890","technologies":["coal"],"technologyMixMw":{"coal":83.0},"unitCount":0,"unitIds":[]},"type":"Feature"},{"geometry":{"coordinates":[106.805036,47.894915],"type":"Point"},"id":"wattlas-plant-osm-way-583896343","properties":{"aliases":["Дулааны 4-р цахилгаан станц ᠳᠤᠯᠠᠭᠠᠨ ᠤ ᠳᠥᠷᠪᠡᠳᠦᠭᠡᠷ ᠴᠠᠬᠢᠯᠭᠠᠨ ᠥᠷᠲᠡᠭᠡ"],"canonicalAnchor":"osm:way/583896343","canonicalCountryKey":"MN","capacityMw":772.0,"country":"MN","externalIds":{"osm":"way/583896343"},"geographyId":"MN-14279143B69842940795179","id":"wattlas-plant-osm-way-583896343","lifecycleCounts":{"operational":1},"locationPrecision":"exact","name":"Дулааны 4-р цахилгаан станц ᠳᠤᠯᠠᠭᠠᠨ ᠤ ᠳᠥᠷᠪᠡᠳᠦᠭᠡᠷ ᠴᠠᠬᠢᠯᠭᠠᠨ ᠥᠷᠲᠡᠭᠡ","operatingCapacityCoverage":{"coveragePercent":100.0,"knownUnitCount":0,"method":"plant_aggregate","provenance":{"evidenceCount":0,"recordIds":["wattlas-record-osm-way-583896343"],"sourceIds":["openstreetmap-power"],"sourceTypes":["community_mapped"],"valueKind":"reported"},"totalUnitCount":0},"operatingCapacityMw":772.0,"operatingCapacityMwByTechnology":{"coal":772.0},"plannedCapacityCoverage":{"coveragePercent":0.0,"knownUnitCount":0,"method":"unavailable","totalUnitCount":0},"plannedCapacityMw":0.0,"plannedCapacityMwByTechnology":{},"recordCount":1,"recordIds":["wattlas-record-osm-way-583896343"],"sourceIds":["openstreetmap-power"],"sourceUrl":"https://www.openstreetmap.org/way/583896343","technologies":["coal"],"technologyMixMw":{"coal":772.0},"unitCount":0,"unitIds":[]},"type":"Feature"},{"geometry":{"coordinates":[108.352578,46.318131],"type":"Point"},"id":"wattlas-plant-osm-way-709141166","properties":{"aliases":["Сүмбэр нарны цахилгаан станц"],"canonicalAnchor":"osm:way/709141166","canonicalCountryKey":"MN","capacityMw":10.0,"country":"MN","externalIds":{"osm":"way/709141166"},"geographyId":"MN-14279143B31648094269757","id":"wattlas-plant-osm-way-709141166","lifecycleCounts":{"operational":1},"locationPrecision":"exact","name":"Сүмбэр нарны цахилгаан станц","operatingCapacityCoverage":{"coveragePercent":100.0,"knownUnitCount":0,"method":"plant_aggregate","provenance":{"evidenceCount":0,"recordIds":["wattlas-record-osm-way-709141166"],"sourceIds":["openstreetmap-power"],"sourceTypes":["community_mapped"],"valueKind":"reported"},"totalUnitCount":0},"operatingCapacityMw":10.0,"operatingCapacityMwByTechnology":{"solar":10.0},"plannedCapacityCoverage":{"coveragePercent":0.0,"knownUnitCount":0,"method":"unavailable","totalUnitCount":0},"plannedCapacityMw":0.0,"plannedCapacityMwByTechnology":{},"recordCount":1,"recordIds":["wattlas-record-osm-way-709141166"],"sourceIds":["openstreetmap-power"],"sourceUrl":"https://www.openstreetmap.org/way/709141166","technologies":["solar"],"technologyMixMw":{"solar":10.0},"unitCount":0,"unitIds":[]},"type":"Feature"},{"geometry":{"coordinates":[110.197055,44.909866],"type":"Point"},"id":"wattlas-plant-osm-way-730445751","properties":{"aliases":["Говь нарны цахилгаан станц"],"canonicalAnchor":"osm:way/730445751","canonicalCountryKey":"MN","capacityMw":30.0,"country":"MN","externalIds":{"osm":"way/730445751"},"geographyId":"MN-14279143B47638406449643","id":"wattlas-plant-osm-way-730445751","lifecycleCounts":{"operational":1},"locationPrecision":"exact","name":"Говь нарны цахилгаан станц","operatingCapacityCoverage":{"coveragePercent":100.0,"knownUnitCount":0,"method":"plant_aggregate","provenance":{"evidenceCount":0,"recordIds":["wattlas-record-osm-way-730445751"],"sourceIds":["openstreetmap-power"],"sourceTypes":["community_mapped"],"valueKind":"reported"},"totalUnitCount":0},"operatingCapacityMw":30.0,"operatingCapacityMwByTechnology":{"solar":30.0},"plannedCapacityCoverage":{"coveragePercent":0.0,"knownUnitCount":0,"method":"unavailable","totalUnitCount":0},"plannedCapacityMw":0.0,"plannedCapacityMwByTechnology":{},"recordCount":1,"recordIds":["wattlas-record-osm-way-730445751"],"sourceIds":["openstreetmap-power"],"sourceUrl":"https://www.openstreetmap.org/way/730445751","technologies":["solar"],"technologyMixMw":{"solar":30.0},"unitCount":0,"unitIds":[]},"type":"Feature"},{"geometry":{"coordinates":[107.005239,47.915628],"type":"Point"},"id":"wattlas-plant-osm-way-779008601","properties":{"aliases":["Амгалан дулааны станц"],"canonicalAnchor":"osm:way/779008601","canonicalCountryKey":"MN","capacityMw":0.0,"country":"MN","externalIds":{"osm":"way/779008601"},"geographyId":"MN-14279143B69842940795179","id":"wattlas-plant-osm-way-779008601","lifecycleCounts":{"operational":1},"locationPrecision":"exact","name":"Амгалан дулааны станц","operatingCapacityCoverage":{"coveragePercent":0.0,"knownUnitCount":0,"method":"unavailable","totalUnitCount":0},"operatingCapacityMw":0.0,"operatingCapacityMwByTechnology":{},"plannedCapacityCoverage":{"coveragePercent":0.0,"knownUnitCount":0,"method":"unavailable","totalUnitCount":0},"plannedCapacityMw":0.0,"plannedCapacityMwByTechnology":{},"recordCount":1,"recordIds":["wattlas-record-osm-way-779008601"],"sourceIds":["openstreetmap-power"],"sourceUrl":"https://www.openstreetmap.org/way/779008601","technologies":["coal"],"technologyMixMw":{"coal":0.0},"unitCount":0,"unitIds":[]},"type":"Feature"},{"geometry":{"coordinates":[95.925206,46.978827],"type":"Point"},"id":"wattlas-plant-osm-way-785326399","properties":{"aliases":["Халаалтын төв"],"canonicalAnchor":"osm:way/785326399","canonicalCountryKey":"MN","capacityMw":0.0,"country":"MN","externalIds":{"osm":"way/785326399"},"geographyId":"MN-14279143B39885639062119","id":"wattlas-plant-osm-way-785326399","lifecycleCounts":{"operational":1},"locationPrecision":"exact","name":"Халаалтын төв","operatingCapacityCoverage":{"coveragePercent":0.0,"knownUnitCount":0,"method":"unavailable","totalUnitCount":0},"operatingCapacityMw":0.0,"operatingCapacityMwByTechnology":{},"plannedCapacityCoverage":{"coveragePercent":0.0,"knownUnitCount":0,"method":"unavailable","totalUnitCount":0},"plannedCapacityMw":0.0,"plannedCapacityMwByTechnology":{},"recordCount":1,"recordIds":["wattlas-record-osm-way-785326399"],"sourceIds":["openstreetmap-power"],"sourceUrl":"https://www.openstreetmap.org/way/785326399","technologies":["coal"],"technologyMixMw":{"coal":0.0},"unitCount":0,"unitIds":[]},"type":"Feature"},{"geometry":{"coordinates":[91.653587,47.977254],"type":"Point"},"id":"wattlas-plant-osm-way-802667319","properties":{"aliases":["Ховд дулааны станц"],"canonicalAnchor":"osm:way/802667319","canonicalCountryKey":"MN","capacityMw":0.0,"country":"MN","externalIds":{"osm":"way/802667319"},"geographyId":"MN-14279143B22317554045022","id":"wattlas-plant-osm-way-802667319","lifecycleCounts":{"operational":1},"locationPrecision":"exact","name":"Ховд дулааны станц","operatingCapacityCoverage":{"coveragePercent":0.0,"knownUnitCount":0,"method":"unavailable","totalUnitCount":0},"operatingCapacityMw":0.0,"operatingCapacityMwByTechnology":{},"plannedCapacityCoverage":{"coveragePercent":0.0,"knownUnitCount":0,"method":"unavailable","totalUnitCount":0},"plannedCapacityMw":0.0,"plannedCapacityMwByTechnology":{},"recordCount":1,"recordIds":["wattlas-record-osm-way-802667319"],"sourceIds":["openstreetmap-power"],"sourceUrl":"https://www.openstreetmap.org/way/802667319","technologies":["coal"],"technologyMixMw":{"coal":0.0},"unitCount":0,"unitIds":[]},"type":"Feature"},{"geometry":{"coordinates":[100.166307,49.616078],"type":"Point"},"id":"wattlas-plant-osm-way-804319695","properties":{"aliases":["Хөвсгөл дулааны станц"],"canonicalAnchor":"osm:way/804319695","canonicalCountryKey":"MN","capacityMw":0.0,"country":"MN","externalIds":{"osm":"way/804319695"},"geographyId":"MN-14279143B20985490361275","id":"wattlas-plant-osm-way-804319695","lifecycleCounts":{"operational":1},"locationPrecision":"exact","name":"Хөвсгөл дулааны станц","operatingCapacityCoverage":{"coveragePercent":0.0,"knownUnitCount":0,"method":"unavailable","totalUnitCount":0},"operatingCapacityMw":0.0,"operatingCapacityMwByTechnology":{},"plannedCapacityCoverage":{"coveragePercent":0.0,"knownUnitCount":0,"method":"unavailable","totalUnitCount":0},"plannedCapacityMw":0.0,"plannedCapacityMwByTechnology":{},"recordCount":1,"recordIds":["wattlas-record-osm-way-804319695"],"sourceIds":["openstreetmap-power"],"sourceUrl":"https://www.openstreetmap.org/way/804319695","technologies":["coal"],"technologyMixMw":{"coal":0.0},"unitCount":0,"unitIds":[]},"type":"Feature"},{"geometry":{"coordinates":[105.54153,43.672162],"type":"Point"},"id":"wattlas-plant-osm-way-815026432","properties":{"aliases":["Ухаа худаг цахилгаан станц"],"canonicalAnchor":"osm:way/815026432","canonicalCountryKey":"MN","capacityMw":0.0,"country":"MN","externalIds":{"osm":"way/815026432","wikipedia":"en:Ukhaa Khudag Power Plant"},"geographyId":"MN-14279143B52126529381065","id":"wattlas-plant-osm-way-815026432","idAliases":["wattlas-plant-wikipedia-en-ukhaa-khudag-power-plant"],"lifecycleCounts":{"operational":1},"locationPrecision":"exact","name":"Ухаа худаг цахилгаан станц","operatingCapacityCoverage":{"coveragePercent":0.0,"knownUnitCount":0,"method":"unavailable","totalUnitCount":0},"operatingCapacityMw":0.0,"operatingCapacityMwByTechnology":{},"plannedCapacityCoverage":{"coveragePercent":0.0,"knownUnitCount":0,"method":"unavailable","totalUnitCount":0},"plannedCapacityMw":0.0,"plannedCapacityMwByTechnology":{},"recordCount":1,"recordIds":["wattlas-record-osm-way-815026432"],"sourceIds":["openstreetmap-power"],"sourceUrl":"https://www.openstreetmap.org/way/815026432","technologies":["coal"],"technologyMixMw":{"coal":0.0},"unitCount":0,"unitIds":[]},"type":"Feature"},{"geometry":{"coordinates":[106.726834,47.619948],"type":"Point"},"id":"wattlas-plant-osm-way-859820582","properties":{"aliases":["Хөшигийн хөндий нарны цахилгаан станц"],"canonicalAnchor":"osm:way/859820582","canonicalCountryKey":"MN","capacityMw":16.5,"country":"MN","externalIds":{"osm":"way/859820582"},"geographyId":"MN-14279143B76228648820573","id":"wattlas-plant-osm-way-859820582","lifecycleCounts":{"operational":1},"locationPrecision":"exact","name":"Хөшигийн хөндий нарны цахилгаан станц","operatingCapacityCoverage":{"coveragePercent":100.0,"knownUnitCount":0,"method":"plant_aggregate","provenance":{"evidenceCount":0,"recordIds":["wattlas-record-osm-way-859820582"],"sourceIds":["openstreetmap-power"],"sourceTypes":["community_mapped"],"valueKind":"reported"},"totalUnitCount":0},"operatingCapacityMw":16.5,"operatingCapacityMwByTechnology":{"solar":16.5},"plannedCapacityCoverage":{"coveragePercent":0.0,"knownUnitCount":0,"method":"unavailable","totalUnitCount":0},"plannedCapacityMw":0.0,"plannedCapacityMwByTechnology":{},"recordCount":1,"recordIds":["wattlas-record-osm-way-859820582"],"sourceIds":["openstreetmap-power"],"sourceUrl":"https://www.openstreetmap.org/way/859820582","technologies":["solar"],"technologyMixMw":{"solar":16.5},"unitCount":0,"unitIds":[]},"type":"Feature"},{"geometry":{"coordinates":[111.827523,43.724999],"type":"Point"},"id":"wattlas-plant-osm-way-862491953","properties":{"aliases":["Гэгээн НЦС"],"canonicalAnchor":"osm:way/862491953","canonicalCountryKey":"MN","capacityMw":15.0,"country":"MN","externalIds":{"osm":"way/862491953"},"geographyId":"MN-14279143B47638406449643","id":"wattlas-plant-osm-way-862491953","lifecycleCounts":{"operational":1},"locationPrecision":"exact","name":"Гэгээн НЦС","operatingCapacityCoverage":{"coveragePercent":100.0,"knownUnitCount":0,"method":"plant_aggregate","provenance":{"evidenceCount":0,"recordIds":["wattlas-record-osm-way-862491953"],"sourceIds":["openstreetmap-power"],"sourceTypes":["community_mapped"],"valueKind":"reported"},"totalUnitCount":0},"operatingCapacityMw":15.0,"operatingCapacityMwByTechnology":{"solar":15.0},"plannedCapacityCoverage":{"coveragePercent":0.0,"knownUnitCount":0,"method":"unavailable","totalUnitCount":0},"plannedCapacityMw":0.0,"plannedCapacityMwByTechnology":{},"recordCount":1,"recordIds":["wattlas-record-osm-way-862491953"],"sourceIds":["openstreetmap-power"],"sourceUrl":"https://www.openstreetmap.org/way/862491953","technologies":["solar"],"technologyMixMw":{"solar":15.0},"unitCount":0,"unitIds":[]},"type":"Feature"},{"geometry":{"coordinates":[105.940899,49.400454],"type":"Point"},"id":"wattlas-plant-osm-way-872037089","properties":{"aliases":["Нар НЦС"],"canonicalAnchor":"osm:way/872037089","canonicalCountryKey":"MN","capacityMw":10.0,"country":"MN","externalIds":{"osm":"way/872037089"},"geographyId":"MN-14279143B32551742065768","id":"wattlas-plant-osm-way-872037089","lifecycleCounts":{"operational":1},"locationPrecision":"exact","name":"Нар НЦС","operatingCapacityCoverage":{"coveragePercent":100.0,"knownUnitCount":0,"method":"plant_aggregate","provenance":{"evidenceCount":0,"recordIds":["wattlas-record-osm-way-872037089"],"sourceIds":["openstreetmap-power"],"sourceTypes":["community_mapped"],"valueKind":"reported"},"totalUnitCount":0},"operatingCapacityMw":10.0,"operatingCapacityMwByTechnology":{"solar":10.0},"plannedCapacityCoverage":{"coveragePercent":0.0,"knownUnitCount":0,"method":"unavailable","totalUnitCount":0},"plannedCapacityMw":0.0,"plannedCapacityMwByTechnology":{},"recordCount":1,"recordIds":["wattlas-record-osm-way-872037089"],"sourceIds":["openstreetmap-power"],"sourceUrl":"https://www.openstreetmap.org/way/872037089","technologies":["solar"],"technologyMixMw":{"solar":10.0},"unitCount":0,"unitIds":[]},"type":"Feature"},{"geometry":{"coordinates":[106.514683,48.031967],"type":"Point"},"id":"wattlas-plant-osm-way-902659927","properties":{"aliases":["Моннаран нарны цахилгаан станц"],"canonicalAnchor":"osm:way/902659927","canonicalCountryKey":"MN","capacityMw":10.0,"country":"MN","externalIds":{"osm":"way/902659927"},"geographyId":"MN-14279143B69842940795179","id":"wattlas-plant-osm-way-902659927","lifecycleCounts":{"operational":1},"locationPrecision":"exact","name":"Моннаран нарны цахилгаан станц","operatingCapacityCoverage":{"coveragePercent":100.0,"knownUnitCount":0,"method":"plant_aggregate","provenance":{"evidenceCount":0,"recordIds":["wattlas-record-osm-way-902659927"],"sourceIds":["openstreetmap-power"],"sourceTypes":["community_mapped"],"valueKind":"reported"},"totalUnitCount":0},"operatingCapacityMw":10.0,"operatingCapacityMwByTechnology":{"solar":10.0},"plannedCapacityCoverage":{"coveragePercent":0.0,"knownUnitCount":0,"method":"unavailable","totalUnitCount":0},"plannedCapacityMw":0.0,"plannedCapacityMwByTechnology":{},"recordCount":1,"recordIds":["wattlas-record-osm-way-902659927"],"sourceIds":["openstreetmap-power"],"sourceUrl":"https://www.openstreetmap.org/way/902659927","technologies":["solar"],"technologyMixMw":{"solar":10.0},"unitCount":0,"unitIds":[]},"type":"Feature"},{"geometry":{"coordinates":[106.918999,47.959018],"type":"Point"},"id":"wattlas-plant-osm-way-913060513","properties":{"aliases":["Сэлбэ дэд төвийн дулааны станц"],"canonicalAnchor":"osm:way/913060513","canonicalCountryKey":"MN","capacityMw":0.0,"country":"MN","externalIds":{"osm":"way/913060513"},"geographyId":"MN-14279143B69842940795179","id":"wattlas-plant-osm-way-913060513","lifecycleCounts":{"operational":1},"locationPrecision":"exact","name":"Сэлбэ дэд төвийн дулааны станц","operatingCapacityCoverage":{"coveragePercent":0.0,"knownUnitCount":0,"method":"unavailable","totalUnitCount":0},"operatingCapacityMw":0.0,"operatingCapacityMwByTechnology":{},"plannedCapacityCoverage":{"coveragePercent":0.0,"knownUnitCount":0,"method":"unavailable","totalUnitCount":0},"plannedCapacityMw":0.0,"plannedCapacityMwByTechnology":{},"recordCount":1,"recordIds":["wattlas-record-osm-way-913060513"],"sourceIds":["openstreetmap-power"],"sourceUrl":"https://www.openstreetmap.org/way/913060513","technologies":["coal"],"technologyMixMw":{"coal":0.0},"unitCount":0,"unitIds":[]},"type":"Feature"},{"geometry":{"coordinates":[96.665226,46.694539],"type":"Point"},"id":"wattlas-plant-wikidata-q12005076","properties":{"aliases":["Тайшир усан цахилгаан станцын"],"canonicalAnchor":"wikidata:Q12005076","canonicalCountryKey":"MN","capacityMw":11.0,"country":"MN","externalIds":{"osm":"way/1001513804","wikidata":"Q12005076"},"geographyId":"MN-14279143B39885639062119","id":"wattlas-plant-wikidata-q12005076","idAliases":["wattlas-plant-osm-way-1001513804"],"lifecycleCounts":{"operational":1},"locationPrecision":"exact","name":"Тайшир усан цахилгаан станцын","operatingCapacityCoverage":{"coveragePercent":100.0,"knownUnitCount":0,"method":"plant_aggregate","provenance":{"evidenceCount":0,"recordIds":["wattlas-record-osm-way-1001513804"],"sourceIds":["openstreetmap-power"],"sourceTypes":["community_mapped"],"valueKind":"reported"},"totalUnitCount":0},"operatingCapacityMw":11.0,"operatingCapacityMwByTechnology":{"hydro":11.0},"plannedCapacityCoverage":{"coveragePercent":0.0,"knownUnitCount":0,"method":"unavailable","totalUnitCount":0},"plannedCapacityMw":0.0,"plannedCapacityMwByTechnology":{},"recordCount":1,"recordIds":["wattlas-record-osm-way-1001513804"],"sourceIds":["openstreetmap-power"],"sourceUrl":"https://www.openstreetmap.org/way/1001513804","technologies":["hydro"],"technologyMixMw":{"hydro":11.0},"unitCount":0,"unitIds":[]},"type":"Feature"},{"geometry":{"coordinates":[92.806289,48.32674],"type":"Point"},"id":"wattlas-plant-wikidata-q61448321","properties":{"aliases":["Дөргөний усан цахилгаан станц"],"canonicalAnchor":"wikidata:Q61448321","canonicalCountryKey":"MN","capacityMw":12.0,"country":"MN","externalIds":{"osm":"way/216882634","wikidata":"Q61448321"},"geographyId":"MN-14279143B22317554045022","id":"wattlas-plant-wikidata-q61448321","idAliases":["wattlas-plant-osm-way-216882634"],"lifecycleCounts":{"operational":1},"locationPrecision":"exact","name":"Дөргөний усан цахилгаан станц","operatingCapacityCoverage":{"coveragePercent":100.0,"knownUnitCount":0,"method":"plant_aggregate","provenance":{"evidenceCount":0,"recordIds":["wattlas-record-osm-way-216882634"],"sourceIds":["openstreetmap-power"],"sourceTypes":["community_mapped"],"valueKind":"reported"},"totalUnitCount":0},"operatingCapacityMw":12.0,"operatingCapacityMwByTechnology":{"hydro":12.0},"plannedCapacityCoverage":{"coveragePercent":0.0,"knownUnitCount":0,"method":"unavailable","totalUnitCount":0},"plannedCapacityMw":0.0,"plannedCapacityMwByTechnology":{},"recordCount":1,"recordIds":["wattlas-record-osm-way-216882634"],"sourceIds":["openstreetmap-power"],"sourceUrl":"https://www.openstreetmap.org/way/216882634","technologies":["hydro"],"technologyMixMw":{"hydro":12.0},"unitCount":0,"unitIds":[]},"type":"Feature"}],"type":"FeatureCollection"}