{"features":[{"geometry":{"coordinates":[57.599132,-20.067599],"type":"Point"},"id":"wattlas-plant-gemplant-l100000103025","properties":{"aliases":["Terragen power station","Unit 1","Unit 2"],"canonicalAnchor":"gemplant:L100000103025","canonicalCountryKey":"MU","capacityMw":70.0,"country":"MU","externalIdAliases":{"gemUnit":["G100000100744","G100000100745"]},"externalIds":{"gemPlant":"L100000103025","gemUnit":"G100000100745"},"gemWikiUrl":"https://www.gem.wiki/Terragen_power_station","geographyId":"MU-65221844B91551715822340","id":"wattlas-plant-gemplant-l100000103025","lifecycleCounts":{"operational":2},"locationPrecision":"exact","name":"Terragen power station","operatingCapacityCoverage":{"coveragePercent":100.0,"knownUnitCount":2,"method":"complete_unit_sum","provenance":{"evidenceCount":0,"recordIds":["wattlas-record-gemunit-g100000100744","wattlas-record-gemunit-g100000100745"],"sourceIds":["gem-global-integrated-power-tracker"],"sourceTypes":["research_verified"],"valueKind":"reported"},"totalUnitCount":2},"operatingCapacityMw":70.0,"operatingCapacityMwByTechnology":{"coal":70.0},"plannedCapacityCoverage":{"coveragePercent":0.0,"knownUnitCount":0,"method":"unavailable","totalUnitCount":0},"plannedCapacityMw":0.0,"plannedCapacityMwByTechnology":{},"recordCount":2,"recordIds":["wattlas-record-gemunit-g100000100744","wattlas-record-gemunit-g100000100745"],"sourceIds":["gem-global-integrated-power-tracker"],"sourceUrl":"https://www.gem.wiki/Terragen_power_station","technologies":["coal"],"technologyMixMw":{"coal":70.0},"unitCount":2,"unitIds":["gem-unit-G100000100744","gem-unit-G100000100745"]},"type":"Feature"},{"geometry":{"coordinates":[57.542331,-20.507973],"type":"Point"},"id":"wattlas-plant-gemplant-l100000103026","properties":{"aliases":["--","Saint-Aubin power station"],"canonicalAnchor":"gemplant:L100000103026","canonicalCountryKey":"MU","capacityMw":35.0,"country":"MU","externalIds":{"gemPlant":"L100000103026","gemUnit":"G100000101845"},"gemWikiUrl":"https://www.gem.wiki/Saint-Aubin_power_station","geographyId":"MU-65221844B93866494923153","id":"wattlas-plant-gemplant-l100000103026","lifecycleCounts":{"operational":1},"locationPrecision":"exact","name":"Saint-Aubin power station","operatingCapacityCoverage":{"coveragePercent":100.0,"knownUnitCount":1,"method":"complete_unit_sum","provenance":{"evidenceCount":0,"recordIds":["wattlas-record-gemunit-g100000101845"],"sourceIds":["gem-global-integrated-power-tracker"],"sourceTypes":["research_verified"],"valueKind":"reported"},"totalUnitCount":1},"operatingCapacityMw":35.0,"operatingCapacityMwByTechnology":{"coal":35.0},"plannedCapacityCoverage":{"coveragePercent":0.0,"knownUnitCount":0,"method":"unavailable","totalUnitCount":0},"plannedCapacityMw":0.0,"plannedCapacityMwByTechnology":{},"recordCount":1,"recordIds":["wattlas-record-gemunit-g100000101845"],"sourceIds":["gem-global-integrated-power-tracker"],"sourceUrl":"https://www.gem.wiki/Saint-Aubin_power_station","technologies":["coal"],"technologyMixMw":{"coal":35.0},"unitCount":1,"unitIds":["gem-unit-G100000101845"]},"type":"Feature"},{"geometry":{"coordinates":[57.629008,-20.473587],"type":"Point"},"id":"wattlas-plant-gemplant-l100000103027","properties":{"aliases":["Savannah power station","Unit 1","Unit 2"],"canonicalAnchor":"gemplant:L100000103027","canonicalCountryKey":"MU","capacityMw":90.0,"country":"MU","externalIdAliases":{"gemUnit":["G100000108855","G100000108856"]},"externalIds":{"gemPlant":"L100000103027","gemUnit":"G100000108856"},"gemWikiUrl":"https://www.gem.wiki/Savannah_power_station","geographyId":"MU-65221844B660734165567","id":"wattlas-plant-gemplant-l100000103027","lifecycleCounts":{"operational":2},"locationPrecision":"exact","name":"Savannah power station","operatingCapacityCoverage":{"coveragePercent":100.0,"knownUnitCount":2,"method":"complete_unit_sum","provenance":{"evidenceCount":0,"recordIds":["wattlas-record-gemunit-g100000108855","wattlas-record-gemunit-g100000108856"],"sourceIds":["gem-global-integrated-power-tracker"],"sourceTypes":["research_verified"],"valueKind":"reported"},"totalUnitCount":2},"operatingCapacityMw":90.0,"operatingCapacityMwByTechnology":{"coal":90.0},"plannedCapacityCoverage":{"coveragePercent":0.0,"knownUnitCount":0,"method":"unavailable","totalUnitCount":0},"plannedCapacityMw":0.0,"plannedCapacityMwByTechnology":{},"recordCount":2,"recordIds":["wattlas-record-gemunit-g100000108855","wattlas-record-gemunit-g100000108856"],"sourceIds":["gem-global-integrated-power-tracker"],"sourceUrl":"https://www.gem.wiki/Savannah_power_station","technologies":["coal"],"technologyMixMw":{"coal":90.0},"unitCount":2,"unitIds":["gem-unit-G100000108855","gem-unit-G100000108856"]},"type":"Feature"},{"geometry":{"coordinates":[57.51232,-20.15196],"type":"Point"},"id":"wattlas-plant-gemplant-l100000409156","properties":{"aliases":["G1","G2","G3","G4","Nicolay power station"],"canonicalAnchor":"gemplant:L100000409156","canonicalCountryKey":"MU","capacityMw":109.0,"country":"MU","externalIdAliases":{"gemUnit":["G100000413936","G100000413937","G100000413938","G100000413939"]},"externalIds":{"gemPlant":"L100000409156","gemUnit":"G100000413936"},"gemWikiUrl":"https://www.gem.wiki/Nicolay_power_station","geographyId":"MU-65221844B53255720811613","id":"wattlas-plant-gemplant-l100000409156","lifecycleCounts":{"operational":4},"locationPrecision":"exact","name":"Nicolay power station","operatingCapacityCoverage":{"coveragePercent":100.0,"knownUnitCount":4,"method":"complete_unit_sum","provenance":{"evidenceCount":0,"recordIds":["wattlas-record-gemunit-g100000413936","wattlas-record-gemunit-g100000413937","wattlas-record-gemunit-g100000413938","wattlas-record-gemunit-g100000413939"],"sourceIds":["gem-global-integrated-power-tracker"],"sourceTypes":["research_verified"],"valueKind":"reported"},"totalUnitCount":4},"operatingCapacityMw":109.0,"operatingCapacityMwByTechnology":{"gas":109.0},"plannedCapacityCoverage":{"coveragePercent":0.0,"knownUnitCount":0,"method":"unavailable","totalUnitCount":0},"plannedCapacityMw":0.0,"plannedCapacityMwByTechnology":{},"recordCount":4,"recordIds":["wattlas-record-gemunit-g100000413936","wattlas-record-gemunit-g100000413937","wattlas-record-gemunit-g100000413938","wattlas-record-gemunit-g100000413939"],"sourceIds":["gem-global-integrated-power-tracker"],"sourceUrl":"https://www.gem.wiki/Nicolay_power_station","technologies":["gas"],"technologyMixMw":{"gas":109.0},"unitCount":4,"unitIds":["gem-unit-G100000413936","gem-unit-G100000413937","gem-unit-G100000413938","gem-unit-G100000413939"]},"type":"Feature"},{"geometry":{"coordinates":[57.4201,-20.2601],"type":"Point"},"id":"wattlas-plant-gemplant-l100000827666","properties":{"aliases":["--","Bambous solar farm"],"canonicalAnchor":"gemplant:L100000827666","canonicalCountryKey":"MU","capacityMw":15.0,"country":"MU","externalIds":{"gemPlant":"L100000827666","gemUnit":"G100000831205"},"gemWikiUrl":"https://www.gem.wiki/Bambous_solar_farm","geographyId":"MU-65221844B99203907341133","id":"wattlas-plant-gemplant-l100000827666","lifecycleCounts":{"operational":1},"locationPrecision":"exact","name":"Bambous solar farm","operatingCapacityCoverage":{"coveragePercent":100.0,"knownUnitCount":1,"method":"complete_unit_sum","provenance":{"evidenceCount":0,"recordIds":["wattlas-record-gemunit-g100000831205"],"sourceIds":["gem-global-integrated-power-tracker"],"sourceTypes":["research_verified"],"valueKind":"reported"},"totalUnitCount":1},"operatingCapacityMw":15.0,"operatingCapacityMwByTechnology":{"solar":15.0},"plannedCapacityCoverage":{"coveragePercent":0.0,"knownUnitCount":0,"method":"unavailable","totalUnitCount":0},"plannedCapacityMw":0.0,"plannedCapacityMwByTechnology":{},"recordCount":1,"recordIds":["wattlas-record-gemunit-g100000831205"],"sourceIds":["gem-global-integrated-power-tracker"],"sourceUrl":"https://www.gem.wiki/Bambous_solar_farm","technologies":["solar"],"technologyMixMw":{"solar":15.0},"unitCount":1,"unitIds":["gem-unit-G100000831205"]},"type":"Feature"},{"geometry":{"coordinates":[57.7706,-20.2622],"type":"Point"},"id":"wattlas-plant-gemplant-l100000827667","properties":{"aliases":["--","Helios Beau Champ solar farm"],"canonicalAnchor":"gemplant:L100000827667","canonicalCountryKey":"MU","capacityMw":10.0,"country":"MU","externalIds":{"gemPlant":"L100000827667","gemUnit":"G100000831206"},"gemWikiUrl":"https://www.gem.wiki/Helios_Beau_Champ_solar_farm","geographyId":"MU-65221844B3325932502431","id":"wattlas-plant-gemplant-l100000827667","lifecycleCounts":{"operational":1},"locationPrecision":"exact","name":"Helios Beau Champ solar farm","operatingCapacityCoverage":{"coveragePercent":100.0,"knownUnitCount":1,"method":"complete_unit_sum","provenance":{"evidenceCount":0,"recordIds":["wattlas-record-gemunit-g100000831206"],"sourceIds":["gem-global-integrated-power-tracker"],"sourceTypes":["research_verified"],"valueKind":"reported"},"totalUnitCount":1},"operatingCapacityMw":10.0,"operatingCapacityMwByTechnology":{"solar":10.0},"plannedCapacityCoverage":{"coveragePercent":0.0,"knownUnitCount":0,"method":"unavailable","totalUnitCount":0},"plannedCapacityMw":0.0,"plannedCapacityMwByTechnology":{},"recordCount":1,"recordIds":["wattlas-record-gemunit-g100000831206"],"sourceIds":["gem-global-integrated-power-tracker"],"sourceUrl":"https://www.gem.wiki/Helios_Beau_Champ_solar_farm","technologies":["solar"],"technologyMixMw":{"solar":10.0},"unitCount":1,"unitIds":["gem-unit-G100000831206"]},"type":"Feature"},{"geometry":{"coordinates":[57.4636,-20.3334],"type":"Point"},"id":"wattlas-plant-gemplant-l100000827668","properties":{"aliases":["--","Henrietta MU solar farm"],"canonicalAnchor":"gemplant:L100000827668","canonicalCountryKey":"MU","capacityMw":12.9,"country":"MU","externalIds":{"gemPlant":"L100000827668","gemUnit":"G100000831207"},"gemWikiUrl":"https://www.gem.wiki/Henrietta_MU_solar_farm","geographyId":"MU-65221844B21568199301359","id":"wattlas-plant-gemplant-l100000827668","lifecycleCounts":{"operational":1},"locationPrecision":"exact","name":"Henrietta MU solar farm","operatingCapacityCoverage":{"coveragePercent":100.0,"knownUnitCount":1,"method":"complete_unit_sum","provenance":{"evidenceCount":0,"recordIds":["wattlas-record-gemunit-g100000831207"],"sourceIds":["gem-global-integrated-power-tracker"],"sourceTypes":["research_verified"],"valueKind":"reported"},"totalUnitCount":1},"operatingCapacityMw":12.9,"operatingCapacityMwByTechnology":{"solar":12.9},"plannedCapacityCoverage":{"coveragePercent":0.0,"knownUnitCount":0,"method":"unavailable","totalUnitCount":0},"plannedCapacityMw":0.0,"plannedCapacityMwByTechnology":{},"recordCount":1,"recordIds":["wattlas-record-gemunit-g100000831207"],"sourceIds":["gem-global-integrated-power-tracker"],"sourceUrl":"https://www.gem.wiki/Henrietta_MU_solar_farm","technologies":["solar"],"technologyMixMw":{"solar":12.9},"unitCount":1,"unitIds":["gem-unit-G100000831207"]},"type":"Feature"},{"geometry":{"coordinates":[57.7012,-20.2295],"type":"Point"},"id":"wattlas-plant-gemplant-l100000827674","properties":{"aliases":["--","Queen Victoria & Anahita solar farm"],"canonicalAnchor":"gemplant:L100000827674","canonicalCountryKey":"MU","capacityMw":25.3,"country":"MU","externalIds":{"gemPlant":"L100000827674","gemUnit":"G100000831216"},"gemWikiUrl":"https://www.gem.wiki/Queen_Victoria_&_Anahita_solar_farm","geographyId":"MU-65221844B3325932502431","id":"wattlas-plant-gemplant-l100000827674","lifecycleCounts":{"operational":1},"locationPrecision":"exact","name":"Queen Victoria & Anahita solar farm","operatingCapacityCoverage":{"coveragePercent":100.0,"knownUnitCount":1,"method":"complete_unit_sum","provenance":{"evidenceCount":0,"recordIds":["wattlas-record-gemunit-g100000831216"],"sourceIds":["gem-global-integrated-power-tracker"],"sourceTypes":["research_verified"],"valueKind":"reported"},"totalUnitCount":1},"operatingCapacityMw":25.3,"operatingCapacityMwByTechnology":{"solar":25.3},"plannedCapacityCoverage":{"coveragePercent":0.0,"knownUnitCount":0,"method":"unavailable","totalUnitCount":0},"plannedCapacityMw":0.0,"plannedCapacityMwByTechnology":{},"recordCount":1,"recordIds":["wattlas-record-gemunit-g100000831216"],"sourceIds":["gem-global-integrated-power-tracker"],"sourceUrl":"https://www.gem.wiki/Queen_Victoria_&_Anahita_solar_farm","technologies":["solar"],"technologyMixMw":{"solar":25.3},"unitCount":1,"unitIds":["gem-unit-G100000831216"]},"type":"Feature"},{"geometry":{"coordinates":[57.5366,-20.0727],"type":"Point"},"id":"wattlas-plant-gemplant-l100000827675","properties":{"aliases":["--","Solitude solar farm"],"canonicalAnchor":"gemplant:L100000827675","canonicalCountryKey":"MU","capacityMw":16.0,"country":"MU","externalIds":{"gemPlant":"L100000827675","gemUnit":"G100000831217"},"gemWikiUrl":"https://www.gem.wiki/Solitude_solar_farm","geographyId":"MU-65221844B91551715822340","id":"wattlas-plant-gemplant-l100000827675","lifecycleCounts":{"operational":1},"locationPrecision":"exact","name":"Solitude solar farm","operatingCapacityCoverage":{"coveragePercent":100.0,"knownUnitCount":1,"method":"complete_unit_sum","provenance":{"evidenceCount":0,"recordIds":["wattlas-record-gemunit-g100000831217"],"sourceIds":["gem-global-integrated-power-tracker"],"sourceTypes":["research_verified"],"valueKind":"reported"},"totalUnitCount":1},"operatingCapacityMw":16.0,"operatingCapacityMwByTechnology":{"solar":16.0},"plannedCapacityCoverage":{"coveragePercent":0.0,"knownUnitCount":0,"method":"unavailable","totalUnitCount":0},"plannedCapacityMw":0.0,"plannedCapacityMwByTechnology":{},"recordCount":1,"recordIds":["wattlas-record-gemunit-g100000831217"],"sourceIds":["gem-global-integrated-power-tracker"],"sourceUrl":"https://www.gem.wiki/Solitude_solar_farm","technologies":["solar"],"technologyMixMw":{"solar":16.0},"unitCount":1,"unitIds":["gem-unit-G100000831217"]},"type":"Feature"},{"geometry":{"coordinates":[57.394187,-20.260693],"type":"Point"},"id":"wattlas-plant-gemplant-l100001046270","properties":{"aliases":["--","Medine Mill power station"],"canonicalAnchor":"gemplant:L100001046270","canonicalCountryKey":"MU","capacityMw":13.0,"country":"MU","externalIds":{"gemPlant":"L100001046270","gemUnit":"G100001052246"},"gemWikiUrl":"https://www.gem.wiki/Medine_Mill_power_station","geographyId":"MU-65221844B99203907341133","id":"wattlas-plant-gemplant-l100001046270","lifecycleCounts":{"operational":1},"locationPrecision":"exact","name":"Medine Mill power station","operatingCapacityCoverage":{"coveragePercent":100.0,"knownUnitCount":1,"method":"complete_unit_sum","provenance":{"evidenceCount":0,"recordIds":["wattlas-record-gemunit-g100001052246"],"sourceIds":["gem-global-integrated-power-tracker"],"sourceTypes":["research_verified"],"valueKind":"reported"},"totalUnitCount":1},"operatingCapacityMw":13.0,"operatingCapacityMwByTechnology":{"biomass":13.0},"plannedCapacityCoverage":{"coveragePercent":0.0,"knownUnitCount":0,"method":"unavailable","totalUnitCount":0},"plannedCapacityMw":0.0,"plannedCapacityMwByTechnology":{},"recordCount":1,"recordIds":["wattlas-record-gemunit-g100001052246"],"sourceIds":["gem-global-integrated-power-tracker"],"sourceUrl":"https://www.gem.wiki/Medine_Mill_power_station","technologies":["biomass"],"technologyMixMw":{"biomass":13.0},"unitCount":1,"unitIds":["gem-unit-G100001052246"]},"type":"Feature"},{"geometry":{"coordinates":[57.629975,-20.38576],"type":"Point"},"id":"wattlas-plant-gemplant-l100001046271","properties":{"aliases":["--","Mare Chicose power station"],"canonicalAnchor":"gemplant:L100001046271","canonicalCountryKey":"MU","capacityMw":3.3,"country":"MU","externalIds":{"gemPlant":"L100001046271","gemUnit":"G100001052247"},"gemWikiUrl":"https://www.gem.wiki/Mare_Chicose_power_station","geographyId":"MU-65221844B660734165567","id":"wattlas-plant-gemplant-l100001046271","lifecycleCounts":{"operational":1},"locationPrecision":"exact","name":"Mare Chicose power station","operatingCapacityCoverage":{"coveragePercent":100.0,"knownUnitCount":1,"method":"complete_unit_sum","provenance":{"evidenceCount":0,"recordIds":["wattlas-record-gemunit-g100001052247"],"sourceIds":["gem-global-integrated-power-tracker"],"sourceTypes":["research_verified"],"valueKind":"reported"},"totalUnitCount":1},"operatingCapacityMw":3.3,"operatingCapacityMwByTechnology":{"gas":3.3},"plannedCapacityCoverage":{"coveragePercent":0.0,"knownUnitCount":0,"method":"unavailable","totalUnitCount":0},"plannedCapacityMw":0.0,"plannedCapacityMwByTechnology":{},"recordCount":1,"recordIds":["wattlas-record-gemunit-g100001052247"],"sourceIds":["gem-global-integrated-power-tracker"],"sourceUrl":"https://www.gem.wiki/Mare_Chicose_power_station","technologies":["gas"],"technologyMixMw":{"gas":3.3},"unitCount":1,"unitIds":["gem-unit-G100001052247"]},"type":"Feature"},{"geometry":{"coordinates":[57.692429,-20.212224],"type":"Point"},"id":"wattlas-plant-gemplant-l100001046273","properties":{"aliases":["--","FUEL Sugar power station"],"canonicalAnchor":"gemplant:L100001046273","canonicalCountryKey":"MU","capacityMw":41.0,"country":"MU","externalIds":{"gemPlant":"L100001046273","gemUnit":"G100001052249"},"gemWikiUrl":"https://www.gem.wiki/FUEL_Sugar_power_station","geographyId":"MU-65221844B3325932502431","id":"wattlas-plant-gemplant-l100001046273","lifecycleCounts":{"operational":1},"locationPrecision":"exact","name":"FUEL Sugar power station","operatingCapacityCoverage":{"coveragePercent":100.0,"knownUnitCount":1,"method":"complete_unit_sum","provenance":{"evidenceCount":0,"recordIds":["wattlas-record-gemunit-g100001052249"],"sourceIds":["gem-global-integrated-power-tracker"],"sourceTypes":["research_verified"],"valueKind":"reported"},"totalUnitCount":1},"operatingCapacityMw":41.0,"operatingCapacityMwByTechnology":{"coal":41.0},"plannedCapacityCoverage":{"coveragePercent":0.0,"knownUnitCount":0,"method":"unavailable","totalUnitCount":0},"plannedCapacityMw":0.0,"plannedCapacityMwByTechnology":{},"recordCount":1,"recordIds":["wattlas-record-gemunit-g100001052249"],"sourceIds":["gem-global-integrated-power-tracker"],"sourceUrl":"https://www.gem.wiki/FUEL_Sugar_power_station","technologies":["coal"],"technologyMixMw":{"coal":41.0},"unitCount":1,"unitIds":["gem-unit-G100001052249"]},"type":"Feature"},{"geometry":{"coordinates":[57.729571,-20.133089],"type":"Point"},"id":"wattlas-plant-osm-relation-15464062","properties":{"aliases":["Plaine-des-Roches"],"canonicalAnchor":"osm:relation/15464062","canonicalCountryKey":"MU","capacityMw":9.35,"country":"MU","externalIds":{"osm":"relation/15464062"},"geographyId":"MU-65221844B3325932502431","id":"wattlas-plant-osm-relation-15464062","lifecycleCounts":{"operational":1},"locationPrecision":"exact","name":"Plaine-des-Roches","operatingCapacityCoverage":{"coveragePercent":100.0,"knownUnitCount":0,"method":"plant_aggregate","provenance":{"evidenceCount":0,"recordIds":["wattlas-record-osm-relation-15464062"],"sourceIds":["openstreetmap-power"],"sourceTypes":["community_mapped"],"valueKind":"reported"},"totalUnitCount":0},"operatingCapacityMw":9.35,"operatingCapacityMwByTechnology":{"wind":9.35},"plannedCapacityCoverage":{"coveragePercent":0.0,"knownUnitCount":0,"method":"unavailable","totalUnitCount":0},"plannedCapacityMw":0.0,"plannedCapacityMwByTechnology":{},"recordCount":1,"recordIds":["wattlas-record-osm-relation-15464062"],"sourceIds":["openstreetmap-power"],"sourceUrl":"https://www.openstreetmap.org/relation/15464062","technologies":["wind"],"technologyMixMw":{"wind":9.35},"unitCount":0,"unitIds":[]},"type":"Feature"},{"geometry":{"coordinates":[57.463432,-20.333238],"type":"Point"},"id":"wattlas-plant-osm-way-1005885970","properties":{"aliases":["Henrietta Solar Farm"],"canonicalAnchor":"osm:way/1005885970","canonicalCountryKey":"MU","capacityMw":17.0,"country":"MU","externalIds":{"osm":"way/1005885970"},"geographyId":"MU-65221844B21568199301359","id":"wattlas-plant-osm-way-1005885970","lifecycleCounts":{"operational":1},"locationPrecision":"exact","name":"Henrietta Solar Farm","operatingCapacityCoverage":{"coveragePercent":100.0,"knownUnitCount":0,"method":"plant_aggregate","provenance":{"evidenceCount":0,"recordIds":["wattlas-record-osm-way-1005885970"],"sourceIds":["openstreetmap-power"],"sourceTypes":["community_mapped"],"valueKind":"reported"},"totalUnitCount":0},"operatingCapacityMw":17.0,"operatingCapacityMwByTechnology":{"solar":17.0},"plannedCapacityCoverage":{"coveragePercent":0.0,"knownUnitCount":0,"method":"unavailable","totalUnitCount":0},"plannedCapacityMw":0.0,"plannedCapacityMwByTechnology":{},"recordCount":1,"recordIds":["wattlas-record-osm-way-1005885970"],"sourceIds":["openstreetmap-power"],"sourceUrl":"https://www.openstreetmap.org/way/1005885970","technologies":["solar"],"technologyMixMw":{"solar":17.0},"unitCount":0,"unitIds":[]},"type":"Feature"},{"geometry":{"coordinates":[57.42432,-20.261531],"type":"Point"},"id":"wattlas-plant-osm-way-1105621161","properties":{"aliases":["Sarako"],"canonicalAnchor":"osm:way/1105621161","canonicalCountryKey":"MU","capacityMw":15.0,"country":"MU","externalIds":{"osm":"way/1105621161"},"geographyId":"MU-65221844B99203907341133","id":"wattlas-plant-osm-way-1105621161","lifecycleCounts":{"operational":1},"locationPrecision":"exact","name":"Sarako","operatingCapacityCoverage":{"coveragePercent":100.0,"knownUnitCount":0,"method":"plant_aggregate","provenance":{"evidenceCount":0,"recordIds":["wattlas-record-osm-way-1105621161"],"sourceIds":["openstreetmap-power"],"sourceTypes":["community_mapped"],"valueKind":"reported"},"totalUnitCount":0},"operatingCapacityMw":15.0,"operatingCapacityMwByTechnology":{"solar":15.0},"plannedCapacityCoverage":{"coveragePercent":0.0,"knownUnitCount":0,"method":"unavailable","totalUnitCount":0},"plannedCapacityMw":0.0,"plannedCapacityMwByTechnology":{},"recordCount":1,"recordIds":["wattlas-record-osm-way-1105621161"],"sourceIds":["openstreetmap-power"],"sourceUrl":"https://www.openstreetmap.org/way/1105621161","technologies":["solar"],"technologyMixMw":{"solar":15.0},"unitCount":0,"unitIds":[]},"type":"Feature"},{"geometry":{"coordinates":[57.432438,-20.262423],"type":"Point"},"id":"wattlas-plant-osm-way-1105972934","properties":{"aliases":["Sarako"],"canonicalAnchor":"osm:way/1105972934","canonicalCountryKey":"MU","capacityMw":15.0,"country":"MU","externalIds":{"osm":"way/1105972934"},"geographyId":"MU-65221844B99203907341133","id":"wattlas-plant-osm-way-1105972934","lifecycleCounts":{"operational":1},"locationPrecision":"exact","name":"Sarako","operatingCapacityCoverage":{"coveragePercent":100.0,"knownUnitCount":0,"method":"plant_aggregate","provenance":{"evidenceCount":0,"recordIds":["wattlas-record-osm-way-1105972934"],"sourceIds":["openstreetmap-power"],"sourceTypes":["community_mapped"],"valueKind":"reported"},"totalUnitCount":0},"operatingCapacityMw":15.0,"operatingCapacityMwByTechnology":{"solar":15.0},"plannedCapacityCoverage":{"coveragePercent":0.0,"knownUnitCount":0,"method":"unavailable","totalUnitCount":0},"plannedCapacityMw":0.0,"plannedCapacityMwByTechnology":{},"recordCount":1,"recordIds":["wattlas-record-osm-way-1105972934"],"sourceIds":["openstreetmap-power"],"sourceUrl":"https://www.openstreetmap.org/way/1105972934","technologies":["solar"],"technologyMixMw":{"solar":15.0},"unitCount":0,"unitIds":[]},"type":"Feature"},{"geometry":{"coordinates":[57.499362,-20.295432],"type":"Point"},"id":"wattlas-plant-osm-way-1215227993","properties":{"aliases":["St Paul Admirality Sub-Station"],"canonicalAnchor":"osm:way/1215227993","canonicalCountryKey":"MU","capacityMw":0.0,"country":"MU","externalIds":{"osm":"way/1215227993"},"geographyId":"MU-65221844B21568199301359","id":"wattlas-plant-osm-way-1215227993","lifecycleCounts":{"operational":1},"locationPrecision":"exact","name":"St Paul Admirality Sub-Station","operatingCapacityCoverage":{"coveragePercent":0.0,"knownUnitCount":0,"method":"unavailable","totalUnitCount":0},"operatingCapacityMw":0.0,"operatingCapacityMwByTechnology":{},"plannedCapacityCoverage":{"coveragePercent":0.0,"knownUnitCount":0,"method":"unavailable","totalUnitCount":0},"plannedCapacityMw":0.0,"plannedCapacityMwByTechnology":{},"recordCount":1,"recordIds":["wattlas-record-osm-way-1215227993"],"sourceIds":["openstreetmap-power"],"sourceUrl":"https://www.openstreetmap.org/way/1215227993","technologies":["other"],"technologyMixMw":{"other":0.0},"unitCount":0,"unitIds":[]},"type":"Feature"},{"geometry":{"coordinates":[57.413816,-20.235227],"type":"Point"},"id":"wattlas-plant-osm-way-1445985609","properties":{"aliases":["Landscope Solar Farm"],"canonicalAnchor":"osm:way/1445985609","canonicalCountryKey":"MU","capacityMw":10.0,"country":"MU","externalIds":{"osm":"way/1445985609"},"geographyId":"MU-65221844B99203907341133","id":"wattlas-plant-osm-way-1445985609","lifecycleCounts":{"operational":1},"locationPrecision":"exact","name":"Landscope Solar Farm","operatingCapacityCoverage":{"coveragePercent":100.0,"knownUnitCount":0,"method":"plant_aggregate","provenance":{"evidenceCount":0,"recordIds":["wattlas-record-osm-way-1445985609"],"sourceIds":["openstreetmap-power"],"sourceTypes":["community_mapped"],"valueKind":"reported"},"totalUnitCount":0},"operatingCapacityMw":10.0,"operatingCapacityMwByTechnology":{"solar":10.0},"plannedCapacityCoverage":{"coveragePercent":0.0,"knownUnitCount":0,"method":"unavailable","totalUnitCount":0},"plannedCapacityMw":0.0,"plannedCapacityMwByTechnology":{},"recordCount":1,"recordIds":["wattlas-record-osm-way-1445985609"],"sourceIds":["openstreetmap-power"],"sourceUrl":"https://www.openstreetmap.org/way/1445985609","technologies":["solar"],"technologyMixMw":{"solar":10.0},"unitCount":0,"unitIds":[]},"type":"Feature"},{"geometry":{"coordinates":[57.678175,-20.365503],"type":"Point"},"id":"wattlas-plant-osm-way-1474893828","properties":{"aliases":["Ferney Power Station"],"canonicalAnchor":"osm:way/1474893828","canonicalCountryKey":"MU","capacityMw":10.0,"country":"MU","externalIds":{"osm":"way/1474893828"},"geographyId":"MU-65221844B660734165567","id":"wattlas-plant-osm-way-1474893828","lifecycleCounts":{"operational":1},"locationPrecision":"exact","name":"Ferney Power Station","operatingCapacityCoverage":{"coveragePercent":100.0,"knownUnitCount":0,"method":"plant_aggregate","provenance":{"evidenceCount":0,"recordIds":["wattlas-record-osm-way-1474893828"],"sourceIds":["openstreetmap-power"],"sourceTypes":["community_mapped"],"valueKind":"reported"},"totalUnitCount":0},"operatingCapacityMw":10.0,"operatingCapacityMwByTechnology":{"hydro":10.0},"plannedCapacityCoverage":{"coveragePercent":0.0,"knownUnitCount":0,"method":"unavailable","totalUnitCount":0},"plannedCapacityMw":0.0,"plannedCapacityMwByTechnology":{},"recordCount":1,"recordIds":["wattlas-record-osm-way-1474893828"],"sourceIds":["openstreetmap-power"],"sourceUrl":"https://www.openstreetmap.org/way/1474893828","technologies":["hydro"],"technologyMixMw":{"hydro":10.0},"unitCount":0,"unitIds":[]},"type":"Feature"},{"geometry":{"coordinates":[57.521154,-20.233154],"type":"Point"},"id":"wattlas-plant-osm-way-1524072774","properties":{"aliases":["Mapped power plant · OSM 1524072774"],"canonicalAnchor":"osm:way/1524072774","canonicalCountryKey":"MU","capacityMw":5.0,"country":"MU","externalIds":{"osm":"way/1524072774"},"geographyId":"MU-65221844B64352145242214","id":"wattlas-plant-osm-way-1524072774","lifecycleCounts":{"operational":1},"locationPrecision":"exact","name":"Mapped power plant · OSM 1524072774","operatingCapacityCoverage":{"coveragePercent":100.0,"knownUnitCount":0,"method":"plant_aggregate","provenance":{"evidenceCount":0,"recordIds":["wattlas-record-osm-way-1524072774"],"sourceIds":["openstreetmap-power"],"sourceTypes":["community_mapped"],"valueKind":"reported"},"totalUnitCount":0},"operatingCapacityMw":5.0,"operatingCapacityMwByTechnology":{"solar":5.0},"plannedCapacityCoverage":{"coveragePercent":0.0,"knownUnitCount":0,"method":"unavailable","totalUnitCount":0},"plannedCapacityMw":0.0,"plannedCapacityMwByTechnology":{},"recordCount":1,"recordIds":["wattlas-record-osm-way-1524072774"],"sourceIds":["openstreetmap-power"],"sourceUrl":"https://www.openstreetmap.org/way/1524072774","technologies":["solar"],"technologyMixMw":{"solar":5.0},"unitCount":0,"unitIds":[]},"type":"Feature"},{"geometry":{"coordinates":[57.679439,-20.065632],"type":"Point"},"id":"wattlas-plant-osm-way-1528816810","properties":{"aliases":["Mapped power plant · OSM 1528816810"],"canonicalAnchor":"osm:way/1528816810","canonicalCountryKey":"MU","capacityMw":5.0,"country":"MU","externalIds":{"osm":"way/1528816810"},"geographyId":"MU-65221844B93227578092779","id":"wattlas-plant-osm-way-1528816810","lifecycleCounts":{"operational":1},"locationPrecision":"exact","name":"Mapped power plant · OSM 1528816810","operatingCapacityCoverage":{"coveragePercent":100.0,"knownUnitCount":0,"method":"plant_aggregate","provenance":{"evidenceCount":0,"recordIds":["wattlas-record-osm-way-1528816810"],"sourceIds":["openstreetmap-power"],"sourceTypes":["community_mapped"],"valueKind":"reported"},"totalUnitCount":0},"operatingCapacityMw":5.0,"operatingCapacityMwByTechnology":{"solar":5.0},"plannedCapacityCoverage":{"coveragePercent":0.0,"knownUnitCount":0,"method":"unavailable","totalUnitCount":0},"plannedCapacityMw":0.0,"plannedCapacityMwByTechnology":{},"recordCount":1,"recordIds":["wattlas-record-osm-way-1528816810"],"sourceIds":["openstreetmap-power"],"sourceUrl":"https://www.openstreetmap.org/way/1528816810","technologies":["solar"],"technologyMixMw":{"solar":5.0},"unitCount":0,"unitIds":[]},"type":"Feature"},{"geometry":{"coordinates":[57.512321,-20.151964],"type":"Point"},"id":"wattlas-plant-osm-way-170362028","properties":{"aliases":["Nicolay Power Station"],"canonicalAnchor":"osm:way/170362028","canonicalCountryKey":"MU","capacityMw":75.0,"country":"MU","externalIds":{"osm":"way/170362028"},"geographyId":"MU-65221844B53255720811613","id":"wattlas-plant-osm-way-170362028","lifecycleCounts":{"operational":1},"locationPrecision":"exact","name":"Nicolay Power Station","operatingCapacityCoverage":{"coveragePercent":100.0,"knownUnitCount":0,"method":"plant_aggregate","provenance":{"evidenceCount":0,"recordIds":["wattlas-record-osm-way-170362028"],"sourceIds":["openstreetmap-power"],"sourceTypes":["community_mapped"],"valueKind":"reported"},"totalUnitCount":0},"operatingCapacityMw":75.0,"operatingCapacityMwByTechnology":{"gas":75.0},"plannedCapacityCoverage":{"coveragePercent":0.0,"knownUnitCount":0,"method":"unavailable","totalUnitCount":0},"plannedCapacityMw":0.0,"plannedCapacityMwByTechnology":{},"recordCount":1,"recordIds":["wattlas-record-osm-way-170362028"],"sourceIds":["openstreetmap-power"],"sourceUrl":"https://www.openstreetmap.org/way/170362028","technologies":["gas"],"technologyMixMw":{"gas":75.0},"unitCount":0,"unitIds":[]},"type":"Feature"},{"geometry":{"coordinates":[57.463202,-20.342001],"type":"Point"},"id":"wattlas-plant-osm-way-410668008","properties":{"aliases":["Tamarin Falls Hydro Power Station"],"canonicalAnchor":"osm:way/410668008","canonicalCountryKey":"MU","capacityMw":9.5,"country":"MU","externalIds":{"osm":"way/410668008"},"geographyId":"MU-65221844B21568199301359","id":"wattlas-plant-osm-way-410668008","lifecycleCounts":{"operational":1},"locationPrecision":"exact","name":"Tamarin Falls Hydro Power Station","operatingCapacityCoverage":{"coveragePercent":100.0,"knownUnitCount":0,"method":"plant_aggregate","provenance":{"evidenceCount":0,"recordIds":["wattlas-record-osm-way-410668008"],"sourceIds":["openstreetmap-power"],"sourceTypes":["community_mapped"],"valueKind":"reported"},"totalUnitCount":0},"operatingCapacityMw":9.5,"operatingCapacityMwByTechnology":{"hydro":9.5},"plannedCapacityCoverage":{"coveragePercent":0.0,"knownUnitCount":0,"method":"unavailable","totalUnitCount":0},"plannedCapacityMw":0.0,"plannedCapacityMwByTechnology":{},"recordCount":1,"recordIds":["wattlas-record-osm-way-410668008"],"sourceIds":["openstreetmap-power"],"sourceUrl":"https://www.openstreetmap.org/way/410668008","technologies":["hydro"],"technologyMixMw":{"hydro":9.5},"unitCount":0,"unitIds":[]},"type":"Feature"},{"geometry":{"coordinates":[57.628957,-20.473755],"type":"Point"},"id":"wattlas-plant-osm-way-413978454","properties":{"aliases":["Mapped power plant · OSM 413978454"],"canonicalAnchor":"osm:way/413978454","canonicalCountryKey":"MU","capacityMw":0.0,"country":"MU","externalIds":{"osm":"way/413978454"},"geographyId":"MU-65221844B660734165567","id":"wattlas-plant-osm-way-413978454","lifecycleCounts":{"operational":1},"locationPrecision":"exact","name":"Mapped power plant · OSM 413978454","operatingCapacityCoverage":{"coveragePercent":0.0,"knownUnitCount":0,"method":"unavailable","totalUnitCount":0},"operatingCapacityMw":0.0,"operatingCapacityMwByTechnology":{},"plannedCapacityCoverage":{"coveragePercent":0.0,"knownUnitCount":0,"method":"unavailable","totalUnitCount":0},"plannedCapacityMw":0.0,"plannedCapacityMwByTechnology":{},"recordCount":1,"recordIds":["wattlas-record-osm-way-413978454"],"sourceIds":["openstreetmap-power"],"sourceUrl":"https://www.openstreetmap.org/way/413978454","technologies":["coal"],"technologyMixMw":{"coal":0.0},"unitCount":0,"unitIds":[]},"type":"Feature"}],"type":"FeatureCollection"}