{"features":[{"geometry":{"coordinates":[35.09927,-15.75484],"type":"Point"},"id":"wattlas-plant-gemplant-l100000409173","properties":{"aliases":["1-1","Mapanga Substation power station"],"canonicalAnchor":"gemplant:L100000409173","canonicalCountryKey":"MW","capacityMw":20.0,"country":"MW","externalIds":{"gemPlant":"L100000409173","gemUnit":"G100000413955"},"gemWikiUrl":"https://www.gem.wiki/Mapanga_Substation_power_station","geographyId":"MW-82672581B71595037145626","id":"wattlas-plant-gemplant-l100000409173","lifecycleCounts":{"operational":1},"locationPrecision":"exact","name":"Mapanga Substation power station","operatingCapacityCoverage":{"coveragePercent":100.0,"knownUnitCount":1,"method":"complete_unit_sum","provenance":{"evidenceCount":0,"recordIds":["wattlas-record-gemunit-g100000413955"],"sourceIds":["gem-global-integrated-power-tracker"],"sourceTypes":["research_verified"],"valueKind":"reported"},"totalUnitCount":1},"operatingCapacityMw":20.0,"operatingCapacityMwByTechnology":{"gas":20.0},"plannedCapacityCoverage":{"coveragePercent":0.0,"knownUnitCount":0,"method":"unavailable","totalUnitCount":0},"plannedCapacityMw":0.0,"plannedCapacityMwByTechnology":{},"recordCount":1,"recordIds":["wattlas-record-gemunit-g100000413955"],"sourceIds":["gem-global-integrated-power-tracker"],"sourceUrl":"https://www.gem.wiki/Mapanga_Substation_power_station","technologies":["gas"],"technologyMixMw":{"gas":20.0},"unitCount":1,"unitIds":["gem-unit-G100000413955"]},"type":"Feature"},{"geometry":{"coordinates":[34.7531,-15.8954],"type":"Point"},"id":"wattlas-plant-gemplant-l100000602428","properties":{"aliases":["Kapichira hydroelectric plant"],"canonicalAnchor":"gemplant:L100000602428","canonicalCountryKey":"MW","capacityMw":130.0,"country":"MW","externalIds":{"gemPlant":"L100000602428","gemUnit":"G100000602459"},"gemWikiUrl":"https://www.gem.wiki/Kapichira_hydroelectric_plant","geographyId":"MW-82672581B71595037145626","id":"wattlas-plant-gemplant-l100000602428","lifecycleCounts":{"operational":1},"locationPrecision":"exact","name":"Kapichira hydroelectric plant","operatingCapacityCoverage":{"coveragePercent":100.0,"knownUnitCount":1,"method":"complete_unit_sum","provenance":{"evidenceCount":0,"recordIds":["wattlas-record-gemunit-g100000602459"],"sourceIds":["gem-global-integrated-power-tracker"],"sourceTypes":["research_verified"],"valueKind":"reported"},"totalUnitCount":1},"operatingCapacityMw":130.0,"operatingCapacityMwByTechnology":{"hydro":130.0},"plannedCapacityCoverage":{"coveragePercent":0.0,"knownUnitCount":0,"method":"unavailable","totalUnitCount":0},"plannedCapacityMw":0.0,"plannedCapacityMwByTechnology":{},"recordCount":1,"recordIds":["wattlas-record-gemunit-g100000602459"],"sourceIds":["gem-global-integrated-power-tracker"],"sourceUrl":"https://www.gem.wiki/Kapichira_hydroelectric_plant","technologies":["hydro"],"technologyMixMw":{"hydro":130.0},"unitCount":1,"unitIds":["gem-unit-G100000602459"]},"type":"Feature"},{"geometry":{"coordinates":[34.8942,-15.3947],"type":"Point"},"id":"wattlas-plant-gemplant-l100000602429","properties":{"aliases":["Kholombidzo hydroelectric plant"],"canonicalAnchor":"gemplant:L100000602429","canonicalCountryKey":"MW","capacityMw":210.0,"country":"MW","externalIds":{"gemPlant":"L100000602429","gemUnit":"G100000604512"},"gemWikiUrl":"https://www.gem.wiki/Kholombidzo_hydroelectric_plant","geographyId":"MW-82672581B71595037145626","id":"wattlas-plant-gemplant-l100000602429","lifecycleCounts":{"announced":1},"locationPrecision":"exact","name":"Kholombidzo hydroelectric plant","operatingCapacityCoverage":{"coveragePercent":0.0,"knownUnitCount":0,"method":"unavailable","totalUnitCount":0},"operatingCapacityMw":0.0,"operatingCapacityMwByTechnology":{},"plannedCapacityCoverage":{"coveragePercent":100.0,"knownUnitCount":1,"method":"complete_unit_sum","provenance":{"evidenceCount":0,"recordIds":["wattlas-record-gemunit-g100000604512"],"sourceIds":["gem-global-integrated-power-tracker"],"sourceTypes":["research_verified"],"valueKind":"reported"},"totalUnitCount":1},"plannedCapacityMw":210.0,"plannedCapacityMwByTechnology":{"hydro":210.0},"recordCount":1,"recordIds":["wattlas-record-gemunit-g100000604512"],"sourceIds":["gem-global-integrated-power-tracker"],"sourceUrl":"https://www.gem.wiki/Kholombidzo_hydroelectric_plant","technologies":["hydro"],"technologyMixMw":{"hydro":210.0},"unitCount":1,"unitIds":["gem-unit-G100000604512"]},"type":"Feature"},{"geometry":{"coordinates":[34.7264,-15.7172],"type":"Point"},"id":"wattlas-plant-gemplant-l100000602430","properties":{"aliases":["Mpatamanga Gorge hydroelectric plant"],"canonicalAnchor":"gemplant:L100000602430","canonicalCountryKey":"MW","capacityMw":359.0,"country":"MW","externalIds":{"gemPlant":"L100000602430","gemUnit":"G100000602461"},"gemWikiUrl":"https://www.gem.wiki/Mpatamanga_Gorge_hydroelectric_plant","geographyId":"MW-82672581B71595037145626","id":"wattlas-plant-gemplant-l100000602430","lifecycleCounts":{"announced":1},"locationPrecision":"exact","name":"Mpatamanga Gorge hydroelectric plant","operatingCapacityCoverage":{"coveragePercent":0.0,"knownUnitCount":0,"method":"unavailable","totalUnitCount":0},"operatingCapacityMw":0.0,"operatingCapacityMwByTechnology":{},"plannedCapacityCoverage":{"coveragePercent":100.0,"knownUnitCount":1,"method":"complete_unit_sum","provenance":{"evidenceCount":0,"recordIds":["wattlas-record-gemunit-g100000602461"],"sourceIds":["gem-global-integrated-power-tracker"],"sourceTypes":["research_verified"],"valueKind":"reported"},"totalUnitCount":1},"plannedCapacityMw":359.0,"plannedCapacityMwByTechnology":{"hydro":359.0},"recordCount":1,"recordIds":["wattlas-record-gemunit-g100000602461"],"sourceIds":["gem-global-integrated-power-tracker"],"sourceUrl":"https://www.gem.wiki/Mpatamanga_Gorge_hydroelectric_plant","technologies":["hydro"],"technologyMixMw":{"hydro":359.0},"unitCount":1,"unitIds":["gem-unit-G100000602461"]},"type":"Feature"},{"geometry":{"coordinates":[34.8192,-15.5269],"type":"Point"},"id":"wattlas-plant-gemplant-l100000602431","properties":{"aliases":["Nkula B hydroelectric plant"],"canonicalAnchor":"gemplant:L100000602431","canonicalCountryKey":"MW","capacityMw":100.0,"country":"MW","externalIds":{"gemPlant":"L100000602431","gemUnit":"G100000602462"},"gemWikiUrl":"https://www.gem.wiki/Nkula_B_hydroelectric_plant","geographyId":"MW-82672581B71595037145626","id":"wattlas-plant-gemplant-l100000602431","lifecycleCounts":{"operational":1},"locationPrecision":"exact","name":"Nkula B hydroelectric plant","operatingCapacityCoverage":{"coveragePercent":100.0,"knownUnitCount":1,"method":"complete_unit_sum","provenance":{"evidenceCount":0,"recordIds":["wattlas-record-gemunit-g100000602462"],"sourceIds":["gem-global-integrated-power-tracker"],"sourceTypes":["research_verified"],"valueKind":"reported"},"totalUnitCount":1},"operatingCapacityMw":100.0,"operatingCapacityMwByTechnology":{"hydro":100.0},"plannedCapacityCoverage":{"coveragePercent":0.0,"knownUnitCount":0,"method":"unavailable","totalUnitCount":0},"plannedCapacityMw":0.0,"plannedCapacityMwByTechnology":{},"recordCount":1,"recordIds":["wattlas-record-gemunit-g100000602462"],"sourceIds":["gem-global-integrated-power-tracker"],"sourceUrl":"https://www.gem.wiki/Nkula_B_hydroelectric_plant","technologies":["hydro"],"technologyMixMw":{"hydro":100.0},"unitCount":1,"unitIds":["gem-unit-G100000602462"]},"type":"Feature"},{"geometry":{"coordinates":[34.7765,-15.5598],"type":"Point"},"id":"wattlas-plant-gemplant-l100000602432","properties":{"aliases":["Tedzani Falls hydroelectric plant"],"canonicalAnchor":"gemplant:L100000602432","canonicalCountryKey":"MW","capacityMw":121.0,"country":"MW","externalIds":{"gemPlant":"L100000602432","gemUnit":"G100000602463"},"gemWikiUrl":"https://www.gem.wiki/Tedzani_Falls_hydroelectric_plant","geographyId":"MW-82672581B71595037145626","id":"wattlas-plant-gemplant-l100000602432","lifecycleCounts":{"operational":1},"locationPrecision":"exact","name":"Tedzani Falls hydroelectric plant","operatingCapacityCoverage":{"coveragePercent":100.0,"knownUnitCount":1,"method":"complete_unit_sum","provenance":{"evidenceCount":0,"recordIds":["wattlas-record-gemunit-g100000602463"],"sourceIds":["gem-global-integrated-power-tracker"],"sourceTypes":["research_verified"],"valueKind":"reported"},"totalUnitCount":1},"operatingCapacityMw":121.0,"operatingCapacityMwByTechnology":{"hydro":121.0},"plannedCapacityCoverage":{"coveragePercent":0.0,"knownUnitCount":0,"method":"unavailable","totalUnitCount":0},"plannedCapacityMw":0.0,"plannedCapacityMwByTechnology":{},"recordCount":1,"recordIds":["wattlas-record-gemunit-g100000602463"],"sourceIds":["gem-global-integrated-power-tracker"],"sourceUrl":"https://www.gem.wiki/Tedzani_Falls_hydroelectric_plant","technologies":["hydro"],"technologyMixMw":{"hydro":121.0},"unitCount":1,"unitIds":["gem-unit-G100000602463"]},"type":"Feature"},{"geometry":{"coordinates":[33.1841,-9.4975],"type":"Point"},"id":"wattlas-plant-gemplant-l100000604093","properties":{"aliases":["Songwe hydroelectric plant"],"canonicalAnchor":"gemplant:L100000604093","canonicalCountryKey":"MW","capacityMw":180.0,"country":"MW","externalIds":{"gemPlant":"L100000604093","gemUnit":"G100000604825"},"gemWikiUrl":"https://www.gem.wiki/Songwe_hydroelectric_plant","geographyId":"MW-82672581B33227208107325","id":"wattlas-plant-gemplant-l100000604093","lifecycleCounts":{"announced":1},"locationPrecision":"exact","name":"Songwe hydroelectric plant","operatingCapacityCoverage":{"coveragePercent":0.0,"knownUnitCount":0,"method":"unavailable","totalUnitCount":0},"operatingCapacityMw":0.0,"operatingCapacityMwByTechnology":{},"plannedCapacityCoverage":{"coveragePercent":100.0,"knownUnitCount":1,"method":"complete_unit_sum","provenance":{"evidenceCount":0,"recordIds":["wattlas-record-gemunit-g100000604825"],"sourceIds":["gem-global-integrated-power-tracker"],"sourceTypes":["research_verified"],"valueKind":"reported"},"totalUnitCount":1},"plannedCapacityMw":180.0,"plannedCapacityMwByTechnology":{"hydro":180.0},"recordCount":1,"recordIds":["wattlas-record-gemunit-g100000604825"],"sourceIds":["gem-global-integrated-power-tracker"],"sourceUrl":"https://www.gem.wiki/Songwe_hydroelectric_plant","technologies":["hydro"],"technologyMixMw":{"hydro":180.0},"unitCount":1,"unitIds":["gem-unit-G100000604825"]},"type":"Feature"},{"geometry":{"coordinates":[34.5994,-14.4399],"type":"Point"},"id":"wattlas-plant-gemplant-l100000800122","properties":{"aliases":["--","Golomoti solar farm"],"canonicalAnchor":"gemplant:L100000800122","canonicalCountryKey":"MW","capacityMw":20.0,"country":"MW","externalIds":{"gemPlant":"L100000800122","gemUnit":"G100000800158"},"gemWikiUrl":"https://www.gem.wiki/Golomoti_solar_farm","geographyId":"MW-82672581B12520625652479","id":"wattlas-plant-gemplant-l100000800122","lifecycleCounts":{"operational":1},"locationPrecision":"exact","name":"Golomoti solar farm","operatingCapacityCoverage":{"coveragePercent":100.0,"knownUnitCount":1,"method":"complete_unit_sum","provenance":{"evidenceCount":0,"recordIds":["wattlas-record-gemunit-g100000800158"],"sourceIds":["gem-global-integrated-power-tracker"],"sourceTypes":["research_verified"],"valueKind":"reported"},"totalUnitCount":1},"operatingCapacityMw":20.0,"operatingCapacityMwByTechnology":{"solar":20.0},"plannedCapacityCoverage":{"coveragePercent":0.0,"knownUnitCount":0,"method":"unavailable","totalUnitCount":0},"plannedCapacityMw":0.0,"plannedCapacityMwByTechnology":{},"recordCount":1,"recordIds":["wattlas-record-gemunit-g100000800158"],"sourceIds":["gem-global-integrated-power-tracker"],"sourceUrl":"https://www.gem.wiki/Golomoti_solar_farm","technologies":["solar"],"technologyMixMw":{"solar":20.0},"unitCount":1,"unitIds":["gem-unit-G100000800158"]},"type":"Feature"},{"geometry":{"coordinates":[34.3269,-13.7135],"type":"Point"},"id":"wattlas-plant-gemplant-l100000800277","properties":{"aliases":["--","Salima solar farm"],"canonicalAnchor":"gemplant:L100000800277","canonicalCountryKey":"MW","capacityMw":60.0,"country":"MW","externalIds":{"gemPlant":"L100000800277","gemUnit":"G100000800329"},"gemWikiUrl":"https://www.gem.wiki/Salima_solar_farm","geographyId":"MW-82672581B12520625652479","id":"wattlas-plant-gemplant-l100000800277","lifecycleCounts":{"operational":1},"locationPrecision":"exact","name":"Salima solar farm","operatingCapacityCoverage":{"coveragePercent":100.0,"knownUnitCount":1,"method":"complete_unit_sum","provenance":{"evidenceCount":0,"recordIds":["wattlas-record-gemunit-g100000800329"],"sourceIds":["gem-global-integrated-power-tracker"],"sourceTypes":["research_verified"],"valueKind":"reported"},"totalUnitCount":1},"operatingCapacityMw":60.0,"operatingCapacityMwByTechnology":{"solar":60.0},"plannedCapacityCoverage":{"coveragePercent":0.0,"knownUnitCount":0,"method":"unavailable","totalUnitCount":0},"plannedCapacityMw":0.0,"plannedCapacityMwByTechnology":{},"recordCount":1,"recordIds":["wattlas-record-gemunit-g100000800329"],"sourceIds":["gem-global-integrated-power-tracker"],"sourceUrl":"https://www.gem.wiki/Salima_solar_farm","technologies":["solar"],"technologyMixMw":{"solar":60.0},"unitCount":1,"unitIds":["gem-unit-G100000800329"]},"type":"Feature"},{"geometry":{"coordinates":[33.7818,-13.7787],"type":"Point"},"id":"wattlas-plant-gemplant-l100001020898","properties":{"aliases":["--","Lilongwe solar project"],"canonicalAnchor":"gemplant:L100001020898","canonicalCountryKey":"MW","capacityMw":1.4,"country":"MW","externalIds":{"gemPlant":"L100001020898","gemUnit":"G100001023867"},"gemWikiUrl":"https://www.gem.wiki/Lilongwe_solar_project","geographyId":"MW-82672581B12520625652479","id":"wattlas-plant-gemplant-l100001020898","lifecycleCounts":{"operational":1},"locationPrecision":"exact","name":"Lilongwe solar project","operatingCapacityCoverage":{"coveragePercent":100.0,"knownUnitCount":1,"method":"complete_unit_sum","provenance":{"evidenceCount":0,"recordIds":["wattlas-record-gemunit-g100001023867"],"sourceIds":["gem-global-integrated-power-tracker"],"sourceTypes":["research_verified"],"valueKind":"reported"},"totalUnitCount":1},"operatingCapacityMw":1.4,"operatingCapacityMwByTechnology":{"solar":1.4},"plannedCapacityCoverage":{"coveragePercent":0.0,"knownUnitCount":0,"method":"unavailable","totalUnitCount":0},"plannedCapacityMw":0.0,"plannedCapacityMwByTechnology":{},"recordCount":1,"recordIds":["wattlas-record-gemunit-g100001023867"],"sourceIds":["gem-global-integrated-power-tracker"],"sourceUrl":"https://www.gem.wiki/Lilongwe_solar_project","technologies":["solar"],"technologyMixMw":{"solar":1.4},"unitCount":1,"unitIds":["gem-unit-G100001023867"]},"type":"Feature"},{"geometry":{"coordinates":[34.7358,-12.0786],"type":"Point"},"id":"wattlas-plant-gemplant-l100001064819","properties":{"aliases":["--","Likoma solar project"],"canonicalAnchor":"gemplant:L100001064819","canonicalCountryKey":"MW","capacityMw":1.2,"country":"MW","externalIds":{"gemPlant":"L100001064819","gemUnit":"G100001074605"},"gemWikiUrl":"https://www.gem.wiki/Likoma_solar_project","geographyId":"MW-82672581B33227208107325","id":"wattlas-plant-gemplant-l100001064819","lifecycleCounts":{"operational":1},"locationPrecision":"exact","name":"Likoma solar project","operatingCapacityCoverage":{"coveragePercent":100.0,"knownUnitCount":1,"method":"complete_unit_sum","provenance":{"evidenceCount":0,"recordIds":["wattlas-record-gemunit-g100001074605"],"sourceIds":["gem-global-integrated-power-tracker"],"sourceTypes":["research_verified"],"valueKind":"reported"},"totalUnitCount":1},"operatingCapacityMw":1.2,"operatingCapacityMwByTechnology":{"solar":1.2},"plannedCapacityCoverage":{"coveragePercent":0.0,"knownUnitCount":0,"method":"unavailable","totalUnitCount":0},"plannedCapacityMw":0.0,"plannedCapacityMwByTechnology":{},"recordCount":1,"recordIds":["wattlas-record-gemunit-g100001074605"],"sourceIds":["gem-global-integrated-power-tracker"],"sourceUrl":"https://www.gem.wiki/Likoma_solar_project","technologies":["solar"],"technologyMixMw":{"solar":1.2},"unitCount":1,"unitIds":["gem-unit-G100001074605"]},"type":"Feature"},{"geometry":{"coordinates":[34.126667,-12.539192],"type":"Point"},"id":"wattlas-plant-osm-relation-20655720","properties":{"aliases":["Dwangwa Solar Farm"],"canonicalAnchor":"osm:relation/20655720","canonicalCountryKey":"MW","capacityMw":55.0,"country":"MW","externalIds":{"osm":"relation/20655720"},"geographyId":"MW-82672581B12520625652479","id":"wattlas-plant-osm-relation-20655720","lifecycleCounts":{"operational":1},"locationPrecision":"exact","name":"Dwangwa Solar Farm","operatingCapacityCoverage":{"coveragePercent":100.0,"knownUnitCount":0,"method":"plant_aggregate","provenance":{"evidenceCount":0,"recordIds":["wattlas-record-osm-relation-20655720"],"sourceIds":["openstreetmap-power"],"sourceTypes":["community_mapped"],"valueKind":"reported"},"totalUnitCount":0},"operatingCapacityMw":55.0,"operatingCapacityMwByTechnology":{"solar":55.0},"plannedCapacityCoverage":{"coveragePercent":0.0,"knownUnitCount":0,"method":"unavailable","totalUnitCount":0},"plannedCapacityMw":0.0,"plannedCapacityMwByTechnology":{},"recordCount":1,"recordIds":["wattlas-record-osm-relation-20655720"],"sourceIds":["openstreetmap-power"],"sourceUrl":"https://www.openstreetmap.org/relation/20655720","technologies":["solar"],"technologyMixMw":{"solar":55.0},"unitCount":0,"unitIds":[]},"type":"Feature"},{"geometry":{"coordinates":[34.000067,-11.393078],"type":"Point"},"id":"wattlas-plant-osm-way-1112833601","properties":{"aliases":["Luwinga - Mzuzu"],"canonicalAnchor":"osm:way/1112833601","canonicalCountryKey":"MW","capacityMw":6.0,"country":"MW","externalIds":{"osm":"way/1112833601"},"geographyId":"MW-82672581B33227208107325","id":"wattlas-plant-osm-way-1112833601","lifecycleCounts":{"operational":1},"locationPrecision":"exact","name":"Luwinga - Mzuzu","operatingCapacityCoverage":{"coveragePercent":100.0,"knownUnitCount":0,"method":"plant_aggregate","provenance":{"evidenceCount":0,"recordIds":["wattlas-record-osm-way-1112833601"],"sourceIds":["openstreetmap-power"],"sourceTypes":["community_mapped"],"valueKind":"reported"},"totalUnitCount":0},"operatingCapacityMw":6.0,"operatingCapacityMwByTechnology":{"other":6.0},"plannedCapacityCoverage":{"coveragePercent":0.0,"knownUnitCount":0,"method":"unavailable","totalUnitCount":0},"plannedCapacityMw":0.0,"plannedCapacityMwByTechnology":{},"recordCount":1,"recordIds":["wattlas-record-osm-way-1112833601"],"sourceIds":["openstreetmap-power"],"sourceUrl":"https://www.openstreetmap.org/way/1112833601","technologies":["other"],"technologyMixMw":{"other":6.0},"unitCount":0,"unitIds":[]},"type":"Feature"},{"geometry":{"coordinates":[35.099272,-15.754843],"type":"Point"},"id":"wattlas-plant-osm-way-856163188","properties":{"aliases":["Mapanga Power Station"],"canonicalAnchor":"osm:way/856163188","canonicalCountryKey":"MW","capacityMw":20.0,"country":"MW","externalIds":{"osm":"way/856163188"},"geographyId":"MW-82672581B71595037145626","id":"wattlas-plant-osm-way-856163188","lifecycleCounts":{"operational":1},"locationPrecision":"exact","name":"Mapanga Power Station","operatingCapacityCoverage":{"coveragePercent":100.0,"knownUnitCount":0,"method":"plant_aggregate","provenance":{"evidenceCount":0,"recordIds":["wattlas-record-osm-way-856163188"],"sourceIds":["openstreetmap-power"],"sourceTypes":["community_mapped"],"valueKind":"reported"},"totalUnitCount":0},"operatingCapacityMw":20.0,"operatingCapacityMwByTechnology":{"oil":20.0},"plannedCapacityCoverage":{"coveragePercent":0.0,"knownUnitCount":0,"method":"unavailable","totalUnitCount":0},"plannedCapacityMw":0.0,"plannedCapacityMwByTechnology":{},"recordCount":1,"recordIds":["wattlas-record-osm-way-856163188"],"sourceIds":["openstreetmap-power"],"sourceUrl":"https://www.openstreetmap.org/way/856163188","technologies":["oil"],"technologyMixMw":{"oil":20.0},"unitCount":0,"unitIds":[]},"type":"Feature"},{"geometry":{"coordinates":[34.601026,-14.442147],"type":"Point"},"id":"wattlas-plant-wikidata-q107366347","properties":{"aliases":["Golomoti Solar Power Station"],"canonicalAnchor":"wikidata:Q107366347","canonicalCountryKey":"MW","capacityMw":28.0,"country":"MW","externalIds":{"osm":"way/1092662828","wikidata":"Q107366347","wikipedia":"en:Golomoti Solar Power Station"},"geographyId":"MW-82672581B12520625652479","id":"wattlas-plant-wikidata-q107366347","idAliases":["wattlas-plant-osm-way-1092662828","wattlas-plant-wikipedia-en-golomoti-solar-power-station"],"lifecycleCounts":{"operational":1},"locationPrecision":"exact","name":"Golomoti Solar Power Station","operatingCapacityCoverage":{"coveragePercent":100.0,"knownUnitCount":0,"method":"plant_aggregate","provenance":{"evidenceCount":0,"recordIds":["wattlas-record-osm-way-1092662828"],"sourceIds":["openstreetmap-power"],"sourceTypes":["community_mapped"],"valueKind":"reported"},"totalUnitCount":0},"operatingCapacityMw":28.0,"operatingCapacityMwByTechnology":{"solar":28.0},"plannedCapacityCoverage":{"coveragePercent":0.0,"knownUnitCount":0,"method":"unavailable","totalUnitCount":0},"plannedCapacityMw":0.0,"plannedCapacityMwByTechnology":{},"recordCount":1,"recordIds":["wattlas-record-osm-way-1092662828"],"sourceIds":["openstreetmap-power"],"sourceUrl":"https://www.openstreetmap.org/way/1092662828","technologies":["solar"],"technologyMixMw":{"solar":28.0},"unitCount":0,"unitIds":[]},"type":"Feature"},{"geometry":{"coordinates":[34.818401,-15.526381],"type":"Point"},"id":"wattlas-plant-wikidata-q55074876","properties":{"aliases":["Nkula A Hydroelectric Plant"],"canonicalAnchor":"wikidata:Q55074876","canonicalCountryKey":"MW","capacityMw":35.1,"country":"MW","externalIds":{"osm":"way/668080687","wikidata":"Q55074876"},"geographyId":"MW-82672581B71595037145626","id":"wattlas-plant-wikidata-q55074876","idAliases":["wattlas-plant-osm-way-668080687"],"lifecycleCounts":{"operational":1},"locationPrecision":"exact","name":"Nkula A Hydroelectric Plant","operatingCapacityCoverage":{"coveragePercent":100.0,"knownUnitCount":0,"method":"plant_aggregate","provenance":{"evidenceCount":0,"recordIds":["wattlas-record-osm-way-668080687"],"sourceIds":["openstreetmap-power"],"sourceTypes":["community_mapped"],"valueKind":"reported"},"totalUnitCount":0},"operatingCapacityMw":35.1,"operatingCapacityMwByTechnology":{"hydro":35.1},"plannedCapacityCoverage":{"coveragePercent":0.0,"knownUnitCount":0,"method":"unavailable","totalUnitCount":0},"plannedCapacityMw":0.0,"plannedCapacityMwByTechnology":{},"recordCount":1,"recordIds":["wattlas-record-osm-way-668080687"],"sourceIds":["openstreetmap-power"],"sourceUrl":"https://www.openstreetmap.org/way/668080687","technologies":["hydro"],"technologyMixMw":{"hydro":35.1},"unitCount":0,"unitIds":[]},"type":"Feature"},{"geometry":{"coordinates":[34.776592,-15.559921],"type":"Point"},"id":"wattlas-plant-wikidata-q55634856-4295a9686d","properties":{"aliases":["Tedzani III Hydroelectric Plant"],"canonicalAnchor":"wikidata:Q55634856","canonicalCountryKey":"MW","capacityMw":62.0,"country":"MW","externalIds":{"osm":"way/302050339","wikidata":"Q55634856"},"geographyId":"MW-82672581B71595037145626","id":"wattlas-plant-wikidata-q55634856-4295a9686d","idAliases":["wattlas-plant-osm-way-302050339","wattlas-plant-wikidata-q55634856"],"lifecycleCounts":{"operational":1},"locationPrecision":"exact","name":"Tedzani III Hydroelectric Plant","operatingCapacityCoverage":{"coveragePercent":100.0,"knownUnitCount":0,"method":"plant_aggregate","provenance":{"evidenceCount":0,"recordIds":["wattlas-record-osm-way-302050339"],"sourceIds":["openstreetmap-power"],"sourceTypes":["community_mapped"],"valueKind":"reported"},"totalUnitCount":0},"operatingCapacityMw":62.0,"operatingCapacityMwByTechnology":{"hydro":62.0},"plannedCapacityCoverage":{"coveragePercent":0.0,"knownUnitCount":0,"method":"unavailable","totalUnitCount":0},"plannedCapacityMw":0.0,"plannedCapacityMwByTechnology":{},"recordCount":1,"recordIds":["wattlas-record-osm-way-302050339"],"sourceIds":["openstreetmap-power"],"sourceUrl":"https://www.openstreetmap.org/way/302050339","technologies":["hydro"],"technologyMixMw":{"hydro":62.0},"unitCount":0,"unitIds":[]},"type":"Feature"},{"geometry":{"coordinates":[34.777726,-15.558556],"type":"Point"},"id":"wattlas-plant-wikidata-q55634856-89d579b09f","properties":{"aliases":["Tedzani I and II Hydroelectric Plants"],"canonicalAnchor":"wikidata:Q55634856","canonicalCountryKey":"MW","capacityMw":40.0,"country":"MW","externalIds":{"osm":"way/668080652","wikidata":"Q55634856"},"geographyId":"MW-82672581B71595037145626","id":"wattlas-plant-wikidata-q55634856-89d579b09f","idAliases":["wattlas-plant-osm-way-668080652"],"lifecycleCounts":{"operational":1},"locationPrecision":"exact","name":"Tedzani I and II Hydroelectric Plants","operatingCapacityCoverage":{"coveragePercent":100.0,"knownUnitCount":0,"method":"plant_aggregate","provenance":{"evidenceCount":0,"recordIds":["wattlas-record-osm-way-668080652"],"sourceIds":["openstreetmap-power"],"sourceTypes":["community_mapped"],"valueKind":"reported"},"totalUnitCount":0},"operatingCapacityMw":40.0,"operatingCapacityMwByTechnology":{"hydro":40.0},"plannedCapacityCoverage":{"coveragePercent":0.0,"knownUnitCount":0,"method":"unavailable","totalUnitCount":0},"plannedCapacityMw":0.0,"plannedCapacityMwByTechnology":{},"recordCount":1,"recordIds":["wattlas-record-osm-way-668080652"],"sourceIds":["openstreetmap-power"],"sourceUrl":"https://www.openstreetmap.org/way/668080652","technologies":["hydro"],"technologyMixMw":{"hydro":40.0},"unitCount":0,"unitIds":[]},"type":"Feature"},{"geometry":{"coordinates":[34.778786,-15.556969],"type":"Point"},"id":"wattlas-plant-wikidata-q55634856-ec9d4c3d03","properties":{"aliases":["Tedzani IV Hydroelectric Plant"],"canonicalAnchor":"wikidata:Q55634856","canonicalCountryKey":"MW","capacityMw":19.1,"country":"MW","externalIds":{"osm":"way/856160181","wikidata":"Q55634856"},"geographyId":"MW-82672581B71595037145626","id":"wattlas-plant-wikidata-q55634856-ec9d4c3d03","idAliases":["wattlas-plant-osm-way-856160181"],"lifecycleCounts":{"operational":1},"locationPrecision":"exact","name":"Tedzani IV Hydroelectric Plant","operatingCapacityCoverage":{"coveragePercent":100.0,"knownUnitCount":0,"method":"plant_aggregate","provenance":{"evidenceCount":0,"recordIds":["wattlas-record-osm-way-856160181"],"sourceIds":["openstreetmap-power"],"sourceTypes":["community_mapped"],"valueKind":"reported"},"totalUnitCount":0},"operatingCapacityMw":19.1,"operatingCapacityMwByTechnology":{"hydro":19.1},"plannedCapacityCoverage":{"coveragePercent":0.0,"knownUnitCount":0,"method":"unavailable","totalUnitCount":0},"plannedCapacityMw":0.0,"plannedCapacityMwByTechnology":{},"recordCount":1,"recordIds":["wattlas-record-osm-way-856160181"],"sourceIds":["openstreetmap-power"],"sourceUrl":"https://www.openstreetmap.org/way/856160181","technologies":["hydro"],"technologyMixMw":{"hydro":19.1},"unitCount":0,"unitIds":[]},"type":"Feature"},{"geometry":{"coordinates":[34.083735,-10.44511],"type":"Point"},"id":"wattlas-plant-wikidata-q55637942","properties":{"aliases":["Wovwe Hydroelectric Power Station"],"canonicalAnchor":"wikidata:Q55637942","canonicalCountryKey":"MW","capacityMw":4.35,"country":"MW","externalIds":{"osm":"way/667538870","wikidata":"Q55637942","wikipedia":"en:Wovwe Hydroelectric Power Station"},"geographyId":"MW-82672581B33227208107325","id":"wattlas-plant-wikidata-q55637942","idAliases":["wattlas-plant-osm-way-667538870","wattlas-plant-wikipedia-en-wovwe-hydroelectric-power-station"],"lifecycleCounts":{"operational":1},"locationPrecision":"exact","name":"Wovwe Hydroelectric Power Station","operatingCapacityCoverage":{"coveragePercent":100.0,"knownUnitCount":0,"method":"plant_aggregate","provenance":{"evidenceCount":0,"recordIds":["wattlas-record-osm-way-667538870"],"sourceIds":["openstreetmap-power"],"sourceTypes":["community_mapped"],"valueKind":"reported"},"totalUnitCount":0},"operatingCapacityMw":4.35,"operatingCapacityMwByTechnology":{"hydro":4.35},"plannedCapacityCoverage":{"coveragePercent":0.0,"knownUnitCount":0,"method":"unavailable","totalUnitCount":0},"plannedCapacityMw":0.0,"plannedCapacityMwByTechnology":{},"recordCount":1,"recordIds":["wattlas-record-osm-way-667538870"],"sourceIds":["openstreetmap-power"],"sourceUrl":"https://www.openstreetmap.org/way/667538870","technologies":["hydro"],"technologyMixMw":{"hydro":4.35},"unitCount":0,"unitIds":[]},"type":"Feature"},{"geometry":{"coordinates":[34.329508,-13.711251],"type":"Point"},"id":"wattlas-plant-wikidata-q59566715","properties":{"aliases":["Salima Solar Power Station"],"canonicalAnchor":"wikidata:Q59566715","canonicalCountryKey":"MW","capacityMw":60.0,"country":"MW","externalIds":{"osm":"way/1080479370","wikidata":"Q59566715","wikipedia":"en:Salima Solar Power Station"},"geographyId":"MW-82672581B12520625652479","id":"wattlas-plant-wikidata-q59566715","idAliases":["wattlas-plant-osm-way-1080479370","wattlas-plant-wikipedia-en-salima-solar-power-station"],"lifecycleCounts":{"operational":1},"locationPrecision":"exact","name":"Salima Solar Power Station","operatingCapacityCoverage":{"coveragePercent":100.0,"knownUnitCount":0,"method":"plant_aggregate","provenance":{"evidenceCount":0,"recordIds":["wattlas-record-osm-way-1080479370"],"sourceIds":["openstreetmap-power"],"sourceTypes":["community_mapped"],"valueKind":"reported"},"totalUnitCount":0},"operatingCapacityMw":60.0,"operatingCapacityMwByTechnology":{"solar":60.0},"plannedCapacityCoverage":{"coveragePercent":0.0,"knownUnitCount":0,"method":"unavailable","totalUnitCount":0},"plannedCapacityMw":0.0,"plannedCapacityMwByTechnology":{},"recordCount":1,"recordIds":["wattlas-record-osm-way-1080479370"],"sourceIds":["openstreetmap-power"],"sourceUrl":"https://www.openstreetmap.org/way/1080479370","technologies":["solar"],"technologyMixMw":{"solar":60.0},"unitCount":0,"unitIds":[]},"type":"Feature"},{"geometry":{"coordinates":[34.752842,-15.900919],"type":"Point"},"id":"wattlas-plant-wikidata-q6366596","properties":{"aliases":["Kapichira Hydroelectric Power Station"],"canonicalAnchor":"wikidata:Q6366596","canonicalCountryKey":"MW","capacityMw":129.6,"country":"MW","externalIds":{"osm":"way/302047961","wikidata":"Q6366596","wikipedia":"en:Kapichira Hydroelectric Power Station"},"geographyId":"MW-82672581B71595037145626","id":"wattlas-plant-wikidata-q6366596","idAliases":["wattlas-plant-osm-way-302047961","wattlas-plant-wikipedia-en-kapichira-hydroelectric-power-station"],"lifecycleCounts":{"operational":1},"locationPrecision":"exact","name":"Kapichira Hydroelectric Power Station","operatingCapacityCoverage":{"coveragePercent":100.0,"knownUnitCount":0,"method":"plant_aggregate","provenance":{"evidenceCount":0,"recordIds":["wattlas-record-osm-way-302047961"],"sourceIds":["openstreetmap-power"],"sourceTypes":["community_mapped"],"valueKind":"reported"},"totalUnitCount":0},"operatingCapacityMw":129.6,"operatingCapacityMwByTechnology":{"hydro":129.6},"plannedCapacityCoverage":{"coveragePercent":0.0,"knownUnitCount":0,"method":"unavailable","totalUnitCount":0},"plannedCapacityMw":0.0,"plannedCapacityMwByTechnology":{},"recordCount":1,"recordIds":["wattlas-record-osm-way-302047961"],"sourceIds":["openstreetmap-power"],"sourceUrl":"https://www.openstreetmap.org/way/302047961","technologies":["hydro"],"technologyMixMw":{"hydro":129.6},"unitCount":0,"unitIds":[]},"type":"Feature"},{"geometry":{"coordinates":[34.819226,-15.526831],"type":"Point"},"id":"wattlas-plant-wikidata-q7042563","properties":{"aliases":["Nkula B Hydroelectric Plant"],"canonicalAnchor":"wikidata:Q7042563","canonicalCountryKey":"MW","capacityMw":100.0,"country":"MW","externalIds":{"osm":"way/668080684","wikidata":"Q7042563"},"geographyId":"MW-82672581B71595037145626","id":"wattlas-plant-wikidata-q7042563","idAliases":["wattlas-plant-osm-way-668080684"],"lifecycleCounts":{"operational":1},"locationPrecision":"exact","name":"Nkula B Hydroelectric Plant","operatingCapacityCoverage":{"coveragePercent":100.0,"knownUnitCount":0,"method":"plant_aggregate","provenance":{"evidenceCount":0,"recordIds":["wattlas-record-osm-way-668080684"],"sourceIds":["openstreetmap-power"],"sourceTypes":["community_mapped"],"valueKind":"reported"},"totalUnitCount":0},"operatingCapacityMw":100.0,"operatingCapacityMwByTechnology":{"hydro":100.0},"plannedCapacityCoverage":{"coveragePercent":0.0,"knownUnitCount":0,"method":"unavailable","totalUnitCount":0},"plannedCapacityMw":0.0,"plannedCapacityMwByTechnology":{},"recordCount":1,"recordIds":["wattlas-record-osm-way-668080684"],"sourceIds":["openstreetmap-power"],"sourceUrl":"https://www.openstreetmap.org/way/668080684","technologies":["hydro"],"technologyMixMw":{"hydro":100.0},"unitCount":0,"unitIds":[]},"type":"Feature"},{"geometry":{"coordinates":[35.660931,-15.990982],"type":"Point"},"id":"wattlas-plant-wikidata-q96403136","properties":{"aliases":["Ruo–Ndiza Hydroelectric Power Station"],"canonicalAnchor":"wikidata:Q96403136","canonicalCountryKey":"MW","capacityMw":8.2,"country":"MW","externalIds":{"osm":"way/1156101727","wikidata":"Q96403136","wikipedia":"en:Ruo–Ndiza Hydroelectric Power Station"},"geographyId":"MW-82672581B71595037145626","id":"wattlas-plant-wikidata-q96403136","idAliases":["wattlas-plant-osm-way-1156101727","wattlas-plant-wikipedia-en-ruo-ndiza-hydroelectric-power-station"],"lifecycleCounts":{"operational":1},"locationPrecision":"exact","name":"Ruo–Ndiza Hydroelectric Power Station","operatingCapacityCoverage":{"coveragePercent":100.0,"knownUnitCount":0,"method":"plant_aggregate","provenance":{"evidenceCount":0,"recordIds":["wattlas-record-osm-way-1156101727"],"sourceIds":["openstreetmap-power"],"sourceTypes":["community_mapped"],"valueKind":"reported"},"totalUnitCount":0},"operatingCapacityMw":8.2,"operatingCapacityMwByTechnology":{"hydro":8.2},"plannedCapacityCoverage":{"coveragePercent":0.0,"knownUnitCount":0,"method":"unavailable","totalUnitCount":0},"plannedCapacityMw":0.0,"plannedCapacityMwByTechnology":{},"recordCount":1,"recordIds":["wattlas-record-osm-way-1156101727"],"sourceIds":["openstreetmap-power"],"sourceUrl":"https://www.openstreetmap.org/way/1156101727","technologies":["hydro"],"technologyMixMw":{"hydro":8.2},"unitCount":0,"unitIds":[]},"type":"Feature"}],"type":"FeatureCollection"}