{"features":[{"geometry":{"coordinates":[160.027762,-9.435404],"type":"Point"},"id":"wattlas-plant-gemplant-l100000408978","properties":{"aliases":["Lungga power station","new","old"],"canonicalAnchor":"gemplant:L100000408978","canonicalCountryKey":"SB","capacityMw":27.0,"country":"SB","externalIdAliases":{"gemUnit":["G100000413351","G100000413352"]},"externalIds":{"gemPlant":"L100000408978","gemUnit":"G100000413352"},"gemWikiUrl":"https://www.gem.wiki/Lungga_power_station","geographyId":"SB-17018030B21058058503942","id":"wattlas-plant-gemplant-l100000408978","lifecycleCounts":{"operational":2},"locationPrecision":"exact","name":"Lungga power station","operatingCapacityCoverage":{"coveragePercent":100.0,"knownUnitCount":2,"method":"complete_unit_sum","provenance":{"evidenceCount":0,"recordIds":["wattlas-record-gemunit-g100000413351","wattlas-record-gemunit-g100000413352"],"sourceIds":["gem-global-integrated-power-tracker"],"sourceTypes":["research_verified"],"valueKind":"reported"},"totalUnitCount":2},"operatingCapacityMw":27.0,"operatingCapacityMwByTechnology":{"gas":27.0},"plannedCapacityCoverage":{"coveragePercent":0.0,"knownUnitCount":0,"method":"unavailable","totalUnitCount":0},"plannedCapacityMw":0.0,"plannedCapacityMwByTechnology":{},"recordCount":2,"recordIds":["wattlas-record-gemunit-g100000413351","wattlas-record-gemunit-g100000413352"],"sourceIds":["gem-global-integrated-power-tracker"],"sourceUrl":"https://www.gem.wiki/Lungga_power_station","technologies":["gas"],"technologyMixMw":{"gas":27.0},"unitCount":2,"unitIds":["gem-unit-G100000413351","gem-unit-G100000413352"]},"type":"Feature"},{"geometry":{"coordinates":[160.0627,-9.4375],"type":"Point"},"id":"wattlas-plant-gemplant-l100001020683","properties":{"aliases":["1.0","2.0","Henderson solar farm"],"canonicalAnchor":"gemplant:L100001020683","canonicalCountryKey":"SB","capacityMw":3.0,"country":"SB","externalIdAliases":{"gemUnit":["G100001023593","G100001062249"]},"externalIds":{"gemPlant":"L100001020683","gemUnit":"G100001062249"},"gemWikiUrl":"https://www.gem.wiki/Henderson_solar_farm","geographyId":"SB-17018030B21058058503942","id":"wattlas-plant-gemplant-l100001020683","lifecycleCounts":{"operational":2},"locationPrecision":"exact","name":"Henderson solar farm","operatingCapacityCoverage":{"coveragePercent":100.0,"knownUnitCount":2,"method":"complete_unit_sum","provenance":{"evidenceCount":0,"recordIds":["wattlas-record-gemunit-g100001023593","wattlas-record-gemunit-g100001062249"],"sourceIds":["gem-global-integrated-power-tracker"],"sourceTypes":["research_verified"],"valueKind":"reported"},"totalUnitCount":2},"operatingCapacityMw":3.0,"operatingCapacityMwByTechnology":{"solar":3.0},"plannedCapacityCoverage":{"coveragePercent":0.0,"knownUnitCount":0,"method":"unavailable","totalUnitCount":0},"plannedCapacityMw":0.0,"plannedCapacityMwByTechnology":{},"recordCount":2,"recordIds":["wattlas-record-gemunit-g100001023593","wattlas-record-gemunit-g100001062249"],"sourceIds":["gem-global-integrated-power-tracker"],"sourceUrl":"https://www.gem.wiki/Henderson_solar_farm","technologies":["solar"],"technologyMixMw":{"solar":3.0},"unitCount":2,"unitIds":["gem-unit-G100001023593","gem-unit-G100001062249"]},"type":"Feature"}],"type":"FeatureCollection"}