{"features":[{"geometry":{"coordinates":[68.771867,38.610817],"type":"Point"},"id":"wattlas-plant-gemplant-l100000103559","properties":{"aliases":["Dushanbe-2 power station","Unit 1","Unit 2","Unit 3","Unit 4"],"canonicalAnchor":"gemplant:L100000103559","canonicalCountryKey":"TJ","capacityMw":400.0,"country":"TJ","externalIdAliases":{"gemUnit":["G100000102517","G100000102518","G100000113809","G100000113810"]},"externalIds":{"gemPlant":"L100000103559","gemUnit":"G100000113810"},"gemWikiUrl":"https://www.gem.wiki/Dushanbe-2_power_station","geographyId":"TJ-86453995B89986162039288","id":"wattlas-plant-gemplant-l100000103559","lifecycleCounts":{"operational":4},"locationPrecision":"exact","name":"Dushanbe-2 power station","operatingCapacityCoverage":{"coveragePercent":100.0,"knownUnitCount":4,"method":"complete_unit_sum","provenance":{"evidenceCount":0,"recordIds":["wattlas-record-gemunit-g100000102517","wattlas-record-gemunit-g100000102518","wattlas-record-gemunit-g100000113809","wattlas-record-gemunit-g100000113810"],"sourceIds":["gem-global-integrated-power-tracker"],"sourceTypes":["research_verified"],"valueKind":"reported"},"totalUnitCount":4},"operatingCapacityMw":400.0,"operatingCapacityMwByTechnology":{"coal":400.0},"plannedCapacityCoverage":{"coveragePercent":0.0,"knownUnitCount":0,"method":"unavailable","totalUnitCount":0},"plannedCapacityMw":0.0,"plannedCapacityMwByTechnology":{},"recordCount":4,"recordIds":["wattlas-record-gemunit-g100000102517","wattlas-record-gemunit-g100000102518","wattlas-record-gemunit-g100000113809","wattlas-record-gemunit-g100000113810"],"sourceIds":["gem-global-integrated-power-tracker"],"sourceUrl":"https://www.gem.wiki/Dushanbe-2_power_station","technologies":["coal"],"technologyMixMw":{"coal":400.0},"unitCount":4,"unitIds":["gem-unit-G100000102517","gem-unit-G100000102518","gem-unit-G100000113809","gem-unit-G100000113810"]},"type":"Feature"},{"geometry":{"coordinates":[68.931589,38.29656],"type":"Point"},"id":"wattlas-plant-gemplant-l100000406887","properties":{"aliases":["1-1","2-1","Yavan power station"],"canonicalAnchor":"gemplant:L100000406887","canonicalCountryKey":"TJ","capacityMw":120.0,"country":"TJ","externalIdAliases":{"gemUnit":["G100000407437","G100000407438"]},"externalIds":{"gemPlant":"L100000406887","gemUnit":"G100000407437"},"gemWikiUrl":"https://www.gem.wiki/Yavan_power_station","geographyId":"TJ-86453995B79808671966952","id":"wattlas-plant-gemplant-l100000406887","lifecycleCounts":{"operational":2},"locationPrecision":"exact","name":"Yavan power station","operatingCapacityCoverage":{"coveragePercent":100.0,"knownUnitCount":2,"method":"complete_unit_sum","provenance":{"evidenceCount":0,"recordIds":["wattlas-record-gemunit-g100000407437","wattlas-record-gemunit-g100000407438"],"sourceIds":["gem-global-integrated-power-tracker"],"sourceTypes":["research_verified"],"valueKind":"reported"},"totalUnitCount":2},"operatingCapacityMw":120.0,"operatingCapacityMwByTechnology":{"gas":120.0},"plannedCapacityCoverage":{"coveragePercent":0.0,"knownUnitCount":0,"method":"unavailable","totalUnitCount":0},"plannedCapacityMw":0.0,"plannedCapacityMwByTechnology":{},"recordCount":2,"recordIds":["wattlas-record-gemunit-g100000407437","wattlas-record-gemunit-g100000407438"],"sourceIds":["gem-global-integrated-power-tracker"],"sourceUrl":"https://www.gem.wiki/Yavan_power_station","technologies":["gas"],"technologyMixMw":{"gas":120.0},"unitCount":2,"unitIds":["gem-unit-G100000407437","gem-unit-G100000407438"]},"type":"Feature"},{"geometry":{"coordinates":[68.775919,38.55642],"type":"Point"},"id":"wattlas-plant-gemplant-l100000406888","properties":{"aliases":["3-1","Dushanbe-1 power station"],"canonicalAnchor":"gemplant:L100000406888","canonicalCountryKey":"TJ","capacityMw":86.0,"country":"TJ","externalIds":{"gemPlant":"L100000406888","gemUnit":"G100000407440"},"gemWikiUrl":"https://www.gem.wiki/Dushanbe-1_power_station","geographyId":"TJ-86453995B94288483398487","id":"wattlas-plant-gemplant-l100000406888","lifecycleCounts":{"operational":1},"locationPrecision":"exact","name":"Dushanbe-1 power station","operatingCapacityCoverage":{"coveragePercent":100.0,"knownUnitCount":1,"method":"complete_unit_sum","provenance":{"evidenceCount":0,"recordIds":["wattlas-record-gemunit-g100000407440"],"sourceIds":["gem-global-integrated-power-tracker"],"sourceTypes":["research_verified"],"valueKind":"reported"},"totalUnitCount":1},"operatingCapacityMw":86.0,"operatingCapacityMwByTechnology":{"gas":86.0},"plannedCapacityCoverage":{"coveragePercent":0.0,"knownUnitCount":0,"method":"unavailable","totalUnitCount":0},"plannedCapacityMw":0.0,"plannedCapacityMwByTechnology":{},"recordCount":1,"recordIds":["wattlas-record-gemunit-g100000407440"],"sourceIds":["gem-global-integrated-power-tracker"],"sourceUrl":"https://www.gem.wiki/Dushanbe-1_power_station","technologies":["gas"],"technologyMixMw":{"gas":86.0},"unitCount":1,"unitIds":["gem-unit-G100000407440"]},"type":"Feature"},{"geometry":{"coordinates":[69.1237,38.2674],"type":"Point"},"id":"wattlas-plant-gemplant-l100000603548","properties":{"aliases":["Baipaza hydroelectric plant"],"canonicalAnchor":"gemplant:L100000603548","canonicalCountryKey":"TJ","capacityMw":600.0,"country":"TJ","externalIds":{"gemPlant":"L100000603548","gemUnit":"G100000603583"},"gemWikiUrl":"https://www.gem.wiki/Baipaza_hydroelectric_plant","geographyId":"TJ-86453995B79808671966952","id":"wattlas-plant-gemplant-l100000603548","lifecycleCounts":{"operational":1},"locationPrecision":"exact","name":"Baipaza hydroelectric plant","operatingCapacityCoverage":{"coveragePercent":100.0,"knownUnitCount":1,"method":"complete_unit_sum","provenance":{"evidenceCount":0,"recordIds":["wattlas-record-gemunit-g100000603583"],"sourceIds":["gem-global-integrated-power-tracker"],"sourceTypes":["research_verified"],"valueKind":"reported"},"totalUnitCount":1},"operatingCapacityMw":600.0,"operatingCapacityMwByTechnology":{"hydro":600.0},"plannedCapacityCoverage":{"coveragePercent":0.0,"knownUnitCount":0,"method":"unavailable","totalUnitCount":0},"plannedCapacityMw":0.0,"plannedCapacityMwByTechnology":{},"recordCount":1,"recordIds":["wattlas-record-gemunit-g100000603583"],"sourceIds":["gem-global-integrated-power-tracker"],"sourceUrl":"https://www.gem.wiki/Baipaza_hydroelectric_plant","technologies":["hydro"],"technologyMixMw":{"hydro":600.0},"unitCount":1,"unitIds":["gem-unit-G100000603583"]},"type":"Feature"},{"geometry":{"coordinates":[69.815,40.2759],"type":"Point"},"id":"wattlas-plant-gemplant-l100000603550","properties":{"aliases":["Kairakkum hydroelectric plant"],"canonicalAnchor":"gemplant:L100000603550","canonicalCountryKey":"TJ","capacityMw":174.0,"country":"TJ","externalIds":{"gemPlant":"L100000603550","gemUnit":"G100000603585"},"gemWikiUrl":"https://www.gem.wiki/Kairakkum_hydroelectric_plant","geographyId":"TJ-86453995B76936784723703","id":"wattlas-plant-gemplant-l100000603550","lifecycleCounts":{"operational":1},"locationPrecision":"exact","name":"Kairakkum hydroelectric plant","operatingCapacityCoverage":{"coveragePercent":100.0,"knownUnitCount":1,"method":"complete_unit_sum","provenance":{"evidenceCount":0,"recordIds":["wattlas-record-gemunit-g100000603585"],"sourceIds":["gem-global-integrated-power-tracker"],"sourceTypes":["research_verified"],"valueKind":"reported"},"totalUnitCount":1},"operatingCapacityMw":174.0,"operatingCapacityMwByTechnology":{"hydro":174.0},"plannedCapacityCoverage":{"coveragePercent":0.0,"knownUnitCount":0,"method":"unavailable","totalUnitCount":0},"plannedCapacityMw":0.0,"plannedCapacityMwByTechnology":{},"recordCount":1,"recordIds":["wattlas-record-gemunit-g100000603585"],"sourceIds":["gem-global-integrated-power-tracker"],"sourceUrl":"https://www.gem.wiki/Kairakkum_hydroelectric_plant","technologies":["hydro"],"technologyMixMw":{"hydro":174.0},"unitCount":1,"unitIds":["gem-unit-G100000603585"]},"type":"Feature"},{"geometry":{"coordinates":[69.3481,38.3717],"type":"Point"},"id":"wattlas-plant-gemplant-l100000603551","properties":{"aliases":["Nurek hydroelectric plant"],"canonicalAnchor":"gemplant:L100000603551","canonicalCountryKey":"TJ","capacityMw":2700.0,"country":"TJ","externalIds":{"gemPlant":"L100000603551","gemUnit":"G100000603586"},"gemWikiUrl":"https://www.gem.wiki/Nurek_hydroelectric_plant","geographyId":"TJ-86453995B89986162039288","id":"wattlas-plant-gemplant-l100000603551","lifecycleCounts":{"operational":1},"locationPrecision":"exact","name":"Nurek hydroelectric plant","operatingCapacityCoverage":{"coveragePercent":100.0,"knownUnitCount":1,"method":"complete_unit_sum","provenance":{"evidenceCount":0,"recordIds":["wattlas-record-gemunit-g100000603586"],"sourceIds":["gem-global-integrated-power-tracker"],"sourceTypes":["research_verified"],"valueKind":"reported"},"totalUnitCount":1},"operatingCapacityMw":2700.0,"operatingCapacityMwByTechnology":{"hydro":2700.0},"plannedCapacityCoverage":{"coveragePercent":0.0,"knownUnitCount":0,"method":"unavailable","totalUnitCount":0},"plannedCapacityMw":0.0,"plannedCapacityMwByTechnology":{},"recordCount":1,"recordIds":["wattlas-record-gemunit-g100000603586"],"sourceIds":["gem-global-integrated-power-tracker"],"sourceUrl":"https://www.gem.wiki/Nurek_hydroelectric_plant","technologies":["hydro"],"technologyMixMw":{"hydro":2700.0},"unitCount":1,"unitIds":["gem-unit-G100000603586"]},"type":"Feature"},{"geometry":{"coordinates":[69.7714,38.6819],"type":"Point"},"id":"wattlas-plant-gemplant-l100000603554","properties":{"aliases":["Rogun hydroelectric plant"],"canonicalAnchor":"gemplant:L100000603554","canonicalCountryKey":"TJ","capacityMw":3600.0,"country":"TJ","externalIdAliases":{"gemUnit":["G100000603589","G100001051929"]},"externalIds":{"gemPlant":"L100000603554","gemUnit":"G100001051929"},"gemWikiUrl":"https://www.gem.wiki/Rogun_hydroelectric_plant","geographyId":"TJ-86453995B89986162039288","id":"wattlas-plant-gemplant-l100000603554","lifecycleCounts":{"operational":1,"under_construction":1},"locationPrecision":"exact","name":"Rogun hydroelectric plant","operatingCapacityCoverage":{"coveragePercent":100.0,"knownUnitCount":1,"method":"complete_unit_sum","provenance":{"evidenceCount":0,"recordIds":["wattlas-record-gemunit-g100000603589"],"sourceIds":["gem-global-integrated-power-tracker"],"sourceTypes":["research_verified"],"valueKind":"reported"},"totalUnitCount":1},"operatingCapacityMw":1200.0,"operatingCapacityMwByTechnology":{"hydro":1200.0},"plannedCapacityCoverage":{"coveragePercent":100.0,"knownUnitCount":1,"method":"complete_unit_sum","provenance":{"evidenceCount":0,"recordIds":["wattlas-record-gemunit-g100001051929"],"sourceIds":["gem-global-integrated-power-tracker"],"sourceTypes":["research_verified"],"valueKind":"reported"},"totalUnitCount":1},"plannedCapacityMw":2400.0,"plannedCapacityMwByTechnology":{"hydro":2400.0},"recordCount":2,"recordIds":["wattlas-record-gemunit-g100000603589","wattlas-record-gemunit-g100001051929"],"sourceIds":["gem-global-integrated-power-tracker"],"sourceUrl":"https://www.gem.wiki/Rogun_hydroelectric_plant","technologies":["hydro"],"technologyMixMw":{"hydro":3600.0},"unitCount":2,"unitIds":["gem-unit-G100000603589","gem-unit-G100001051929"]},"type":"Feature"},{"geometry":{"coordinates":[69.0583,38.0435],"type":"Point"},"id":"wattlas-plant-gemplant-l100000603555","properties":{"aliases":["Sangtuda-1 hydroelectric plant"],"canonicalAnchor":"gemplant:L100000603555","canonicalCountryKey":"TJ","capacityMw":670.0,"country":"TJ","externalIds":{"gemPlant":"L100000603555","gemUnit":"G100000603590"},"gemWikiUrl":"https://www.gem.wiki/Sangtuda-1_hydroelectric_plant","geographyId":"TJ-86453995B79808671966952","id":"wattlas-plant-gemplant-l100000603555","lifecycleCounts":{"operational":1},"locationPrecision":"exact","name":"Sangtuda-1 hydroelectric plant","operatingCapacityCoverage":{"coveragePercent":100.0,"knownUnitCount":1,"method":"complete_unit_sum","provenance":{"evidenceCount":0,"recordIds":["wattlas-record-gemunit-g100000603590"],"sourceIds":["gem-global-integrated-power-tracker"],"sourceTypes":["research_verified"],"valueKind":"reported"},"totalUnitCount":1},"operatingCapacityMw":670.0,"operatingCapacityMwByTechnology":{"hydro":670.0},"plannedCapacityCoverage":{"coveragePercent":0.0,"knownUnitCount":0,"method":"unavailable","totalUnitCount":0},"plannedCapacityMw":0.0,"plannedCapacityMwByTechnology":{},"recordCount":1,"recordIds":["wattlas-record-gemunit-g100000603590"],"sourceIds":["gem-global-integrated-power-tracker"],"sourceUrl":"https://www.gem.wiki/Sangtuda-1_hydroelectric_plant","technologies":["hydro"],"technologyMixMw":{"hydro":670.0},"unitCount":1,"unitIds":["gem-unit-G100000603590"]},"type":"Feature"},{"geometry":{"coordinates":[69.0269,37.9708],"type":"Point"},"id":"wattlas-plant-gemplant-l100000603556","properties":{"aliases":["Sangtuda-2 hydroelectric plant"],"canonicalAnchor":"gemplant:L100000603556","canonicalCountryKey":"TJ","capacityMw":220.0,"country":"TJ","externalIds":{"gemPlant":"L100000603556","gemUnit":"G100000603591"},"gemWikiUrl":"https://www.gem.wiki/Sangtuda-2_hydroelectric_plant","geographyId":"TJ-86453995B79808671966952","id":"wattlas-plant-gemplant-l100000603556","lifecycleCounts":{"operational":1},"locationPrecision":"exact","name":"Sangtuda-2 hydroelectric plant","operatingCapacityCoverage":{"coveragePercent":100.0,"knownUnitCount":1,"method":"complete_unit_sum","provenance":{"evidenceCount":0,"recordIds":["wattlas-record-gemunit-g100000603591"],"sourceIds":["gem-global-integrated-power-tracker"],"sourceTypes":["research_verified"],"valueKind":"reported"},"totalUnitCount":1},"operatingCapacityMw":220.0,"operatingCapacityMwByTechnology":{"hydro":220.0},"plannedCapacityCoverage":{"coveragePercent":0.0,"knownUnitCount":0,"method":"unavailable","totalUnitCount":0},"plannedCapacityMw":0.0,"plannedCapacityMwByTechnology":{},"recordCount":1,"recordIds":["wattlas-record-gemunit-g100000603591"],"sourceIds":["gem-global-integrated-power-tracker"],"sourceUrl":"https://www.gem.wiki/Sangtuda-2_hydroelectric_plant","technologies":["hydro"],"technologyMixMw":{"hydro":220.0},"unitCount":1,"unitIds":["gem-unit-G100000603591"]},"type":"Feature"},{"geometry":{"coordinates":[68.937,37.8839],"type":"Point"},"id":"wattlas-plant-gemplant-l100000603558","properties":{"aliases":["Sarband hydroelectric plant"],"canonicalAnchor":"gemplant:L100000603558","canonicalCountryKey":"TJ","capacityMw":240.0,"country":"TJ","externalIds":{"gemPlant":"L100000603558","gemUnit":"G100000603593"},"gemWikiUrl":"https://www.gem.wiki/Sarband_hydroelectric_plant","geographyId":"TJ-86453995B79808671966952","id":"wattlas-plant-gemplant-l100000603558","lifecycleCounts":{"operational":1},"locationPrecision":"exact","name":"Sarband hydroelectric plant","operatingCapacityCoverage":{"coveragePercent":100.0,"knownUnitCount":1,"method":"complete_unit_sum","provenance":{"evidenceCount":0,"recordIds":["wattlas-record-gemunit-g100000603593"],"sourceIds":["gem-global-integrated-power-tracker"],"sourceTypes":["research_verified"],"valueKind":"reported"},"totalUnitCount":1},"operatingCapacityMw":240.0,"operatingCapacityMwByTechnology":{"hydro":240.0},"plannedCapacityCoverage":{"coveragePercent":0.0,"knownUnitCount":0,"method":"unavailable","totalUnitCount":0},"plannedCapacityMw":0.0,"plannedCapacityMwByTechnology":{},"recordCount":1,"recordIds":["wattlas-record-gemunit-g100000603593"],"sourceIds":["gem-global-integrated-power-tracker"],"sourceUrl":"https://www.gem.wiki/Sarband_hydroelectric_plant","technologies":["hydro"],"technologyMixMw":{"hydro":240.0},"unitCount":1,"unitIds":["gem-unit-G100000603593"]},"type":"Feature"},{"geometry":{"coordinates":[69.3053,40.1935],"type":"Point"},"id":"wattlas-plant-gemplant-l100000604107","properties":{"aliases":["Farkhad hydroelectric plant"],"canonicalAnchor":"gemplant:L100000604107","canonicalCountryKey":"TJ","capacityMw":127.0,"country":"TJ","externalIds":{"gemPlant":"L100000604107","gemUnit":"G100000604146"},"gemWikiUrl":"https://www.gem.wiki/Farkhad_hydroelectric_plant","geographyId":"TJ-86453995B76936784723703","id":"wattlas-plant-gemplant-l100000604107","lifecycleCounts":{"operational":1},"locationPrecision":"exact","name":"Farkhad hydroelectric plant","operatingCapacityCoverage":{"coveragePercent":100.0,"knownUnitCount":1,"method":"complete_unit_sum","provenance":{"evidenceCount":0,"recordIds":["wattlas-record-gemunit-g100000604146"],"sourceIds":["gem-global-integrated-power-tracker"],"sourceTypes":["research_verified"],"valueKind":"reported"},"totalUnitCount":1},"operatingCapacityMw":127.0,"operatingCapacityMwByTechnology":{"hydro":127.0},"plannedCapacityCoverage":{"coveragePercent":0.0,"knownUnitCount":0,"method":"unavailable","totalUnitCount":0},"plannedCapacityMw":0.0,"plannedCapacityMwByTechnology":{},"recordCount":1,"recordIds":["wattlas-record-gemunit-g100000604146"],"sourceIds":["gem-global-integrated-power-tracker"],"sourceUrl":"https://www.gem.wiki/Farkhad_hydroelectric_plant","technologies":["hydro"],"technologyMixMw":{"hydro":127.0},"unitCount":1,"unitIds":["gem-unit-G100000604146"]},"type":"Feature"},{"geometry":{"coordinates":[74.023,38.1769],"type":"Point"},"id":"wattlas-plant-gemplant-l100001065152","properties":{"aliases":["--","Murghob District solar project"],"canonicalAnchor":"gemplant:L100001065152","canonicalCountryKey":"TJ","capacityMw":1.2,"country":"TJ","externalIds":{"gemPlant":"L100001065152","gemUnit":"G100001074938"},"gemWikiUrl":"https://www.gem.wiki/Murghob_District_solar_project","geographyId":"TJ-86453995B82116761581179","id":"wattlas-plant-gemplant-l100001065152","lifecycleCounts":{"operational":1},"locationPrecision":"exact","name":"Murghob District solar project","operatingCapacityCoverage":{"coveragePercent":100.0,"knownUnitCount":1,"method":"complete_unit_sum","provenance":{"evidenceCount":0,"recordIds":["wattlas-record-gemunit-g100001074938"],"sourceIds":["gem-global-integrated-power-tracker"],"sourceTypes":["research_verified"],"valueKind":"reported"},"totalUnitCount":1},"operatingCapacityMw":1.2,"operatingCapacityMwByTechnology":{"solar":1.2},"plannedCapacityCoverage":{"coveragePercent":0.0,"knownUnitCount":0,"method":"unavailable","totalUnitCount":0},"plannedCapacityMw":0.0,"plannedCapacityMwByTechnology":{},"recordCount":1,"recordIds":["wattlas-record-gemunit-g100001074938"],"sourceIds":["gem-global-integrated-power-tracker"],"sourceUrl":"https://www.gem.wiki/Murghob_District_solar_project","technologies":["solar"],"technologyMixMw":{"solar":1.2},"unitCount":1,"unitIds":["gem-unit-G100001074938"]},"type":"Feature"},{"geometry":{"coordinates":[68.8502,37.7222],"type":"Point"},"id":"wattlas-plant-gemplant-l100001080275","properties":{"aliases":["Sharshara hydroelectric plant"],"canonicalAnchor":"gemplant:L100001080275","canonicalCountryKey":"TJ","capacityMw":30.0,"country":"TJ","externalIds":{"gemPlant":"L100001080275","gemUnit":"G100001090162"},"gemWikiUrl":"https://www.gem.wiki/Sharshara_hydroelectric_plant","geographyId":"TJ-86453995B79808671966952","id":"wattlas-plant-gemplant-l100001080275","lifecycleCounts":{"operational":1},"locationPrecision":"exact","name":"Sharshara hydroelectric plant","operatingCapacityCoverage":{"coveragePercent":100.0,"knownUnitCount":1,"method":"complete_unit_sum","provenance":{"evidenceCount":0,"recordIds":["wattlas-record-gemunit-g100001090162"],"sourceIds":["gem-global-integrated-power-tracker"],"sourceTypes":["research_verified"],"valueKind":"reported"},"totalUnitCount":1},"operatingCapacityMw":30.0,"operatingCapacityMwByTechnology":{"hydro":30.0},"plannedCapacityCoverage":{"coveragePercent":0.0,"knownUnitCount":0,"method":"unavailable","totalUnitCount":0},"plannedCapacityMw":0.0,"plannedCapacityMwByTechnology":{},"recordCount":1,"recordIds":["wattlas-record-gemunit-g100001090162"],"sourceIds":["gem-global-integrated-power-tracker"],"sourceUrl":"https://www.gem.wiki/Sharshara_hydroelectric_plant","technologies":["hydro"],"technologyMixMw":{"hydro":30.0},"unitCount":1,"unitIds":["gem-unit-G100001090162"]},"type":"Feature"},{"geometry":{"coordinates":[69.565276,39.442674],"type":"Point"},"id":"wattlas-plant-osm-way-1019212058","properties":{"aliases":["НХОБ Лангар"],"canonicalAnchor":"osm:way/1019212058","canonicalCountryKey":"TJ","capacityMw":0.0,"country":"TJ","externalIds":{"osm":"way/1019212058"},"geographyId":"TJ-86453995B76936784723703","id":"wattlas-plant-osm-way-1019212058","lifecycleCounts":{"operational":1},"locationPrecision":"exact","name":"НХОБ Лангар","operatingCapacityCoverage":{"coveragePercent":0.0,"knownUnitCount":0,"method":"unavailable","totalUnitCount":0},"operatingCapacityMw":0.0,"operatingCapacityMwByTechnology":{},"plannedCapacityCoverage":{"coveragePercent":0.0,"knownUnitCount":0,"method":"unavailable","totalUnitCount":0},"plannedCapacityMw":0.0,"plannedCapacityMwByTechnology":{},"recordCount":1,"recordIds":["wattlas-record-osm-way-1019212058"],"sourceIds":["openstreetmap-power"],"sourceUrl":"https://www.openstreetmap.org/way/1019212058","technologies":["hydro"],"technologyMixMw":{"hydro":0.0},"unitCount":0,"unitIds":[]},"type":"Feature"},{"geometry":{"coordinates":[72.150928,38.098047],"type":"Point"},"id":"wattlas-plant-osm-way-1160794780","properties":{"aliases":["Savnob"],"canonicalAnchor":"osm:way/1160794780","canonicalCountryKey":"TJ","capacityMw":0.0,"country":"TJ","externalIds":{"osm":"way/1160794780"},"geographyId":"TJ-86453995B82116761581179","id":"wattlas-plant-osm-way-1160794780","lifecycleCounts":{"operational":1},"locationPrecision":"exact","name":"Savnob","operatingCapacityCoverage":{"coveragePercent":0.0,"knownUnitCount":0,"method":"unavailable","totalUnitCount":0},"operatingCapacityMw":0.0,"operatingCapacityMwByTechnology":{},"plannedCapacityCoverage":{"coveragePercent":0.0,"knownUnitCount":0,"method":"unavailable","totalUnitCount":0},"plannedCapacityMw":0.0,"plannedCapacityMwByTechnology":{},"recordCount":1,"recordIds":["wattlas-record-osm-way-1160794780"],"sourceIds":["openstreetmap-power"],"sourceUrl":"https://www.openstreetmap.org/way/1160794780","technologies":["hydro"],"technologyMixMw":{"hydro":0.0},"unitCount":0,"unitIds":[]},"type":"Feature"},{"geometry":{"coordinates":[68.778551,38.586044],"type":"Point"},"id":"wattlas-plant-osm-way-1323462410","properties":{"aliases":["Varzob Cascade HPP-3"],"canonicalAnchor":"osm:way/1323462410","canonicalCountryKey":"TJ","capacityMw":3.52,"country":"TJ","externalIds":{"osm":"way/1323462410"},"geographyId":"TJ-86453995B94288483398487","id":"wattlas-plant-osm-way-1323462410","lifecycleCounts":{"operational":1},"locationPrecision":"exact","name":"Varzob Cascade HPP-3","operatingCapacityCoverage":{"coveragePercent":100.0,"knownUnitCount":0,"method":"plant_aggregate","provenance":{"evidenceCount":0,"recordIds":["wattlas-record-osm-way-1323462410"],"sourceIds":["openstreetmap-power"],"sourceTypes":["community_mapped"],"valueKind":"reported"},"totalUnitCount":0},"operatingCapacityMw":3.52,"operatingCapacityMwByTechnology":{"hydro":3.52},"plannedCapacityCoverage":{"coveragePercent":0.0,"knownUnitCount":0,"method":"unavailable","totalUnitCount":0},"plannedCapacityMw":0.0,"plannedCapacityMwByTechnology":{},"recordCount":1,"recordIds":["wattlas-record-osm-way-1323462410"],"sourceIds":["openstreetmap-power"],"sourceUrl":"https://www.openstreetmap.org/way/1323462410","technologies":["hydro"],"technologyMixMw":{"hydro":3.52},"unitCount":0,"unitIds":[]},"type":"Feature"},{"geometry":{"coordinates":[68.768555,38.672659],"type":"Point"},"id":"wattlas-plant-osm-way-1323462417","properties":{"aliases":["Varzob Cascade HPP-1"],"canonicalAnchor":"osm:way/1323462417","canonicalCountryKey":"TJ","capacityMw":7.44,"country":"TJ","externalIds":{"osm":"way/1323462417"},"geographyId":"TJ-86453995B89986162039288","id":"wattlas-plant-osm-way-1323462417","lifecycleCounts":{"operational":1},"locationPrecision":"exact","name":"Varzob Cascade HPP-1","operatingCapacityCoverage":{"coveragePercent":100.0,"knownUnitCount":0,"method":"plant_aggregate","provenance":{"evidenceCount":0,"recordIds":["wattlas-record-osm-way-1323462417"],"sourceIds":["openstreetmap-power"],"sourceTypes":["community_mapped"],"valueKind":"reported"},"totalUnitCount":0},"operatingCapacityMw":7.44,"operatingCapacityMwByTechnology":{"hydro":7.44},"plannedCapacityCoverage":{"coveragePercent":0.0,"knownUnitCount":0,"method":"unavailable","totalUnitCount":0},"plannedCapacityMw":0.0,"plannedCapacityMwByTechnology":{},"recordCount":1,"recordIds":["wattlas-record-osm-way-1323462417"],"sourceIds":["openstreetmap-power"],"sourceUrl":"https://www.openstreetmap.org/way/1323462417","technologies":["hydro"],"technologyMixMw":{"hydro":7.44},"unitCount":0,"unitIds":[]},"type":"Feature"},{"geometry":{"coordinates":[72.380544,38.295704],"type":"Point"},"id":"wattlas-plant-osm-way-1444592340","properties":{"aliases":["НБОи Хатфат"],"canonicalAnchor":"osm:way/1444592340","canonicalCountryKey":"TJ","capacityMw":0.0,"country":"TJ","externalIds":{"osm":"way/1444592340"},"geographyId":"TJ-86453995B82116761581179","id":"wattlas-plant-osm-way-1444592340","lifecycleCounts":{"operational":1},"locationPrecision":"exact","name":"НБОи Хатфат","operatingCapacityCoverage":{"coveragePercent":0.0,"knownUnitCount":0,"method":"unavailable","totalUnitCount":0},"operatingCapacityMw":0.0,"operatingCapacityMwByTechnology":{},"plannedCapacityCoverage":{"coveragePercent":0.0,"knownUnitCount":0,"method":"unavailable","totalUnitCount":0},"plannedCapacityMw":0.0,"plannedCapacityMwByTechnology":{},"recordCount":1,"recordIds":["wattlas-record-osm-way-1444592340"],"sourceIds":["openstreetmap-power"],"sourceUrl":"https://www.openstreetmap.org/way/1444592340","technologies":["hydro"],"technologyMixMw":{"hydro":0.0},"unitCount":0,"unitIds":[]},"type":"Feature"},{"geometry":{"coordinates":[68.70068,39.189272],"type":"Point"},"id":"wattlas-plant-osm-way-1470802015","properties":{"aliases":["Marzich"],"canonicalAnchor":"osm:way/1470802015","canonicalCountryKey":"TJ","capacityMw":0.0,"country":"TJ","externalIds":{"osm":"way/1470802015"},"geographyId":"TJ-86453995B76936784723703","id":"wattlas-plant-osm-way-1470802015","lifecycleCounts":{"operational":1},"locationPrecision":"exact","name":"Marzich","operatingCapacityCoverage":{"coveragePercent":0.0,"knownUnitCount":0,"method":"unavailable","totalUnitCount":0},"operatingCapacityMw":0.0,"operatingCapacityMwByTechnology":{},"plannedCapacityCoverage":{"coveragePercent":0.0,"knownUnitCount":0,"method":"unavailable","totalUnitCount":0},"plannedCapacityMw":0.0,"plannedCapacityMwByTechnology":{},"recordCount":1,"recordIds":["wattlas-record-osm-way-1470802015"],"sourceIds":["openstreetmap-power"],"sourceUrl":"https://www.openstreetmap.org/way/1470802015","technologies":["hydro"],"technologyMixMw":{"hydro":0.0},"unitCount":0,"unitIds":[]},"type":"Feature"},{"geometry":{"coordinates":[71.62494,37.964884],"type":"Point"},"id":"wattlas-plant-osm-way-375669573","properties":{"aliases":["Power plant"],"canonicalAnchor":"osm:way/375669573","canonicalCountryKey":"TJ","capacityMw":0.0,"country":"TJ","externalIds":{"osm":"way/375669573"},"geographyId":"TJ-86453995B82116761581179","id":"wattlas-plant-osm-way-375669573","lifecycleCounts":{"operational":1},"locationPrecision":"exact","name":"Power plant","operatingCapacityCoverage":{"coveragePercent":0.0,"knownUnitCount":0,"method":"unavailable","totalUnitCount":0},"operatingCapacityMw":0.0,"operatingCapacityMwByTechnology":{},"plannedCapacityCoverage":{"coveragePercent":0.0,"knownUnitCount":0,"method":"unavailable","totalUnitCount":0},"plannedCapacityMw":0.0,"plannedCapacityMwByTechnology":{},"recordCount":1,"recordIds":["wattlas-record-osm-way-375669573"],"sourceIds":["openstreetmap-power"],"sourceUrl":"https://www.openstreetmap.org/way/375669573","technologies":["hydro"],"technologyMixMw":{"hydro":0.0},"unitCount":0,"unitIds":[]},"type":"Feature"},{"geometry":{"coordinates":[71.863011,38.057194],"type":"Point"},"id":"wattlas-plant-osm-way-391317824","properties":{"aliases":["Hydroelectric Power Station"],"canonicalAnchor":"osm:way/391317824","canonicalCountryKey":"TJ","capacityMw":0.0,"country":"TJ","externalIds":{"osm":"way/391317824"},"geographyId":"TJ-86453995B82116761581179","id":"wattlas-plant-osm-way-391317824","lifecycleCounts":{"operational":1},"locationPrecision":"exact","name":"Hydroelectric Power Station","operatingCapacityCoverage":{"coveragePercent":0.0,"knownUnitCount":0,"method":"unavailable","totalUnitCount":0},"operatingCapacityMw":0.0,"operatingCapacityMwByTechnology":{},"plannedCapacityCoverage":{"coveragePercent":0.0,"knownUnitCount":0,"method":"unavailable","totalUnitCount":0},"plannedCapacityMw":0.0,"plannedCapacityMwByTechnology":{},"recordCount":1,"recordIds":["wattlas-record-osm-way-391317824"],"sourceIds":["openstreetmap-power"],"sourceUrl":"https://www.openstreetmap.org/way/391317824","technologies":["hydro"],"technologyMixMw":{"hydro":0.0},"unitCount":0,"unitIds":[]},"type":"Feature"},{"geometry":{"coordinates":[71.481606,38.379234],"type":"Point"},"id":"wattlas-plant-osm-way-392194176","properties":{"aliases":["Tehavr"],"canonicalAnchor":"osm:way/392194176","canonicalCountryKey":"TJ","capacityMw":0.0,"country":"TJ","externalIds":{"osm":"way/392194176"},"geographyId":"TJ-86453995B82116761581179","id":"wattlas-plant-osm-way-392194176","lifecycleCounts":{"operational":1},"locationPrecision":"exact","name":"Tehavr","operatingCapacityCoverage":{"coveragePercent":0.0,"knownUnitCount":0,"method":"unavailable","totalUnitCount":0},"operatingCapacityMw":0.0,"operatingCapacityMwByTechnology":{},"plannedCapacityCoverage":{"coveragePercent":0.0,"knownUnitCount":0,"method":"unavailable","totalUnitCount":0},"plannedCapacityMw":0.0,"plannedCapacityMwByTechnology":{},"recordCount":1,"recordIds":["wattlas-record-osm-way-392194176"],"sourceIds":["openstreetmap-power"],"sourceUrl":"https://www.openstreetmap.org/way/392194176","technologies":["hydro"],"technologyMixMw":{"hydro":0.0},"unitCount":0,"unitIds":[]},"type":"Feature"},{"geometry":{"coordinates":[69.77401,38.677842],"type":"Point"},"id":"wattlas-plant-osm-way-572748372","properties":{"aliases":["Роғун ГЭС"],"canonicalAnchor":"osm:way/572748372","canonicalCountryKey":"TJ","capacityMw":3780.0,"country":"TJ","externalIds":{"osm":"way/572748372"},"geographyId":"TJ-86453995B89986162039288","id":"wattlas-plant-osm-way-572748372","lifecycleCounts":{"operational":1},"locationPrecision":"exact","name":"Роғун ГЭС","operatingCapacityCoverage":{"coveragePercent":100.0,"knownUnitCount":0,"method":"plant_aggregate","provenance":{"evidenceCount":0,"recordIds":["wattlas-record-osm-way-572748372"],"sourceIds":["openstreetmap-power"],"sourceTypes":["community_mapped"],"valueKind":"reported"},"totalUnitCount":0},"operatingCapacityMw":3780.0,"operatingCapacityMwByTechnology":{"hydro":3780.0},"plannedCapacityCoverage":{"coveragePercent":0.0,"knownUnitCount":0,"method":"unavailable","totalUnitCount":0},"plannedCapacityMw":0.0,"plannedCapacityMwByTechnology":{},"recordCount":1,"recordIds":["wattlas-record-osm-way-572748372"],"sourceIds":["openstreetmap-power"],"sourceUrl":"https://www.openstreetmap.org/way/572748372","technologies":["hydro"],"technologyMixMw":{"hydro":3780.0},"unitCount":0,"unitIds":[]},"type":"Feature"},{"geometry":{"coordinates":[70.615787,38.350218],"type":"Point"},"id":"wattlas-plant-osm-way-654218921","properties":{"aliases":["HPP Yoged"],"canonicalAnchor":"osm:way/654218921","canonicalCountryKey":"TJ","capacityMw":0.0,"country":"TJ","externalIds":{"osm":"way/654218921"},"geographyId":"TJ-86453995B82116761581179","id":"wattlas-plant-osm-way-654218921","lifecycleCounts":{"operational":1},"locationPrecision":"exact","name":"HPP Yoged","operatingCapacityCoverage":{"coveragePercent":0.0,"knownUnitCount":0,"method":"unavailable","totalUnitCount":0},"operatingCapacityMw":0.0,"operatingCapacityMwByTechnology":{},"plannedCapacityCoverage":{"coveragePercent":0.0,"knownUnitCount":0,"method":"unavailable","totalUnitCount":0},"plannedCapacityMw":0.0,"plannedCapacityMwByTechnology":{},"recordCount":1,"recordIds":["wattlas-record-osm-way-654218921"],"sourceIds":["openstreetmap-power"],"sourceUrl":"https://www.openstreetmap.org/way/654218921","technologies":["hydro"],"technologyMixMw":{"hydro":0.0},"unitCount":0,"unitIds":[]},"type":"Feature"},{"geometry":{"coordinates":[68.776701,38.612078],"type":"Point"},"id":"wattlas-plant-osm-way-793219334","properties":{"aliases":["Varzob Cascade HPP-2"],"canonicalAnchor":"osm:way/793219334","canonicalCountryKey":"TJ","capacityMw":14.4,"country":"TJ","externalIds":{"osm":"way/793219334"},"geographyId":"TJ-86453995B89986162039288","id":"wattlas-plant-osm-way-793219334","lifecycleCounts":{"operational":1},"locationPrecision":"exact","name":"Varzob Cascade HPP-2","operatingCapacityCoverage":{"coveragePercent":100.0,"knownUnitCount":0,"method":"plant_aggregate","provenance":{"evidenceCount":0,"recordIds":["wattlas-record-osm-way-793219334"],"sourceIds":["openstreetmap-power"],"sourceTypes":["community_mapped"],"valueKind":"reported"},"totalUnitCount":0},"operatingCapacityMw":14.4,"operatingCapacityMwByTechnology":{"hydro":14.4},"plannedCapacityCoverage":{"coveragePercent":0.0,"knownUnitCount":0,"method":"unavailable","totalUnitCount":0},"plannedCapacityMw":0.0,"plannedCapacityMwByTechnology":{},"recordCount":1,"recordIds":["wattlas-record-osm-way-793219334"],"sourceIds":["openstreetmap-power"],"sourceUrl":"https://www.openstreetmap.org/way/793219334","technologies":["hydro"],"technologyMixMw":{"hydro":14.4},"unitCount":0,"unitIds":[]},"type":"Feature"},{"geometry":{"coordinates":[71.728831,37.593104],"type":"Point"},"id":"wattlas-plant-osm-way-862520963","properties":{"aliases":["PAMIR-1"],"canonicalAnchor":"osm:way/862520963","canonicalCountryKey":"TJ","capacityMw":0.0,"country":"TJ","externalIds":{"osm":"way/862520963"},"geographyId":"TJ-86453995B82116761581179","id":"wattlas-plant-osm-way-862520963","lifecycleCounts":{"operational":1},"locationPrecision":"exact","name":"PAMIR-1","operatingCapacityCoverage":{"coveragePercent":0.0,"knownUnitCount":0,"method":"unavailable","totalUnitCount":0},"operatingCapacityMw":0.0,"operatingCapacityMwByTechnology":{},"plannedCapacityCoverage":{"coveragePercent":0.0,"knownUnitCount":0,"method":"unavailable","totalUnitCount":0},"plannedCapacityMw":0.0,"plannedCapacityMwByTechnology":{},"recordCount":1,"recordIds":["wattlas-record-osm-way-862520963"],"sourceIds":["openstreetmap-power"],"sourceUrl":"https://www.openstreetmap.org/way/862520963","technologies":["hydro"],"technologyMixMw":{"hydro":0.0},"unitCount":0,"unitIds":[]},"type":"Feature"},{"geometry":{"coordinates":[70.13405,39.034566],"type":"Point"},"id":"wattlas-plant-osm-way-874824910","properties":{"aliases":["МГЭС \"Санги кар\""],"canonicalAnchor":"osm:way/874824910","canonicalCountryKey":"TJ","capacityMw":1.006,"country":"TJ","externalIds":{"osm":"way/874824910"},"geographyId":"TJ-86453995B89986162039288","id":"wattlas-plant-osm-way-874824910","lifecycleCounts":{"operational":1},"locationPrecision":"exact","name":"МГЭС \"Санги кар\"","operatingCapacityCoverage":{"coveragePercent":100.0,"knownUnitCount":0,"method":"plant_aggregate","provenance":{"evidenceCount":0,"recordIds":["wattlas-record-osm-way-874824910"],"sourceIds":["openstreetmap-power"],"sourceTypes":["community_mapped"],"valueKind":"reported"},"totalUnitCount":0},"operatingCapacityMw":1.006,"operatingCapacityMwByTechnology":{"hydro":1.006},"plannedCapacityCoverage":{"coveragePercent":0.0,"knownUnitCount":0,"method":"unavailable","totalUnitCount":0},"plannedCapacityMw":0.0,"plannedCapacityMwByTechnology":{},"recordCount":1,"recordIds":["wattlas-record-osm-way-874824910"],"sourceIds":["openstreetmap-power"],"sourceUrl":"https://www.openstreetmap.org/way/874824910","technologies":["hydro"],"technologyMixMw":{"hydro":1.006},"unitCount":0,"unitIds":[]},"type":"Feature"},{"geometry":{"coordinates":[68.093327,39.331838],"type":"Point"},"id":"wattlas-plant-osm-way-929612495","properties":{"aliases":["НОБ Артуч"],"canonicalAnchor":"osm:way/929612495","canonicalCountryKey":"TJ","capacityMw":0.0,"country":"TJ","externalIds":{"osm":"way/929612495"},"geographyId":"TJ-86453995B76936784723703","id":"wattlas-plant-osm-way-929612495","lifecycleCounts":{"operational":1},"locationPrecision":"exact","name":"НОБ Артуч","operatingCapacityCoverage":{"coveragePercent":0.0,"knownUnitCount":0,"method":"unavailable","totalUnitCount":0},"operatingCapacityMw":0.0,"operatingCapacityMwByTechnology":{},"plannedCapacityCoverage":{"coveragePercent":0.0,"knownUnitCount":0,"method":"unavailable","totalUnitCount":0},"plannedCapacityMw":0.0,"plannedCapacityMwByTechnology":{},"recordCount":1,"recordIds":["wattlas-record-osm-way-929612495"],"sourceIds":["openstreetmap-power"],"sourceUrl":"https://www.openstreetmap.org/way/929612495","technologies":["hydro"],"technologyMixMw":{"hydro":0.0},"unitCount":0,"unitIds":[]},"type":"Feature"},{"geometry":{"coordinates":[68.931633,38.296626],"type":"Point"},"id":"wattlas-plant-wikidata-q13201574","properties":{"aliases":["Яванская ТЭЦ"],"canonicalAnchor":"wikidata:Q13201574","canonicalCountryKey":"TJ","capacityMw":120.0,"country":"TJ","externalIds":{"osm":"way/946439453","wikidata":"Q13201574"},"geographyId":"TJ-86453995B79808671966952","id":"wattlas-plant-wikidata-q13201574","idAliases":["wattlas-plant-osm-way-946439453"],"lifecycleCounts":{"operational":1},"locationPrecision":"exact","name":"Яванская ТЭЦ","operatingCapacityCoverage":{"coveragePercent":100.0,"knownUnitCount":0,"method":"plant_aggregate","provenance":{"evidenceCount":0,"recordIds":["wattlas-record-osm-way-946439453"],"sourceIds":["openstreetmap-power"],"sourceTypes":["community_mapped"],"valueKind":"reported"},"totalUnitCount":0},"operatingCapacityMw":120.0,"operatingCapacityMwByTechnology":{"gas":120.0},"plannedCapacityCoverage":{"coveragePercent":0.0,"knownUnitCount":0,"method":"unavailable","totalUnitCount":0},"plannedCapacityMw":0.0,"plannedCapacityMwByTechnology":{},"recordCount":1,"recordIds":["wattlas-record-osm-way-946439453"],"sourceIds":["openstreetmap-power"],"sourceUrl":"https://www.openstreetmap.org/way/946439453","technologies":["gas"],"technologyMixMw":{"gas":120.0},"unitCount":0,"unitIds":[]},"type":"Feature"},{"geometry":{"coordinates":[68.776075,37.714114],"type":"Point"},"id":"wattlas-plant-wikidata-q13201727","properties":{"aliases":["НБО Марказӣ"],"canonicalAnchor":"wikidata:Q13201727","canonicalCountryKey":"TJ","capacityMw":15.1,"country":"TJ","externalIds":{"osm":"way/747102639","wikidata":"Q13201727"},"geographyId":"TJ-86453995B79808671966952","id":"wattlas-plant-wikidata-q13201727","idAliases":["wattlas-plant-osm-way-747102639"],"lifecycleCounts":{"operational":1},"locationPrecision":"exact","name":"НБО Марказӣ","operatingCapacityCoverage":{"coveragePercent":100.0,"knownUnitCount":0,"method":"plant_aggregate","provenance":{"evidenceCount":0,"recordIds":["wattlas-record-osm-way-747102639"],"sourceIds":["openstreetmap-power"],"sourceTypes":["community_mapped"],"valueKind":"reported"},"totalUnitCount":0},"operatingCapacityMw":15.1,"operatingCapacityMwByTechnology":{"hydro":15.1},"plannedCapacityCoverage":{"coveragePercent":0.0,"knownUnitCount":0,"method":"unavailable","totalUnitCount":0},"plannedCapacityMw":0.0,"plannedCapacityMwByTechnology":{},"recordCount":1,"recordIds":["wattlas-record-osm-way-747102639"],"sourceIds":["openstreetmap-power"],"sourceUrl":"https://www.openstreetmap.org/way/747102639","technologies":["hydro"],"technologyMixMw":{"hydro":15.1},"unitCount":0,"unitIds":[]},"type":"Feature"},{"geometry":{"coordinates":[68.936936,37.883151],"type":"Point"},"id":"wattlas-plant-wikidata-q13201728","properties":{"aliases":["Неругоҳи барқи обии Сарбанд"],"canonicalAnchor":"wikidata:Q13201728","canonicalCountryKey":"TJ","capacityMw":240.0,"country":"TJ","externalIds":{"osm":"way/751601194","wikidata":"Q13201728","wikipedia":"tg:НБО «Сарбанд»"},"geographyId":"TJ-86453995B79808671966952","id":"wattlas-plant-wikidata-q13201728","idAliases":["wattlas-plant-osm-way-751601194","wattlas-plant-wikipedia-tg"],"lifecycleCounts":{"operational":1},"locationPrecision":"exact","name":"Неругоҳи барқи обии Сарбанд","operatingCapacityCoverage":{"coveragePercent":100.0,"knownUnitCount":0,"method":"plant_aggregate","provenance":{"evidenceCount":0,"recordIds":["wattlas-record-osm-way-751601194"],"sourceIds":["openstreetmap-power"],"sourceTypes":["community_mapped"],"valueKind":"reported"},"totalUnitCount":0},"operatingCapacityMw":240.0,"operatingCapacityMwByTechnology":{"hydro":240.0},"plannedCapacityCoverage":{"coveragePercent":0.0,"knownUnitCount":0,"method":"unavailable","totalUnitCount":0},"plannedCapacityMw":0.0,"plannedCapacityMwByTechnology":{},"recordCount":1,"recordIds":["wattlas-record-osm-way-751601194"],"sourceIds":["openstreetmap-power"],"sourceUrl":"https://www.openstreetmap.org/way/751601194","technologies":["hydro"],"technologyMixMw":{"hydro":240.0},"unitCount":0,"unitIds":[]},"type":"Feature"},{"geometry":{"coordinates":[68.849984,37.722196],"type":"Point"},"id":"wattlas-plant-wikidata-q13201732","properties":{"aliases":["НБО Шаршара"],"canonicalAnchor":"wikidata:Q13201732","canonicalCountryKey":"TJ","capacityMw":29.95,"country":"TJ","externalIds":{"osm":"way/747091027","wikidata":"Q13201732"},"geographyId":"TJ-86453995B79808671966952","id":"wattlas-plant-wikidata-q13201732","idAliases":["wattlas-plant-osm-way-747091027"],"lifecycleCounts":{"operational":1},"locationPrecision":"exact","name":"НБО Шаршара","operatingCapacityCoverage":{"coveragePercent":100.0,"knownUnitCount":0,"method":"plant_aggregate","provenance":{"evidenceCount":0,"recordIds":["wattlas-record-osm-way-747091027"],"sourceIds":["openstreetmap-power"],"sourceTypes":["community_mapped"],"valueKind":"reported"},"totalUnitCount":0},"operatingCapacityMw":29.95,"operatingCapacityMwByTechnology":{"hydro":29.95},"plannedCapacityCoverage":{"coveragePercent":0.0,"knownUnitCount":0,"method":"unavailable","totalUnitCount":0},"plannedCapacityMw":0.0,"plannedCapacityMwByTechnology":{},"recordCount":1,"recordIds":["wattlas-record-osm-way-747091027"],"sourceIds":["openstreetmap-power"],"sourceUrl":"https://www.openstreetmap.org/way/747091027","technologies":["hydro"],"technologyMixMw":{"hydro":29.95},"unitCount":0,"unitIds":[]},"type":"Feature"},{"geometry":{"coordinates":[68.772829,38.609709],"type":"Point"},"id":"wattlas-plant-wikidata-q28669320","properties":{"aliases":["Нерӯгоҳи барқи ҳароратӣ Душанбе 2"],"canonicalAnchor":"wikidata:Q28669320","canonicalCountryKey":"TJ","capacityMw":400.0,"country":"TJ","externalIds":{"osm":"way/486270158","wikidata":"Q28669320"},"geographyId":"TJ-86453995B89986162039288","id":"wattlas-plant-wikidata-q28669320","idAliases":["wattlas-plant-osm-way-486270158"],"lifecycleCounts":{"operational":1},"locationPrecision":"exact","name":"Нерӯгоҳи барқи ҳароратӣ Душанбе 2","operatingCapacityCoverage":{"coveragePercent":100.0,"knownUnitCount":0,"method":"plant_aggregate","provenance":{"evidenceCount":0,"recordIds":["wattlas-record-osm-way-486270158"],"sourceIds":["openstreetmap-power"],"sourceTypes":["community_mapped"],"valueKind":"reported"},"totalUnitCount":0},"operatingCapacityMw":400.0,"operatingCapacityMwByTechnology":{"coal":400.0},"plannedCapacityCoverage":{"coveragePercent":0.0,"knownUnitCount":0,"method":"unavailable","totalUnitCount":0},"plannedCapacityMw":0.0,"plannedCapacityMwByTechnology":{},"recordCount":1,"recordIds":["wattlas-record-osm-way-486270158"],"sourceIds":["openstreetmap-power"],"sourceUrl":"https://www.openstreetmap.org/way/486270158","technologies":["coal"],"technologyMixMw":{"coal":400.0},"unitCount":0,"unitIds":[]},"type":"Feature"},{"geometry":{"coordinates":[69.120293,38.264587],"type":"Point"},"id":"wattlas-plant-wikidata-q4075660","properties":{"aliases":["Нерӯгоҳи барқи обии Бойғозӣ"],"canonicalAnchor":"wikidata:Q4075660","canonicalCountryKey":"TJ","capacityMw":600.0,"country":"TJ","externalIds":{"osm":"way/920625316","wikidata":"Q4075660"},"geographyId":"TJ-86453995B79808671966952","id":"wattlas-plant-wikidata-q4075660","idAliases":["wattlas-plant-osm-way-920625316"],"lifecycleCounts":{"operational":1},"locationPrecision":"exact","name":"Нерӯгоҳи барқи обии Бойғозӣ","operatingCapacityCoverage":{"coveragePercent":100.0,"knownUnitCount":0,"method":"plant_aggregate","provenance":{"evidenceCount":0,"recordIds":["wattlas-record-osm-way-920625316"],"sourceIds":["openstreetmap-power"],"sourceTypes":["community_mapped"],"valueKind":"reported"},"totalUnitCount":0},"operatingCapacityMw":600.0,"operatingCapacityMwByTechnology":{"hydro":600.0},"plannedCapacityCoverage":{"coveragePercent":0.0,"knownUnitCount":0,"method":"unavailable","totalUnitCount":0},"plannedCapacityMw":0.0,"plannedCapacityMwByTechnology":{},"recordCount":1,"recordIds":["wattlas-record-osm-way-920625316"],"sourceIds":["openstreetmap-power"],"sourceUrl":"https://www.openstreetmap.org/way/920625316","technologies":["hydro"],"technologyMixMw":{"hydro":600.0},"unitCount":0,"unitIds":[]},"type":"Feature"},{"geometry":{"coordinates":[71.593437,37.483866],"type":"Point"},"id":"wattlas-plant-wikidata-q4130809","properties":{"aliases":["ГЭС «Хорог»"],"canonicalAnchor":"wikidata:Q4130809","canonicalCountryKey":"TJ","capacityMw":9.0,"country":"TJ","externalIds":{"osm":"way/173273162","wikidata":"Q4130809","wikipedia":"ru:ГЭС «Хорог»"},"geographyId":"TJ-86453995B82116761581179","id":"wattlas-plant-wikidata-q4130809","idAliases":["wattlas-plant-osm-way-173273162"],"lifecycleCounts":{"operational":1},"locationPrecision":"exact","name":"ГЭС «Хорог»","operatingCapacityCoverage":{"coveragePercent":100.0,"knownUnitCount":0,"method":"plant_aggregate","provenance":{"evidenceCount":0,"recordIds":["wattlas-record-osm-way-173273162"],"sourceIds":["openstreetmap-power"],"sourceTypes":["community_mapped"],"valueKind":"reported"},"totalUnitCount":0},"operatingCapacityMw":9.0,"operatingCapacityMwByTechnology":{"hydro":9.0},"plannedCapacityCoverage":{"coveragePercent":0.0,"knownUnitCount":0,"method":"unavailable","totalUnitCount":0},"plannedCapacityMw":0.0,"plannedCapacityMwByTechnology":{},"recordCount":1,"recordIds":["wattlas-record-osm-way-173273162"],"sourceIds":["openstreetmap-power"],"sourceUrl":"https://www.openstreetmap.org/way/173273162","technologies":["hydro"],"technologyMixMw":{"hydro":9.0},"unitCount":0,"unitIds":[]},"type":"Feature"},{"geometry":{"coordinates":[68.777041,38.556928],"type":"Point"},"id":"wattlas-plant-wikidata-q4167542","properties":{"aliases":["Душанбинская ТЭЦ"],"canonicalAnchor":"wikidata:Q4167542","canonicalCountryKey":"TJ","capacityMw":198.0,"country":"TJ","externalIds":{"osm":"way/29732261","wikidata":"Q4167542","wikipedia":"ru:Душанбинская ТЭЦ"},"geographyId":"TJ-86453995B94288483398487","id":"wattlas-plant-wikidata-q4167542","idAliases":["wattlas-plant-osm-way-29732261"],"lifecycleCounts":{"operational":1},"locationPrecision":"exact","name":"Душанбинская ТЭЦ","operatingCapacityCoverage":{"coveragePercent":100.0,"knownUnitCount":0,"method":"plant_aggregate","provenance":{"evidenceCount":0,"recordIds":["wattlas-record-osm-way-29732261"],"sourceIds":["openstreetmap-power"],"sourceTypes":["community_mapped"],"valueKind":"reported"},"totalUnitCount":0},"operatingCapacityMw":198.0,"operatingCapacityMwByTechnology":{"gas":198.0},"plannedCapacityCoverage":{"coveragePercent":0.0,"knownUnitCount":0,"method":"unavailable","totalUnitCount":0},"plannedCapacityMw":0.0,"plannedCapacityMwByTechnology":{},"recordCount":1,"recordIds":["wattlas-record-osm-way-29732261"],"sourceIds":["openstreetmap-power"],"sourceUrl":"https://www.openstreetmap.org/way/29732261","technologies":["gas"],"technologyMixMw":{"gas":198.0},"unitCount":0,"unitIds":[]},"type":"Feature"},{"geometry":{"coordinates":[69.815076,40.276093],"type":"Point"},"id":"wattlas-plant-wikidata-q4208702","properties":{"aliases":["ГЭС дружба народов"],"canonicalAnchor":"wikidata:Q4208702","canonicalCountryKey":"TJ","capacityMw":126.0,"country":"TJ","externalIds":{"osm":"way/1323462411","wikidata":"Q4208702","wikipedia":"en:Kayrakkum Dam"},"geographyId":"TJ-86453995B76936784723703","id":"wattlas-plant-wikidata-q4208702","idAliases":["wattlas-plant-osm-way-1323462411","wattlas-plant-wikipedia-en-kayrakkum-dam"],"lifecycleCounts":{"operational":1},"locationPrecision":"exact","name":"ГЭС дружба народов","operatingCapacityCoverage":{"coveragePercent":100.0,"knownUnitCount":0,"method":"plant_aggregate","provenance":{"evidenceCount":0,"recordIds":["wattlas-record-osm-way-1323462411"],"sourceIds":["openstreetmap-power"],"sourceTypes":["community_mapped"],"valueKind":"reported"},"totalUnitCount":0},"operatingCapacityMw":126.0,"operatingCapacityMwByTechnology":{"hydro":126.0},"plannedCapacityCoverage":{"coveragePercent":0.0,"knownUnitCount":0,"method":"unavailable","totalUnitCount":0},"plannedCapacityMw":0.0,"plannedCapacityMwByTechnology":{},"recordCount":1,"recordIds":["wattlas-record-osm-way-1323462411"],"sourceIds":["openstreetmap-power"],"sourceUrl":"https://www.openstreetmap.org/way/1323462411","technologies":["hydro"],"technologyMixMw":{"hydro":126.0},"unitCount":0,"unitIds":[]},"type":"Feature"},{"geometry":{"coordinates":[69.060013,38.046211],"type":"Point"},"id":"wattlas-plant-wikidata-q4407479","properties":{"aliases":["Нерӯгоҳи барқи обии Сангтӯда-1"],"canonicalAnchor":"wikidata:Q4407479","canonicalCountryKey":"TJ","capacityMw":670.0,"country":"TJ","externalIds":{"osm":"way/1016951698","wikidata":"Q4407479"},"geographyId":"TJ-86453995B79808671966952","id":"wattlas-plant-wikidata-q4407479","idAliases":["wattlas-plant-osm-way-1016951698"],"lifecycleCounts":{"operational":1},"locationPrecision":"exact","name":"Нерӯгоҳи барқи обии Сангтӯда-1","operatingCapacityCoverage":{"coveragePercent":100.0,"knownUnitCount":0,"method":"plant_aggregate","provenance":{"evidenceCount":0,"recordIds":["wattlas-record-osm-way-1016951698"],"sourceIds":["openstreetmap-power"],"sourceTypes":["community_mapped"],"valueKind":"reported"},"totalUnitCount":0},"operatingCapacityMw":670.0,"operatingCapacityMwByTechnology":{"hydro":670.0},"plannedCapacityCoverage":{"coveragePercent":0.0,"knownUnitCount":0,"method":"unavailable","totalUnitCount":0},"plannedCapacityMw":0.0,"plannedCapacityMwByTechnology":{},"recordCount":1,"recordIds":["wattlas-record-osm-way-1016951698"],"sourceIds":["openstreetmap-power"],"sourceUrl":"https://www.openstreetmap.org/way/1016951698","technologies":["hydro"],"technologyMixMw":{"hydro":670.0},"unitCount":0,"unitIds":[]},"type":"Feature"},{"geometry":{"coordinates":[69.027505,37.969374],"type":"Point"},"id":"wattlas-plant-wikidata-q4407480","properties":{"aliases":["Нерӯгоҳи барқи обии Сангтӯда-2"],"canonicalAnchor":"wikidata:Q4407480","canonicalCountryKey":"TJ","capacityMw":220.0,"country":"TJ","externalIds":{"osm":"way/1016951697","wikidata":"Q4407480"},"geographyId":"TJ-86453995B79808671966952","id":"wattlas-plant-wikidata-q4407480","idAliases":["wattlas-plant-osm-way-1016951697"],"lifecycleCounts":{"operational":1},"locationPrecision":"exact","name":"Нерӯгоҳи барқи обии Сангтӯда-2","operatingCapacityCoverage":{"coveragePercent":100.0,"knownUnitCount":0,"method":"plant_aggregate","provenance":{"evidenceCount":0,"recordIds":["wattlas-record-osm-way-1016951697"],"sourceIds":["openstreetmap-power"],"sourceTypes":["community_mapped"],"valueKind":"reported"},"totalUnitCount":0},"operatingCapacityMw":220.0,"operatingCapacityMwByTechnology":{"hydro":220.0},"plannedCapacityCoverage":{"coveragePercent":0.0,"knownUnitCount":0,"method":"unavailable","totalUnitCount":0},"plannedCapacityMw":0.0,"plannedCapacityMwByTechnology":{},"recordCount":1,"recordIds":["wattlas-record-osm-way-1016951697"],"sourceIds":["openstreetmap-power"],"sourceUrl":"https://www.openstreetmap.org/way/1016951697","technologies":["hydro"],"technologyMixMw":{"hydro":220.0},"unitCount":0,"unitIds":[]},"type":"Feature"},{"geometry":{"coordinates":[69.349828,38.379276],"type":"Point"},"id":"wattlas-plant-wikidata-q913334","properties":{"aliases":["Нурекская ГЭС"],"canonicalAnchor":"wikidata:Q913334","canonicalCountryKey":"TJ","capacityMw":3000.0,"country":"TJ","externalIds":{"osm":"way/441401045","wikidata":"Q913334","wikipedia":"en:Nurek Dam"},"geographyId":"TJ-86453995B89986162039288","id":"wattlas-plant-wikidata-q913334","idAliases":["wattlas-plant-osm-way-441401045","wattlas-plant-wikipedia-en-nurek-dam"],"lifecycleCounts":{"operational":1},"locationPrecision":"exact","name":"Нурекская ГЭС","operatingCapacityCoverage":{"coveragePercent":100.0,"knownUnitCount":0,"method":"plant_aggregate","provenance":{"evidenceCount":0,"recordIds":["wattlas-record-osm-way-441401045"],"sourceIds":["openstreetmap-power"],"sourceTypes":["community_mapped"],"valueKind":"reported"},"totalUnitCount":0},"operatingCapacityMw":3000.0,"operatingCapacityMwByTechnology":{"hydro":3000.0},"plannedCapacityCoverage":{"coveragePercent":0.0,"knownUnitCount":0,"method":"unavailable","totalUnitCount":0},"plannedCapacityMw":0.0,"plannedCapacityMwByTechnology":{},"recordCount":1,"recordIds":["wattlas-record-osm-way-441401045"],"sourceIds":["openstreetmap-power"],"sourceUrl":"https://www.openstreetmap.org/way/441401045","technologies":["hydro"],"technologyMixMw":{"hydro":3000.0},"unitCount":0,"unitIds":[]},"type":"Feature"}],"type":"FeatureCollection"}