{"features":[{"geometry":{"coordinates":[-175.0353,-21.1533],"type":"Point"},"id":"wattlas-plant-gemplant-l100001020685","properties":{"aliases":["1.0","Manumataongo wind farm"],"canonicalAnchor":"gemplant:L100001020685","canonicalCountryKey":"TO","capacityMw":1.4,"country":"TO","externalIds":{"gemPlant":"L100001020685","gemUnit":"G100001023595"},"gemWikiUrl":"https://www.gem.wiki/Manumataongo_wind_farm","geographyId":"TO-12702645B50986277851262","id":"wattlas-plant-gemplant-l100001020685","lifecycleCounts":{"operational":1},"locationPrecision":"exact","name":"Manumataongo wind farm","operatingCapacityCoverage":{"coveragePercent":100.0,"knownUnitCount":1,"method":"complete_unit_sum","provenance":{"evidenceCount":0,"recordIds":["wattlas-record-gemunit-g100001023595"],"sourceIds":["gem-global-integrated-power-tracker"],"sourceTypes":["research_verified"],"valueKind":"reported"},"totalUnitCount":1},"operatingCapacityMw":1.4,"operatingCapacityMwByTechnology":{"wind":1.4},"plannedCapacityCoverage":{"coveragePercent":0.0,"knownUnitCount":0,"method":"unavailable","totalUnitCount":0},"plannedCapacityMw":0.0,"plannedCapacityMwByTechnology":{},"recordCount":1,"recordIds":["wattlas-record-gemunit-g100001023595"],"sourceIds":["gem-global-integrated-power-tracker"],"sourceUrl":"https://www.gem.wiki/Manumataongo_wind_farm","technologies":["wind"],"technologyMixMw":{"wind":1.4},"unitCount":1,"unitIds":["gem-unit-G100001023595"]},"type":"Feature"},{"geometry":{"coordinates":[-175.035002,-21.153371],"type":"Point"},"id":"wattlas-plant-osm-relation-15464020","properties":{"aliases":["Manumataongo Wind Farm"],"canonicalAnchor":"osm:relation/15464020","canonicalCountryKey":"TO","capacityMw":0.0,"country":"TO","externalIds":{"osm":"relation/15464020"},"geographyId":"TO-12702645B50986277851262","id":"wattlas-plant-osm-relation-15464020","lifecycleCounts":{"operational":1},"locationPrecision":"exact","name":"Manumataongo Wind Farm","operatingCapacityCoverage":{"coveragePercent":0.0,"knownUnitCount":0,"method":"unavailable","totalUnitCount":0},"operatingCapacityMw":0.0,"operatingCapacityMwByTechnology":{},"plannedCapacityCoverage":{"coveragePercent":0.0,"knownUnitCount":0,"method":"unavailable","totalUnitCount":0},"plannedCapacityMw":0.0,"plannedCapacityMwByTechnology":{},"recordCount":1,"recordIds":["wattlas-record-osm-relation-15464020"],"sourceIds":["openstreetmap-power"],"sourceUrl":"https://www.openstreetmap.org/relation/15464020","technologies":["wind"],"technologyMixMw":{"wind":0.0},"unitCount":0,"unitIds":[]},"type":"Feature"}],"type":"FeatureCollection"}