{"features":[{"geometry":{"coordinates":[73.441347,41.770902],"type":"Point"},"id":"wattlas-plant-osm-node-2632730997","properties":{"aliases":["Камбаратинская ГЭС-1"],"canonicalAnchor":"osm:node/2632730997","canonicalCountryKey":"KG","capacityMw":0.0,"country":"KG","externalIds":{"osm":"node/2632730997"},"geographyId":"KG-38789647B85532999857943","id":"wattlas-plant-osm-node-2632730997","lifecycleCounts":{"announced":1},"locationPrecision":"exact","name":"Камбаратинская ГЭС-1","operatingCapacityCoverage":{"coveragePercent":0.0,"knownUnitCount":0,"method":"unavailable","totalUnitCount":0},"operatingCapacityMw":0.0,"operatingCapacityMwByTechnology":{},"plannedCapacityCoverage":{"coveragePercent":0.0,"knownUnitCount":0,"method":"unavailable","totalUnitCount":0},"plannedCapacityMw":0.0,"plannedCapacityMwByTechnology":{},"recordCount":1,"recordIds":["wattlas-record-osm-node-2632730997"],"sourceIds":["openstreetmap-power"],"technologies":["other"],"technologyMixMw":{"other":0.0},"unitCount":0,"unitIds":[]},"type":"Feature"},{"geometry":{"coordinates":[73.061892,40.769329],"type":"Point"},"id":"wattlas-plant-osm-way-1161599341","properties":{"aliases":["Андижанская ГЭС"],"canonicalAnchor":"osm:way/1161599341","canonicalCountryKey":"KG","capacityMw":0.0,"country":"KG","externalIds":{"osm":"way/1161599341"},"geographyId":"KG-38789647B74878035894071","id":"wattlas-plant-osm-way-1161599341","lifecycleCounts":{"operational":1},"locationPrecision":"exact","name":"Андижанская ГЭС","operatingCapacityCoverage":{"coveragePercent":0.0,"knownUnitCount":0,"method":"unavailable","totalUnitCount":0},"operatingCapacityMw":0.0,"operatingCapacityMwByTechnology":{},"plannedCapacityCoverage":{"coveragePercent":0.0,"knownUnitCount":0,"method":"unavailable","totalUnitCount":0},"plannedCapacityMw":0.0,"plannedCapacityMwByTechnology":{},"recordCount":1,"recordIds":["wattlas-record-osm-way-1161599341"],"sourceIds":["openstreetmap-power"],"technologies":["hydro"],"technologyMixMw":{"hydro":0.0},"unitCount":0,"unitIds":[]},"type":"Feature"},{"geometry":{"coordinates":[72.088172,40.016367],"type":"Point"},"id":"wattlas-plant-osm-way-1359386364","properties":{"aliases":["Исфайрам МГЭС"],"canonicalAnchor":"osm:way/1359386364","canonicalCountryKey":"KG","capacityMw":0.0,"country":"KG","externalIds":{"osm":"way/1359386364"},"geographyId":"KG-38789647B43528262636538","id":"wattlas-plant-osm-way-1359386364","lifecycleCounts":{"operational":1},"locationPrecision":"exact","name":"Исфайрам МГЭС","operatingCapacityCoverage":{"coveragePercent":0.0,"knownUnitCount":0,"method":"unavailable","totalUnitCount":0},"operatingCapacityMw":0.0,"operatingCapacityMwByTechnology":{},"plannedCapacityCoverage":{"coveragePercent":0.0,"knownUnitCount":0,"method":"unavailable","totalUnitCount":0},"plannedCapacityMw":0.0,"plannedCapacityMwByTechnology":{},"recordCount":1,"recordIds":["wattlas-record-osm-way-1359386364"],"sourceIds":["openstreetmap-power"],"technologies":["hydro"],"technologyMixMw":{"hydro":0.0},"unitCount":0,"unitIds":[]},"type":"Feature"},{"geometry":{"coordinates":[74.592164,42.978309],"type":"Point"},"id":"wattlas-plant-osm-way-1395911511","properties":{"aliases":["Мусоросжигательный завод"],"canonicalAnchor":"osm:way/1395911511","canonicalCountryKey":"KG","capacityMw":460.0,"country":"KG","externalIds":{"osm":"way/1395911511"},"geographyId":"KG-38789647B49701521312730","id":"wattlas-plant-osm-way-1395911511","lifecycleCounts":{"operational":1},"locationPrecision":"exact","name":"Мусоросжигательный завод","operatingCapacityCoverage":{"coveragePercent":100.0,"knownUnitCount":0,"method":"plant_aggregate","provenance":{"evidenceCount":0,"recordIds":["wattlas-record-osm-way-1395911511"],"sourceIds":["openstreetmap-power"],"sourceTypes":["community_mapped"],"valueKind":"reported"},"totalUnitCount":0},"operatingCapacityMw":460.0,"operatingCapacityMwByTechnology":{"other":460.0},"plannedCapacityCoverage":{"coveragePercent":0.0,"knownUnitCount":0,"method":"unavailable","totalUnitCount":0},"plannedCapacityMw":0.0,"plannedCapacityMwByTechnology":{},"recordCount":1,"recordIds":["wattlas-record-osm-way-1395911511"],"sourceIds":["openstreetmap-power"],"technologies":["other"],"technologyMixMw":{"other":460.0},"unitCount":0,"unitIds":[]},"type":"Feature"},{"geometry":{"coordinates":[74.592248,42.978177],"type":"Point"},"id":"wattlas-plant-osm-way-1432258729","properties":{"aliases":["Мусоросжигательный завод"],"canonicalAnchor":"osm:way/1432258729","canonicalCountryKey":"KG","capacityMw":460.0,"country":"KG","externalIds":{"osm":"way/1432258729"},"geographyId":"KG-38789647B49701521312730","id":"wattlas-plant-osm-way-1432258729","lifecycleCounts":{"operational":1},"locationPrecision":"exact","name":"Мусоросжигательный завод","operatingCapacityCoverage":{"coveragePercent":100.0,"knownUnitCount":0,"method":"plant_aggregate","provenance":{"evidenceCount":0,"recordIds":["wattlas-record-osm-way-1432258729"],"sourceIds":["openstreetmap-power"],"sourceTypes":["community_mapped"],"valueKind":"reported"},"totalUnitCount":0},"operatingCapacityMw":460.0,"operatingCapacityMwByTechnology":{"other":460.0},"plannedCapacityCoverage":{"coveragePercent":0.0,"knownUnitCount":0,"method":"unavailable","totalUnitCount":0},"plannedCapacityMw":0.0,"plannedCapacityMwByTechnology":{},"recordCount":1,"recordIds":["wattlas-record-osm-way-1432258729"],"sourceIds":["openstreetmap-power"],"technologies":["other"],"technologyMixMw":{"other":460.0},"unitCount":0,"unitIds":[]},"type":"Feature"},{"geometry":{"coordinates":[75.852306,42.727876],"type":"Point"},"id":"wattlas-plant-osm-way-1448255940","properties":{"aliases":["СЭС \"Этернал Энергия\""],"canonicalAnchor":"osm:way/1448255940","canonicalCountryKey":"KG","capacityMw":100.0,"country":"KG","externalIds":{"osm":"way/1448255940"},"geographyId":"KG-38789647B49701521312730","id":"wattlas-plant-osm-way-1448255940","lifecycleCounts":{"operational":1},"locationPrecision":"exact","name":"СЭС \"Этернал Энергия\"","operatingCapacityCoverage":{"coveragePercent":100.0,"knownUnitCount":0,"method":"plant_aggregate","provenance":{"evidenceCount":0,"recordIds":["wattlas-record-osm-way-1448255940"],"sourceIds":["openstreetmap-power"],"sourceTypes":["community_mapped"],"valueKind":"reported"},"totalUnitCount":0},"operatingCapacityMw":100.0,"operatingCapacityMwByTechnology":{"solar":100.0},"plannedCapacityCoverage":{"coveragePercent":0.0,"knownUnitCount":0,"method":"unavailable","totalUnitCount":0},"plannedCapacityMw":0.0,"plannedCapacityMwByTechnology":{},"recordCount":1,"recordIds":["wattlas-record-osm-way-1448255940"],"sourceIds":["openstreetmap-power"],"technologies":["solar"],"technologyMixMw":{"solar":100.0},"unitCount":0,"unitIds":[]},"type":"Feature"},{"geometry":{"coordinates":[76.011571,42.340293],"type":"Point"},"id":"wattlas-plant-osm-way-1470801656","properties":{"aliases":["ГЭС Орто-Токой"],"canonicalAnchor":"osm:way/1470801656","canonicalCountryKey":"KG","capacityMw":21.0,"country":"KG","externalIds":{"osm":"way/1470801656"},"geographyId":"KG-38789647B68189783551847","id":"wattlas-plant-osm-way-1470801656","lifecycleCounts":{"operational":1},"locationPrecision":"exact","name":"ГЭС Орто-Токой","operatingCapacityCoverage":{"coveragePercent":100.0,"knownUnitCount":0,"method":"plant_aggregate","provenance":{"evidenceCount":0,"recordIds":["wattlas-record-osm-way-1470801656"],"sourceIds":["openstreetmap-power"],"sourceTypes":["community_mapped"],"valueKind":"reported"},"totalUnitCount":0},"operatingCapacityMw":21.0,"operatingCapacityMwByTechnology":{"hydro":21.0},"plannedCapacityCoverage":{"coveragePercent":0.0,"knownUnitCount":0,"method":"unavailable","totalUnitCount":0},"plannedCapacityMw":0.0,"plannedCapacityMwByTechnology":{},"recordCount":1,"recordIds":["wattlas-record-osm-way-1470801656"],"sourceIds":["openstreetmap-power"],"technologies":["hydro"],"technologyMixMw":{"hydro":21.0},"unitCount":0,"unitIds":[]},"type":"Feature"},{"geometry":{"coordinates":[74.003355,42.682525],"type":"Point"},"id":"wattlas-plant-osm-way-1470801657","properties":{"aliases":["Maryam"],"canonicalAnchor":"osm:way/1470801657","canonicalCountryKey":"KG","capacityMw":0.0,"country":"KG","externalIds":{"osm":"way/1470801657"},"geographyId":"KG-38789647B49701521312730","id":"wattlas-plant-osm-way-1470801657","lifecycleCounts":{"operational":1},"locationPrecision":"exact","name":"Maryam","operatingCapacityCoverage":{"coveragePercent":0.0,"knownUnitCount":0,"method":"unavailable","totalUnitCount":0},"operatingCapacityMw":0.0,"operatingCapacityMwByTechnology":{},"plannedCapacityCoverage":{"coveragePercent":0.0,"knownUnitCount":0,"method":"unavailable","totalUnitCount":0},"plannedCapacityMw":0.0,"plannedCapacityMwByTechnology":{},"recordCount":1,"recordIds":["wattlas-record-osm-way-1470801657"],"sourceIds":["openstreetmap-power"],"technologies":["hydro"],"technologyMixMw":{"hydro":0.0},"unitCount":0,"unitIds":[]},"type":"Feature"},{"geometry":{"coordinates":[75.510519,41.380978],"type":"Point"},"id":"wattlas-plant-osm-way-1473936818","properties":{"aliases":["Qulanaq HPP"],"canonicalAnchor":"osm:way/1473936818","canonicalCountryKey":"KG","capacityMw":100.0,"country":"KG","externalIds":{"osm":"way/1473936818"},"geographyId":"KG-38789647B68189783551847","id":"wattlas-plant-osm-way-1473936818","lifecycleCounts":{"operational":1},"locationPrecision":"exact","name":"Qulanaq HPP","operatingCapacityCoverage":{"coveragePercent":100.0,"knownUnitCount":0,"method":"plant_aggregate","provenance":{"evidenceCount":0,"recordIds":["wattlas-record-osm-way-1473936818"],"sourceIds":["openstreetmap-power"],"sourceTypes":["community_mapped"],"valueKind":"reported"},"totalUnitCount":0},"operatingCapacityMw":100.0,"operatingCapacityMwByTechnology":{"hydro":100.0},"plannedCapacityCoverage":{"coveragePercent":0.0,"knownUnitCount":0,"method":"unavailable","totalUnitCount":0},"plannedCapacityMw":0.0,"plannedCapacityMwByTechnology":{},"recordCount":1,"recordIds":["wattlas-record-osm-way-1473936818"],"sourceIds":["openstreetmap-power"],"technologies":["hydro"],"technologyMixMw":{"hydro":100.0},"unitCount":0,"unitIds":[]},"type":"Feature"},{"geometry":{"coordinates":[72.224815,41.398877],"type":"Point"},"id":"wattlas-plant-osm-way-1492720141","properties":{"aliases":["СЭС Таш-Көмүр"],"canonicalAnchor":"osm:way/1492720141","canonicalCountryKey":"KG","capacityMw":0.0,"country":"KG","externalIds":{"osm":"way/1492720141"},"geographyId":"KG-38789647B85532999857943","id":"wattlas-plant-osm-way-1492720141","lifecycleCounts":{"operational":1},"locationPrecision":"exact","name":"СЭС Таш-Көмүр","operatingCapacityCoverage":{"coveragePercent":0.0,"knownUnitCount":0,"method":"unavailable","totalUnitCount":0},"operatingCapacityMw":0.0,"operatingCapacityMwByTechnology":{},"plannedCapacityCoverage":{"coveragePercent":0.0,"knownUnitCount":0,"method":"unavailable","totalUnitCount":0},"plannedCapacityMw":0.0,"plannedCapacityMwByTechnology":{},"recordCount":1,"recordIds":["wattlas-record-osm-way-1492720141"],"sourceIds":["openstreetmap-power"],"technologies":["solar"],"technologyMixMw":{"solar":0.0},"unitCount":0,"unitIds":[]},"type":"Feature"},{"geometry":{"coordinates":[74.232243,42.615945],"type":"Point"},"id":"wattlas-plant-osm-way-1501668609","properties":{"aliases":["ГЭС «Сокулук-3»"],"canonicalAnchor":"osm:way/1501668609","canonicalCountryKey":"KG","capacityMw":9.7,"country":"KG","externalIds":{"osm":"way/1501668609"},"geographyId":"KG-38789647B49701521312730","id":"wattlas-plant-osm-way-1501668609","lifecycleCounts":{"operational":1},"locationPrecision":"exact","name":"ГЭС «Сокулук-3»","operatingCapacityCoverage":{"coveragePercent":100.0,"knownUnitCount":0,"method":"plant_aggregate","provenance":{"evidenceCount":0,"recordIds":["wattlas-record-osm-way-1501668609"],"sourceIds":["openstreetmap-power"],"sourceTypes":["community_mapped"],"valueKind":"reported"},"totalUnitCount":0},"operatingCapacityMw":9.7,"operatingCapacityMwByTechnology":{"hydro":9.7},"plannedCapacityCoverage":{"coveragePercent":0.0,"knownUnitCount":0,"method":"unavailable","totalUnitCount":0},"plannedCapacityMw":0.0,"plannedCapacityMwByTechnology":{},"recordCount":1,"recordIds":["wattlas-record-osm-way-1501668609"],"sourceIds":["openstreetmap-power"],"technologies":["hydro"],"technologyMixMw":{"hydro":9.7},"unitCount":0,"unitIds":[]},"type":"Feature"},{"geometry":{"coordinates":[74.228843,42.571198],"type":"Point"},"id":"wattlas-plant-osm-way-1501669026","properties":{"aliases":["ГЭС «Туюк»"],"canonicalAnchor":"osm:way/1501669026","canonicalCountryKey":"KG","capacityMw":5.9,"country":"KG","externalIds":{"osm":"way/1501669026"},"geographyId":"KG-38789647B49701521312730","id":"wattlas-plant-osm-way-1501669026","lifecycleCounts":{"operational":1},"locationPrecision":"exact","name":"ГЭС «Туюк»","operatingCapacityCoverage":{"coveragePercent":100.0,"knownUnitCount":0,"method":"plant_aggregate","provenance":{"evidenceCount":0,"recordIds":["wattlas-record-osm-way-1501669026"],"sourceIds":["openstreetmap-power"],"sourceTypes":["community_mapped"],"valueKind":"reported"},"totalUnitCount":0},"operatingCapacityMw":5.9,"operatingCapacityMwByTechnology":{"hydro":5.9},"plannedCapacityCoverage":{"coveragePercent":0.0,"knownUnitCount":0,"method":"unavailable","totalUnitCount":0},"plannedCapacityMw":0.0,"plannedCapacityMwByTechnology":{},"recordCount":1,"recordIds":["wattlas-record-osm-way-1501669026"],"sourceIds":["openstreetmap-power"],"technologies":["hydro"],"technologyMixMw":{"hydro":5.9},"unitCount":0,"unitIds":[]},"type":"Feature"},{"geometry":{"coordinates":[76.379271,42.519536],"type":"Point"},"id":"wattlas-plant-osm-way-1529680325","properties":{"aliases":["СЭС ROX Фаза I"],"canonicalAnchor":"osm:way/1529680325","canonicalCountryKey":"KG","capacityMw":175.0,"country":"KG","externalIds":{"osm":"way/1529680325"},"geographyId":"KG-38789647B57762434555293","id":"wattlas-plant-osm-way-1529680325","lifecycleCounts":{"operational":1},"locationPrecision":"exact","name":"СЭС ROX Фаза I","operatingCapacityCoverage":{"coveragePercent":100.0,"knownUnitCount":0,"method":"plant_aggregate","provenance":{"evidenceCount":0,"recordIds":["wattlas-record-osm-way-1529680325"],"sourceIds":["openstreetmap-power"],"sourceTypes":["community_mapped"],"valueKind":"reported"},"totalUnitCount":0},"operatingCapacityMw":175.0,"operatingCapacityMwByTechnology":{"solar":175.0},"plannedCapacityCoverage":{"coveragePercent":0.0,"knownUnitCount":0,"method":"unavailable","totalUnitCount":0},"plannedCapacityMw":0.0,"plannedCapacityMwByTechnology":{},"recordCount":1,"recordIds":["wattlas-record-osm-way-1529680325"],"sourceIds":["openstreetmap-power"],"technologies":["solar"],"technologyMixMw":{"solar":175.0},"unitCount":0,"unitIds":[]},"type":"Feature"},{"geometry":{"coordinates":[76.468651,42.532495],"type":"Point"},"id":"wattlas-plant-osm-way-1529689610","properties":{"aliases":["СЭС «Бишкек Солар» Фаза I"],"canonicalAnchor":"osm:way/1529689610","canonicalCountryKey":"KG","capacityMw":100.0,"country":"KG","externalIds":{"osm":"way/1529689610"},"geographyId":"KG-38789647B57762434555293","id":"wattlas-plant-osm-way-1529689610","lifecycleCounts":{"operational":1},"locationPrecision":"exact","name":"СЭС «Бишкек Солар» Фаза I","operatingCapacityCoverage":{"coveragePercent":100.0,"knownUnitCount":0,"method":"plant_aggregate","provenance":{"evidenceCount":0,"recordIds":["wattlas-record-osm-way-1529689610"],"sourceIds":["openstreetmap-power"],"sourceTypes":["community_mapped"],"valueKind":"reported"},"totalUnitCount":0},"operatingCapacityMw":100.0,"operatingCapacityMwByTechnology":{"solar":100.0},"plannedCapacityCoverage":{"coveragePercent":0.0,"knownUnitCount":0,"method":"unavailable","totalUnitCount":0},"plannedCapacityMw":0.0,"plannedCapacityMwByTechnology":{},"recordCount":1,"recordIds":["wattlas-record-osm-way-1529689610"],"sourceIds":["openstreetmap-power"],"technologies":["solar"],"technologyMixMw":{"solar":100.0},"unitCount":0,"unitIds":[]},"type":"Feature"},{"geometry":{"coordinates":[71.598028,42.667829],"type":"Point"},"id":"wattlas-plant-osm-way-1531786812","properties":{"aliases":["ГЕС Бала-Саруу"],"canonicalAnchor":"osm:way/1531786812","canonicalCountryKey":"KG","capacityMw":25.0,"country":"KG","externalIds":{"osm":"way/1531786812"},"geographyId":"KG-38789647B46237219042962","id":"wattlas-plant-osm-way-1531786812","lifecycleCounts":{"operational":1},"locationPrecision":"exact","name":"ГЕС Бала-Саруу","operatingCapacityCoverage":{"coveragePercent":100.0,"knownUnitCount":0,"method":"plant_aggregate","provenance":{"evidenceCount":0,"recordIds":["wattlas-record-osm-way-1531786812"],"sourceIds":["openstreetmap-power"],"sourceTypes":["community_mapped"],"valueKind":"reported"},"totalUnitCount":0},"operatingCapacityMw":25.0,"operatingCapacityMwByTechnology":{"hydro":25.0},"plannedCapacityCoverage":{"coveragePercent":0.0,"knownUnitCount":0,"method":"unavailable","totalUnitCount":0},"plannedCapacityMw":0.0,"plannedCapacityMwByTechnology":{},"recordCount":1,"recordIds":["wattlas-record-osm-way-1531786812"],"sourceIds":["openstreetmap-power"],"technologies":["hydro"],"technologyMixMw":{"hydro":25.0},"unitCount":0,"unitIds":[]},"type":"Feature"},{"geometry":{"coordinates":[75.749142,42.781436],"type":"Point"},"id":"wattlas-plant-osm-way-169428515","properties":{"aliases":["ГЭС"],"canonicalAnchor":"osm:way/169428515","canonicalCountryKey":"KG","capacityMw":0.0,"country":"KG","externalIds":{"osm":"way/169428515"},"geographyId":"KG-38789647B49701521312730","id":"wattlas-plant-osm-way-169428515","lifecycleCounts":{"operational":1},"locationPrecision":"exact","name":"ГЭС","operatingCapacityCoverage":{"coveragePercent":0.0,"knownUnitCount":0,"method":"unavailable","totalUnitCount":0},"operatingCapacityMw":0.0,"operatingCapacityMwByTechnology":{},"plannedCapacityCoverage":{"coveragePercent":0.0,"knownUnitCount":0,"method":"unavailable","totalUnitCount":0},"plannedCapacityMw":0.0,"plannedCapacityMwByTechnology":{},"recordCount":1,"recordIds":["wattlas-record-osm-way-169428515"],"sourceIds":["openstreetmap-power"],"technologies":["hydro"],"technologyMixMw":{"hydro":0.0},"unitCount":0,"unitIds":[]},"type":"Feature"},{"geometry":{"coordinates":[74.688209,42.995278],"type":"Point"},"id":"wattlas-plant-osm-way-178115451","properties":{"aliases":["Alamedin small HPP"],"canonicalAnchor":"osm:way/178115451","canonicalCountryKey":"KG","capacityMw":0.0,"country":"KG","externalIds":{"osm":"way/178115451"},"geographyId":"KG-38789647B49701521312730","id":"wattlas-plant-osm-way-178115451","lifecycleCounts":{"operational":1},"locationPrecision":"exact","name":"Alamedin small HPP","operatingCapacityCoverage":{"coveragePercent":0.0,"knownUnitCount":0,"method":"unavailable","totalUnitCount":0},"operatingCapacityMw":0.0,"operatingCapacityMwByTechnology":{},"plannedCapacityCoverage":{"coveragePercent":0.0,"knownUnitCount":0,"method":"unavailable","totalUnitCount":0},"plannedCapacityMw":0.0,"plannedCapacityMwByTechnology":{},"recordCount":1,"recordIds":["wattlas-record-osm-way-178115451"],"sourceIds":["openstreetmap-power"],"technologies":["hydro"],"technologyMixMw":{"hydro":0.0},"unitCount":0,"unitIds":[]},"type":"Feature"},{"geometry":{"coordinates":[74.697475,42.875479],"type":"Point"},"id":"wattlas-plant-osm-way-178594213","properties":{"aliases":["Лебединовская ГЭС"],"canonicalAnchor":"osm:way/178594213","canonicalCountryKey":"KG","capacityMw":7.6,"country":"KG","externalIds":{"osm":"way/178594213"},"geographyId":"KG-38789647B49701521312730","id":"wattlas-plant-osm-way-178594213","lifecycleCounts":{"operational":1},"locationPrecision":"exact","name":"Лебединовская ГЭС","operatingCapacityCoverage":{"coveragePercent":100.0,"knownUnitCount":0,"method":"plant_aggregate","provenance":{"evidenceCount":0,"recordIds":["wattlas-record-osm-way-178594213"],"sourceIds":["openstreetmap-power"],"sourceTypes":["community_mapped"],"valueKind":"reported"},"totalUnitCount":0},"operatingCapacityMw":7.6,"operatingCapacityMwByTechnology":{"hydro":7.6},"plannedCapacityCoverage":{"coveragePercent":0.0,"knownUnitCount":0,"method":"unavailable","totalUnitCount":0},"plannedCapacityMw":0.0,"plannedCapacityMwByTechnology":{},"recordCount":1,"recordIds":["wattlas-record-osm-way-178594213"],"sourceIds":["openstreetmap-power"],"technologies":["hydro"],"technologyMixMw":{"hydro":7.6},"unitCount":0,"unitIds":[]},"type":"Feature"},{"geometry":{"coordinates":[73.896513,42.639623],"type":"Point"},"id":"wattlas-plant-osm-way-234739411","properties":{"aliases":["Issyk-Ata"],"canonicalAnchor":"osm:way/234739411","canonicalCountryKey":"KG","capacityMw":0.0,"country":"KG","externalIds":{"osm":"way/234739411"},"geographyId":"KG-38789647B49701521312730","id":"wattlas-plant-osm-way-234739411","lifecycleCounts":{"operational":1},"locationPrecision":"exact","name":"Issyk-Ata","operatingCapacityCoverage":{"coveragePercent":0.0,"knownUnitCount":0,"method":"unavailable","totalUnitCount":0},"operatingCapacityMw":0.0,"operatingCapacityMwByTechnology":{},"plannedCapacityCoverage":{"coveragePercent":0.0,"knownUnitCount":0,"method":"unavailable","totalUnitCount":0},"plannedCapacityMw":0.0,"plannedCapacityMwByTechnology":{},"recordCount":1,"recordIds":["wattlas-record-osm-way-234739411"],"sourceIds":["openstreetmap-power"],"technologies":["hydro"],"technologyMixMw":{"hydro":0.0},"unitCount":0,"unitIds":[]},"type":"Feature"},{"geometry":{"coordinates":[75.63697,41.369701],"type":"Point"},"id":"wattlas-plant-osm-way-412766262","properties":{"aliases":["Ат-Башы ГЕС"],"canonicalAnchor":"osm:way/412766262","canonicalCountryKey":"KG","capacityMw":0.0,"country":"KG","externalIds":{"osm":"way/412766262"},"geographyId":"KG-38789647B68189783551847","id":"wattlas-plant-osm-way-412766262","lifecycleCounts":{"operational":1},"locationPrecision":"exact","name":"Ат-Башы ГЕС","operatingCapacityCoverage":{"coveragePercent":0.0,"knownUnitCount":0,"method":"unavailable","totalUnitCount":0},"operatingCapacityMw":0.0,"operatingCapacityMwByTechnology":{},"plannedCapacityCoverage":{"coveragePercent":0.0,"knownUnitCount":0,"method":"unavailable","totalUnitCount":0},"plannedCapacityMw":0.0,"plannedCapacityMwByTechnology":{},"recordCount":1,"recordIds":["wattlas-record-osm-way-412766262"],"sourceIds":["openstreetmap-power"],"technologies":["hydro"],"technologyMixMw":{"hydro":0.0},"unitCount":0,"unitIds":[]},"type":"Feature"},{"geometry":{"coordinates":[71.714356,40.093492],"type":"Point"},"id":"wattlas-plant-osm-way-485059332","properties":{"aliases":["Жидалик ГЭС"],"canonicalAnchor":"osm:way/485059332","canonicalCountryKey":"KG","capacityMw":0.0,"country":"KG","externalIds":{"osm":"way/485059332"},"geographyId":"KG-38789647B43528262636538","id":"wattlas-plant-osm-way-485059332","lifecycleCounts":{"operational":1},"locationPrecision":"exact","name":"Жидалик ГЭС","operatingCapacityCoverage":{"coveragePercent":0.0,"knownUnitCount":0,"method":"unavailable","totalUnitCount":0},"operatingCapacityMw":0.0,"operatingCapacityMwByTechnology":{},"plannedCapacityCoverage":{"coveragePercent":0.0,"knownUnitCount":0,"method":"unavailable","totalUnitCount":0},"plannedCapacityMw":0.0,"plannedCapacityMwByTechnology":{},"recordCount":1,"recordIds":["wattlas-record-osm-way-485059332"],"sourceIds":["openstreetmap-power"],"technologies":["hydro"],"technologyMixMw":{"hydro":0.0},"unitCount":0,"unitIds":[]},"type":"Feature"},{"geometry":{"coordinates":[72.12971,40.268333],"type":"Point"},"id":"wattlas-plant-osm-way-605889499","properties":{"aliases":["Котельная"],"canonicalAnchor":"osm:way/605889499","canonicalCountryKey":"KG","capacityMw":0.0,"country":"KG","externalIds":{"osm":"way/605889499"},"geographyId":"KG-38789647B43528262636538","id":"wattlas-plant-osm-way-605889499","lifecycleCounts":{"operational":1},"locationPrecision":"exact","name":"Котельная","operatingCapacityCoverage":{"coveragePercent":0.0,"knownUnitCount":0,"method":"unavailable","totalUnitCount":0},"operatingCapacityMw":0.0,"operatingCapacityMwByTechnology":{},"plannedCapacityCoverage":{"coveragePercent":0.0,"knownUnitCount":0,"method":"unavailable","totalUnitCount":0},"plannedCapacityMw":0.0,"plannedCapacityMwByTechnology":{},"recordCount":1,"recordIds":["wattlas-record-osm-way-605889499"],"sourceIds":["openstreetmap-power"],"technologies":["coal"],"technologyMixMw":{"coal":0.0},"unitCount":0,"unitIds":[]},"type":"Feature"},{"geometry":{"coordinates":[75.052812,42.688023],"type":"Point"},"id":"wattlas-plant-osm-way-773873889","properties":{"aliases":["Issyk-Ata"],"canonicalAnchor":"osm:way/773873889","canonicalCountryKey":"KG","capacityMw":0.0,"country":"KG","externalIds":{"osm":"way/773873889"},"geographyId":"KG-38789647B49701521312730","id":"wattlas-plant-osm-way-773873889","lifecycleCounts":{"operational":1},"locationPrecision":"exact","name":"Issyk-Ata","operatingCapacityCoverage":{"coveragePercent":0.0,"knownUnitCount":0,"method":"unavailable","totalUnitCount":0},"operatingCapacityMw":0.0,"operatingCapacityMwByTechnology":{},"plannedCapacityCoverage":{"coveragePercent":0.0,"knownUnitCount":0,"method":"unavailable","totalUnitCount":0},"plannedCapacityMw":0.0,"plannedCapacityMwByTechnology":{},"recordCount":1,"recordIds":["wattlas-record-osm-way-773873889"],"sourceIds":["openstreetmap-power"],"technologies":["hydro"],"technologyMixMw":{"hydro":0.0},"unitCount":0,"unitIds":[]},"type":"Feature"},{"geometry":{"coordinates":[74.658382,42.871542],"type":"Point"},"id":"wattlas-plant-wikidata-q11961156","properties":{"aliases":["Бишкек ЖЭБи"],"canonicalAnchor":"wikidata:Q11961156","canonicalCountryKey":"KG","capacityMw":812.0,"country":"KG","externalIds":{"osm":"way/25487063","wikidata":"Q11961156"},"geographyId":"KG-38789647B49701521312730","id":"wattlas-plant-wikidata-q11961156","idAliases":["wattlas-plant-osm-way-25487063"],"lifecycleCounts":{"operational":1},"locationPrecision":"exact","name":"Бишкек ЖЭБи","operatingCapacityCoverage":{"coveragePercent":100.0,"knownUnitCount":0,"method":"plant_aggregate","provenance":{"evidenceCount":0,"recordIds":["wattlas-record-osm-way-25487063"],"sourceIds":["openstreetmap-power"],"sourceTypes":["community_mapped"],"valueKind":"reported"},"totalUnitCount":0},"operatingCapacityMw":812.0,"operatingCapacityMwByTechnology":{"coal":812.0},"plannedCapacityCoverage":{"coveragePercent":0.0,"knownUnitCount":0,"method":"unavailable","totalUnitCount":0},"plannedCapacityMw":0.0,"plannedCapacityMwByTechnology":{},"recordCount":1,"recordIds":["wattlas-record-osm-way-25487063"],"sourceIds":["openstreetmap-power"],"technologies":["coal"],"technologyMixMw":{"coal":812.0},"unitCount":0,"unitIds":[]},"type":"Feature"},{"geometry":{"coordinates":[72.806119,40.572335],"type":"Point"},"id":"wattlas-plant-wikidata-q21662043","properties":{"aliases":["Ошская ТЭЦ"],"canonicalAnchor":"wikidata:Q21662043","canonicalCountryKey":"KG","capacityMw":50.0,"country":"KG","externalIds":{"osm":"way/70975872","wikidata":"Q21662043"},"geographyId":"KG-38789647B74878035894071","id":"wattlas-plant-wikidata-q21662043","idAliases":["wattlas-plant-osm-way-70975872"],"lifecycleCounts":{"operational":1},"locationPrecision":"exact","name":"Ошская ТЭЦ","operatingCapacityCoverage":{"coveragePercent":100.0,"knownUnitCount":0,"method":"plant_aggregate","provenance":{"evidenceCount":0,"recordIds":["wattlas-record-osm-way-70975872"],"sourceIds":["openstreetmap-power"],"sourceTypes":["community_mapped"],"valueKind":"reported"},"totalUnitCount":0},"operatingCapacityMw":50.0,"operatingCapacityMwByTechnology":{"coal":50.0},"plannedCapacityCoverage":{"coveragePercent":0.0,"knownUnitCount":0,"method":"unavailable","totalUnitCount":0},"plannedCapacityMw":0.0,"plannedCapacityMwByTechnology":{},"recordCount":1,"recordIds":["wattlas-record-osm-way-70975872"],"sourceIds":["openstreetmap-power"],"technologies":["coal"],"technologyMixMw":{"coal":50.0},"unitCount":0,"unitIds":[]},"type":"Feature"},{"geometry":{"coordinates":[72.635836,41.656646],"type":"Point"},"id":"wattlas-plant-wikidata-q278196","properties":{"aliases":["Токтогульская ГЭС"],"canonicalAnchor":"wikidata:Q278196","canonicalCountryKey":"KG","capacityMw":1200.0,"country":"KG","externalIds":{"osm":"way/83913812","wikidata":"Q278196"},"geographyId":"KG-38789647B85532999857943","id":"wattlas-plant-wikidata-q278196","idAliases":["wattlas-plant-osm-way-83913812"],"lifecycleCounts":{"operational":1},"locationPrecision":"exact","name":"Токтогульская ГЭС","operatingCapacityCoverage":{"coveragePercent":100.0,"knownUnitCount":0,"method":"plant_aggregate","provenance":{"evidenceCount":0,"recordIds":["wattlas-record-osm-way-83913812"],"sourceIds":["openstreetmap-power"],"sourceTypes":["community_mapped"],"valueKind":"reported"},"totalUnitCount":0},"operatingCapacityMw":1200.0,"operatingCapacityMwByTechnology":{"hydro":1200.0},"plannedCapacityCoverage":{"coveragePercent":0.0,"knownUnitCount":0,"method":"unavailable","totalUnitCount":0},"plannedCapacityMw":0.0,"plannedCapacityMwByTechnology":{},"recordCount":1,"recordIds":["wattlas-record-osm-way-83913812"],"sourceIds":["openstreetmap-power"],"technologies":["hydro"],"technologyMixMw":{"hydro":1200.0},"unitCount":0,"unitIds":[]},"type":"Feature"},{"geometry":{"coordinates":[73.325578,41.776133],"type":"Point"},"id":"wattlas-plant-wikidata-q4210760","properties":{"aliases":["Камбаратинская ГЭС-2"],"canonicalAnchor":"wikidata:Q4210760","canonicalCountryKey":"KG","capacityMw":360.0,"country":"KG","externalIds":{"osm":"way/564442523","wikidata":"Q4210760"},"geographyId":"KG-38789647B85532999857943","id":"wattlas-plant-wikidata-q4210760","idAliases":["wattlas-plant-osm-way-564442523"],"lifecycleCounts":{"operational":1},"locationPrecision":"exact","name":"Камбаратинская ГЭС-2","operatingCapacityCoverage":{"coveragePercent":100.0,"knownUnitCount":0,"method":"plant_aggregate","provenance":{"evidenceCount":0,"recordIds":["wattlas-record-osm-way-564442523"],"sourceIds":["openstreetmap-power"],"sourceTypes":["community_mapped"],"valueKind":"reported"},"totalUnitCount":0},"operatingCapacityMw":360.0,"operatingCapacityMwByTechnology":{"hydro":360.0},"plannedCapacityCoverage":{"coveragePercent":0.0,"knownUnitCount":0,"method":"unavailable","totalUnitCount":0},"plannedCapacityMw":0.0,"plannedCapacityMwByTechnology":{},"recordCount":1,"recordIds":["wattlas-record-osm-way-564442523"],"sourceIds":["openstreetmap-power"],"technologies":["hydro"],"technologyMixMw":{"hydro":360.0},"unitCount":0,"unitIds":[]},"type":"Feature"},{"geometry":{"coordinates":[72.231921,41.402722],"type":"Point"},"id":"wattlas-plant-wikidata-q4453025","properties":{"aliases":["ГЭС Таш-Көмүр"],"canonicalAnchor":"wikidata:Q4453025","canonicalCountryKey":"KG","capacityMw":450.0,"country":"KG","externalIds":{"osm":"way/218048934","wikidata":"Q4453025"},"geographyId":"KG-38789647B85532999857943","id":"wattlas-plant-wikidata-q4453025","idAliases":["wattlas-plant-osm-way-218048934"],"lifecycleCounts":{"operational":1},"locationPrecision":"exact","name":"ГЭС Таш-Көмүр","operatingCapacityCoverage":{"coveragePercent":100.0,"knownUnitCount":0,"method":"plant_aggregate","provenance":{"evidenceCount":0,"recordIds":["wattlas-record-osm-way-218048934"],"sourceIds":["openstreetmap-power"],"sourceTypes":["community_mapped"],"valueKind":"reported"},"totalUnitCount":0},"operatingCapacityMw":450.0,"operatingCapacityMwByTechnology":{"hydro":450.0},"plannedCapacityCoverage":{"coveragePercent":0.0,"knownUnitCount":0,"method":"unavailable","totalUnitCount":0},"plannedCapacityMw":0.0,"plannedCapacityMwByTechnology":{},"recordCount":1,"recordIds":["wattlas-record-osm-way-218048934"],"sourceIds":["openstreetmap-power"],"technologies":["hydro"],"technologyMixMw":{"hydro":450.0},"unitCount":0,"unitIds":[]},"type":"Feature"},{"geometry":{"coordinates":[72.16056,41.187971],"type":"Point"},"id":"wattlas-plant-wikidata-q4479261","properties":{"aliases":["Үч-Коргон ГЭСи"],"canonicalAnchor":"wikidata:Q4479261","canonicalCountryKey":"KG","capacityMw":180.0,"country":"KG","externalIds":{"osm":"way/64684464","wikidata":"Q4479261","wikipedia":"ky:Үч-Коргон ГЭСи"},"geographyId":"KG-38789647B85532999857943","id":"wattlas-plant-wikidata-q4479261","idAliases":["wattlas-plant-osm-way-64684464","wattlas-plant-wikipedia-ky"],"lifecycleCounts":{"operational":1},"locationPrecision":"exact","name":"Үч-Коргон ГЭСи","operatingCapacityCoverage":{"coveragePercent":100.0,"knownUnitCount":0,"method":"plant_aggregate","provenance":{"evidenceCount":0,"recordIds":["wattlas-record-osm-way-64684464"],"sourceIds":["openstreetmap-power"],"sourceTypes":["community_mapped"],"valueKind":"reported"},"totalUnitCount":0},"operatingCapacityMw":180.0,"operatingCapacityMwByTechnology":{"hydro":180.0},"plannedCapacityCoverage":{"coveragePercent":0.0,"knownUnitCount":0,"method":"unavailable","totalUnitCount":0},"plannedCapacityMw":0.0,"plannedCapacityMwByTechnology":{},"recordCount":1,"recordIds":["wattlas-record-osm-way-64684464"],"sourceIds":["openstreetmap-power"],"technologies":["hydro"],"technologyMixMw":{"hydro":180.0},"unitCount":0,"unitIds":[]},"type":"Feature"},{"geometry":{"coordinates":[72.192442,41.312161],"type":"Point"},"id":"wattlas-plant-wikidata-q6034718","properties":{"aliases":["Шамалдысайская ГЭС"],"canonicalAnchor":"wikidata:Q6034718","canonicalCountryKey":"KG","capacityMw":240.0,"country":"KG","externalIds":{"osm":"way/218198451","wikidata":"Q6034718"},"geographyId":"KG-38789647B85532999857943","id":"wattlas-plant-wikidata-q6034718","idAliases":["wattlas-plant-osm-way-218198451"],"lifecycleCounts":{"operational":1},"locationPrecision":"exact","name":"Шамалдысайская ГЭС","operatingCapacityCoverage":{"coveragePercent":100.0,"knownUnitCount":0,"method":"plant_aggregate","provenance":{"evidenceCount":0,"recordIds":["wattlas-record-osm-way-218198451"],"sourceIds":["openstreetmap-power"],"sourceTypes":["community_mapped"],"valueKind":"reported"},"totalUnitCount":0},"operatingCapacityMw":240.0,"operatingCapacityMwByTechnology":{"hydro":240.0},"plannedCapacityCoverage":{"coveragePercent":0.0,"knownUnitCount":0,"method":"unavailable","totalUnitCount":0},"plannedCapacityMw":0.0,"plannedCapacityMwByTechnology":{},"recordCount":1,"recordIds":["wattlas-record-osm-way-218198451"],"sourceIds":["openstreetmap-power"],"technologies":["hydro"],"technologyMixMw":{"hydro":240.0},"unitCount":0,"unitIds":[]},"type":"Feature"},{"geometry":{"coordinates":[72.364471,41.498394],"type":"Point"},"id":"wattlas-plant-wikidata-q65196504","properties":{"aliases":["Курпсайская ГЭС"],"canonicalAnchor":"wikidata:Q65196504","canonicalCountryKey":"KG","capacityMw":800.0,"country":"KG","externalIds":{"osm":"way/252086125","wikidata":"Q65196504"},"geographyId":"KG-38789647B85532999857943","id":"wattlas-plant-wikidata-q65196504","idAliases":["wattlas-plant-osm-way-252086125"],"lifecycleCounts":{"operational":1},"locationPrecision":"exact","name":"Курпсайская ГЭС","operatingCapacityCoverage":{"coveragePercent":100.0,"knownUnitCount":0,"method":"plant_aggregate","provenance":{"evidenceCount":0,"recordIds":["wattlas-record-osm-way-252086125"],"sourceIds":["openstreetmap-power"],"sourceTypes":["community_mapped"],"valueKind":"reported"},"totalUnitCount":0},"operatingCapacityMw":800.0,"operatingCapacityMwByTechnology":{"hydro":800.0},"plannedCapacityCoverage":{"coveragePercent":0.0,"knownUnitCount":0,"method":"unavailable","totalUnitCount":0},"plannedCapacityMw":0.0,"plannedCapacityMwByTechnology":{},"recordCount":1,"recordIds":["wattlas-record-osm-way-252086125"],"sourceIds":["openstreetmap-power"],"technologies":["hydro"],"technologyMixMw":{"hydro":800.0},"unitCount":0,"unitIds":[]},"type":"Feature"}],"type":"FeatureCollection"}