{"features":[{"geometry":{"coordinates":[-80.392773,8.434419],"type":"Point"},"id":"wattlas-plant-osm-relation-12545467","properties":{"aliases":["Parque eólico Penonomé"],"canonicalAnchor":"osm:relation/12545467","canonicalCountryKey":"PA","capacityMw":270.0,"country":"PA","externalIds":{"osm":"relation/12545467"},"geographyId":"PA-82927092B90628020941788","id":"wattlas-plant-osm-relation-12545467","lifecycleCounts":{"operational":1},"locationPrecision":"exact","name":"Parque eólico Penonomé","operatingCapacityCoverage":{"coveragePercent":100.0,"knownUnitCount":0,"method":"plant_aggregate","provenance":{"evidenceCount":0,"recordIds":["wattlas-record-osm-relation-12545467"],"sourceIds":["openstreetmap-power"],"sourceTypes":["community_mapped"],"valueKind":"reported"},"totalUnitCount":0},"operatingCapacityMw":270.0,"operatingCapacityMwByTechnology":{"wind":270.0},"plannedCapacityCoverage":{"coveragePercent":0.0,"knownUnitCount":0,"method":"unavailable","totalUnitCount":0},"plannedCapacityMw":0.0,"plannedCapacityMwByTechnology":{},"recordCount":1,"recordIds":["wattlas-record-osm-relation-12545467"],"sourceIds":["openstreetmap-power"],"technologies":["wind"],"technologyMixMw":{"wind":270.0},"unitCount":0,"unitIds":[]},"type":"Feature"},{"geometry":{"coordinates":[-79.24591,9.071838],"type":"Point"},"id":"wattlas-plant-osm-relation-14179193","properties":{"aliases":["Pacora II"],"canonicalAnchor":"osm:relation/14179193","canonicalCountryKey":"PA","capacityMw":0.0,"country":"PA","externalIds":{"osm":"relation/14179193"},"geographyId":"PA-82927092B1953206585656","id":"wattlas-plant-osm-relation-14179193","lifecycleCounts":{"operational":1},"locationPrecision":"exact","name":"Pacora II","operatingCapacityCoverage":{"coveragePercent":0.0,"knownUnitCount":0,"method":"unavailable","totalUnitCount":0},"operatingCapacityMw":0.0,"operatingCapacityMwByTechnology":{},"plannedCapacityCoverage":{"coveragePercent":0.0,"knownUnitCount":0,"method":"unavailable","totalUnitCount":0},"plannedCapacityMw":0.0,"plannedCapacityMwByTechnology":{},"recordCount":1,"recordIds":["wattlas-record-osm-relation-14179193"],"sourceIds":["openstreetmap-power"],"technologies":["solar"],"technologyMixMw":{"solar":0.0},"unitCount":0,"unitIds":[]},"type":"Feature"},{"geometry":{"coordinates":[-80.339391,7.883554],"type":"Point"},"id":"wattlas-plant-osm-relation-16264240","properties":{"aliases":["Parque Solar Los Ángeles"],"canonicalAnchor":"osm:relation/16264240","canonicalCountryKey":"PA","capacityMw":9.0,"country":"PA","externalIds":{"osm":"relation/16264240"},"geographyId":"PA-82927092B53100215554732","id":"wattlas-plant-osm-relation-16264240","lifecycleCounts":{"operational":1},"locationPrecision":"exact","name":"Parque Solar Los Ángeles","operatingCapacityCoverage":{"coveragePercent":100.0,"knownUnitCount":0,"method":"plant_aggregate","provenance":{"evidenceCount":0,"recordIds":["wattlas-record-osm-relation-16264240"],"sourceIds":["openstreetmap-power"],"sourceTypes":["community_mapped"],"valueKind":"reported"},"totalUnitCount":0},"operatingCapacityMw":9.0,"operatingCapacityMwByTechnology":{"solar":9.0},"plannedCapacityCoverage":{"coveragePercent":0.0,"knownUnitCount":0,"method":"unavailable","totalUnitCount":0},"plannedCapacityMw":0.0,"plannedCapacityMwByTechnology":{},"recordCount":1,"recordIds":["wattlas-record-osm-relation-16264240"],"sourceIds":["openstreetmap-power"],"technologies":["solar"],"technologyMixMw":{"solar":9.0},"unitCount":0,"unitIds":[]},"type":"Feature"},{"geometry":{"coordinates":[-80.164922,7.677476],"type":"Point"},"id":"wattlas-plant-osm-relation-20307218","properties":{"aliases":["Parque Solar Mayorca"],"canonicalAnchor":"osm:relation/20307218","canonicalCountryKey":"PA","capacityMw":10.0,"country":"PA","externalIds":{"osm":"relation/20307218"},"geographyId":"PA-82927092B53100215554732","id":"wattlas-plant-osm-relation-20307218","lifecycleCounts":{"operational":1},"locationPrecision":"exact","name":"Parque Solar Mayorca","operatingCapacityCoverage":{"coveragePercent":100.0,"knownUnitCount":0,"method":"plant_aggregate","provenance":{"evidenceCount":0,"recordIds":["wattlas-record-osm-relation-20307218"],"sourceIds":["openstreetmap-power"],"sourceTypes":["community_mapped"],"valueKind":"reported"},"totalUnitCount":0},"operatingCapacityMw":10.0,"operatingCapacityMwByTechnology":{"solar":10.0},"plannedCapacityCoverage":{"coveragePercent":0.0,"knownUnitCount":0,"method":"unavailable","totalUnitCount":0},"plannedCapacityMw":0.0,"plannedCapacityMwByTechnology":{},"recordCount":1,"recordIds":["wattlas-record-osm-relation-20307218"],"sourceIds":["openstreetmap-power"],"technologies":["solar"],"technologyMixMw":{"solar":10.0},"unitCount":0,"unitIds":[]},"type":"Feature"},{"geometry":{"coordinates":[-79.589994,9.001529],"type":"Point"},"id":"wattlas-plant-osm-relation-9431653","properties":{"aliases":["Planta Termoeléctrica de Miraflores"],"canonicalAnchor":"osm:relation/9431653","canonicalCountryKey":"PA","capacityMw":232.0,"country":"PA","externalIds":{"osm":"relation/9431653"},"geographyId":"PA-82927092B1953206585656","id":"wattlas-plant-osm-relation-9431653","lifecycleCounts":{"operational":1},"locationPrecision":"exact","name":"Planta Termoeléctrica de Miraflores","operatingCapacityCoverage":{"coveragePercent":100.0,"knownUnitCount":0,"method":"plant_aggregate","provenance":{"evidenceCount":0,"recordIds":["wattlas-record-osm-relation-9431653"],"sourceIds":["openstreetmap-power"],"sourceTypes":["community_mapped"],"valueKind":"reported"},"totalUnitCount":0},"operatingCapacityMw":232.0,"operatingCapacityMwByTechnology":{"oil":232.0},"plannedCapacityCoverage":{"coveragePercent":0.0,"knownUnitCount":0,"method":"unavailable","totalUnitCount":0},"plannedCapacityMw":0.0,"plannedCapacityMwByTechnology":{},"recordCount":1,"recordIds":["wattlas-record-osm-relation-9431653"],"sourceIds":["openstreetmap-power"],"technologies":["oil"],"technologyMixMw":{"oil":232.0},"unitCount":0,"unitIds":[]},"type":"Feature"},{"geometry":{"coordinates":[-82.406985,8.502096],"type":"Point"},"id":"wattlas-plant-osm-way-1026766744","properties":{"aliases":["Central Hidroeléctrica Los Planetas II"],"canonicalAnchor":"osm:way/1026766744","canonicalCountryKey":"PA","capacityMw":8.87,"country":"PA","externalIds":{"osm":"way/1026766744"},"geographyId":"PA-82927092B1094181974383","id":"wattlas-plant-osm-way-1026766744","lifecycleCounts":{"operational":1},"locationPrecision":"exact","name":"Central Hidroeléctrica Los Planetas II","operatingCapacityCoverage":{"coveragePercent":100.0,"knownUnitCount":0,"method":"plant_aggregate","provenance":{"evidenceCount":0,"recordIds":["wattlas-record-osm-way-1026766744"],"sourceIds":["openstreetmap-power"],"sourceTypes":["community_mapped"],"valueKind":"reported"},"totalUnitCount":0},"operatingCapacityMw":8.87,"operatingCapacityMwByTechnology":{"hydro":8.87},"plannedCapacityCoverage":{"coveragePercent":0.0,"knownUnitCount":0,"method":"unavailable","totalUnitCount":0},"plannedCapacityMw":0.0,"plannedCapacityMwByTechnology":{},"recordCount":1,"recordIds":["wattlas-record-osm-way-1026766744"],"sourceIds":["openstreetmap-power"],"technologies":["hydro"],"technologyMixMw":{"hydro":8.87},"unitCount":0,"unitIds":[]},"type":"Feature"},{"geometry":{"coordinates":[-82.408542,8.535045],"type":"Point"},"id":"wattlas-plant-osm-way-1026766747","properties":{"aliases":["Central Hidroeléctrica Los Planetas I"],"canonicalAnchor":"osm:way/1026766747","canonicalCountryKey":"PA","capacityMw":4.95,"country":"PA","externalIds":{"osm":"way/1026766747"},"geographyId":"PA-82927092B1094181974383","id":"wattlas-plant-osm-way-1026766747","lifecycleCounts":{"operational":1},"locationPrecision":"exact","name":"Central Hidroeléctrica Los Planetas I","operatingCapacityCoverage":{"coveragePercent":100.0,"knownUnitCount":0,"method":"plant_aggregate","provenance":{"evidenceCount":0,"recordIds":["wattlas-record-osm-way-1026766747"],"sourceIds":["openstreetmap-power"],"sourceTypes":["community_mapped"],"valueKind":"reported"},"totalUnitCount":0},"operatingCapacityMw":4.95,"operatingCapacityMwByTechnology":{"hydro":4.95},"plannedCapacityCoverage":{"coveragePercent":0.0,"knownUnitCount":0,"method":"unavailable","totalUnitCount":0},"plannedCapacityMw":0.0,"plannedCapacityMwByTechnology":{},"recordCount":1,"recordIds":["wattlas-record-osm-way-1026766747"],"sourceIds":["openstreetmap-power"],"technologies":["hydro"],"technologyMixMw":{"hydro":4.95},"unitCount":0,"unitIds":[]},"type":"Feature"},{"geometry":{"coordinates":[-82.423682,8.573],"type":"Point"},"id":"wattlas-plant-osm-way-1026766750","properties":{"aliases":["Central Hidroeléctrica Dolega"],"canonicalAnchor":"osm:way/1026766750","canonicalCountryKey":"PA","capacityMw":3.12,"country":"PA","externalIds":{"osm":"way/1026766750"},"geographyId":"PA-82927092B1094181974383","id":"wattlas-plant-osm-way-1026766750","lifecycleCounts":{"operational":1},"locationPrecision":"exact","name":"Central Hidroeléctrica Dolega","operatingCapacityCoverage":{"coveragePercent":100.0,"knownUnitCount":0,"method":"plant_aggregate","provenance":{"evidenceCount":0,"recordIds":["wattlas-record-osm-way-1026766750"],"sourceIds":["openstreetmap-power"],"sourceTypes":["community_mapped"],"valueKind":"reported"},"totalUnitCount":0},"operatingCapacityMw":3.12,"operatingCapacityMwByTechnology":{"hydro":3.12},"plannedCapacityCoverage":{"coveragePercent":0.0,"knownUnitCount":0,"method":"unavailable","totalUnitCount":0},"plannedCapacityMw":0.0,"plannedCapacityMwByTechnology":{},"recordCount":1,"recordIds":["wattlas-record-osm-way-1026766750"],"sourceIds":["openstreetmap-power"],"technologies":["hydro"],"technologyMixMw":{"hydro":3.12},"unitCount":0,"unitIds":[]},"type":"Feature"},{"geometry":{"coordinates":[-82.33315,8.455285],"type":"Point"},"id":"wattlas-plant-osm-way-1026766753","properties":{"aliases":["Central Hidroeléctrica Lorena"],"canonicalAnchor":"osm:way/1026766753","canonicalCountryKey":"PA","capacityMw":33.8,"country":"PA","externalIds":{"osm":"way/1026766753"},"geographyId":"PA-82927092B1094181974383","id":"wattlas-plant-osm-way-1026766753","lifecycleCounts":{"operational":1},"locationPrecision":"exact","name":"Central Hidroeléctrica Lorena","operatingCapacityCoverage":{"coveragePercent":100.0,"knownUnitCount":0,"method":"plant_aggregate","provenance":{"evidenceCount":0,"recordIds":["wattlas-record-osm-way-1026766753"],"sourceIds":["openstreetmap-power"],"sourceTypes":["community_mapped"],"valueKind":"reported"},"totalUnitCount":0},"operatingCapacityMw":33.8,"operatingCapacityMwByTechnology":{"hydro":33.8},"plannedCapacityCoverage":{"coveragePercent":0.0,"knownUnitCount":0,"method":"unavailable","totalUnitCount":0},"plannedCapacityMw":0.0,"plannedCapacityMwByTechnology":{},"recordCount":1,"recordIds":["wattlas-record-osm-way-1026766753"],"sourceIds":["openstreetmap-power"],"technologies":["hydro"],"technologyMixMw":{"hydro":33.8},"unitCount":0,"unitIds":[]},"type":"Feature"},{"geometry":{"coordinates":[-82.298854,8.690554],"type":"Point"},"id":"wattlas-plant-osm-way-1026766755","properties":{"aliases":["Central Hidroeléctrica Los Algarrobos"],"canonicalAnchor":"osm:way/1026766755","canonicalCountryKey":"PA","capacityMw":0.0,"country":"PA","externalIds":{"osm":"way/1026766755"},"geographyId":"PA-82927092B1094181974383","id":"wattlas-plant-osm-way-1026766755","lifecycleCounts":{"operational":1},"locationPrecision":"exact","name":"Central Hidroeléctrica Los Algarrobos","operatingCapacityCoverage":{"coveragePercent":0.0,"knownUnitCount":0,"method":"unavailable","totalUnitCount":0},"operatingCapacityMw":0.0,"operatingCapacityMwByTechnology":{},"plannedCapacityCoverage":{"coveragePercent":0.0,"knownUnitCount":0,"method":"unavailable","totalUnitCount":0},"plannedCapacityMw":0.0,"plannedCapacityMwByTechnology":{},"recordCount":1,"recordIds":["wattlas-record-osm-way-1026766755"],"sourceIds":["openstreetmap-power"],"technologies":["hydro"],"technologyMixMw":{"hydro":0.0},"unitCount":0,"unitIds":[]},"type":"Feature"},{"geometry":{"coordinates":[-82.350395,8.648576],"type":"Point"},"id":"wattlas-plant-osm-way-1026766757","properties":{"aliases":["Central Hidroeléctrica Mendre I"],"canonicalAnchor":"osm:way/1026766757","canonicalCountryKey":"PA","capacityMw":19.75,"country":"PA","externalIds":{"osm":"way/1026766757"},"geographyId":"PA-82927092B1094181974383","id":"wattlas-plant-osm-way-1026766757","lifecycleCounts":{"operational":1},"locationPrecision":"exact","name":"Central Hidroeléctrica Mendre I","operatingCapacityCoverage":{"coveragePercent":100.0,"knownUnitCount":0,"method":"plant_aggregate","provenance":{"evidenceCount":0,"recordIds":["wattlas-record-osm-way-1026766757"],"sourceIds":["openstreetmap-power"],"sourceTypes":["community_mapped"],"valueKind":"reported"},"totalUnitCount":0},"operatingCapacityMw":19.75,"operatingCapacityMwByTechnology":{"hydro":19.75},"plannedCapacityCoverage":{"coveragePercent":0.0,"knownUnitCount":0,"method":"unavailable","totalUnitCount":0},"plannedCapacityMw":0.0,"plannedCapacityMwByTechnology":{},"recordCount":1,"recordIds":["wattlas-record-osm-way-1026766757"],"sourceIds":["openstreetmap-power"],"technologies":["hydro"],"technologyMixMw":{"hydro":19.75},"unitCount":0,"unitIds":[]},"type":"Feature"},{"geometry":{"coordinates":[-82.360935,8.629377],"type":"Point"},"id":"wattlas-plant-osm-way-1026766758","properties":{"aliases":["Central Hidroeléctrica Mendre II"],"canonicalAnchor":"osm:way/1026766758","canonicalCountryKey":"PA","capacityMw":8.2,"country":"PA","externalIds":{"osm":"way/1026766758"},"geographyId":"PA-82927092B1094181974383","id":"wattlas-plant-osm-way-1026766758","lifecycleCounts":{"operational":1},"locationPrecision":"exact","name":"Central Hidroeléctrica Mendre II","operatingCapacityCoverage":{"coveragePercent":100.0,"knownUnitCount":0,"method":"plant_aggregate","provenance":{"evidenceCount":0,"recordIds":["wattlas-record-osm-way-1026766758"],"sourceIds":["openstreetmap-power"],"sourceTypes":["community_mapped"],"valueKind":"reported"},"totalUnitCount":0},"operatingCapacityMw":8.2,"operatingCapacityMwByTechnology":{"hydro":8.2},"plannedCapacityCoverage":{"coveragePercent":0.0,"knownUnitCount":0,"method":"unavailable","totalUnitCount":0},"plannedCapacityMw":0.0,"plannedCapacityMwByTechnology":{},"recordCount":1,"recordIds":["wattlas-record-osm-way-1026766758"],"sourceIds":["openstreetmap-power"],"technologies":["hydro"],"technologyMixMw":{"hydro":8.2},"unitCount":0,"unitIds":[]},"type":"Feature"},{"geometry":{"coordinates":[-81.270614,8.322653],"type":"Point"},"id":"wattlas-plant-osm-way-1026766760","properties":{"aliases":["Central Hidroeléctrica Las Cruces"],"canonicalAnchor":"osm:way/1026766760","canonicalCountryKey":"PA","capacityMw":9.9,"country":"PA","externalIds":{"osm":"way/1026766760"},"geographyId":"PA-82927092B39170055747381","id":"wattlas-plant-osm-way-1026766760","lifecycleCounts":{"operational":1},"locationPrecision":"exact","name":"Central Hidroeléctrica Las Cruces","operatingCapacityCoverage":{"coveragePercent":100.0,"knownUnitCount":0,"method":"plant_aggregate","provenance":{"evidenceCount":0,"recordIds":["wattlas-record-osm-way-1026766760"],"sourceIds":["openstreetmap-power"],"sourceTypes":["community_mapped"],"valueKind":"reported"},"totalUnitCount":0},"operatingCapacityMw":9.9,"operatingCapacityMwByTechnology":{"hydro":9.9},"plannedCapacityCoverage":{"coveragePercent":0.0,"knownUnitCount":0,"method":"unavailable","totalUnitCount":0},"plannedCapacityMw":0.0,"plannedCapacityMwByTechnology":{},"recordCount":1,"recordIds":["wattlas-record-osm-way-1026766760"],"sourceIds":["openstreetmap-power"],"technologies":["hydro"],"technologyMixMw":{"hydro":9.9},"unitCount":0,"unitIds":[]},"type":"Feature"},{"geometry":{"coordinates":[-82.575747,8.435268],"type":"Point"},"id":"wattlas-plant-osm-way-1026766764","properties":{"aliases":["Central Hidroeléctrica Pedregalito II"],"canonicalAnchor":"osm:way/1026766764","canonicalCountryKey":"PA","capacityMw":12.52,"country":"PA","externalIds":{"osm":"way/1026766764"},"geographyId":"PA-82927092B1094181974383","id":"wattlas-plant-osm-way-1026766764","lifecycleCounts":{"operational":1},"locationPrecision":"exact","name":"Central Hidroeléctrica Pedregalito II","operatingCapacityCoverage":{"coveragePercent":100.0,"knownUnitCount":0,"method":"plant_aggregate","provenance":{"evidenceCount":0,"recordIds":["wattlas-record-osm-way-1026766764"],"sourceIds":["openstreetmap-power"],"sourceTypes":["community_mapped"],"valueKind":"reported"},"totalUnitCount":0},"operatingCapacityMw":12.52,"operatingCapacityMwByTechnology":{"hydro":12.52},"plannedCapacityCoverage":{"coveragePercent":0.0,"knownUnitCount":0,"method":"unavailable","totalUnitCount":0},"plannedCapacityMw":0.0,"plannedCapacityMwByTechnology":{},"recordCount":1,"recordIds":["wattlas-record-osm-way-1026766764"],"sourceIds":["openstreetmap-power"],"technologies":["hydro"],"technologyMixMw":{"hydro":12.52},"unitCount":0,"unitIds":[]},"type":"Feature"},{"geometry":{"coordinates":[-82.577859,8.467263],"type":"Point"},"id":"wattlas-plant-osm-way-1026766765","properties":{"aliases":["Central Hidroeléctrica Pedregalito I"],"canonicalAnchor":"osm:way/1026766765","canonicalCountryKey":"PA","capacityMw":20.0,"country":"PA","externalIds":{"osm":"way/1026766765"},"geographyId":"PA-82927092B1094181974383","id":"wattlas-plant-osm-way-1026766765","lifecycleCounts":{"operational":1},"locationPrecision":"exact","name":"Central Hidroeléctrica Pedregalito I","operatingCapacityCoverage":{"coveragePercent":100.0,"knownUnitCount":0,"method":"plant_aggregate","provenance":{"evidenceCount":0,"recordIds":["wattlas-record-osm-way-1026766765"],"sourceIds":["openstreetmap-power"],"sourceTypes":["community_mapped"],"valueKind":"reported"},"totalUnitCount":0},"operatingCapacityMw":20.0,"operatingCapacityMwByTechnology":{"hydro":20.0},"plannedCapacityCoverage":{"coveragePercent":0.0,"knownUnitCount":0,"method":"unavailable","totalUnitCount":0},"plannedCapacityMw":0.0,"plannedCapacityMwByTechnology":{},"recordCount":1,"recordIds":["wattlas-record-osm-way-1026766765"],"sourceIds":["openstreetmap-power"],"technologies":["hydro"],"technologyMixMw":{"hydro":20.0},"unitCount":0,"unitIds":[]},"type":"Feature"},{"geometry":{"coordinates":[-82.598805,8.514836],"type":"Point"},"id":"wattlas-plant-osm-way-1026766766","properties":{"aliases":["Central Hidroeléctrica Las Perlas Sur"],"canonicalAnchor":"osm:way/1026766766","canonicalCountryKey":"PA","capacityMw":10.0,"country":"PA","externalIds":{"osm":"way/1026766766"},"geographyId":"PA-82927092B1094181974383","id":"wattlas-plant-osm-way-1026766766","lifecycleCounts":{"operational":1},"locationPrecision":"exact","name":"Central Hidroeléctrica Las Perlas Sur","operatingCapacityCoverage":{"coveragePercent":100.0,"knownUnitCount":0,"method":"plant_aggregate","provenance":{"evidenceCount":0,"recordIds":["wattlas-record-osm-way-1026766766"],"sourceIds":["openstreetmap-power"],"sourceTypes":["community_mapped"],"valueKind":"reported"},"totalUnitCount":0},"operatingCapacityMw":10.0,"operatingCapacityMwByTechnology":{"hydro":10.0},"plannedCapacityCoverage":{"coveragePercent":0.0,"knownUnitCount":0,"method":"unavailable","totalUnitCount":0},"plannedCapacityMw":0.0,"plannedCapacityMwByTechnology":{},"recordCount":1,"recordIds":["wattlas-record-osm-way-1026766766"],"sourceIds":["openstreetmap-power"],"technologies":["hydro"],"technologyMixMw":{"hydro":10.0},"unitCount":0,"unitIds":[]},"type":"Feature"},{"geometry":{"coordinates":[-82.607013,8.540219],"type":"Point"},"id":"wattlas-plant-osm-way-1026766767","properties":{"aliases":["Central Hidroeléctrica Las Perlas Norte"],"canonicalAnchor":"osm:way/1026766767","canonicalCountryKey":"PA","capacityMw":10.0,"country":"PA","externalIds":{"osm":"way/1026766767"},"geographyId":"PA-82927092B1094181974383","id":"wattlas-plant-osm-way-1026766767","lifecycleCounts":{"operational":1},"locationPrecision":"exact","name":"Central Hidroeléctrica Las Perlas Norte","operatingCapacityCoverage":{"coveragePercent":100.0,"knownUnitCount":0,"method":"plant_aggregate","provenance":{"evidenceCount":0,"recordIds":["wattlas-record-osm-way-1026766767"],"sourceIds":["openstreetmap-power"],"sourceTypes":["community_mapped"],"valueKind":"reported"},"totalUnitCount":0},"operatingCapacityMw":10.0,"operatingCapacityMwByTechnology":{"hydro":10.0},"plannedCapacityCoverage":{"coveragePercent":0.0,"knownUnitCount":0,"method":"unavailable","totalUnitCount":0},"plannedCapacityMw":0.0,"plannedCapacityMwByTechnology":{},"recordCount":1,"recordIds":["wattlas-record-osm-way-1026766767"],"sourceIds":["openstreetmap-power"],"technologies":["hydro"],"technologyMixMw":{"hydro":10.0},"unitCount":0,"unitIds":[]},"type":"Feature"},{"geometry":{"coordinates":[-82.603108,8.563521],"type":"Point"},"id":"wattlas-plant-osm-way-1026766768","properties":{"aliases":["Central Hidroeléctrica Concepción"],"canonicalAnchor":"osm:way/1026766768","canonicalCountryKey":"PA","capacityMw":10.0,"country":"PA","externalIds":{"osm":"way/1026766768"},"geographyId":"PA-82927092B1094181974383","id":"wattlas-plant-osm-way-1026766768","lifecycleCounts":{"operational":1},"locationPrecision":"exact","name":"Central Hidroeléctrica Concepción","operatingCapacityCoverage":{"coveragePercent":100.0,"knownUnitCount":0,"method":"plant_aggregate","provenance":{"evidenceCount":0,"recordIds":["wattlas-record-osm-way-1026766768"],"sourceIds":["openstreetmap-power"],"sourceTypes":["community_mapped"],"valueKind":"reported"},"totalUnitCount":0},"operatingCapacityMw":10.0,"operatingCapacityMwByTechnology":{"hydro":10.0},"plannedCapacityCoverage":{"coveragePercent":0.0,"knownUnitCount":0,"method":"unavailable","totalUnitCount":0},"plannedCapacityMw":0.0,"plannedCapacityMwByTechnology":{},"recordCount":1,"recordIds":["wattlas-record-osm-way-1026766768"],"sourceIds":["openstreetmap-power"],"technologies":["hydro"],"technologyMixMw":{"hydro":10.0},"unitCount":0,"unitIds":[]},"type":"Feature"},{"geometry":{"coordinates":[-82.817187,8.668135],"type":"Point"},"id":"wattlas-plant-osm-way-1026766776","properties":{"aliases":["Central Hidroeléctrica San Andrés"],"canonicalAnchor":"osm:way/1026766776","canonicalCountryKey":"PA","capacityMw":9.89,"country":"PA","externalIds":{"osm":"way/1026766776"},"geographyId":"PA-82927092B1094181974383","id":"wattlas-plant-osm-way-1026766776","lifecycleCounts":{"operational":1},"locationPrecision":"exact","name":"Central Hidroeléctrica San Andrés","operatingCapacityCoverage":{"coveragePercent":100.0,"knownUnitCount":0,"method":"plant_aggregate","provenance":{"evidenceCount":0,"recordIds":["wattlas-record-osm-way-1026766776"],"sourceIds":["openstreetmap-power"],"sourceTypes":["community_mapped"],"valueKind":"reported"},"totalUnitCount":0},"operatingCapacityMw":9.89,"operatingCapacityMwByTechnology":{"hydro":9.89},"plannedCapacityCoverage":{"coveragePercent":0.0,"knownUnitCount":0,"method":"unavailable","totalUnitCount":0},"plannedCapacityMw":0.0,"plannedCapacityMwByTechnology":{},"recordCount":1,"recordIds":["wattlas-record-osm-way-1026766776"],"sourceIds":["openstreetmap-power"],"technologies":["hydro"],"technologyMixMw":{"hydro":9.89},"unitCount":0,"unitIds":[]},"type":"Feature"},{"geometry":{"coordinates":[-82.593517,8.61281],"type":"Point"},"id":"wattlas-plant-osm-way-1028146806","properties":{"aliases":["Central Hidroeléctrica La Cuchilla"],"canonicalAnchor":"osm:way/1028146806","canonicalCountryKey":"PA","capacityMw":7.62,"country":"PA","externalIds":{"osm":"way/1028146806"},"geographyId":"PA-82927092B1094181974383","id":"wattlas-plant-osm-way-1028146806","lifecycleCounts":{"operational":1},"locationPrecision":"exact","name":"Central Hidroeléctrica La Cuchilla","operatingCapacityCoverage":{"coveragePercent":100.0,"knownUnitCount":0,"method":"plant_aggregate","provenance":{"evidenceCount":0,"recordIds":["wattlas-record-osm-way-1028146806"],"sourceIds":["openstreetmap-power"],"sourceTypes":["community_mapped"],"valueKind":"reported"},"totalUnitCount":0},"operatingCapacityMw":7.62,"operatingCapacityMwByTechnology":{"hydro":7.62},"plannedCapacityCoverage":{"coveragePercent":0.0,"knownUnitCount":0,"method":"unavailable","totalUnitCount":0},"plannedCapacityMw":0.0,"plannedCapacityMwByTechnology":{},"recordCount":1,"recordIds":["wattlas-record-osm-way-1028146806"],"sourceIds":["openstreetmap-power"],"technologies":["hydro"],"technologyMixMw":{"hydro":7.62},"unitCount":0,"unitIds":[]},"type":"Feature"},{"geometry":{"coordinates":[-82.584833,8.624341],"type":"Point"},"id":"wattlas-plant-osm-way-1028146808","properties":{"aliases":["Central Hidroeléctrica Macano"],"canonicalAnchor":"osm:way/1028146808","canonicalCountryKey":"PA","capacityMw":5.25,"country":"PA","externalIds":{"osm":"way/1028146808"},"geographyId":"PA-82927092B1094181974383","id":"wattlas-plant-osm-way-1028146808","lifecycleCounts":{"operational":1},"locationPrecision":"exact","name":"Central Hidroeléctrica Macano","operatingCapacityCoverage":{"coveragePercent":100.0,"knownUnitCount":0,"method":"plant_aggregate","provenance":{"evidenceCount":0,"recordIds":["wattlas-record-osm-way-1028146808"],"sourceIds":["openstreetmap-power"],"sourceTypes":["community_mapped"],"valueKind":"reported"},"totalUnitCount":0},"operatingCapacityMw":5.25,"operatingCapacityMwByTechnology":{"hydro":5.25},"plannedCapacityCoverage":{"coveragePercent":0.0,"knownUnitCount":0,"method":"unavailable","totalUnitCount":0},"plannedCapacityMw":0.0,"plannedCapacityMwByTechnology":{},"recordCount":1,"recordIds":["wattlas-record-osm-way-1028146808"],"sourceIds":["openstreetmap-power"],"technologies":["hydro"],"technologyMixMw":{"hydro":5.25},"unitCount":0,"unitIds":[]},"type":"Feature"},{"geometry":{"coordinates":[-82.594104,8.588165],"type":"Point"},"id":"wattlas-plant-osm-way-1028146810","properties":{"aliases":["Central Hidroeléctrica RP-490"],"canonicalAnchor":"osm:way/1028146810","canonicalCountryKey":"PA","capacityMw":14.0,"country":"PA","externalIds":{"osm":"way/1028146810"},"geographyId":"PA-82927092B1094181974383","id":"wattlas-plant-osm-way-1028146810","lifecycleCounts":{"operational":1},"locationPrecision":"exact","name":"Central Hidroeléctrica RP-490","operatingCapacityCoverage":{"coveragePercent":100.0,"knownUnitCount":0,"method":"plant_aggregate","provenance":{"evidenceCount":0,"recordIds":["wattlas-record-osm-way-1028146810"],"sourceIds":["openstreetmap-power"],"sourceTypes":["community_mapped"],"valueKind":"reported"},"totalUnitCount":0},"operatingCapacityMw":14.0,"operatingCapacityMwByTechnology":{"hydro":14.0},"plannedCapacityCoverage":{"coveragePercent":0.0,"knownUnitCount":0,"method":"unavailable","totalUnitCount":0},"plannedCapacityMw":0.0,"plannedCapacityMwByTechnology":{},"recordCount":1,"recordIds":["wattlas-record-osm-way-1028146810"],"sourceIds":["openstreetmap-power"],"technologies":["hydro"],"technologyMixMw":{"hydro":14.0},"unitCount":0,"unitIds":[]},"type":"Feature"},{"geometry":{"coordinates":[-79.794869,9.326534],"type":"Point"},"id":"wattlas-plant-osm-way-1028146819","properties":{"aliases":["Thermoelectrica Jinro"],"canonicalAnchor":"osm:way/1028146819","canonicalCountryKey":"PA","capacityMw":58.0,"country":"PA","externalIds":{"osm":"way/1028146819"},"geographyId":"PA-82927092B18334008327541","id":"wattlas-plant-osm-way-1028146819","lifecycleCounts":{"operational":1},"locationPrecision":"exact","name":"Thermoelectrica Jinro","operatingCapacityCoverage":{"coveragePercent":100.0,"knownUnitCount":0,"method":"plant_aggregate","provenance":{"evidenceCount":0,"recordIds":["wattlas-record-osm-way-1028146819"],"sourceIds":["openstreetmap-power"],"sourceTypes":["community_mapped"],"valueKind":"reported"},"totalUnitCount":0},"operatingCapacityMw":58.0,"operatingCapacityMwByTechnology":{"oil":58.0},"plannedCapacityCoverage":{"coveragePercent":0.0,"knownUnitCount":0,"method":"unavailable","totalUnitCount":0},"plannedCapacityMw":0.0,"plannedCapacityMwByTechnology":{},"recordCount":1,"recordIds":["wattlas-record-osm-way-1028146819"],"sourceIds":["openstreetmap-power"],"technologies":["oil"],"technologyMixMw":{"oil":58.0},"unitCount":0,"unitIds":[]},"type":"Feature"},{"geometry":{"coordinates":[-79.59093,9.001552],"type":"Point"},"id":"wattlas-plant-osm-way-1095218311","properties":{"aliases":["Miraflores (vieja)"],"canonicalAnchor":"osm:way/1095218311","canonicalCountryKey":"PA","capacityMw":151.0,"country":"PA","externalIds":{"osm":"way/1095218311"},"geographyId":"PA-82927092B1953206585656","id":"wattlas-plant-osm-way-1095218311","lifecycleCounts":{"operational":1},"locationPrecision":"exact","name":"Miraflores (vieja)","operatingCapacityCoverage":{"coveragePercent":100.0,"knownUnitCount":0,"method":"plant_aggregate","provenance":{"evidenceCount":0,"recordIds":["wattlas-record-osm-way-1095218311"],"sourceIds":["openstreetmap-power"],"sourceTypes":["community_mapped"],"valueKind":"reported"},"totalUnitCount":0},"operatingCapacityMw":151.0,"operatingCapacityMwByTechnology":{"oil":151.0},"plannedCapacityCoverage":{"coveragePercent":0.0,"knownUnitCount":0,"method":"unavailable","totalUnitCount":0},"plannedCapacityMw":0.0,"plannedCapacityMwByTechnology":{},"recordCount":1,"recordIds":["wattlas-record-osm-way-1095218311"],"sourceIds":["openstreetmap-power"],"technologies":["oil"],"technologyMixMw":{"oil":151.0},"unitCount":0,"unitIds":[]},"type":"Feature"},{"geometry":{"coordinates":[-79.589532,9.001561],"type":"Point"},"id":"wattlas-plant-osm-way-1095218313","properties":{"aliases":["Miraflores (nuevo)"],"canonicalAnchor":"osm:way/1095218313","canonicalCountryKey":"PA","capacityMw":81.0,"country":"PA","externalIds":{"osm":"way/1095218313"},"geographyId":"PA-82927092B1953206585656","id":"wattlas-plant-osm-way-1095218313","lifecycleCounts":{"operational":1},"locationPrecision":"exact","name":"Miraflores (nuevo)","operatingCapacityCoverage":{"coveragePercent":100.0,"knownUnitCount":0,"method":"plant_aggregate","provenance":{"evidenceCount":0,"recordIds":["wattlas-record-osm-way-1095218313"],"sourceIds":["openstreetmap-power"],"sourceTypes":["community_mapped"],"valueKind":"reported"},"totalUnitCount":0},"operatingCapacityMw":81.0,"operatingCapacityMwByTechnology":{"oil":81.0},"plannedCapacityCoverage":{"coveragePercent":0.0,"knownUnitCount":0,"method":"unavailable","totalUnitCount":0},"plannedCapacityMw":0.0,"plannedCapacityMwByTechnology":{},"recordCount":1,"recordIds":["wattlas-record-osm-way-1095218313"],"sourceIds":["openstreetmap-power"],"technologies":["oil"],"technologyMixMw":{"oil":81.0},"unitCount":0,"unitIds":[]},"type":"Feature"},{"geometry":{"coordinates":[-79.616627,9.21068],"type":"Point"},"id":"wattlas-plant-osm-way-1138379310","properties":{"aliases":["Edificio de Generadores hidrieléctrica Madden"],"canonicalAnchor":"osm:way/1138379310","canonicalCountryKey":"PA","capacityMw":0.0,"country":"PA","externalIds":{"osm":"way/1138379310"},"geographyId":"PA-82927092B18334008327541","id":"wattlas-plant-osm-way-1138379310","lifecycleCounts":{"operational":1},"locationPrecision":"exact","name":"Edificio de Generadores hidrieléctrica Madden","operatingCapacityCoverage":{"coveragePercent":0.0,"knownUnitCount":0,"method":"unavailable","totalUnitCount":0},"operatingCapacityMw":0.0,"operatingCapacityMwByTechnology":{},"plannedCapacityCoverage":{"coveragePercent":0.0,"knownUnitCount":0,"method":"unavailable","totalUnitCount":0},"plannedCapacityMw":0.0,"plannedCapacityMwByTechnology":{},"recordCount":1,"recordIds":["wattlas-record-osm-way-1138379310"],"sourceIds":["openstreetmap-power"],"technologies":["hydro"],"technologyMixMw":{"hydro":0.0},"unitCount":0,"unitIds":[]},"type":"Feature"},{"geometry":{"coordinates":[-82.574379,8.530975],"type":"Point"},"id":"wattlas-plant-osm-way-1204028831","properties":{"aliases":["Caoba Solar"],"canonicalAnchor":"osm:way/1204028831","canonicalCountryKey":"PA","capacityMw":10.0,"country":"PA","externalIds":{"osm":"way/1204028831"},"geographyId":"PA-82927092B1094181974383","id":"wattlas-plant-osm-way-1204028831","lifecycleCounts":{"operational":1},"locationPrecision":"exact","name":"Caoba Solar","operatingCapacityCoverage":{"coveragePercent":100.0,"knownUnitCount":0,"method":"plant_aggregate","provenance":{"evidenceCount":0,"recordIds":["wattlas-record-osm-way-1204028831"],"sourceIds":["openstreetmap-power"],"sourceTypes":["community_mapped"],"valueKind":"reported"},"totalUnitCount":0},"operatingCapacityMw":10.0,"operatingCapacityMwByTechnology":{"solar":10.0},"plannedCapacityCoverage":{"coveragePercent":0.0,"knownUnitCount":0,"method":"unavailable","totalUnitCount":0},"plannedCapacityMw":0.0,"plannedCapacityMwByTechnology":{},"recordCount":1,"recordIds":["wattlas-record-osm-way-1204028831"],"sourceIds":["openstreetmap-power"],"technologies":["solar"],"technologyMixMw":{"solar":10.0},"unitCount":0,"unitIds":[]},"type":"Feature"},{"geometry":{"coordinates":[-82.579446,8.531428],"type":"Point"},"id":"wattlas-plant-osm-way-1204028832","properties":{"aliases":["Cedro Solar"],"canonicalAnchor":"osm:way/1204028832","canonicalCountryKey":"PA","capacityMw":10.0,"country":"PA","externalIds":{"osm":"way/1204028832"},"geographyId":"PA-82927092B1094181974383","id":"wattlas-plant-osm-way-1204028832","lifecycleCounts":{"operational":1},"locationPrecision":"exact","name":"Cedro Solar","operatingCapacityCoverage":{"coveragePercent":100.0,"knownUnitCount":0,"method":"plant_aggregate","provenance":{"evidenceCount":0,"recordIds":["wattlas-record-osm-way-1204028832"],"sourceIds":["openstreetmap-power"],"sourceTypes":["community_mapped"],"valueKind":"reported"},"totalUnitCount":0},"operatingCapacityMw":10.0,"operatingCapacityMwByTechnology":{"solar":10.0},"plannedCapacityCoverage":{"coveragePercent":0.0,"knownUnitCount":0,"method":"unavailable","totalUnitCount":0},"plannedCapacityMw":0.0,"plannedCapacityMwByTechnology":{},"recordCount":1,"recordIds":["wattlas-record-osm-way-1204028832"],"sourceIds":["openstreetmap-power"],"technologies":["solar"],"technologyMixMw":{"solar":10.0},"unitCount":0,"unitIds":[]},"type":"Feature"},{"geometry":{"coordinates":[-79.913971,8.632993],"type":"Point"},"id":"wattlas-plant-osm-way-1279175612","properties":{"aliases":["Granja Solar Camarones"],"canonicalAnchor":"osm:way/1279175612","canonicalCountryKey":"PA","capacityMw":100.0,"country":"PA","externalIds":{"osm":"way/1279175612"},"geographyId":"PA-82927092B58639026682610","id":"wattlas-plant-osm-way-1279175612","lifecycleCounts":{"operational":1},"locationPrecision":"exact","name":"Granja Solar Camarones","operatingCapacityCoverage":{"coveragePercent":100.0,"knownUnitCount":0,"method":"plant_aggregate","provenance":{"evidenceCount":0,"recordIds":["wattlas-record-osm-way-1279175612"],"sourceIds":["openstreetmap-power"],"sourceTypes":["community_mapped"],"valueKind":"reported"},"totalUnitCount":0},"operatingCapacityMw":100.0,"operatingCapacityMwByTechnology":{"solar":100.0},"plannedCapacityCoverage":{"coveragePercent":0.0,"knownUnitCount":0,"method":"unavailable","totalUnitCount":0},"plannedCapacityMw":0.0,"plannedCapacityMwByTechnology":{},"recordCount":1,"recordIds":["wattlas-record-osm-way-1279175612"],"sourceIds":["openstreetmap-power"],"technologies":["solar"],"technologyMixMw":{"solar":100.0},"unitCount":0,"unitIds":[]},"type":"Feature"},{"geometry":{"coordinates":[-80.559741,8.247971],"type":"Point"},"id":"wattlas-plant-osm-way-1299838720","properties":{"aliases":["Naturgy"],"canonicalAnchor":"osm:way/1299838720","canonicalCountryKey":"PA","capacityMw":0.0,"country":"PA","externalIds":{"osm":"way/1299838720"},"geographyId":"PA-82927092B90628020941788","id":"wattlas-plant-osm-way-1299838720","lifecycleCounts":{"operational":1},"locationPrecision":"exact","name":"Naturgy","operatingCapacityCoverage":{"coveragePercent":0.0,"knownUnitCount":0,"method":"unavailable","totalUnitCount":0},"operatingCapacityMw":0.0,"operatingCapacityMwByTechnology":{},"plannedCapacityCoverage":{"coveragePercent":0.0,"knownUnitCount":0,"method":"unavailable","totalUnitCount":0},"plannedCapacityMw":0.0,"plannedCapacityMwByTechnology":{},"recordCount":1,"recordIds":["wattlas-record-osm-way-1299838720"],"sourceIds":["openstreetmap-power"],"technologies":["other"],"technologyMixMw":{"other":0.0},"unitCount":0,"unitIds":[]},"type":"Feature"},{"geometry":{"coordinates":[-78.152067,8.658942],"type":"Point"},"id":"wattlas-plant-osm-way-1314018107","properties":{"aliases":["Santa Fe Power Plant"],"canonicalAnchor":"osm:way/1314018107","canonicalCountryKey":"PA","capacityMw":10.7,"country":"PA","externalIds":{"osm":"way/1314018107"},"geographyId":"PA-82927092B49726656591260","id":"wattlas-plant-osm-way-1314018107","lifecycleCounts":{"operational":1},"locationPrecision":"exact","name":"Santa Fe Power Plant","operatingCapacityCoverage":{"coveragePercent":100.0,"knownUnitCount":0,"method":"plant_aggregate","provenance":{"evidenceCount":0,"recordIds":["wattlas-record-osm-way-1314018107"],"sourceIds":["openstreetmap-power"],"sourceTypes":["community_mapped"],"valueKind":"reported"},"totalUnitCount":0},"operatingCapacityMw":10.7,"operatingCapacityMwByTechnology":{"gas":10.7},"plannedCapacityCoverage":{"coveragePercent":0.0,"knownUnitCount":0,"method":"unavailable","totalUnitCount":0},"plannedCapacityMw":0.0,"plannedCapacityMwByTechnology":{},"recordCount":1,"recordIds":["wattlas-record-osm-way-1314018107"],"sourceIds":["openstreetmap-power"],"technologies":["gas"],"technologyMixMw":{"gas":10.7},"unitCount":0,"unitIds":[]},"type":"Feature"},{"geometry":{"coordinates":[-79.960399,8.510182],"type":"Point"},"id":"wattlas-plant-osm-way-1321756185","properties":{"aliases":["Parque Solar Rodeo"],"canonicalAnchor":"osm:way/1321756185","canonicalCountryKey":"PA","capacityMw":10.0,"country":"PA","externalIds":{"osm":"way/1321756185"},"geographyId":"PA-82927092B58639026682610","id":"wattlas-plant-osm-way-1321756185","lifecycleCounts":{"operational":1},"locationPrecision":"exact","name":"Parque Solar Rodeo","operatingCapacityCoverage":{"coveragePercent":100.0,"knownUnitCount":0,"method":"plant_aggregate","provenance":{"evidenceCount":0,"recordIds":["wattlas-record-osm-way-1321756185"],"sourceIds":["openstreetmap-power"],"sourceTypes":["community_mapped"],"valueKind":"reported"},"totalUnitCount":0},"operatingCapacityMw":10.0,"operatingCapacityMwByTechnology":{"solar":10.0},"plannedCapacityCoverage":{"coveragePercent":0.0,"knownUnitCount":0,"method":"unavailable","totalUnitCount":0},"plannedCapacityMw":0.0,"plannedCapacityMwByTechnology":{},"recordCount":1,"recordIds":["wattlas-record-osm-way-1321756185"],"sourceIds":["openstreetmap-power"],"technologies":["solar"],"technologyMixMw":{"solar":10.0},"unitCount":0,"unitIds":[]},"type":"Feature"},{"geometry":{"coordinates":[-79.884657,8.612274],"type":"Point"},"id":"wattlas-plant-osm-way-1347714089","properties":{"aliases":["Bejuco Solar"],"canonicalAnchor":"osm:way/1347714089","canonicalCountryKey":"PA","capacityMw":1.24,"country":"PA","externalIds":{"osm":"way/1347714089"},"geographyId":"PA-82927092B58639026682610","id":"wattlas-plant-osm-way-1347714089","lifecycleCounts":{"operational":1},"locationPrecision":"exact","name":"Bejuco Solar","operatingCapacityCoverage":{"coveragePercent":100.0,"knownUnitCount":0,"method":"plant_aggregate","provenance":{"evidenceCount":0,"recordIds":["wattlas-record-osm-way-1347714089"],"sourceIds":["openstreetmap-power"],"sourceTypes":["community_mapped"],"valueKind":"reported"},"totalUnitCount":0},"operatingCapacityMw":1.24,"operatingCapacityMwByTechnology":{"solar":1.24},"plannedCapacityCoverage":{"coveragePercent":0.0,"knownUnitCount":0,"method":"unavailable","totalUnitCount":0},"plannedCapacityMw":0.0,"plannedCapacityMwByTechnology":{},"recordCount":1,"recordIds":["wattlas-record-osm-way-1347714089"],"sourceIds":["openstreetmap-power"],"technologies":["solar"],"technologyMixMw":{"solar":1.24},"unitCount":0,"unitIds":[]},"type":"Feature"},{"geometry":{"coordinates":[-80.500173,7.997312],"type":"Point"},"id":"wattlas-plant-osm-way-1347715824","properties":{"aliases":["Oro Solar"],"canonicalAnchor":"osm:way/1347715824","canonicalCountryKey":"PA","capacityMw":5.0,"country":"PA","externalIds":{"osm":"way/1347715824"},"geographyId":"PA-82927092B31072992504870","id":"wattlas-plant-osm-way-1347715824","lifecycleCounts":{"operational":1},"locationPrecision":"exact","name":"Oro Solar","operatingCapacityCoverage":{"coveragePercent":100.0,"knownUnitCount":0,"method":"plant_aggregate","provenance":{"evidenceCount":0,"recordIds":["wattlas-record-osm-way-1347715824"],"sourceIds":["openstreetmap-power"],"sourceTypes":["community_mapped"],"valueKind":"reported"},"totalUnitCount":0},"operatingCapacityMw":5.0,"operatingCapacityMwByTechnology":{"solar":5.0},"plannedCapacityCoverage":{"coveragePercent":0.0,"knownUnitCount":0,"method":"unavailable","totalUnitCount":0},"plannedCapacityMw":0.0,"plannedCapacityMwByTechnology":{},"recordCount":1,"recordIds":["wattlas-record-osm-way-1347715824"],"sourceIds":["openstreetmap-power"],"technologies":["solar"],"technologyMixMw":{"solar":5.0},"unitCount":0,"unitIds":[]},"type":"Feature"},{"geometry":{"coordinates":[-82.581367,8.638531],"type":"Point"},"id":"wattlas-plant-osm-way-1347724282","properties":{"aliases":["Macano Solar"],"canonicalAnchor":"osm:way/1347724282","canonicalCountryKey":"PA","capacityMw":4.75,"country":"PA","externalIds":{"osm":"way/1347724282"},"geographyId":"PA-82927092B1094181974383","id":"wattlas-plant-osm-way-1347724282","lifecycleCounts":{"operational":1},"locationPrecision":"exact","name":"Macano Solar","operatingCapacityCoverage":{"coveragePercent":100.0,"knownUnitCount":0,"method":"plant_aggregate","provenance":{"evidenceCount":0,"recordIds":["wattlas-record-osm-way-1347724282"],"sourceIds":["openstreetmap-power"],"sourceTypes":["community_mapped"],"valueKind":"reported"},"totalUnitCount":0},"operatingCapacityMw":4.75,"operatingCapacityMwByTechnology":{"solar":4.75},"plannedCapacityCoverage":{"coveragePercent":0.0,"knownUnitCount":0,"method":"unavailable","totalUnitCount":0},"plannedCapacityMw":0.0,"plannedCapacityMwByTechnology":{},"recordCount":1,"recordIds":["wattlas-record-osm-way-1347724282"],"sourceIds":["openstreetmap-power"],"technologies":["solar"],"technologyMixMw":{"solar":4.75},"unitCount":0,"unitIds":[]},"type":"Feature"},{"geometry":{"coordinates":[-80.324571,7.900147],"type":"Point"},"id":"wattlas-plant-osm-way-1487365132","properties":{"aliases":["Parque Solar Los Santos"],"canonicalAnchor":"osm:way/1487365132","canonicalCountryKey":"PA","capacityMw":0.0,"country":"PA","externalIds":{"osm":"way/1487365132"},"geographyId":"PA-82927092B53100215554732","id":"wattlas-plant-osm-way-1487365132","lifecycleCounts":{"operational":1},"locationPrecision":"exact","name":"Parque Solar Los Santos","operatingCapacityCoverage":{"coveragePercent":0.0,"knownUnitCount":0,"method":"unavailable","totalUnitCount":0},"operatingCapacityMw":0.0,"operatingCapacityMwByTechnology":{},"plannedCapacityCoverage":{"coveragePercent":0.0,"knownUnitCount":0,"method":"unavailable","totalUnitCount":0},"plannedCapacityMw":0.0,"plannedCapacityMwByTechnology":{},"recordCount":1,"recordIds":["wattlas-record-osm-way-1487365132"],"sourceIds":["openstreetmap-power"],"technologies":["solar"],"technologyMixMw":{"solar":0.0},"unitCount":0,"unitIds":[]},"type":"Feature"},{"geometry":{"coordinates":[-82.607574,8.679109],"type":"Point"},"id":"wattlas-plant-osm-way-1530494935","properties":{"aliases":["Central Hidroeléctrica Macho de Monte"],"canonicalAnchor":"osm:way/1530494935","canonicalCountryKey":"PA","capacityMw":2.5,"country":"PA","externalIds":{"osm":"way/1530494935"},"geographyId":"PA-82927092B1094181974383","id":"wattlas-plant-osm-way-1530494935","lifecycleCounts":{"operational":1},"locationPrecision":"exact","name":"Central Hidroeléctrica Macho de Monte","operatingCapacityCoverage":{"coveragePercent":100.0,"knownUnitCount":0,"method":"plant_aggregate","provenance":{"evidenceCount":0,"recordIds":["wattlas-record-osm-way-1530494935"],"sourceIds":["openstreetmap-power"],"sourceTypes":["community_mapped"],"valueKind":"reported"},"totalUnitCount":0},"operatingCapacityMw":2.5,"operatingCapacityMwByTechnology":{"hydro":2.5},"plannedCapacityCoverage":{"coveragePercent":0.0,"knownUnitCount":0,"method":"unavailable","totalUnitCount":0},"plannedCapacityMw":0.0,"plannedCapacityMwByTechnology":{},"recordCount":1,"recordIds":["wattlas-record-osm-way-1530494935"],"sourceIds":["openstreetmap-power"],"technologies":["hydro"],"technologyMixMw":{"hydro":2.5},"unitCount":0,"unitIds":[]},"type":"Feature"},{"geometry":{"coordinates":[-82.364541,8.716527],"type":"Point"},"id":"wattlas-plant-osm-way-192921168","properties":{"aliases":["Central Hidroeléctrica La Estrella"],"canonicalAnchor":"osm:way/192921168","canonicalCountryKey":"PA","capacityMw":47.2,"country":"PA","externalIds":{"osm":"way/192921168"},"geographyId":"PA-82927092B1094181974383","id":"wattlas-plant-osm-way-192921168","lifecycleCounts":{"operational":1},"locationPrecision":"exact","name":"Central Hidroeléctrica La Estrella","operatingCapacityCoverage":{"coveragePercent":100.0,"knownUnitCount":0,"method":"plant_aggregate","provenance":{"evidenceCount":0,"recordIds":["wattlas-record-osm-way-192921168"],"sourceIds":["openstreetmap-power"],"sourceTypes":["community_mapped"],"valueKind":"reported"},"totalUnitCount":0},"operatingCapacityMw":47.2,"operatingCapacityMwByTechnology":{"hydro":47.2},"plannedCapacityCoverage":{"coveragePercent":0.0,"knownUnitCount":0,"method":"unavailable","totalUnitCount":0},"plannedCapacityMw":0.0,"plannedCapacityMwByTechnology":{},"recordCount":1,"recordIds":["wattlas-record-osm-way-192921168"],"sourceIds":["openstreetmap-power"],"technologies":["hydro"],"technologyMixMw":{"hydro":47.2},"unitCount":0,"unitIds":[]},"type":"Feature"},{"geometry":{"coordinates":[-82.64543,8.800994],"type":"Point"},"id":"wattlas-plant-osm-way-227832791","properties":{"aliases":["Central Hidroeléctrica Paso Ancho"],"canonicalAnchor":"osm:way/227832791","canonicalCountryKey":"PA","capacityMw":6.78,"country":"PA","externalIds":{"osm":"way/227832791"},"geographyId":"PA-82927092B1094181974383","id":"wattlas-plant-osm-way-227832791","lifecycleCounts":{"operational":1},"locationPrecision":"exact","name":"Central Hidroeléctrica Paso Ancho","operatingCapacityCoverage":{"coveragePercent":100.0,"knownUnitCount":0,"method":"plant_aggregate","provenance":{"evidenceCount":0,"recordIds":["wattlas-record-osm-way-227832791"],"sourceIds":["openstreetmap-power"],"sourceTypes":["community_mapped"],"valueKind":"reported"},"totalUnitCount":0},"operatingCapacityMw":6.78,"operatingCapacityMwByTechnology":{"hydro":6.78},"plannedCapacityCoverage":{"coveragePercent":0.0,"knownUnitCount":0,"method":"unavailable","totalUnitCount":0},"plannedCapacityMw":0.0,"plannedCapacityMwByTechnology":{},"recordCount":1,"recordIds":["wattlas-record-osm-way-227832791"],"sourceIds":["openstreetmap-power"],"technologies":["hydro"],"technologyMixMw":{"hydro":6.78},"unitCount":0,"unitIds":[]},"type":"Feature"},{"geometry":{"coordinates":[-79.273031,9.105519],"type":"Point"},"id":"wattlas-plant-osm-way-330685761","properties":{"aliases":["Planta Termoeléctrica Pacora"],"canonicalAnchor":"osm:way/330685761","canonicalCountryKey":"PA","capacityMw":52.5,"country":"PA","externalIds":{"osm":"way/330685761"},"geographyId":"PA-82927092B1953206585656","id":"wattlas-plant-osm-way-330685761","lifecycleCounts":{"operational":1},"locationPrecision":"exact","name":"Planta Termoeléctrica Pacora","operatingCapacityCoverage":{"coveragePercent":100.0,"knownUnitCount":0,"method":"plant_aggregate","provenance":{"evidenceCount":0,"recordIds":["wattlas-record-osm-way-330685761"],"sourceIds":["openstreetmap-power"],"sourceTypes":["community_mapped"],"valueKind":"reported"},"totalUnitCount":0},"operatingCapacityMw":52.5,"operatingCapacityMwByTechnology":{"oil":52.5},"plannedCapacityCoverage":{"coveragePercent":0.0,"knownUnitCount":0,"method":"unavailable","totalUnitCount":0},"plannedCapacityMw":0.0,"plannedCapacityMwByTechnology":{},"recordCount":1,"recordIds":["wattlas-record-osm-way-330685761"],"sourceIds":["openstreetmap-power"],"technologies":["oil"],"technologyMixMw":{"oil":52.5},"unitCount":0,"unitIds":[]},"type":"Feature"},{"geometry":{"coordinates":[-79.781174,8.908648],"type":"Point"},"id":"wattlas-plant-osm-way-330685762","properties":{"aliases":["Pan Am Generating"],"canonicalAnchor":"osm:way/330685762","canonicalCountryKey":"PA","capacityMw":147.0,"country":"PA","externalIds":{"osm":"way/330685762"},"geographyId":"PA-82927092B58639026682610","id":"wattlas-plant-osm-way-330685762","lifecycleCounts":{"operational":1},"locationPrecision":"exact","name":"Pan Am Generating","operatingCapacityCoverage":{"coveragePercent":100.0,"knownUnitCount":0,"method":"plant_aggregate","provenance":{"evidenceCount":0,"recordIds":["wattlas-record-osm-way-330685762"],"sourceIds":["openstreetmap-power"],"sourceTypes":["community_mapped"],"valueKind":"reported"},"totalUnitCount":0},"operatingCapacityMw":147.0,"operatingCapacityMwByTechnology":{"oil":147.0},"plannedCapacityCoverage":{"coveragePercent":0.0,"knownUnitCount":0,"method":"unavailable","totalUnitCount":0},"plannedCapacityMw":0.0,"plannedCapacityMwByTechnology":{},"recordCount":1,"recordIds":["wattlas-record-osm-way-330685762"],"sourceIds":["openstreetmap-power"],"technologies":["oil"],"technologyMixMw":{"oil":147.0},"unitCount":0,"unitIds":[]},"type":"Feature"},{"geometry":{"coordinates":[-80.560836,8.042186],"type":"Point"},"id":"wattlas-plant-osm-way-659552671","properties":{"aliases":["Parque Solar Paris"],"canonicalAnchor":"osm:way/659552671","canonicalCountryKey":"PA","capacityMw":13.5,"country":"PA","externalIds":{"osm":"way/659552671"},"geographyId":"PA-82927092B31072992504870","id":"wattlas-plant-osm-way-659552671","lifecycleCounts":{"operational":1},"locationPrecision":"exact","name":"Parque Solar Paris","operatingCapacityCoverage":{"coveragePercent":100.0,"knownUnitCount":0,"method":"plant_aggregate","provenance":{"evidenceCount":0,"recordIds":["wattlas-record-osm-way-659552671"],"sourceIds":["openstreetmap-power"],"sourceTypes":["community_mapped"],"valueKind":"reported"},"totalUnitCount":0},"operatingCapacityMw":13.5,"operatingCapacityMwByTechnology":{"solar":13.5},"plannedCapacityCoverage":{"coveragePercent":0.0,"knownUnitCount":0,"method":"unavailable","totalUnitCount":0},"plannedCapacityMw":0.0,"plannedCapacityMwByTechnology":{},"recordCount":1,"recordIds":["wattlas-record-osm-way-659552671"],"sourceIds":["openstreetmap-power"],"technologies":["solar"],"technologyMixMw":{"solar":13.5},"unitCount":0,"unitIds":[]},"type":"Feature"},{"geometry":{"coordinates":[-80.323989,7.874985],"type":"Point"},"id":"wattlas-plant-osm-way-660070635","properties":{"aliases":["Parque Solar El Espinal"],"canonicalAnchor":"osm:way/660070635","canonicalCountryKey":"PA","capacityMw":9.0,"country":"PA","externalIds":{"osm":"way/660070635"},"geographyId":"PA-82927092B53100215554732","id":"wattlas-plant-osm-way-660070635","lifecycleCounts":{"operational":1},"locationPrecision":"exact","name":"Parque Solar El Espinal","operatingCapacityCoverage":{"coveragePercent":100.0,"knownUnitCount":0,"method":"plant_aggregate","provenance":{"evidenceCount":0,"recordIds":["wattlas-record-osm-way-660070635"],"sourceIds":["openstreetmap-power"],"sourceTypes":["community_mapped"],"valueKind":"reported"},"totalUnitCount":0},"operatingCapacityMw":9.0,"operatingCapacityMwByTechnology":{"solar":9.0},"plannedCapacityCoverage":{"coveragePercent":0.0,"knownUnitCount":0,"method":"unavailable","totalUnitCount":0},"plannedCapacityMw":0.0,"plannedCapacityMwByTechnology":{},"recordCount":1,"recordIds":["wattlas-record-osm-way-660070635"],"sourceIds":["openstreetmap-power"],"technologies":["solar"],"technologyMixMw":{"solar":9.0},"unitCount":0,"unitIds":[]},"type":"Feature"},{"geometry":{"coordinates":[-82.29996,8.502785],"type":"Point"},"id":"wattlas-plant-osm-way-673465883","properties":{"aliases":["Central Hidroeléctrica Gualaca"],"canonicalAnchor":"osm:way/673465883","canonicalCountryKey":"PA","capacityMw":25.34,"country":"PA","externalIds":{"osm":"way/673465883"},"geographyId":"PA-82927092B1094181974383","id":"wattlas-plant-osm-way-673465883","lifecycleCounts":{"operational":1},"locationPrecision":"exact","name":"Central Hidroeléctrica Gualaca","operatingCapacityCoverage":{"coveragePercent":100.0,"knownUnitCount":0,"method":"plant_aggregate","provenance":{"evidenceCount":0,"recordIds":["wattlas-record-osm-way-673465883"],"sourceIds":["openstreetmap-power"],"sourceTypes":["community_mapped"],"valueKind":"reported"},"totalUnitCount":0},"operatingCapacityMw":25.34,"operatingCapacityMwByTechnology":{"hydro":25.34},"plannedCapacityCoverage":{"coveragePercent":0.0,"knownUnitCount":0,"method":"unavailable","totalUnitCount":0},"plannedCapacityMw":0.0,"plannedCapacityMwByTechnology":{},"recordCount":1,"recordIds":["wattlas-record-osm-way-673465883"],"sourceIds":["openstreetmap-power"],"technologies":["hydro"],"technologyMixMw":{"hydro":25.34},"unitCount":0,"unitIds":[]},"type":"Feature"},{"geometry":{"coordinates":[-80.692747,8.193212],"type":"Point"},"id":"wattlas-plant-osm-way-771962487","properties":{"aliases":["Llano Sánchez"],"canonicalAnchor":"osm:way/771962487","canonicalCountryKey":"PA","capacityMw":2.0,"country":"PA","externalIds":{"osm":"way/771962487"},"geographyId":"PA-82927092B90628020941788","id":"wattlas-plant-osm-way-771962487","lifecycleCounts":{"operational":1},"locationPrecision":"exact","name":"Llano Sánchez","operatingCapacityCoverage":{"coveragePercent":100.0,"knownUnitCount":0,"method":"plant_aggregate","provenance":{"evidenceCount":0,"recordIds":["wattlas-record-osm-way-771962487"],"sourceIds":["openstreetmap-power"],"sourceTypes":["community_mapped"],"valueKind":"reported"},"totalUnitCount":0},"operatingCapacityMw":2.0,"operatingCapacityMwByTechnology":{"solar":2.0},"plannedCapacityCoverage":{"coveragePercent":0.0,"knownUnitCount":0,"method":"unavailable","totalUnitCount":0},"plannedCapacityMw":0.0,"plannedCapacityMwByTechnology":{},"recordCount":1,"recordIds":["wattlas-record-osm-way-771962487"],"sourceIds":["openstreetmap-power"],"technologies":["solar"],"technologyMixMw":{"solar":2.0},"unitCount":0,"unitIds":[]},"type":"Feature"},{"geometry":{"coordinates":[-82.430052,8.609697],"type":"Point"},"id":"wattlas-plant-osm-way-841974996","properties":{"aliases":["Central Hidroeléctrica Cochea"],"canonicalAnchor":"osm:way/841974996","canonicalCountryKey":"PA","capacityMw":15.5,"country":"PA","externalIds":{"osm":"way/841974996"},"geographyId":"PA-82927092B1094181974383","id":"wattlas-plant-osm-way-841974996","lifecycleCounts":{"operational":1},"locationPrecision":"exact","name":"Central Hidroeléctrica Cochea","operatingCapacityCoverage":{"coveragePercent":100.0,"knownUnitCount":0,"method":"plant_aggregate","provenance":{"evidenceCount":0,"recordIds":["wattlas-record-osm-way-841974996"],"sourceIds":["openstreetmap-power"],"sourceTypes":["community_mapped"],"valueKind":"reported"},"totalUnitCount":0},"operatingCapacityMw":15.5,"operatingCapacityMwByTechnology":{"hydro":15.5},"plannedCapacityCoverage":{"coveragePercent":0.0,"knownUnitCount":0,"method":"unavailable","totalUnitCount":0},"plannedCapacityMw":0.0,"plannedCapacityMwByTechnology":{},"recordCount":1,"recordIds":["wattlas-record-osm-way-841974996"],"sourceIds":["openstreetmap-power"],"technologies":["hydro"],"technologyMixMw":{"hydro":15.5},"unitCount":0,"unitIds":[]},"type":"Feature"},{"geometry":{"coordinates":[-82.743772,8.80326],"type":"Point"},"id":"wattlas-plant-osm-way-872148961","properties":{"aliases":["Central Hidroeléctrica Pando"],"canonicalAnchor":"osm:way/872148961","canonicalCountryKey":"PA","capacityMw":32.6,"country":"PA","externalIds":{"osm":"way/872148961"},"geographyId":"PA-82927092B1094181974383","id":"wattlas-plant-osm-way-872148961","lifecycleCounts":{"operational":1},"locationPrecision":"exact","name":"Central Hidroeléctrica Pando","operatingCapacityCoverage":{"coveragePercent":100.0,"knownUnitCount":0,"method":"plant_aggregate","provenance":{"evidenceCount":0,"recordIds":["wattlas-record-osm-way-872148961"],"sourceIds":["openstreetmap-power"],"sourceTypes":["community_mapped"],"valueKind":"reported"},"totalUnitCount":0},"operatingCapacityMw":32.6,"operatingCapacityMwByTechnology":{"hydro":32.6},"plannedCapacityCoverage":{"coveragePercent":0.0,"knownUnitCount":0,"method":"unavailable","totalUnitCount":0},"plannedCapacityMw":0.0,"plannedCapacityMwByTechnology":{},"recordCount":1,"recordIds":["wattlas-record-osm-way-872148961"],"sourceIds":["openstreetmap-power"],"technologies":["hydro"],"technologyMixMw":{"hydro":32.6},"unitCount":0,"unitIds":[]},"type":"Feature"},{"geometry":{"coordinates":[-79.930895,9.263927],"type":"Point"},"id":"wattlas-plant-osm-way-872795331","properties":{"aliases":["Edificio de generadorse de la hidroeléctrica de Gatún"],"canonicalAnchor":"osm:way/872795331","canonicalCountryKey":"PA","capacityMw":0.0,"country":"PA","externalIds":{"osm":"way/872795331"},"geographyId":"PA-82927092B18334008327541","id":"wattlas-plant-osm-way-872795331","lifecycleCounts":{"operational":1},"locationPrecision":"exact","name":"Edificio de generadorse de la hidroeléctrica de Gatún","operatingCapacityCoverage":{"coveragePercent":0.0,"knownUnitCount":0,"method":"unavailable","totalUnitCount":0},"operatingCapacityMw":0.0,"operatingCapacityMwByTechnology":{},"plannedCapacityCoverage":{"coveragePercent":0.0,"knownUnitCount":0,"method":"unavailable","totalUnitCount":0},"plannedCapacityMw":0.0,"plannedCapacityMwByTechnology":{},"recordCount":1,"recordIds":["wattlas-record-osm-way-872795331"],"sourceIds":["openstreetmap-power"],"technologies":["hydro"],"technologyMixMw":{"hydro":0.0},"unitCount":0,"unitIds":[]},"type":"Feature"},{"geometry":{"coordinates":[-80.356386,8.423551],"type":"Point"},"id":"wattlas-plant-osm-way-896332474","properties":{"aliases":["Mapped power plant · OSM 896332474"],"canonicalAnchor":"osm:way/896332474","canonicalCountryKey":"PA","capacityMw":10.0,"country":"PA","externalIds":{"osm":"way/896332474"},"geographyId":"PA-82927092B90628020941788","id":"wattlas-plant-osm-way-896332474","lifecycleCounts":{"operational":1},"locationPrecision":"exact","name":"Mapped power plant · OSM 896332474","operatingCapacityCoverage":{"coveragePercent":100.0,"knownUnitCount":0,"method":"plant_aggregate","provenance":{"evidenceCount":0,"recordIds":["wattlas-record-osm-way-896332474"],"sourceIds":["openstreetmap-power"],"sourceTypes":["community_mapped"],"valueKind":"reported"},"totalUnitCount":0},"operatingCapacityMw":10.0,"operatingCapacityMwByTechnology":{"solar":10.0},"plannedCapacityCoverage":{"coveragePercent":0.0,"knownUnitCount":0,"method":"unavailable","totalUnitCount":0},"plannedCapacityMw":0.0,"plannedCapacityMwByTechnology":{},"recordCount":1,"recordIds":["wattlas-record-osm-way-896332474"],"sourceIds":["openstreetmap-power"],"technologies":["solar"],"technologyMixMw":{"solar":10.0},"unitCount":0,"unitIds":[]},"type":"Feature"},{"geometry":{"coordinates":[-80.391395,8.385156],"type":"Point"},"id":"wattlas-plant-osm-way-896332526","properties":{"aliases":["Planta Fotovoltaica Avanzalia"],"canonicalAnchor":"osm:way/896332526","canonicalCountryKey":"PA","capacityMw":120.0,"country":"PA","externalIds":{"osm":"way/896332526"},"geographyId":"PA-82927092B90628020941788","id":"wattlas-plant-osm-way-896332526","lifecycleCounts":{"operational":1},"locationPrecision":"exact","name":"Planta Fotovoltaica Avanzalia","operatingCapacityCoverage":{"coveragePercent":100.0,"knownUnitCount":0,"method":"plant_aggregate","provenance":{"evidenceCount":0,"recordIds":["wattlas-record-osm-way-896332526"],"sourceIds":["openstreetmap-power"],"sourceTypes":["community_mapped"],"valueKind":"reported"},"totalUnitCount":0},"operatingCapacityMw":120.0,"operatingCapacityMwByTechnology":{"solar":120.0},"plannedCapacityCoverage":{"coveragePercent":0.0,"knownUnitCount":0,"method":"unavailable","totalUnitCount":0},"plannedCapacityMw":0.0,"plannedCapacityMwByTechnology":{},"recordCount":1,"recordIds":["wattlas-record-osm-way-896332526"],"sourceIds":["openstreetmap-power"],"technologies":["solar"],"technologyMixMw":{"solar":120.0},"unitCount":0,"unitIds":[]},"type":"Feature"},{"geometry":{"coordinates":[-79.872908,9.016843],"type":"Point"},"id":"wattlas-plant-osm-way-926776634","properties":{"aliases":["Mendoza Solar"],"canonicalAnchor":"osm:way/926776634","canonicalCountryKey":"PA","capacityMw":3.51,"country":"PA","externalIds":{"osm":"way/926776634"},"geographyId":"PA-82927092B58639026682610","id":"wattlas-plant-osm-way-926776634","lifecycleCounts":{"operational":1},"locationPrecision":"exact","name":"Mendoza Solar","operatingCapacityCoverage":{"coveragePercent":100.0,"knownUnitCount":0,"method":"plant_aggregate","provenance":{"evidenceCount":0,"recordIds":["wattlas-record-osm-way-926776634"],"sourceIds":["openstreetmap-power"],"sourceTypes":["community_mapped"],"valueKind":"reported"},"totalUnitCount":0},"operatingCapacityMw":3.51,"operatingCapacityMwByTechnology":{"solar":3.51},"plannedCapacityCoverage":{"coveragePercent":0.0,"knownUnitCount":0,"method":"unavailable","totalUnitCount":0},"plannedCapacityMw":0.0,"plannedCapacityMwByTechnology":{},"recordCount":1,"recordIds":["wattlas-record-osm-way-926776634"],"sourceIds":["openstreetmap-power"],"technologies":["solar"],"technologyMixMw":{"solar":3.51},"unitCount":0,"unitIds":[]},"type":"Feature"},{"geometry":{"coordinates":[-80.582972,8.564845],"type":"Point"},"id":"wattlas-plant-osm-way-958225930","properties":{"aliases":["Central Hidroeléctrica El Fraile"],"canonicalAnchor":"osm:way/958225930","canonicalCountryKey":"PA","capacityMw":6.66,"country":"PA","externalIds":{"osm":"way/958225930"},"geographyId":"PA-82927092B90628020941788","id":"wattlas-plant-osm-way-958225930","lifecycleCounts":{"operational":1},"locationPrecision":"exact","name":"Central Hidroeléctrica El Fraile","operatingCapacityCoverage":{"coveragePercent":100.0,"knownUnitCount":0,"method":"plant_aggregate","provenance":{"evidenceCount":0,"recordIds":["wattlas-record-osm-way-958225930"],"sourceIds":["openstreetmap-power"],"sourceTypes":["community_mapped"],"valueKind":"reported"},"totalUnitCount":0},"operatingCapacityMw":6.66,"operatingCapacityMwByTechnology":{"hydro":6.66},"plannedCapacityCoverage":{"coveragePercent":0.0,"knownUnitCount":0,"method":"unavailable","totalUnitCount":0},"plannedCapacityMw":0.0,"plannedCapacityMwByTechnology":{},"recordCount":1,"recordIds":["wattlas-record-osm-way-958225930"],"sourceIds":["openstreetmap-power"],"technologies":["hydro"],"technologyMixMw":{"hydro":6.66},"unitCount":0,"unitIds":[]},"type":"Feature"},{"geometry":{"coordinates":[-82.261687,8.678975],"type":"Point"},"id":"wattlas-plant-wikidata-q11966580","properties":{"aliases":["Central Hidroeléctrica Edwin Fábrega"],"canonicalAnchor":"wikidata:Q11966580","canonicalCountryKey":"PA","capacityMw":300.0,"country":"PA","externalIds":{"osm":"node/9466552931","wikidata":"Q11966580"},"geographyId":"PA-82927092B1094181974383","id":"wattlas-plant-wikidata-q11966580","idAliases":["wattlas-plant-osm-node-9466552931"],"lifecycleCounts":{"operational":1},"locationPrecision":"exact","name":"Central Hidroeléctrica Edwin Fábrega","operatingCapacityCoverage":{"coveragePercent":100.0,"knownUnitCount":0,"method":"plant_aggregate","provenance":{"evidenceCount":0,"recordIds":["wattlas-record-osm-node-9466552931"],"sourceIds":["openstreetmap-power"],"sourceTypes":["community_mapped"],"valueKind":"reported"},"totalUnitCount":0},"operatingCapacityMw":300.0,"operatingCapacityMwByTechnology":{"hydro":300.0},"plannedCapacityCoverage":{"coveragePercent":0.0,"knownUnitCount":0,"method":"unavailable","totalUnitCount":0},"plannedCapacityMw":0.0,"plannedCapacityMwByTechnology":{},"recordCount":1,"recordIds":["wattlas-record-osm-node-9466552931"],"sourceIds":["openstreetmap-power"],"technologies":["hydro"],"technologyMixMw":{"hydro":300.0},"unitCount":0,"unitIds":[]},"type":"Feature"},{"geometry":{"coordinates":[-82.494682,9.237885],"type":"Point"},"id":"wattlas-plant-wikidata-q15209056-75e439b80b","properties":{"aliases":["Mini-hidro Changuinola I"],"canonicalAnchor":"wikidata:Q15209056","canonicalCountryKey":"PA","capacityMw":9.9,"country":"PA","externalIds":{"osm":"way/303106519","wikidata":"Q15209056"},"geographyId":"PA-82927092B39502170322116","id":"wattlas-plant-wikidata-q15209056-75e439b80b","idAliases":["wattlas-plant-osm-way-303106519","wattlas-plant-wikidata-q15209056"],"lifecycleCounts":{"operational":1},"locationPrecision":"exact","name":"Mini-hidro Changuinola I","operatingCapacityCoverage":{"coveragePercent":100.0,"knownUnitCount":0,"method":"plant_aggregate","provenance":{"evidenceCount":0,"recordIds":["wattlas-record-osm-way-303106519"],"sourceIds":["openstreetmap-power"],"sourceTypes":["community_mapped"],"valueKind":"reported"},"totalUnitCount":0},"operatingCapacityMw":9.9,"operatingCapacityMwByTechnology":{"hydro":9.9},"plannedCapacityCoverage":{"coveragePercent":0.0,"knownUnitCount":0,"method":"unavailable","totalUnitCount":0},"plannedCapacityMw":0.0,"plannedCapacityMwByTechnology":{},"recordCount":1,"recordIds":["wattlas-record-osm-way-303106519"],"sourceIds":["openstreetmap-power"],"technologies":["hydro"],"technologyMixMw":{"hydro":9.9},"unitCount":0,"unitIds":[]},"type":"Feature"},{"geometry":{"coordinates":[-82.51544,9.270209],"type":"Point"},"id":"wattlas-plant-wikidata-q15209056-dee8926d3b","properties":{"aliases":["Central Hidroeléctrica Changuinola I"],"canonicalAnchor":"wikidata:Q15209056","canonicalCountryKey":"PA","capacityMw":221.24,"country":"PA","externalIds":{"osm":"way/303107694","wikidata":"Q15209056"},"geographyId":"PA-82927092B39502170322116","id":"wattlas-plant-wikidata-q15209056-dee8926d3b","idAliases":["wattlas-plant-osm-way-303107694"],"lifecycleCounts":{"operational":1},"locationPrecision":"exact","name":"Central Hidroeléctrica Changuinola I","operatingCapacityCoverage":{"coveragePercent":100.0,"knownUnitCount":0,"method":"plant_aggregate","provenance":{"evidenceCount":0,"recordIds":["wattlas-record-osm-way-303107694"],"sourceIds":["openstreetmap-power"],"sourceTypes":["community_mapped"],"valueKind":"reported"},"totalUnitCount":0},"operatingCapacityMw":221.24,"operatingCapacityMwByTechnology":{"hydro":221.24},"plannedCapacityCoverage":{"coveragePercent":0.0,"knownUnitCount":0,"method":"unavailable","totalUnitCount":0},"plannedCapacityMw":0.0,"plannedCapacityMwByTechnology":{},"recordCount":1,"recordIds":["wattlas-record-osm-way-303107694"],"sourceIds":["openstreetmap-power"],"technologies":["hydro"],"technologyMixMw":{"hydro":221.24},"unitCount":0,"unitIds":[]},"type":"Feature"},{"geometry":{"coordinates":[-82.61928,9.340058],"type":"Point"},"id":"wattlas-plant-wikidata-q16844431","properties":{"aliases":["Central Hidroeléctrica Bonyic"],"canonicalAnchor":"wikidata:Q16844431","canonicalCountryKey":"PA","capacityMw":31.8,"country":"PA","externalIds":{"osm":"node/9466553415","wikidata":"Q16844431"},"geographyId":"PA-82927092B39502170322116","id":"wattlas-plant-wikidata-q16844431","idAliases":["wattlas-plant-osm-node-9466553415"],"lifecycleCounts":{"operational":1},"locationPrecision":"exact","name":"Central Hidroeléctrica Bonyic","operatingCapacityCoverage":{"coveragePercent":100.0,"knownUnitCount":0,"method":"plant_aggregate","provenance":{"evidenceCount":0,"recordIds":["wattlas-record-osm-node-9466553415"],"sourceIds":["openstreetmap-power"],"sourceTypes":["community_mapped"],"valueKind":"reported"},"totalUnitCount":0},"operatingCapacityMw":31.8,"operatingCapacityMwByTechnology":{"hydro":31.8},"plannedCapacityCoverage":{"coveragePercent":0.0,"knownUnitCount":0,"method":"unavailable","totalUnitCount":0},"plannedCapacityMw":0.0,"plannedCapacityMwByTechnology":{},"recordCount":1,"recordIds":["wattlas-record-osm-node-9466553415"],"sourceIds":["openstreetmap-power"],"technologies":["hydro"],"technologyMixMw":{"hydro":31.8},"unitCount":0,"unitIds":[]},"type":"Feature"},{"geometry":{"coordinates":[-81.593932,8.214467],"type":"Point"},"id":"wattlas-plant-wikidata-q2885685","properties":{"aliases":["Dique Barro Blanco"],"canonicalAnchor":"wikidata:Q2885685","canonicalCountryKey":"PA","capacityMw":28.56,"country":"PA","externalIds":{"osm":"way/640515502","wikidata":"Q2885685"},"geographyId":"PA-82927092B39170055747381","id":"wattlas-plant-wikidata-q2885685","idAliases":["wattlas-plant-osm-way-640515502"],"lifecycleCounts":{"operational":1},"locationPrecision":"exact","name":"Dique Barro Blanco","operatingCapacityCoverage":{"coveragePercent":100.0,"knownUnitCount":0,"method":"plant_aggregate","provenance":{"evidenceCount":0,"recordIds":["wattlas-record-osm-way-640515502"],"sourceIds":["openstreetmap-power"],"sourceTypes":["community_mapped"],"valueKind":"reported"},"totalUnitCount":0},"operatingCapacityMw":28.56,"operatingCapacityMwByTechnology":{"hydro":28.56},"plannedCapacityCoverage":{"coveragePercent":0.0,"knownUnitCount":0,"method":"unavailable","totalUnitCount":0},"plannedCapacityMw":0.0,"plannedCapacityMwByTechnology":{},"recordCount":1,"recordIds":["wattlas-record-osm-way-640515502"],"sourceIds":["openstreetmap-power"],"technologies":["hydro"],"technologyMixMw":{"hydro":28.56},"unitCount":0,"unitIds":[]},"type":"Feature"},{"geometry":{"coordinates":[-78.884927,9.177073],"type":"Point"},"id":"wattlas-plant-wikidata-q4874313","properties":{"aliases":["Central Hidroeléctrica Bayano"],"canonicalAnchor":"wikidata:Q4874313","canonicalCountryKey":"PA","capacityMw":260.0,"country":"PA","externalIds":{"osm":"way/1026766762","wikidata":"Q4874313"},"geographyId":"PA-82927092B1953206585656","id":"wattlas-plant-wikidata-q4874313","idAliases":["wattlas-plant-osm-way-1026766762"],"lifecycleCounts":{"operational":1},"locationPrecision":"exact","name":"Central Hidroeléctrica Bayano","operatingCapacityCoverage":{"coveragePercent":100.0,"knownUnitCount":0,"method":"plant_aggregate","provenance":{"evidenceCount":0,"recordIds":["wattlas-record-osm-way-1026766762"],"sourceIds":["openstreetmap-power"],"sourceTypes":["community_mapped"],"valueKind":"reported"},"totalUnitCount":0},"operatingCapacityMw":260.0,"operatingCapacityMwByTechnology":{"hydro":260.0},"plannedCapacityCoverage":{"coveragePercent":0.0,"knownUnitCount":0,"method":"unavailable","totalUnitCount":0},"plannedCapacityMw":0.0,"plannedCapacityMwByTechnology":{},"recordCount":1,"recordIds":["wattlas-record-osm-way-1026766762"],"sourceIds":["openstreetmap-power"],"technologies":["hydro"],"technologyMixMw":{"hydro":260.0},"unitCount":0,"unitIds":[]},"type":"Feature"},{"geometry":{"coordinates":[-82.297888,8.543104],"type":"Point"},"id":"wattlas-plant-wikidata-q61448192","properties":{"aliases":["Central Hidroeléctrica Estí"],"canonicalAnchor":"wikidata:Q61448192","canonicalCountryKey":"PA","capacityMw":120.0,"country":"PA","externalIds":{"osm":"way/330647382","wikidata":"Q61448192"},"geographyId":"PA-82927092B1094181974383","id":"wattlas-plant-wikidata-q61448192","idAliases":["wattlas-plant-osm-way-330647382"],"lifecycleCounts":{"operational":1},"locationPrecision":"exact","name":"Central Hidroeléctrica Estí","operatingCapacityCoverage":{"coveragePercent":100.0,"knownUnitCount":0,"method":"plant_aggregate","provenance":{"evidenceCount":0,"recordIds":["wattlas-record-osm-way-330647382"],"sourceIds":["openstreetmap-power"],"sourceTypes":["community_mapped"],"valueKind":"reported"},"totalUnitCount":0},"operatingCapacityMw":120.0,"operatingCapacityMwByTechnology":{"hydro":120.0},"plannedCapacityCoverage":{"coveragePercent":0.0,"knownUnitCount":0,"method":"unavailable","totalUnitCount":0},"plannedCapacityMw":0.0,"plannedCapacityMwByTechnology":{},"recordCount":1,"recordIds":["wattlas-record-osm-way-330647382"],"sourceIds":["openstreetmap-power"],"technologies":["hydro"],"technologyMixMw":{"hydro":120.0},"unitCount":0,"unitIds":[]},"type":"Feature"},{"geometry":{"coordinates":[-82.343897,8.423848],"type":"Point"},"id":"wattlas-plant-wikidata-q61448193","properties":{"aliases":["Central Hidroeléctrica Prudencia"],"canonicalAnchor":"wikidata:Q61448193","canonicalCountryKey":"PA","capacityMw":58.66,"country":"PA","externalIds":{"osm":"way/1026766752","wikidata":"Q61448193"},"geographyId":"PA-82927092B1094181974383","id":"wattlas-plant-wikidata-q61448193","idAliases":["wattlas-plant-osm-way-1026766752"],"lifecycleCounts":{"operational":1},"locationPrecision":"exact","name":"Central Hidroeléctrica Prudencia","operatingCapacityCoverage":{"coveragePercent":100.0,"knownUnitCount":0,"method":"plant_aggregate","provenance":{"evidenceCount":0,"recordIds":["wattlas-record-osm-way-1026766752"],"sourceIds":["openstreetmap-power"],"sourceTypes":["community_mapped"],"valueKind":"reported"},"totalUnitCount":0},"operatingCapacityMw":58.66,"operatingCapacityMwByTechnology":{"hydro":58.66},"plannedCapacityCoverage":{"coveragePercent":0.0,"knownUnitCount":0,"method":"unavailable","totalUnitCount":0},"plannedCapacityMw":0.0,"plannedCapacityMwByTechnology":{},"recordCount":1,"recordIds":["wattlas-record-osm-way-1026766752"],"sourceIds":["openstreetmap-power"],"technologies":["hydro"],"technologyMixMw":{"hydro":58.66},"unitCount":0,"unitIds":[]},"type":"Feature"},{"geometry":{"coordinates":[-82.347584,8.677819],"type":"Point"},"id":"wattlas-plant-wikidata-q61448194","properties":{"aliases":["Central Hidroeléctrica Los Valles"],"canonicalAnchor":"wikidata:Q61448194","canonicalCountryKey":"PA","capacityMw":54.76,"country":"PA","externalIds":{"osm":"way/228036016","wikidata":"Q61448194"},"geographyId":"PA-82927092B1094181974383","id":"wattlas-plant-wikidata-q61448194","idAliases":["wattlas-plant-osm-way-228036016"],"lifecycleCounts":{"operational":1},"locationPrecision":"exact","name":"Central Hidroeléctrica Los Valles","operatingCapacityCoverage":{"coveragePercent":100.0,"knownUnitCount":0,"method":"plant_aggregate","provenance":{"evidenceCount":0,"recordIds":["wattlas-record-osm-way-228036016"],"sourceIds":["openstreetmap-power"],"sourceTypes":["community_mapped"],"valueKind":"reported"},"totalUnitCount":0},"operatingCapacityMw":54.76,"operatingCapacityMwByTechnology":{"hydro":54.76},"plannedCapacityCoverage":{"coveragePercent":0.0,"knownUnitCount":0,"method":"unavailable","totalUnitCount":0},"plannedCapacityMw":0.0,"plannedCapacityMwByTechnology":{},"recordCount":1,"recordIds":["wattlas-record-osm-way-228036016"],"sourceIds":["openstreetmap-power"],"technologies":["hydro"],"technologyMixMw":{"hydro":54.76},"unitCount":0,"unitIds":[]},"type":"Feature"},{"geometry":{"coordinates":[-82.82186,8.769086],"type":"Point"},"id":"wattlas-plant-wikidata-q61448196","properties":{"aliases":["Central Hidroeléctrica Monte Lirio"],"canonicalAnchor":"wikidata:Q61448196","canonicalCountryKey":"PA","capacityMw":51.65,"country":"PA","externalIds":{"osm":"way/872154225","wikidata":"Q61448196"},"geographyId":"PA-82927092B1094181974383","id":"wattlas-plant-wikidata-q61448196","idAliases":["wattlas-plant-osm-way-872154225"],"lifecycleCounts":{"operational":1},"locationPrecision":"exact","name":"Central Hidroeléctrica Monte Lirio","operatingCapacityCoverage":{"coveragePercent":100.0,"knownUnitCount":0,"method":"plant_aggregate","provenance":{"evidenceCount":0,"recordIds":["wattlas-record-osm-way-872154225"],"sourceIds":["openstreetmap-power"],"sourceTypes":["community_mapped"],"valueKind":"reported"},"totalUnitCount":0},"operatingCapacityMw":51.65,"operatingCapacityMwByTechnology":{"hydro":51.65},"plannedCapacityCoverage":{"coveragePercent":0.0,"knownUnitCount":0,"method":"unavailable","totalUnitCount":0},"plannedCapacityMw":0.0,"plannedCapacityMwByTechnology":{},"recordCount":1,"recordIds":["wattlas-record-osm-way-872154225"],"sourceIds":["openstreetmap-power"],"technologies":["hydro"],"technologyMixMw":{"hydro":51.65},"unitCount":0,"unitIds":[]},"type":"Feature"},{"geometry":{"coordinates":[-82.836206,8.728018],"type":"Point"},"id":"wattlas-plant-wikidata-q61448197","properties":{"aliases":["Central Hidroeléctrica El Alto"],"canonicalAnchor":"wikidata:Q61448197","canonicalCountryKey":"PA","capacityMw":72.0,"country":"PA","externalIds":{"osm":"way/1026766775","wikidata":"Q61448197"},"geographyId":"PA-82927092B1094181974383","id":"wattlas-plant-wikidata-q61448197","idAliases":["wattlas-plant-osm-way-1026766775"],"lifecycleCounts":{"operational":1},"locationPrecision":"exact","name":"Central Hidroeléctrica El Alto","operatingCapacityCoverage":{"coveragePercent":100.0,"knownUnitCount":0,"method":"plant_aggregate","provenance":{"evidenceCount":0,"recordIds":["wattlas-record-osm-way-1026766775"],"sourceIds":["openstreetmap-power"],"sourceTypes":["community_mapped"],"valueKind":"reported"},"totalUnitCount":0},"operatingCapacityMw":72.0,"operatingCapacityMwByTechnology":{"hydro":72.0},"plannedCapacityCoverage":{"coveragePercent":0.0,"knownUnitCount":0,"method":"unavailable","totalUnitCount":0},"plannedCapacityMw":0.0,"plannedCapacityMwByTechnology":{},"recordCount":1,"recordIds":["wattlas-record-osm-way-1026766775"],"sourceIds":["openstreetmap-power"],"technologies":["hydro"],"technologyMixMw":{"hydro":72.0},"unitCount":0,"unitIds":[]},"type":"Feature"},{"geometry":{"coordinates":[-82.8251,8.683216],"type":"Point"},"id":"wattlas-plant-wikidata-q61448199","properties":{"aliases":["Central Hidroeléctrica Bajo Mina"],"canonicalAnchor":"wikidata:Q61448199","canonicalCountryKey":"PA","capacityMw":57.4,"country":"PA","externalIds":{"osm":"way/330665701","wikidata":"Q61448199"},"geographyId":"PA-82927092B1094181974383","id":"wattlas-plant-wikidata-q61448199","idAliases":["wattlas-plant-osm-way-330665701"],"lifecycleCounts":{"operational":1},"locationPrecision":"exact","name":"Central Hidroeléctrica Bajo Mina","operatingCapacityCoverage":{"coveragePercent":100.0,"knownUnitCount":0,"method":"plant_aggregate","provenance":{"evidenceCount":0,"recordIds":["wattlas-record-osm-way-330665701"],"sourceIds":["openstreetmap-power"],"sourceTypes":["community_mapped"],"valueKind":"reported"},"totalUnitCount":0},"operatingCapacityMw":57.4,"operatingCapacityMwByTechnology":{"hydro":57.4},"plannedCapacityCoverage":{"coveragePercent":0.0,"knownUnitCount":0,"method":"unavailable","totalUnitCount":0},"plannedCapacityMw":0.0,"plannedCapacityMwByTechnology":{},"recordCount":1,"recordIds":["wattlas-record-osm-way-330665701"],"sourceIds":["openstreetmap-power"],"technologies":["hydro"],"technologyMixMw":{"hydro":57.4},"unitCount":0,"unitIds":[]},"type":"Feature"},{"geometry":{"coordinates":[-82.793441,8.614366],"type":"Point"},"id":"wattlas-plant-wikidata-q61448201","properties":{"aliases":["Central Hidroeléctrica Baitún"],"canonicalAnchor":"wikidata:Q61448201","canonicalCountryKey":"PA","capacityMw":87.6,"country":"PA","externalIds":{"osm":"way/330665698","wikidata":"Q61448201"},"geographyId":"PA-82927092B1094181974383","id":"wattlas-plant-wikidata-q61448201","idAliases":["wattlas-plant-osm-way-330665698"],"lifecycleCounts":{"operational":1},"locationPrecision":"exact","name":"Central Hidroeléctrica Baitún","operatingCapacityCoverage":{"coveragePercent":100.0,"knownUnitCount":0,"method":"plant_aggregate","provenance":{"evidenceCount":0,"recordIds":["wattlas-record-osm-way-330665698"],"sourceIds":["openstreetmap-power"],"sourceTypes":["community_mapped"],"valueKind":"reported"},"totalUnitCount":0},"operatingCapacityMw":87.6,"operatingCapacityMwByTechnology":{"hydro":87.6},"plannedCapacityCoverage":{"coveragePercent":0.0,"knownUnitCount":0,"method":"unavailable","totalUnitCount":0},"plannedCapacityMw":0.0,"plannedCapacityMwByTechnology":{},"recordCount":1,"recordIds":["wattlas-record-osm-way-330665698"],"sourceIds":["openstreetmap-power"],"technologies":["hydro"],"technologyMixMw":{"hydro":87.6},"unitCount":0,"unitIds":[]},"type":"Feature"},{"geometry":{"coordinates":[-82.786687,8.594527],"type":"Point"},"id":"wattlas-plant-wikidata-q61448202-394f202bbd","properties":{"aliases":["Central Hidroeléctrica Bajo Frío - La Potra"],"canonicalAnchor":"wikidata:Q61448202","canonicalCountryKey":"PA","capacityMw":28.0,"country":"PA","externalIds":{"osm":"way/746826523","wikidata":"Q61448202"},"geographyId":"PA-82927092B1094181974383","id":"wattlas-plant-wikidata-q61448202-394f202bbd","idAliases":["wattlas-plant-osm-way-746826523","wattlas-plant-wikidata-q61448202"],"lifecycleCounts":{"operational":1},"locationPrecision":"exact","name":"Central Hidroeléctrica Bajo Frío - La Potra","operatingCapacityCoverage":{"coveragePercent":100.0,"knownUnitCount":0,"method":"plant_aggregate","provenance":{"evidenceCount":0,"recordIds":["wattlas-record-osm-way-746826523"],"sourceIds":["openstreetmap-power"],"sourceTypes":["community_mapped"],"valueKind":"reported"},"totalUnitCount":0},"operatingCapacityMw":28.0,"operatingCapacityMwByTechnology":{"hydro":28.0},"plannedCapacityCoverage":{"coveragePercent":0.0,"knownUnitCount":0,"method":"unavailable","totalUnitCount":0},"plannedCapacityMw":0.0,"plannedCapacityMwByTechnology":{},"recordCount":1,"recordIds":["wattlas-record-osm-way-746826523"],"sourceIds":["openstreetmap-power"],"technologies":["hydro"],"technologyMixMw":{"hydro":28.0},"unitCount":0,"unitIds":[]},"type":"Feature"},{"geometry":{"coordinates":[-82.79289,8.579659],"type":"Point"},"id":"wattlas-plant-wikidata-q61448202-567945b46d","properties":{"aliases":["Central Hidroeléctrica Bajo Frío - Salsipuedes"],"canonicalAnchor":"wikidata:Q61448202","canonicalCountryKey":"PA","capacityMw":28.0,"country":"PA","externalIds":{"osm":"way/660932948","wikidata":"Q61448202"},"geographyId":"PA-82927092B1094181974383","id":"wattlas-plant-wikidata-q61448202-567945b46d","idAliases":["wattlas-plant-osm-way-660932948"],"lifecycleCounts":{"operational":1},"locationPrecision":"exact","name":"Central Hidroeléctrica Bajo Frío - Salsipuedes","operatingCapacityCoverage":{"coveragePercent":100.0,"knownUnitCount":0,"method":"plant_aggregate","provenance":{"evidenceCount":0,"recordIds":["wattlas-record-osm-way-660932948"],"sourceIds":["openstreetmap-power"],"sourceTypes":["community_mapped"],"valueKind":"reported"},"totalUnitCount":0},"operatingCapacityMw":28.0,"operatingCapacityMwByTechnology":{"hydro":28.0},"plannedCapacityCoverage":{"coveragePercent":0.0,"knownUnitCount":0,"method":"unavailable","totalUnitCount":0},"plannedCapacityMw":0.0,"plannedCapacityMwByTechnology":{},"recordCount":1,"recordIds":["wattlas-record-osm-way-660932948"],"sourceIds":["openstreetmap-power"],"technologies":["hydro"],"technologyMixMw":{"hydro":28.0},"unitCount":0,"unitIds":[]},"type":"Feature"}],"type":"FeatureCollection"}