{"features":[{"geometry":{"coordinates":[50.597067,26.092532],"type":"Point"},"id":"wattlas-plant-gemplant-l100000405456","properties":{"aliases":["1-3","1-5","2-3","2-5","3-5","4-1","4-5","Aluminium Bahrain (ALBA) power station"],"canonicalAnchor":"gemplant:L100000405456","canonicalCountryKey":"BH","capacityMw":3926.8999999999996,"country":"BH","externalIdAliases":{"gemUnit":["G100000404601","G100000408591","G100000408592","G100000408593","G100000410553","G100000411177","G100000411178"]},"externalIds":{"gemPlant":"L100000405456","gemUnit":"G100000410553"},"gemWikiUrl":"https://www.gem.wiki/Aluminium_Bahrain_(ALBA)_power_station","geographyId":"BH-46075475B435983987357","id":"wattlas-plant-gemplant-l100000405456","lifecycleCounts":{"operational":7},"locationPrecision":"exact","name":"Aluminium Bahrain (ALBA) power station","operatingCapacityCoverage":{"coveragePercent":100.0,"knownUnitCount":7,"method":"complete_unit_sum","provenance":{"evidenceCount":0,"recordIds":["wattlas-record-gemunit-g100000404601","wattlas-record-gemunit-g100000408591","wattlas-record-gemunit-g100000408592","wattlas-record-gemunit-g100000408593","wattlas-record-gemunit-g100000410553","wattlas-record-gemunit-g100000411177","wattlas-record-gemunit-g100000411178"],"sourceIds":["gem-global-integrated-power-tracker"],"sourceTypes":["research_verified"],"valueKind":"reported"},"totalUnitCount":7},"operatingCapacityMw":3926.8999999999996,"operatingCapacityMwByTechnology":{"gas":3926.9000000000005},"plannedCapacityCoverage":{"coveragePercent":0.0,"knownUnitCount":0,"method":"unavailable","totalUnitCount":0},"plannedCapacityMw":0.0,"plannedCapacityMwByTechnology":{},"recordCount":7,"recordIds":["wattlas-record-gemunit-g100000404601","wattlas-record-gemunit-g100000408591","wattlas-record-gemunit-g100000408592","wattlas-record-gemunit-g100000408593","wattlas-record-gemunit-g100000410553","wattlas-record-gemunit-g100000411177","wattlas-record-gemunit-g100000411178"],"sourceIds":["gem-global-integrated-power-tracker"],"sourceUrl":"https://www.gem.wiki/Aluminium_Bahrain_(ALBA)_power_station","technologies":["gas"],"technologyMixMw":{"gas":3926.9000000000005},"unitCount":7,"unitIds":["gem-unit-G100000404601","gem-unit-G100000408591","gem-unit-G100000408592","gem-unit-G100000408593","gem-unit-G100000410553","gem-unit-G100000411177","gem-unit-G100000411178"]},"type":"Feature"},{"geometry":{"coordinates":[50.6621,26.2223],"type":"Point"},"id":"wattlas-plant-gemplant-l100000405457","properties":{"aliases":["1-1","Al Hidd Power and Water Station"],"canonicalAnchor":"gemplant:L100000405457","canonicalCountryKey":"BH","capacityMw":987.0,"country":"BH","externalIds":{"gemPlant":"L100000405457","gemUnit":"G100000404589"},"gemWikiUrl":"https://www.gem.wiki/Al_Hidd_Power_and_Water_Station","geographyId":"BH-46075475B51781384290981","id":"wattlas-plant-gemplant-l100000405457","lifecycleCounts":{"operational":1},"locationPrecision":"exact","name":"Al Hidd Power and Water Station","operatingCapacityCoverage":{"coveragePercent":100.0,"knownUnitCount":1,"method":"complete_unit_sum","provenance":{"evidenceCount":0,"recordIds":["wattlas-record-gemunit-g100000404589"],"sourceIds":["gem-global-integrated-power-tracker"],"sourceTypes":["research_verified"],"valueKind":"reported"},"totalUnitCount":1},"operatingCapacityMw":987.0,"operatingCapacityMwByTechnology":{"gas":987.0},"plannedCapacityCoverage":{"coveragePercent":0.0,"knownUnitCount":0,"method":"unavailable","totalUnitCount":0},"plannedCapacityMw":0.0,"plannedCapacityMwByTechnology":{},"recordCount":1,"recordIds":["wattlas-record-gemunit-g100000404589"],"sourceIds":["gem-global-integrated-power-tracker"],"sourceUrl":"https://www.gem.wiki/Al_Hidd_Power_and_Water_Station","technologies":["gas"],"technologyMixMw":{"gas":987.0},"unitCount":1,"unitIds":["gem-unit-G100000404589"]},"type":"Feature"},{"geometry":{"coordinates":[50.589518,26.120268],"type":"Point"},"id":"wattlas-plant-gemplant-l100000405458","properties":{"aliases":["1-G1","1-G2","1-G3","1-G4","1-G5","2-G10","2-G11","2-G6","2-G7","2-G8","2-G9","Riffa Power and Water Station"],"canonicalAnchor":"gemplant:L100000405458","canonicalCountryKey":"BH","capacityMw":700.0,"country":"BH","externalIdAliases":{"gemUnit":["G100000404590","G100000404591","G100000404592","G100000404593","G100000404594","G100000404595","G100000404596","G100000404597","G100000404598","G100000404599","G100000404600"]},"externalIds":{"gemPlant":"L100000405458","gemUnit":"G100000404598"},"gemWikiUrl":"https://www.gem.wiki/Riffa_Power_and_Water_Station","geographyId":"BH-46075475B435983987357","id":"wattlas-plant-gemplant-l100000405458","lifecycleCounts":{"operational":11},"locationPrecision":"exact","name":"Riffa Power and Water Station","operatingCapacityCoverage":{"coveragePercent":100.0,"knownUnitCount":11,"method":"complete_unit_sum","provenance":{"evidenceCount":0,"recordIds":["wattlas-record-gemunit-g100000404590","wattlas-record-gemunit-g100000404591","wattlas-record-gemunit-g100000404592","wattlas-record-gemunit-g100000404593","wattlas-record-gemunit-g100000404594","wattlas-record-gemunit-g100000404595","wattlas-record-gemunit-g100000404596","wattlas-record-gemunit-g100000404597","wattlas-record-gemunit-g100000404598","wattlas-record-gemunit-g100000404599","wattlas-record-gemunit-g100000404600"],"sourceIds":["gem-global-integrated-power-tracker"],"sourceTypes":["research_verified"],"valueKind":"reported"},"totalUnitCount":11},"operatingCapacityMw":700.0,"operatingCapacityMwByTechnology":{"gas":700.0},"plannedCapacityCoverage":{"coveragePercent":0.0,"knownUnitCount":0,"method":"unavailable","totalUnitCount":0},"plannedCapacityMw":0.0,"plannedCapacityMwByTechnology":{},"recordCount":11,"recordIds":["wattlas-record-gemunit-g100000404590","wattlas-record-gemunit-g100000404591","wattlas-record-gemunit-g100000404592","wattlas-record-gemunit-g100000404593","wattlas-record-gemunit-g100000404594","wattlas-record-gemunit-g100000404595","wattlas-record-gemunit-g100000404596","wattlas-record-gemunit-g100000404597","wattlas-record-gemunit-g100000404598","wattlas-record-gemunit-g100000404599","wattlas-record-gemunit-g100000404600"],"sourceIds":["gem-global-integrated-power-tracker"],"sourceUrl":"https://www.gem.wiki/Riffa_Power_and_Water_Station","technologies":["gas"],"technologyMixMw":{"gas":700.0},"unitCount":11,"unitIds":["gem-unit-G100000404590","gem-unit-G100000404591","gem-unit-G100000404592","gem-unit-G100000404593","gem-unit-G100000404594","gem-unit-G100000404595","gem-unit-G100000404596","gem-unit-G100000404597","gem-unit-G100000404598","gem-unit-G100000404599","gem-unit-G100000404600"]},"type":"Feature"},{"geometry":{"coordinates":[50.5975,26.0533],"type":"Point"},"id":"wattlas-plant-gemplant-l100000804089","properties":{"aliases":["--","Al Askar IPP solar farm"],"canonicalAnchor":"gemplant:L100000804089","canonicalCountryKey":"BH","capacityMw":100.0,"country":"BH","externalIds":{"gemPlant":"L100000804089","gemUnit":"G100000804671"},"gemWikiUrl":"https://www.gem.wiki/Al_Askar_IPP_solar_farm","geographyId":"BH-46075475B435983987357","id":"wattlas-plant-gemplant-l100000804089","lifecycleCounts":{"announced":1},"locationPrecision":"exact","name":"Al Askar IPP solar farm","operatingCapacityCoverage":{"coveragePercent":0.0,"knownUnitCount":0,"method":"unavailable","totalUnitCount":0},"operatingCapacityMw":0.0,"operatingCapacityMwByTechnology":{},"plannedCapacityCoverage":{"coveragePercent":100.0,"knownUnitCount":1,"method":"complete_unit_sum","provenance":{"evidenceCount":0,"recordIds":["wattlas-record-gemunit-g100000804671"],"sourceIds":["gem-global-integrated-power-tracker"],"sourceTypes":["research_verified"],"valueKind":"reported"},"totalUnitCount":1},"plannedCapacityMw":100.0,"plannedCapacityMwByTechnology":{"solar":100.0},"recordCount":1,"recordIds":["wattlas-record-gemunit-g100000804671"],"sourceIds":["gem-global-integrated-power-tracker"],"sourceUrl":"https://www.gem.wiki/Al_Askar_IPP_solar_farm","technologies":["solar"],"technologyMixMw":{"solar":100.0},"unitCount":1,"unitIds":["gem-unit-G100000804671"]},"type":"Feature"},{"geometry":{"coordinates":[50.5091,26.0363],"type":"Point"},"id":"wattlas-plant-gemplant-l100000829385","properties":{"aliases":["--","Sakhir solar farm"],"canonicalAnchor":"gemplant:L100000829385","canonicalCountryKey":"BH","capacityMw":72.0,"country":"BH","externalIds":{"gemPlant":"L100000829385","gemUnit":"G100000833174"},"gemWikiUrl":"https://www.gem.wiki/Sakhir_solar_farm","geographyId":"BH-46075475B435983987357","id":"wattlas-plant-gemplant-l100000829385","lifecycleCounts":{"announced":1},"locationPrecision":"exact","name":"Sakhir solar farm","operatingCapacityCoverage":{"coveragePercent":0.0,"knownUnitCount":0,"method":"unavailable","totalUnitCount":0},"operatingCapacityMw":0.0,"operatingCapacityMwByTechnology":{},"plannedCapacityCoverage":{"coveragePercent":100.0,"knownUnitCount":1,"method":"complete_unit_sum","provenance":{"evidenceCount":0,"recordIds":["wattlas-record-gemunit-g100000833174"],"sourceIds":["gem-global-integrated-power-tracker"],"sourceTypes":["research_verified"],"valueKind":"reported"},"totalUnitCount":1},"plannedCapacityMw":72.0,"plannedCapacityMwByTechnology":{"solar":72.0},"recordCount":1,"recordIds":["wattlas-record-gemunit-g100000833174"],"sourceIds":["gem-global-integrated-power-tracker"],"sourceUrl":"https://www.gem.wiki/Sakhir_solar_farm","technologies":["solar"],"technologyMixMw":{"solar":72.0},"unitCount":1,"unitIds":["gem-unit-G100000833174"]},"type":"Feature"},{"geometry":{"coordinates":[50.5731,26.0722],"type":"Point"},"id":"wattlas-plant-gemplant-l100001068903","properties":{"aliases":["--","Southern Governorate solar project I"],"canonicalAnchor":"gemplant:L100001068903","canonicalCountryKey":"BH","capacityMw":1.0,"country":"BH","externalIds":{"gemPlant":"L100001068903","gemUnit":"G100001078689"},"gemWikiUrl":"https://www.gem.wiki/Southern_Governorate_solar_project_I","geographyId":"BH-46075475B435983987357","id":"wattlas-plant-gemplant-l100001068903","lifecycleCounts":{"operational":1},"locationPrecision":"exact","name":"Southern Governorate solar project I","operatingCapacityCoverage":{"coveragePercent":100.0,"knownUnitCount":1,"method":"complete_unit_sum","provenance":{"evidenceCount":0,"recordIds":["wattlas-record-gemunit-g100001078689"],"sourceIds":["gem-global-integrated-power-tracker"],"sourceTypes":["research_verified"],"valueKind":"reported"},"totalUnitCount":1},"operatingCapacityMw":1.0,"operatingCapacityMwByTechnology":{"solar":1.0},"plannedCapacityCoverage":{"coveragePercent":0.0,"knownUnitCount":0,"method":"unavailable","totalUnitCount":0},"plannedCapacityMw":0.0,"plannedCapacityMwByTechnology":{},"recordCount":1,"recordIds":["wattlas-record-gemunit-g100001078689"],"sourceIds":["gem-global-integrated-power-tracker"],"sourceUrl":"https://www.gem.wiki/Southern_Governorate_solar_project_I","technologies":["solar"],"technologyMixMw":{"solar":1.0},"unitCount":1,"unitIds":["gem-unit-G100001078689"]},"type":"Feature"},{"geometry":{"coordinates":[50.6101,26.0713],"type":"Point"},"id":"wattlas-plant-gemplant-l100001068904","properties":{"aliases":["--","Southern Governorate solar project II"],"canonicalAnchor":"gemplant:L100001068904","canonicalCountryKey":"BH","capacityMw":1.4,"country":"BH","externalIds":{"gemPlant":"L100001068904","gemUnit":"G100001078690"},"gemWikiUrl":"https://www.gem.wiki/Southern_Governorate_solar_project_II","geographyId":"BH-46075475B435983987357","id":"wattlas-plant-gemplant-l100001068904","lifecycleCounts":{"operational":1},"locationPrecision":"exact","name":"Southern Governorate solar project II","operatingCapacityCoverage":{"coveragePercent":100.0,"knownUnitCount":1,"method":"complete_unit_sum","provenance":{"evidenceCount":0,"recordIds":["wattlas-record-gemunit-g100001078690"],"sourceIds":["gem-global-integrated-power-tracker"],"sourceTypes":["research_verified"],"valueKind":"reported"},"totalUnitCount":1},"operatingCapacityMw":1.4,"operatingCapacityMwByTechnology":{"solar":1.4},"plannedCapacityCoverage":{"coveragePercent":0.0,"knownUnitCount":0,"method":"unavailable","totalUnitCount":0},"plannedCapacityMw":0.0,"plannedCapacityMwByTechnology":{},"recordCount":1,"recordIds":["wattlas-record-gemunit-g100001078690"],"sourceIds":["gem-global-integrated-power-tracker"],"sourceUrl":"https://www.gem.wiki/Southern_Governorate_solar_project_II","technologies":["solar"],"technologyMixMw":{"solar":1.4},"unitCount":1,"unitIds":["gem-unit-G100001078690"]},"type":"Feature"},{"geometry":{"coordinates":[50.6002,26.1214],"type":"Point"},"id":"wattlas-plant-gemplant-l100001068906","properties":{"aliases":["--","Riffa solar project I"],"canonicalAnchor":"gemplant:L100001068906","canonicalCountryKey":"BH","capacityMw":1.9,"country":"BH","externalIds":{"gemPlant":"L100001068906","gemUnit":"G100001078692"},"gemWikiUrl":"https://www.gem.wiki/Riffa_solar_project_I","geographyId":"BH-46075475B435983987357","id":"wattlas-plant-gemplant-l100001068906","lifecycleCounts":{"operational":1},"locationPrecision":"exact","name":"Riffa solar project I","operatingCapacityCoverage":{"coveragePercent":100.0,"knownUnitCount":1,"method":"complete_unit_sum","provenance":{"evidenceCount":0,"recordIds":["wattlas-record-gemunit-g100001078692"],"sourceIds":["gem-global-integrated-power-tracker"],"sourceTypes":["research_verified"],"valueKind":"reported"},"totalUnitCount":1},"operatingCapacityMw":1.9,"operatingCapacityMwByTechnology":{"solar":1.9},"plannedCapacityCoverage":{"coveragePercent":0.0,"knownUnitCount":0,"method":"unavailable","totalUnitCount":0},"plannedCapacityMw":0.0,"plannedCapacityMwByTechnology":{},"recordCount":1,"recordIds":["wattlas-record-gemunit-g100001078692"],"sourceIds":["gem-global-integrated-power-tracker"],"sourceUrl":"https://www.gem.wiki/Riffa_solar_project_I","technologies":["solar"],"technologyMixMw":{"solar":1.9},"unitCount":1,"unitIds":["gem-unit-G100001078692"]},"type":"Feature"},{"geometry":{"coordinates":[50.5835,25.9538],"type":"Point"},"id":"wattlas-plant-gemplant-l100001068907","properties":{"aliases":["--","Southern Governorate solar project IV"],"canonicalAnchor":"gemplant:L100001068907","canonicalCountryKey":"BH","capacityMw":1.8,"country":"BH","externalIds":{"gemPlant":"L100001068907","gemUnit":"G100001078693"},"gemWikiUrl":"https://www.gem.wiki/Southern_Governorate_solar_project_IV","geographyId":"BH-46075475B435983987357","id":"wattlas-plant-gemplant-l100001068907","lifecycleCounts":{"operational":1},"locationPrecision":"exact","name":"Southern Governorate solar project IV","operatingCapacityCoverage":{"coveragePercent":100.0,"knownUnitCount":1,"method":"complete_unit_sum","provenance":{"evidenceCount":0,"recordIds":["wattlas-record-gemunit-g100001078693"],"sourceIds":["gem-global-integrated-power-tracker"],"sourceTypes":["research_verified"],"valueKind":"reported"},"totalUnitCount":1},"operatingCapacityMw":1.8,"operatingCapacityMwByTechnology":{"solar":1.8},"plannedCapacityCoverage":{"coveragePercent":0.0,"knownUnitCount":0,"method":"unavailable","totalUnitCount":0},"plannedCapacityMw":0.0,"plannedCapacityMwByTechnology":{},"recordCount":1,"recordIds":["wattlas-record-gemunit-g100001078693"],"sourceIds":["gem-global-integrated-power-tracker"],"sourceUrl":"https://www.gem.wiki/Southern_Governorate_solar_project_IV","technologies":["solar"],"technologyMixMw":{"solar":1.8},"unitCount":1,"unitIds":["gem-unit-G100001078693"]},"type":"Feature"},{"geometry":{"coordinates":[50.597455,26.092302],"type":"Point"},"id":"wattlas-plant-osm-relation-14447117","properties":{"aliases":["Alba Power Station"],"canonicalAnchor":"osm:relation/14447117","canonicalCountryKey":"BH","capacityMw":0.0,"country":"BH","externalIds":{"osm":"relation/14447117"},"geographyId":"BH-46075475B435983987357","id":"wattlas-plant-osm-relation-14447117","lifecycleCounts":{"operational":1},"locationPrecision":"exact","name":"Alba Power Station","operatingCapacityCoverage":{"coveragePercent":0.0,"knownUnitCount":0,"method":"unavailable","totalUnitCount":0},"operatingCapacityMw":0.0,"operatingCapacityMwByTechnology":{},"plannedCapacityCoverage":{"coveragePercent":0.0,"knownUnitCount":0,"method":"unavailable","totalUnitCount":0},"plannedCapacityMw":0.0,"plannedCapacityMwByTechnology":{},"recordCount":1,"recordIds":["wattlas-record-osm-relation-14447117"],"sourceIds":["openstreetmap-power"],"sourceUrl":"https://www.openstreetmap.org/relation/14447117","technologies":["gas"],"technologyMixMw":{"gas":0.0},"unitCount":0,"unitIds":[]},"type":"Feature"},{"geometry":{"coordinates":[50.589258,26.120153],"type":"Point"},"id":"wattlas-plant-wikidata-q104937317","properties":{"aliases":["محطة طاقة الرفاع البحرين"],"canonicalAnchor":"wikidata:Q104937317","canonicalCountryKey":"BH","capacityMw":700.0,"country":"BH","externalIds":{"osm":"way/100468299","wikidata":"Q104937317"},"geographyId":"BH-46075475B435983987357","id":"wattlas-plant-wikidata-q104937317","idAliases":["wattlas-plant-osm-way-100468299"],"lifecycleCounts":{"operational":1},"locationPrecision":"exact","name":"محطة طاقة الرفاع البحرين","operatingCapacityCoverage":{"coveragePercent":100.0,"knownUnitCount":0,"method":"plant_aggregate","provenance":{"evidenceCount":0,"recordIds":["wattlas-record-osm-way-100468299"],"sourceIds":["openstreetmap-power"],"sourceTypes":["community_mapped"],"valueKind":"reported"},"totalUnitCount":0},"operatingCapacityMw":700.0,"operatingCapacityMwByTechnology":{"gas":700.0},"plannedCapacityCoverage":{"coveragePercent":0.0,"knownUnitCount":0,"method":"unavailable","totalUnitCount":0},"plannedCapacityMw":0.0,"plannedCapacityMwByTechnology":{},"recordCount":1,"recordIds":["wattlas-record-osm-way-100468299"],"sourceIds":["openstreetmap-power"],"sourceUrl":"https://www.openstreetmap.org/way/100468299","technologies":["gas"],"technologyMixMw":{"gas":700.0},"unitCount":0,"unitIds":[]},"type":"Feature"},{"geometry":{"coordinates":[50.599625,26.0933],"type":"Point"},"id":"wattlas-plant-wikidata-q11957204","properties":{"aliases":["Alba power plant"],"canonicalAnchor":"wikidata:Q11957204","canonicalCountryKey":"BH","capacityMw":4041.0,"country":"BH","externalIds":{"osm":"way/897780332","wikidata":"Q11957204"},"geographyId":"BH-46075475B435983987357","id":"wattlas-plant-wikidata-q11957204","idAliases":["wattlas-plant-osm-way-897780332"],"lifecycleCounts":{"operational":1},"locationPrecision":"exact","name":"Alba power plant","operatingCapacityCoverage":{"coveragePercent":100.0,"knownUnitCount":0,"method":"plant_aggregate","provenance":{"evidenceCount":0,"recordIds":["wattlas-record-osm-way-897780332"],"sourceIds":["openstreetmap-power"],"sourceTypes":["community_mapped"],"valueKind":"reported"},"totalUnitCount":0},"operatingCapacityMw":4041.0,"operatingCapacityMwByTechnology":{"gas":4041.0},"plannedCapacityCoverage":{"coveragePercent":0.0,"knownUnitCount":0,"method":"unavailable","totalUnitCount":0},"plannedCapacityMw":0.0,"plannedCapacityMwByTechnology":{},"recordCount":1,"recordIds":["wattlas-record-osm-way-897780332"],"sourceIds":["openstreetmap-power"],"sourceUrl":"https://www.openstreetmap.org/way/897780332","technologies":["gas"],"technologyMixMw":{"gas":4041.0},"unitCount":0,"unitIds":[]},"type":"Feature"},{"geometry":{"coordinates":[50.662309,26.221918],"type":"Point"},"id":"wattlas-plant-wikidata-q11957205-19493bf70a","properties":{"aliases":["Al Hidd power and water station"],"canonicalAnchor":"wikidata:Q11957205","canonicalCountryKey":"BH","capacityMw":929.0,"country":"BH","externalIds":{"osm":"way/274920655","wikidata":"Q11957205"},"geographyId":"BH-46075475B51781384290981","id":"wattlas-plant-wikidata-q11957205-19493bf70a","idAliases":["wattlas-plant-osm-way-274920655","wattlas-plant-wikidata-q11957205"],"lifecycleCounts":{"operational":1},"locationPrecision":"exact","name":"Al Hidd power and water station","operatingCapacityCoverage":{"coveragePercent":100.0,"knownUnitCount":0,"method":"plant_aggregate","provenance":{"evidenceCount":0,"recordIds":["wattlas-record-osm-way-274920655"],"sourceIds":["openstreetmap-power"],"sourceTypes":["community_mapped"],"valueKind":"reported"},"totalUnitCount":0},"operatingCapacityMw":929.0,"operatingCapacityMwByTechnology":{"gas":929.0},"plannedCapacityCoverage":{"coveragePercent":0.0,"knownUnitCount":0,"method":"unavailable","totalUnitCount":0},"plannedCapacityMw":0.0,"plannedCapacityMwByTechnology":{},"recordCount":1,"recordIds":["wattlas-record-osm-way-274920655"],"sourceIds":["openstreetmap-power"],"sourceUrl":"https://www.openstreetmap.org/way/274920655","technologies":["gas"],"technologyMixMw":{"gas":929.0},"unitCount":0,"unitIds":[]},"type":"Feature"},{"geometry":{"coordinates":[50.662773,26.224633],"type":"Point"},"id":"wattlas-plant-wikidata-q11957205-7c093aa0f8","properties":{"aliases":["Al Hidd power and water station"],"canonicalAnchor":"wikidata:Q11957205","canonicalCountryKey":"BH","capacityMw":929.0,"country":"BH","externalIds":{"osm":"way/1039446539","wikidata":"Q11957205"},"geographyId":"BH-46075475B51781384290981","id":"wattlas-plant-wikidata-q11957205-7c093aa0f8","idAliases":["wattlas-plant-osm-way-1039446539"],"lifecycleCounts":{"operational":1},"locationPrecision":"exact","name":"Al Hidd power and water station","operatingCapacityCoverage":{"coveragePercent":100.0,"knownUnitCount":0,"method":"plant_aggregate","provenance":{"evidenceCount":0,"recordIds":["wattlas-record-osm-way-1039446539"],"sourceIds":["openstreetmap-power"],"sourceTypes":["community_mapped"],"valueKind":"reported"},"totalUnitCount":0},"operatingCapacityMw":929.0,"operatingCapacityMwByTechnology":{"gas":929.0},"plannedCapacityCoverage":{"coveragePercent":0.0,"knownUnitCount":0,"method":"unavailable","totalUnitCount":0},"plannedCapacityMw":0.0,"plannedCapacityMwByTechnology":{},"recordCount":1,"recordIds":["wattlas-record-osm-way-1039446539"],"sourceIds":["openstreetmap-power"],"sourceUrl":"https://www.openstreetmap.org/way/1039446539","technologies":["gas"],"technologyMixMw":{"gas":929.0},"unitCount":0,"unitIds":[]},"type":"Feature"},{"geometry":{"coordinates":[50.661952,26.224628],"type":"Point"},"id":"wattlas-plant-wikidata-q11957205-a2ae2c9ee5","properties":{"aliases":["Al Hidd power and water station"],"canonicalAnchor":"wikidata:Q11957205","canonicalCountryKey":"BH","capacityMw":929.0,"country":"BH","externalIds":{"osm":"way/1039446542","wikidata":"Q11957205"},"geographyId":"BH-46075475B51781384290981","id":"wattlas-plant-wikidata-q11957205-a2ae2c9ee5","idAliases":["wattlas-plant-osm-way-1039446542"],"lifecycleCounts":{"operational":1},"locationPrecision":"exact","name":"Al Hidd power and water station","operatingCapacityCoverage":{"coveragePercent":100.0,"knownUnitCount":0,"method":"plant_aggregate","provenance":{"evidenceCount":0,"recordIds":["wattlas-record-osm-way-1039446542"],"sourceIds":["openstreetmap-power"],"sourceTypes":["community_mapped"],"valueKind":"reported"},"totalUnitCount":0},"operatingCapacityMw":929.0,"operatingCapacityMwByTechnology":{"gas":929.0},"plannedCapacityCoverage":{"coveragePercent":0.0,"knownUnitCount":0,"method":"unavailable","totalUnitCount":0},"plannedCapacityMw":0.0,"plannedCapacityMwByTechnology":{},"recordCount":1,"recordIds":["wattlas-record-osm-way-1039446542"],"sourceIds":["openstreetmap-power"],"sourceUrl":"https://www.openstreetmap.org/way/1039446542","technologies":["gas"],"technologyMixMw":{"gas":929.0},"unitCount":0,"unitIds":[]},"type":"Feature"}],"type":"FeatureCollection"}