{"features":[{"geometry":{"coordinates":[-78.750691,26.518249],"type":"Point"},"id":"wattlas-plant-gemplant-l100000408511","properties":{"aliases":["1-1","West Sunrise power station"],"canonicalAnchor":"gemplant:L100000408511","canonicalCountryKey":"BS","capacityMw":52.0,"country":"BS","externalIds":{"gemPlant":"L100000408511","gemUnit":"G100000412233"},"gemWikiUrl":"https://www.gem.wiki/West_Sunrise_power_station","geographyId":"BS-57655419B65085412826087","id":"wattlas-plant-gemplant-l100000408511","lifecycleCounts":{"operational":1},"locationPrecision":"exact","name":"West Sunrise power station","operatingCapacityCoverage":{"coveragePercent":100.0,"knownUnitCount":1,"method":"complete_unit_sum","provenance":{"evidenceCount":0,"recordIds":["wattlas-record-gemunit-g100000412233"],"sourceIds":["gem-global-integrated-power-tracker"],"sourceTypes":["research_verified"],"valueKind":"reported"},"totalUnitCount":1},"operatingCapacityMw":52.0,"operatingCapacityMwByTechnology":{"oil":52.0},"plannedCapacityCoverage":{"coveragePercent":0.0,"knownUnitCount":0,"method":"unavailable","totalUnitCount":0},"plannedCapacityMw":0.0,"plannedCapacityMwByTechnology":{},"recordCount":1,"recordIds":["wattlas-record-gemunit-g100000412233"],"sourceIds":["gem-global-integrated-power-tracker"],"sourceUrl":"https://www.gem.wiki/West_Sunrise_power_station","technologies":["oil"],"technologyMixMw":{"oil":52.0},"unitCount":1,"unitIds":["gem-unit-G100000412233"]},"type":"Feature"},{"geometry":{"coordinates":[-77.355882,25.038552],"type":"Point"},"id":"wattlas-plant-gemplant-l100001023549","properties":{"aliases":["1-1","Blue Hills power station"],"canonicalAnchor":"gemplant:L100001023549","canonicalCountryKey":"BS","capacityMw":177.0,"country":"BS","externalIds":{"gemPlant":"L100001023549","gemUnit":"G100001028060"},"gemWikiUrl":"https://www.gem.wiki/Blue_Hills_power_station","geographyId":"BS-57655419B75676267470758","id":"wattlas-plant-gemplant-l100001023549","lifecycleCounts":{"announced":1},"locationPrecision":"exact","name":"Blue Hills power station","operatingCapacityCoverage":{"coveragePercent":0.0,"knownUnitCount":0,"method":"unavailable","totalUnitCount":0},"operatingCapacityMw":0.0,"operatingCapacityMwByTechnology":{},"plannedCapacityCoverage":{"coveragePercent":100.0,"knownUnitCount":1,"method":"complete_unit_sum","provenance":{"evidenceCount":0,"recordIds":["wattlas-record-gemunit-g100001028060"],"sourceIds":["gem-global-integrated-power-tracker"],"sourceTypes":["research_verified"],"valueKind":"reported"},"totalUnitCount":1},"plannedCapacityMw":177.0,"plannedCapacityMwByTechnology":{"gas":177.0},"recordCount":1,"recordIds":["wattlas-record-gemunit-g100001028060"],"sourceIds":["gem-global-integrated-power-tracker"],"sourceUrl":"https://www.gem.wiki/Blue_Hills_power_station","technologies":["gas"],"technologyMixMw":{"gas":177.0},"unitCount":1,"unitIds":["gem-unit-G100001028060"]},"type":"Feature"},{"geometry":{"coordinates":[-78.691297,26.542802],"type":"Point"},"id":"wattlas-plant-osm-way-1195397150","properties":{"aliases":["Mapped power plant · OSM 1195397150"],"canonicalAnchor":"osm:way/1195397150","canonicalCountryKey":"BS","capacityMw":0.0,"country":"BS","externalIds":{"osm":"way/1195397150"},"geographyId":"BS-57655419B65085412826087","id":"wattlas-plant-osm-way-1195397150","lifecycleCounts":{"operational":1},"locationPrecision":"exact","name":"Mapped power plant · OSM 1195397150","operatingCapacityCoverage":{"coveragePercent":0.0,"knownUnitCount":0,"method":"unavailable","totalUnitCount":0},"operatingCapacityMw":0.0,"operatingCapacityMwByTechnology":{},"plannedCapacityCoverage":{"coveragePercent":0.0,"knownUnitCount":0,"method":"unavailable","totalUnitCount":0},"plannedCapacityMw":0.0,"plannedCapacityMwByTechnology":{},"recordCount":1,"recordIds":["wattlas-record-osm-way-1195397150"],"sourceIds":["openstreetmap-power"],"sourceUrl":"https://www.openstreetmap.org/way/1195397150","technologies":["solar"],"technologyMixMw":{"solar":0.0},"unitCount":0,"unitIds":[]},"type":"Feature"},{"geometry":{"coordinates":[-78.751252,26.519026],"type":"Point"},"id":"wattlas-plant-osm-way-178169252","properties":{"aliases":["Mapped power plant · OSM 178169252"],"canonicalAnchor":"osm:way/178169252","canonicalCountryKey":"BS","capacityMw":0.0,"country":"BS","externalIds":{"osm":"way/178169252"},"geographyId":"BS-57655419B65085412826087","id":"wattlas-plant-osm-way-178169252","lifecycleCounts":{"operational":1},"locationPrecision":"exact","name":"Mapped power plant · OSM 178169252","operatingCapacityCoverage":{"coveragePercent":0.0,"knownUnitCount":0,"method":"unavailable","totalUnitCount":0},"operatingCapacityMw":0.0,"operatingCapacityMwByTechnology":{},"plannedCapacityCoverage":{"coveragePercent":0.0,"knownUnitCount":0,"method":"unavailable","totalUnitCount":0},"plannedCapacityMw":0.0,"plannedCapacityMwByTechnology":{},"recordCount":1,"recordIds":["wattlas-record-osm-way-178169252"],"sourceIds":["openstreetmap-power"],"sourceUrl":"https://www.openstreetmap.org/way/178169252","technologies":["other"],"technologyMixMw":{"other":0.0},"unitCount":0,"unitIds":[]},"type":"Feature"},{"geometry":{"coordinates":[-77.357422,25.035656],"type":"Point"},"id":"wattlas-plant-osm-way-302164791","properties":{"aliases":["Bahamas Electricity Corporation (BEC)"],"canonicalAnchor":"osm:way/302164791","canonicalCountryKey":"BS","capacityMw":0.0,"country":"BS","externalIds":{"osm":"way/302164791"},"geographyId":"BS-57655419B75676267470758","id":"wattlas-plant-osm-way-302164791","lifecycleCounts":{"operational":1},"locationPrecision":"exact","name":"Bahamas Electricity Corporation (BEC)","operatingCapacityCoverage":{"coveragePercent":0.0,"knownUnitCount":0,"method":"unavailable","totalUnitCount":0},"operatingCapacityMw":0.0,"operatingCapacityMwByTechnology":{},"plannedCapacityCoverage":{"coveragePercent":0.0,"knownUnitCount":0,"method":"unavailable","totalUnitCount":0},"plannedCapacityMw":0.0,"plannedCapacityMwByTechnology":{},"recordCount":1,"recordIds":["wattlas-record-osm-way-302164791"],"sourceIds":["openstreetmap-power"],"sourceUrl":"https://www.openstreetmap.org/way/302164791","technologies":["other"],"technologyMixMw":{"other":0.0},"unitCount":0,"unitIds":[]},"type":"Feature"}],"type":"FeatureCollection"}