{"features":[{"geometry":{"coordinates":[89.563,27.0585],"type":"Point"},"id":"wattlas-plant-gemplant-l100000600156","properties":{"aliases":["Chhukha hydroelectric plant"],"canonicalAnchor":"gemplant:L100000600156","canonicalCountryKey":"BT","capacityMw":336.0,"country":"BT","externalIds":{"gemPlant":"L100000600156","gemUnit":"G100000600156"},"gemWikiUrl":"https://www.gem.wiki/Chhukha_hydroelectric_plant","geographyId":"BT-66845921B66499017593499","id":"wattlas-plant-gemplant-l100000600156","lifecycleCounts":{"operational":1},"locationPrecision":"exact","name":"Chhukha hydroelectric plant","operatingCapacityCoverage":{"coveragePercent":100.0,"knownUnitCount":1,"method":"complete_unit_sum","provenance":{"evidenceCount":0,"recordIds":["wattlas-record-gemunit-g100000600156"],"sourceIds":["gem-global-integrated-power-tracker"],"sourceTypes":["research_verified"],"valueKind":"reported"},"totalUnitCount":1},"operatingCapacityMw":336.0,"operatingCapacityMwByTechnology":{"hydro":336.0},"plannedCapacityCoverage":{"coveragePercent":0.0,"knownUnitCount":0,"method":"unavailable","totalUnitCount":0},"plannedCapacityMw":0.0,"plannedCapacityMwByTechnology":{},"recordCount":1,"recordIds":["wattlas-record-gemunit-g100000600156"],"sourceIds":["gem-global-integrated-power-tracker"],"sourceUrl":"https://www.gem.wiki/Chhukha_hydroelectric_plant","technologies":["hydro"],"technologyMixMw":{"hydro":336.0},"unitCount":1,"unitIds":["gem-unit-G100000600156"]},"type":"Feature"},{"geometry":{"coordinates":[89.9526,26.9656],"type":"Point"},"id":"wattlas-plant-gemplant-l100000600157","properties":{"aliases":["Dagachhu hydroelectric plant"],"canonicalAnchor":"gemplant:L100000600157","canonicalCountryKey":"BT","capacityMw":126.0,"country":"BT","externalIds":{"gemPlant":"L100000600157","gemUnit":"G100000600157"},"gemWikiUrl":"https://www.gem.wiki/Dagachhu_hydroelectric_plant","geographyId":"BT-66845921B15316385818209","id":"wattlas-plant-gemplant-l100000600157","lifecycleCounts":{"operational":1},"locationPrecision":"exact","name":"Dagachhu hydroelectric plant","operatingCapacityCoverage":{"coveragePercent":100.0,"knownUnitCount":1,"method":"complete_unit_sum","provenance":{"evidenceCount":0,"recordIds":["wattlas-record-gemunit-g100000600157"],"sourceIds":["gem-global-integrated-power-tracker"],"sourceTypes":["research_verified"],"valueKind":"reported"},"totalUnitCount":1},"operatingCapacityMw":126.0,"operatingCapacityMwByTechnology":{"hydro":126.0},"plannedCapacityCoverage":{"coveragePercent":0.0,"knownUnitCount":0,"method":"unavailable","totalUnitCount":0},"plannedCapacityMw":0.0,"plannedCapacityMwByTechnology":{},"recordCount":1,"recordIds":["wattlas-record-gemunit-g100000600157"],"sourceIds":["gem-global-integrated-power-tracker"],"sourceUrl":"https://www.gem.wiki/Dagachhu_hydroelectric_plant","technologies":["hydro"],"technologyMixMw":{"hydro":126.0},"unitCount":1,"unitIds":["gem-unit-G100000600157"]},"type":"Feature"},{"geometry":{"coordinates":[91.5492,27.4064],"type":"Point"},"id":"wattlas-plant-gemplant-l100000600160","properties":{"aliases":["Kholongchu hydroelectric plant"],"canonicalAnchor":"gemplant:L100000600160","canonicalCountryKey":"BT","capacityMw":600.0,"country":"BT","externalIds":{"gemPlant":"L100000600160","gemUnit":"G100000600160"},"gemWikiUrl":"https://www.gem.wiki/Kholongchu_hydroelectric_plant","geographyId":"BT-66845921B83925222569127","id":"wattlas-plant-gemplant-l100000600160","lifecycleCounts":{"announced":1},"locationPrecision":"exact","name":"Kholongchu hydroelectric plant","operatingCapacityCoverage":{"coveragePercent":0.0,"knownUnitCount":0,"method":"unavailable","totalUnitCount":0},"operatingCapacityMw":0.0,"operatingCapacityMwByTechnology":{},"plannedCapacityCoverage":{"coveragePercent":100.0,"knownUnitCount":1,"method":"complete_unit_sum","provenance":{"evidenceCount":0,"recordIds":["wattlas-record-gemunit-g100000600160"],"sourceIds":["gem-global-integrated-power-tracker"],"sourceTypes":["research_verified"],"valueKind":"reported"},"totalUnitCount":1},"plannedCapacityMw":600.0,"plannedCapacityMwByTechnology":{"hydro":600.0},"recordCount":1,"recordIds":["wattlas-record-gemunit-g100000600160"],"sourceIds":["gem-global-integrated-power-tracker"],"sourceUrl":"https://www.gem.wiki/Kholongchu_hydroelectric_plant","technologies":["hydro"],"technologyMixMw":{"hydro":600.0},"unitCount":1,"unitIds":["gem-unit-G100000600160"]},"type":"Feature"},{"geometry":{"coordinates":[90.4947,27.4801],"type":"Point"},"id":"wattlas-plant-gemplant-l100000600162","properties":{"aliases":["Mangdechhu hydroelectric plant"],"canonicalAnchor":"gemplant:L100000600162","canonicalCountryKey":"BT","capacityMw":720.0,"country":"BT","externalIds":{"gemPlant":"L100000600162","gemUnit":"G100000600162"},"gemWikiUrl":"https://www.gem.wiki/Mangdechhu_hydroelectric_plant","geographyId":"BT-66845921B42953625422300","id":"wattlas-plant-gemplant-l100000600162","lifecycleCounts":{"operational":1},"locationPrecision":"exact","name":"Mangdechhu hydroelectric plant","operatingCapacityCoverage":{"coveragePercent":100.0,"knownUnitCount":1,"method":"complete_unit_sum","provenance":{"evidenceCount":0,"recordIds":["wattlas-record-gemunit-g100000600162"],"sourceIds":["gem-global-integrated-power-tracker"],"sourceTypes":["research_verified"],"valueKind":"reported"},"totalUnitCount":1},"operatingCapacityMw":720.0,"operatingCapacityMwByTechnology":{"hydro":720.0},"plannedCapacityCoverage":{"coveragePercent":0.0,"knownUnitCount":0,"method":"unavailable","totalUnitCount":0},"plannedCapacityMw":0.0,"plannedCapacityMwByTechnology":{},"recordCount":1,"recordIds":["wattlas-record-gemunit-g100000600162"],"sourceIds":["gem-global-integrated-power-tracker"],"sourceUrl":"https://www.gem.wiki/Mangdechhu_hydroelectric_plant","technologies":["hydro"],"technologyMixMw":{"hydro":720.0},"unitCount":1,"unitIds":["gem-unit-G100000600162"]},"type":"Feature"},{"geometry":{"coordinates":[90.5346,27.7059],"type":"Point"},"id":"wattlas-plant-gemplant-l100000600163","properties":{"aliases":["Nikachhu hydroelectric plant"],"canonicalAnchor":"gemplant:L100000600163","canonicalCountryKey":"BT","capacityMw":118.0,"country":"BT","externalIds":{"gemPlant":"L100000600163","gemUnit":"G100000600163"},"gemWikiUrl":"https://www.gem.wiki/Nikachhu_hydroelectric_plant","geographyId":"BT-66845921B42953625422300","id":"wattlas-plant-gemplant-l100000600163","lifecycleCounts":{"operational":1},"locationPrecision":"exact","name":"Nikachhu hydroelectric plant","operatingCapacityCoverage":{"coveragePercent":100.0,"knownUnitCount":1,"method":"complete_unit_sum","provenance":{"evidenceCount":0,"recordIds":["wattlas-record-gemunit-g100000600163"],"sourceIds":["gem-global-integrated-power-tracker"],"sourceTypes":["research_verified"],"valueKind":"reported"},"totalUnitCount":1},"operatingCapacityMw":118.0,"operatingCapacityMwByTechnology":{"hydro":118.0},"plannedCapacityCoverage":{"coveragePercent":0.0,"knownUnitCount":0,"method":"unavailable","totalUnitCount":0},"plannedCapacityMw":0.0,"plannedCapacityMwByTechnology":{},"recordCount":1,"recordIds":["wattlas-record-gemunit-g100000600163"],"sourceIds":["gem-global-integrated-power-tracker"],"sourceUrl":"https://www.gem.wiki/Nikachhu_hydroelectric_plant","technologies":["hydro"],"technologyMixMw":{"hydro":118.0},"unitCount":1,"unitIds":["gem-unit-G100000600163"]},"type":"Feature"},{"geometry":{"coordinates":[89.9303,27.3394],"type":"Point"},"id":"wattlas-plant-gemplant-l100000600164","properties":{"aliases":["Punatsangchhu I hydroelectric plant"],"canonicalAnchor":"gemplant:L100000600164","canonicalCountryKey":"BT","capacityMw":1200.0,"country":"BT","externalIds":{"gemPlant":"L100000600164","gemUnit":"G100000600164"},"gemWikiUrl":"https://www.gem.wiki/Punatsangchhu_I_hydroelectric_plant","geographyId":"BT-66845921B16337540791352","id":"wattlas-plant-gemplant-l100000600164","lifecycleCounts":{"under_construction":1},"locationPrecision":"exact","name":"Punatsangchhu I hydroelectric plant","operatingCapacityCoverage":{"coveragePercent":0.0,"knownUnitCount":0,"method":"unavailable","totalUnitCount":0},"operatingCapacityMw":0.0,"operatingCapacityMwByTechnology":{},"plannedCapacityCoverage":{"coveragePercent":100.0,"knownUnitCount":1,"method":"complete_unit_sum","provenance":{"evidenceCount":0,"recordIds":["wattlas-record-gemunit-g100000600164"],"sourceIds":["gem-global-integrated-power-tracker"],"sourceTypes":["research_verified"],"valueKind":"reported"},"totalUnitCount":1},"plannedCapacityMw":1200.0,"plannedCapacityMwByTechnology":{"hydro":1200.0},"recordCount":1,"recordIds":["wattlas-record-gemunit-g100000600164"],"sourceIds":["gem-global-integrated-power-tracker"],"sourceUrl":"https://www.gem.wiki/Punatsangchhu_I_hydroelectric_plant","technologies":["hydro"],"technologyMixMw":{"hydro":1200.0},"unitCount":1,"unitIds":["gem-unit-G100000600164"]},"type":"Feature"},{"geometry":{"coordinates":[89.9531,27.3138],"type":"Point"},"id":"wattlas-plant-gemplant-l100000600165","properties":{"aliases":["Punatsangchhu II hydroelectric plant"],"canonicalAnchor":"gemplant:L100000600165","canonicalCountryKey":"BT","capacityMw":1020.0,"country":"BT","externalIds":{"gemPlant":"L100000600165","gemUnit":"G100000600165"},"gemWikiUrl":"https://www.gem.wiki/Punatsangchhu_II_hydroelectric_plant","geographyId":"BT-66845921B16337540791352","id":"wattlas-plant-gemplant-l100000600165","lifecycleCounts":{"operational":1},"locationPrecision":"exact","name":"Punatsangchhu II hydroelectric plant","operatingCapacityCoverage":{"coveragePercent":100.0,"knownUnitCount":1,"method":"complete_unit_sum","provenance":{"evidenceCount":0,"recordIds":["wattlas-record-gemunit-g100000600165"],"sourceIds":["gem-global-integrated-power-tracker"],"sourceTypes":["research_verified"],"valueKind":"reported"},"totalUnitCount":1},"operatingCapacityMw":1020.0,"operatingCapacityMwByTechnology":{"hydro":1020.0},"plannedCapacityCoverage":{"coveragePercent":0.0,"knownUnitCount":0,"method":"unavailable","totalUnitCount":0},"plannedCapacityMw":0.0,"plannedCapacityMwByTechnology":{},"recordCount":1,"recordIds":["wattlas-record-gemunit-g100000600165"],"sourceIds":["gem-global-integrated-power-tracker"],"sourceUrl":"https://www.gem.wiki/Punatsangchhu_II_hydroelectric_plant","technologies":["hydro"],"technologyMixMw":{"hydro":1020.0},"unitCount":1,"unitIds":["gem-unit-G100000600165"]},"type":"Feature"},{"geometry":{"coordinates":[89.5822,26.8709],"type":"Point"},"id":"wattlas-plant-gemplant-l100000600167","properties":{"aliases":["Tala hydroelectric plant"],"canonicalAnchor":"gemplant:L100000600167","canonicalCountryKey":"BT","capacityMw":1020.0,"country":"BT","externalIds":{"gemPlant":"L100000600167","gemUnit":"G100000600167"},"gemWikiUrl":"https://www.gem.wiki/Tala_hydroelectric_plant","geographyId":"BT-66845921B66499017593499","id":"wattlas-plant-gemplant-l100000600167","lifecycleCounts":{"operational":1},"locationPrecision":"exact","name":"Tala hydroelectric plant","operatingCapacityCoverage":{"coveragePercent":100.0,"knownUnitCount":1,"method":"complete_unit_sum","provenance":{"evidenceCount":0,"recordIds":["wattlas-record-gemunit-g100000600167"],"sourceIds":["gem-global-integrated-power-tracker"],"sourceTypes":["research_verified"],"valueKind":"reported"},"totalUnitCount":1},"operatingCapacityMw":1020.0,"operatingCapacityMwByTechnology":{"hydro":1020.0},"plannedCapacityCoverage":{"coveragePercent":0.0,"knownUnitCount":0,"method":"unavailable","totalUnitCount":0},"plannedCapacityMw":0.0,"plannedCapacityMwByTechnology":{},"recordCount":1,"recordIds":["wattlas-record-gemunit-g100000600167"],"sourceIds":["gem-global-integrated-power-tracker"],"sourceUrl":"https://www.gem.wiki/Tala_hydroelectric_plant","technologies":["hydro"],"technologyMixMw":{"hydro":1020.0},"unitCount":1,"unitIds":["gem-unit-G100000600167"]},"type":"Feature"},{"geometry":{"coordinates":[90.2426,27.526],"type":"Point"},"id":"wattlas-plant-gemplant-l100000829398","properties":{"aliases":["1.0","2.0","Sephu solar farm"],"canonicalAnchor":"gemplant:L100000829398","canonicalCountryKey":"BT","capacityMw":22.4,"country":"BT","externalIdAliases":{"gemUnit":["G100000833187","G100001057118"]},"externalIds":{"gemPlant":"L100000829398","gemUnit":"G100001057118"},"gemWikiUrl":"https://www.gem.wiki/Sephu_solar_farm","geographyId":"BT-66845921B16337540791352","id":"wattlas-plant-gemplant-l100000829398","lifecycleCounts":{"announced":1,"operational":1},"locationPrecision":"exact","name":"Sephu solar farm","operatingCapacityCoverage":{"coveragePercent":100.0,"knownUnitCount":1,"method":"complete_unit_sum","provenance":{"evidenceCount":0,"recordIds":["wattlas-record-gemunit-g100000833187"],"sourceIds":["gem-global-integrated-power-tracker"],"sourceTypes":["research_verified"],"valueKind":"reported"},"totalUnitCount":1},"operatingCapacityMw":17.4,"operatingCapacityMwByTechnology":{"solar":17.4},"plannedCapacityCoverage":{"coveragePercent":100.0,"knownUnitCount":1,"method":"complete_unit_sum","provenance":{"evidenceCount":0,"recordIds":["wattlas-record-gemunit-g100001057118"],"sourceIds":["gem-global-integrated-power-tracker"],"sourceTypes":["research_verified"],"valueKind":"reported"},"totalUnitCount":1},"plannedCapacityMw":5.0,"plannedCapacityMwByTechnology":{"solar":5.0},"recordCount":2,"recordIds":["wattlas-record-gemunit-g100000833187","wattlas-record-gemunit-g100001057118"],"sourceIds":["gem-global-integrated-power-tracker"],"sourceUrl":"https://www.gem.wiki/Sephu_solar_farm","technologies":["solar"],"technologyMixMw":{"solar":22.4},"unitCount":2,"unitIds":["gem-unit-G100000833187","gem-unit-G100001057118"]},"type":"Feature"},{"geometry":{"coordinates":[89.9043,27.4254],"type":"Point"},"id":"wattlas-plant-gemplant-l100001022872","properties":{"aliases":["Basochhu hydroelectric plant"],"canonicalAnchor":"gemplant:L100001022872","canonicalCountryKey":"BT","capacityMw":64.0,"country":"BT","externalIds":{"gemPlant":"L100001022872","gemUnit":"G100001027077"},"gemWikiUrl":"https://www.gem.wiki/Basochhu_hydroelectric_plant","geographyId":"BT-66845921B16337540791352","id":"wattlas-plant-gemplant-l100001022872","lifecycleCounts":{"operational":1},"locationPrecision":"exact","name":"Basochhu hydroelectric plant","operatingCapacityCoverage":{"coveragePercent":100.0,"knownUnitCount":1,"method":"complete_unit_sum","provenance":{"evidenceCount":0,"recordIds":["wattlas-record-gemunit-g100001027077"],"sourceIds":["gem-global-integrated-power-tracker"],"sourceTypes":["research_verified"],"valueKind":"reported"},"totalUnitCount":1},"operatingCapacityMw":64.0,"operatingCapacityMwByTechnology":{"hydro":64.0},"plannedCapacityCoverage":{"coveragePercent":0.0,"knownUnitCount":0,"method":"unavailable","totalUnitCount":0},"plannedCapacityMw":0.0,"plannedCapacityMwByTechnology":{},"recordCount":1,"recordIds":["wattlas-record-gemunit-g100001027077"],"sourceIds":["gem-global-integrated-power-tracker"],"sourceUrl":"https://www.gem.wiki/Basochhu_hydroelectric_plant","technologies":["hydro"],"technologyMixMw":{"hydro":64.0},"unitCount":1,"unitIds":["gem-unit-G100001027077"]},"type":"Feature"},{"geometry":{"coordinates":[91.2035,27.2162],"type":"Point"},"id":"wattlas-plant-gemplant-l100001022873","properties":{"aliases":["Kurichhu hydroelectric plant"],"canonicalAnchor":"gemplant:L100001022873","canonicalCountryKey":"BT","capacityMw":60.0,"country":"BT","externalIds":{"gemPlant":"L100001022873","gemUnit":"G100001027078"},"gemWikiUrl":"https://www.gem.wiki/Kurichhu_hydroelectric_plant","geographyId":"BT-66845921B85706545486898","id":"wattlas-plant-gemplant-l100001022873","lifecycleCounts":{"operational":1},"locationPrecision":"exact","name":"Kurichhu hydroelectric plant","operatingCapacityCoverage":{"coveragePercent":100.0,"knownUnitCount":1,"method":"complete_unit_sum","provenance":{"evidenceCount":0,"recordIds":["wattlas-record-gemunit-g100001027078"],"sourceIds":["gem-global-integrated-power-tracker"],"sourceTypes":["research_verified"],"valueKind":"reported"},"totalUnitCount":1},"operatingCapacityMw":60.0,"operatingCapacityMwByTechnology":{"hydro":60.0},"plannedCapacityCoverage":{"coveragePercent":0.0,"knownUnitCount":0,"method":"unavailable","totalUnitCount":0},"plannedCapacityMw":0.0,"plannedCapacityMwByTechnology":{},"recordCount":1,"recordIds":["wattlas-record-gemunit-g100001027078"],"sourceIds":["gem-global-integrated-power-tracker"],"sourceUrl":"https://www.gem.wiki/Kurichhu_hydroelectric_plant","technologies":["hydro"],"technologyMixMw":{"hydro":60.0},"unitCount":1,"unitIds":["gem-unit-G100001027078"]},"type":"Feature"},{"geometry":{"coordinates":[89.554,27.3277],"type":"Point"},"id":"wattlas-plant-gemplant-l100001050233","properties":{"aliases":["--","Jamjee solar farm"],"canonicalAnchor":"gemplant:L100001050233","canonicalCountryKey":"BT","capacityMw":120.0,"country":"BT","externalIds":{"gemPlant":"L100001050233","gemUnit":"G100001057931"},"gemWikiUrl":"https://www.gem.wiki/Jamjee_solar_farm","geographyId":"BT-66845921B82067974050695","id":"wattlas-plant-gemplant-l100001050233","lifecycleCounts":{"under_construction":1},"locationPrecision":"exact","name":"Jamjee solar farm","operatingCapacityCoverage":{"coveragePercent":0.0,"knownUnitCount":0,"method":"unavailable","totalUnitCount":0},"operatingCapacityMw":0.0,"operatingCapacityMwByTechnology":{},"plannedCapacityCoverage":{"coveragePercent":100.0,"knownUnitCount":1,"method":"complete_unit_sum","provenance":{"evidenceCount":0,"recordIds":["wattlas-record-gemunit-g100001057931"],"sourceIds":["gem-global-integrated-power-tracker"],"sourceTypes":["research_verified"],"valueKind":"reported"},"totalUnitCount":1},"plannedCapacityMw":120.0,"plannedCapacityMwByTechnology":{"solar":120.0},"recordCount":1,"recordIds":["wattlas-record-gemunit-g100001057931"],"sourceIds":["gem-global-integrated-power-tracker"],"sourceUrl":"https://www.gem.wiki/Jamjee_solar_farm","technologies":["solar"],"technologyMixMw":{"solar":120.0},"unitCount":1,"unitIds":["gem-unit-G100001057931"]},"type":"Feature"},{"geometry":{"coordinates":[90.700481,27.173994],"type":"Point"},"id":"wattlas-plant-osm-way-1067896366","properties":{"aliases":["Tingtibi Micro Hydropower Plant"],"canonicalAnchor":"osm:way/1067896366","canonicalCountryKey":"BT","capacityMw":0.0,"country":"BT","externalIds":{"osm":"way/1067896366"},"geographyId":"BT-66845921B52582047921765","id":"wattlas-plant-osm-way-1067896366","lifecycleCounts":{"operational":1},"locationPrecision":"exact","name":"Tingtibi Micro Hydropower Plant","operatingCapacityCoverage":{"coveragePercent":0.0,"knownUnitCount":0,"method":"unavailable","totalUnitCount":0},"operatingCapacityMw":0.0,"operatingCapacityMwByTechnology":{},"plannedCapacityCoverage":{"coveragePercent":0.0,"knownUnitCount":0,"method":"unavailable","totalUnitCount":0},"plannedCapacityMw":0.0,"plannedCapacityMwByTechnology":{},"recordCount":1,"recordIds":["wattlas-record-osm-way-1067896366"],"sourceIds":["openstreetmap-power"],"sourceUrl":"https://www.openstreetmap.org/way/1067896366","technologies":["hydro"],"technologyMixMw":{"hydro":0.0},"unitCount":0,"unitIds":[]},"type":"Feature"},{"geometry":{"coordinates":[89.903678,27.423921],"type":"Point"},"id":"wattlas-plant-osm-way-1471599145","properties":{"aliases":["Punatsangchu-1 Hydroelectric Project"],"canonicalAnchor":"osm:way/1471599145","canonicalCountryKey":"BT","capacityMw":0.0,"country":"BT","externalIds":{"osm":"way/1471599145"},"geographyId":"BT-66845921B16337540791352","id":"wattlas-plant-osm-way-1471599145","lifecycleCounts":{"operational":1},"locationPrecision":"exact","name":"Punatsangchu-1 Hydroelectric Project","operatingCapacityCoverage":{"coveragePercent":0.0,"knownUnitCount":0,"method":"unavailable","totalUnitCount":0},"operatingCapacityMw":0.0,"operatingCapacityMwByTechnology":{},"plannedCapacityCoverage":{"coveragePercent":0.0,"knownUnitCount":0,"method":"unavailable","totalUnitCount":0},"plannedCapacityMw":0.0,"plannedCapacityMwByTechnology":{},"recordCount":1,"recordIds":["wattlas-record-osm-way-1471599145"],"sourceIds":["openstreetmap-power"],"sourceUrl":"https://www.openstreetmap.org/way/1471599145","technologies":["hydro"],"technologyMixMw":{"hydro":0.0},"unitCount":0,"unitIds":[]},"type":"Feature"},{"geometry":{"coordinates":[91.530309,27.322609],"type":"Point"},"id":"wattlas-plant-osm-way-188108610","properties":{"aliases":["Chenary Mini-Hydropower Plant"],"canonicalAnchor":"osm:way/188108610","canonicalCountryKey":"BT","capacityMw":0.0,"country":"BT","externalIds":{"osm":"way/188108610"},"geographyId":"BT-66845921B97990669910096","id":"wattlas-plant-osm-way-188108610","lifecycleCounts":{"operational":1},"locationPrecision":"exact","name":"Chenary Mini-Hydropower Plant","operatingCapacityCoverage":{"coveragePercent":0.0,"knownUnitCount":0,"method":"unavailable","totalUnitCount":0},"operatingCapacityMw":0.0,"operatingCapacityMwByTechnology":{},"plannedCapacityCoverage":{"coveragePercent":0.0,"knownUnitCount":0,"method":"unavailable","totalUnitCount":0},"plannedCapacityMw":0.0,"plannedCapacityMwByTechnology":{},"recordCount":1,"recordIds":["wattlas-record-osm-way-188108610"],"sourceIds":["openstreetmap-power"],"sourceUrl":"https://www.openstreetmap.org/way/188108610","technologies":["hydro"],"technologyMixMw":{"hydro":0.0},"unitCount":0,"unitIds":[]},"type":"Feature"},{"geometry":{"coordinates":[89.917377,27.341666],"type":"Point"},"id":"wattlas-plant-osm-way-371592676","properties":{"aliases":["Basochhu Lower Hydropower Plant"],"canonicalAnchor":"osm:way/371592676","canonicalCountryKey":"BT","capacityMw":40.0,"country":"BT","externalIds":{"osm":"way/371592676"},"geographyId":"BT-66845921B16337540791352","id":"wattlas-plant-osm-way-371592676","lifecycleCounts":{"operational":1},"locationPrecision":"exact","name":"Basochhu Lower Hydropower Plant","operatingCapacityCoverage":{"coveragePercent":100.0,"knownUnitCount":0,"method":"plant_aggregate","provenance":{"evidenceCount":0,"recordIds":["wattlas-record-osm-way-371592676"],"sourceIds":["openstreetmap-power"],"sourceTypes":["community_mapped"],"valueKind":"reported"},"totalUnitCount":0},"operatingCapacityMw":40.0,"operatingCapacityMwByTechnology":{"hydro":40.0},"plannedCapacityCoverage":{"coveragePercent":0.0,"knownUnitCount":0,"method":"unavailable","totalUnitCount":0},"plannedCapacityMw":0.0,"plannedCapacityMwByTechnology":{},"recordCount":1,"recordIds":["wattlas-record-osm-way-371592676"],"sourceIds":["openstreetmap-power"],"sourceUrl":"https://www.openstreetmap.org/way/371592676","technologies":["hydro"],"technologyMixMw":{"hydro":40.0},"unitCount":0,"unitIds":[]},"type":"Feature"},{"geometry":{"coordinates":[89.531174,27.110324],"type":"Point"},"id":"wattlas-plant-osm-way-391905646","properties":{"aliases":["Chhukha Hydroelectric Power Plant Bhutan"],"canonicalAnchor":"osm:way/391905646","canonicalCountryKey":"BT","capacityMw":0.0,"country":"BT","externalIds":{"osm":"way/391905646"},"geographyId":"BT-66845921B66499017593499","id":"wattlas-plant-osm-way-391905646","lifecycleCounts":{"operational":1},"locationPrecision":"exact","name":"Chhukha Hydroelectric Power Plant Bhutan","operatingCapacityCoverage":{"coveragePercent":0.0,"knownUnitCount":0,"method":"unavailable","totalUnitCount":0},"operatingCapacityMw":0.0,"operatingCapacityMwByTechnology":{},"plannedCapacityCoverage":{"coveragePercent":0.0,"knownUnitCount":0,"method":"unavailable","totalUnitCount":0},"plannedCapacityMw":0.0,"plannedCapacityMwByTechnology":{},"recordCount":1,"recordIds":["wattlas-record-osm-way-391905646"],"sourceIds":["openstreetmap-power"],"sourceUrl":"https://www.openstreetmap.org/way/391905646","technologies":["hydro"],"technologyMixMw":{"hydro":0.0},"unitCount":0,"unitIds":[]},"type":"Feature"},{"geometry":{"coordinates":[89.595485,27.036086],"type":"Point"},"id":"wattlas-plant-osm-way-391932128","properties":{"aliases":["Tala Hydroelectric Power Plant Bhutan"],"canonicalAnchor":"osm:way/391932128","canonicalCountryKey":"BT","capacityMw":0.0,"country":"BT","externalIds":{"osm":"way/391932128"},"geographyId":"BT-66845921B66499017593499","id":"wattlas-plant-osm-way-391932128","lifecycleCounts":{"operational":1},"locationPrecision":"exact","name":"Tala Hydroelectric Power Plant Bhutan","operatingCapacityCoverage":{"coveragePercent":0.0,"knownUnitCount":0,"method":"unavailable","totalUnitCount":0},"operatingCapacityMw":0.0,"operatingCapacityMwByTechnology":{},"plannedCapacityCoverage":{"coveragePercent":0.0,"knownUnitCount":0,"method":"unavailable","totalUnitCount":0},"plannedCapacityMw":0.0,"plannedCapacityMwByTechnology":{},"recordCount":1,"recordIds":["wattlas-record-osm-way-391932128"],"sourceIds":["openstreetmap-power"],"sourceUrl":"https://www.openstreetmap.org/way/391932128","technologies":["hydro"],"technologyMixMw":{"hydro":0.0},"unitCount":0,"unitIds":[]},"type":"Feature"},{"geometry":{"coordinates":[89.952766,27.312237],"type":"Point"},"id":"wattlas-plant-osm-way-990280735","properties":{"aliases":["Punatsangchhu-II Hydroelectric Project Dam"],"canonicalAnchor":"osm:way/990280735","canonicalCountryKey":"BT","capacityMw":0.0,"country":"BT","externalIds":{"osm":"way/990280735"},"geographyId":"BT-66845921B16337540791352","id":"wattlas-plant-osm-way-990280735","lifecycleCounts":{"operational":1},"locationPrecision":"exact","name":"Punatsangchhu-II Hydroelectric Project Dam","operatingCapacityCoverage":{"coveragePercent":0.0,"knownUnitCount":0,"method":"unavailable","totalUnitCount":0},"operatingCapacityMw":0.0,"operatingCapacityMwByTechnology":{},"plannedCapacityCoverage":{"coveragePercent":0.0,"knownUnitCount":0,"method":"unavailable","totalUnitCount":0},"plannedCapacityMw":0.0,"plannedCapacityMwByTechnology":{},"recordCount":1,"recordIds":["wattlas-record-osm-way-990280735"],"sourceIds":["openstreetmap-power"],"sourceUrl":"https://www.openstreetmap.org/way/990280735","technologies":["hydro"],"technologyMixMw":{"hydro":0.0},"unitCount":0,"unitIds":[]},"type":"Feature"},{"geometry":{"coordinates":[89.575261,27.053078],"type":"Point"},"id":"wattlas-plant-wikidata-q17762388","properties":{"aliases":["Chukha Hydropower Plant"],"canonicalAnchor":"wikidata:Q17762388","canonicalCountryKey":"BT","capacityMw":336.0,"country":"BT","externalIds":{"osm":"node/10167156778","wikidata":"Q17762388"},"geographyId":"BT-66845921B66499017593499","id":"wattlas-plant-wikidata-q17762388","idAliases":["wattlas-plant-osm-node-10167156778"],"lifecycleCounts":{"operational":1},"locationPrecision":"exact","name":"Chukha Hydropower Plant","operatingCapacityCoverage":{"coveragePercent":100.0,"knownUnitCount":0,"method":"plant_aggregate","provenance":{"evidenceCount":0,"recordIds":["wattlas-record-osm-node-10167156778"],"sourceIds":["openstreetmap-power"],"sourceTypes":["community_mapped"],"valueKind":"reported"},"totalUnitCount":0},"operatingCapacityMw":336.0,"operatingCapacityMwByTechnology":{"hydro":336.0},"plannedCapacityCoverage":{"coveragePercent":0.0,"knownUnitCount":0,"method":"unavailable","totalUnitCount":0},"plannedCapacityMw":0.0,"plannedCapacityMwByTechnology":{},"recordCount":1,"recordIds":["wattlas-record-osm-node-10167156778"],"sourceIds":["openstreetmap-power"],"sourceUrl":"https://www.openstreetmap.org/node/10167156778","technologies":["hydro"],"technologyMixMw":{"hydro":336.0},"unitCount":0,"unitIds":[]},"type":"Feature"},{"geometry":{"coordinates":[89.589095,26.856721],"type":"Point"},"id":"wattlas-plant-wikidata-q3429258","properties":{"aliases":["Tala Hydropower Plant"],"canonicalAnchor":"wikidata:Q3429258","canonicalCountryKey":"BT","capacityMw":1020.0,"country":"BT","externalIds":{"osm":"node/10167156779","wikidata":"Q3429258"},"geographyId":"BT-66845921B66499017593499","id":"wattlas-plant-wikidata-q3429258","idAliases":["wattlas-plant-osm-node-10167156779"],"lifecycleCounts":{"operational":1},"locationPrecision":"exact","name":"Tala Hydropower Plant","operatingCapacityCoverage":{"coveragePercent":100.0,"knownUnitCount":0,"method":"plant_aggregate","provenance":{"evidenceCount":0,"recordIds":["wattlas-record-osm-node-10167156779"],"sourceIds":["openstreetmap-power"],"sourceTypes":["community_mapped"],"valueKind":"reported"},"totalUnitCount":0},"operatingCapacityMw":1020.0,"operatingCapacityMwByTechnology":{"hydro":1020.0},"plannedCapacityCoverage":{"coveragePercent":0.0,"knownUnitCount":0,"method":"unavailable","totalUnitCount":0},"plannedCapacityMw":0.0,"plannedCapacityMwByTechnology":{},"recordCount":1,"recordIds":["wattlas-record-osm-node-10167156779"],"sourceIds":["openstreetmap-power"],"sourceUrl":"https://www.openstreetmap.org/node/10167156779","technologies":["hydro"],"technologyMixMw":{"hydro":1020.0},"unitCount":0,"unitIds":[]},"type":"Feature"},{"geometry":{"coordinates":[91.204914,27.215983],"type":"Point"},"id":"wattlas-plant-wikidata-q56376213","properties":{"aliases":["Kurichhu Hydropower Plant"],"canonicalAnchor":"wikidata:Q56376213","canonicalCountryKey":"BT","capacityMw":60.0,"country":"BT","externalIds":{"osm":"way/800828771","wikidata":"Q56376213"},"geographyId":"BT-66845921B85706545486898","id":"wattlas-plant-wikidata-q56376213","idAliases":["wattlas-plant-osm-way-800828771"],"lifecycleCounts":{"operational":1},"locationPrecision":"exact","name":"Kurichhu Hydropower Plant","operatingCapacityCoverage":{"coveragePercent":100.0,"knownUnitCount":0,"method":"plant_aggregate","provenance":{"evidenceCount":0,"recordIds":["wattlas-record-osm-way-800828771"],"sourceIds":["openstreetmap-power"],"sourceTypes":["community_mapped"],"valueKind":"reported"},"totalUnitCount":0},"operatingCapacityMw":60.0,"operatingCapacityMwByTechnology":{"hydro":60.0},"plannedCapacityCoverage":{"coveragePercent":0.0,"knownUnitCount":0,"method":"unavailable","totalUnitCount":0},"plannedCapacityMw":0.0,"plannedCapacityMwByTechnology":{},"recordCount":1,"recordIds":["wattlas-record-osm-way-800828771"],"sourceIds":["openstreetmap-power"],"sourceUrl":"https://www.openstreetmap.org/way/800828771","technologies":["hydro"],"technologyMixMw":{"hydro":60.0},"unitCount":0,"unitIds":[]},"type":"Feature"}],"type":"FeatureCollection"}