{"features":[{"geometry":{"coordinates":[27.3278,-29.8094],"type":"Point"},"id":"wattlas-plant-gemplant-l100000800130","properties":{"aliases":["1.0","2.0","Ha Ramarothole solar farm"],"canonicalAnchor":"gemplant:L100000800130","canonicalCountryKey":"LS","capacityMw":70.0,"country":"LS","externalIdAliases":{"gemUnit":["G100000800166","G100000800167"]},"externalIds":{"gemPlant":"L100000800130","gemUnit":"G100000800167"},"gemWikiUrl":"https://www.gem.wiki/Ha_Ramarothole_solar_farm","geographyId":"LS-63558799B33254441338778","id":"wattlas-plant-gemplant-l100000800130","lifecycleCounts":{"announced":1,"operational":1},"locationPrecision":"exact","name":"Ha Ramarothole solar farm","operatingCapacityCoverage":{"coveragePercent":100.0,"knownUnitCount":1,"method":"complete_unit_sum","provenance":{"evidenceCount":0,"recordIds":["wattlas-record-gemunit-g100000800166"],"sourceIds":["gem-global-integrated-power-tracker"],"sourceTypes":["research_verified"],"valueKind":"reported"},"totalUnitCount":1},"operatingCapacityMw":30.0,"operatingCapacityMwByTechnology":{"solar":30.0},"plannedCapacityCoverage":{"coveragePercent":100.0,"knownUnitCount":1,"method":"complete_unit_sum","provenance":{"evidenceCount":0,"recordIds":["wattlas-record-gemunit-g100000800167"],"sourceIds":["gem-global-integrated-power-tracker"],"sourceTypes":["research_verified"],"valueKind":"reported"},"totalUnitCount":1},"plannedCapacityMw":40.0,"plannedCapacityMwByTechnology":{"solar":40.0},"recordCount":2,"recordIds":["wattlas-record-gemunit-g100000800166","wattlas-record-gemunit-g100000800167"],"sourceIds":["gem-global-integrated-power-tracker"],"sourceUrl":"https://www.gem.wiki/Ha_Ramarothole_solar_farm","technologies":["solar"],"technologyMixMw":{"solar":70.0},"unitCount":2,"unitIds":["gem-unit-G100000800166","gem-unit-G100000800167"]},"type":"Feature"},{"geometry":{"coordinates":[28.4535,-28.7804],"type":"Point"},"id":"wattlas-plant-gemplant-l100001023118","properties":{"aliases":["Muela hydroelectric plant"],"canonicalAnchor":"gemplant:L100001023118","canonicalCountryKey":"LS","capacityMw":0.0,"country":"LS","externalIds":{"gemPlant":"L100001023118","gemUnit":"G100001027323"},"gemWikiUrl":"https://www.gem.wiki/Muela_hydroelectric_plant","geographyId":"LS-63558799B80267127102175","id":"wattlas-plant-gemplant-l100001023118","lifecycleCounts":{"paused":1},"locationPrecision":"exact","name":"Muela hydroelectric plant","operatingCapacityCoverage":{"coveragePercent":0.0,"knownUnitCount":0,"method":"unavailable","totalUnitCount":0},"operatingCapacityMw":0.0,"operatingCapacityMwByTechnology":{},"plannedCapacityCoverage":{"coveragePercent":0.0,"knownUnitCount":0,"method":"unavailable","totalUnitCount":0},"plannedCapacityMw":0.0,"plannedCapacityMwByTechnology":{},"recordCount":1,"recordIds":["wattlas-record-gemunit-g100001027323"],"sourceIds":["gem-global-integrated-power-tracker"],"sourceUrl":"https://www.gem.wiki/Muela_hydroelectric_plant","technologies":["hydro"],"technologyMixMw":{"hydro":0.0},"unitCount":1,"unitIds":["gem-unit-G100001027323"]},"type":"Feature"},{"geometry":{"coordinates":[27.4879,-29.591],"type":"Point"},"id":"wattlas-plant-gemplant-l100001064680","properties":{"aliases":["--","Masite Nek wind farm"],"canonicalAnchor":"gemplant:L100001064680","canonicalCountryKey":"LS","capacityMw":48.0,"country":"LS","externalIds":{"gemPlant":"L100001064680","gemUnit":"G100001074453"},"gemWikiUrl":"https://www.gem.wiki/Masite_Nek_wind_farm","geographyId":"LS-63558799B83139219064193","id":"wattlas-plant-gemplant-l100001064680","lifecycleCounts":{"announced":1},"locationPrecision":"exact","name":"Masite Nek wind farm","operatingCapacityCoverage":{"coveragePercent":0.0,"knownUnitCount":0,"method":"unavailable","totalUnitCount":0},"operatingCapacityMw":0.0,"operatingCapacityMwByTechnology":{},"plannedCapacityCoverage":{"coveragePercent":100.0,"knownUnitCount":1,"method":"complete_unit_sum","provenance":{"evidenceCount":0,"recordIds":["wattlas-record-gemunit-g100001074453"],"sourceIds":["gem-global-integrated-power-tracker"],"sourceTypes":["research_verified"],"valueKind":"reported"},"totalUnitCount":1},"plannedCapacityMw":48.0,"plannedCapacityMwByTechnology":{"wind":48.0},"recordCount":1,"recordIds":["wattlas-record-gemunit-g100001074453"],"sourceIds":["gem-global-integrated-power-tracker"],"sourceUrl":"https://www.gem.wiki/Masite_Nek_wind_farm","technologies":["wind"],"technologyMixMw":{"wind":48.0},"unitCount":1,"unitIds":["gem-unit-G100001074453"]},"type":"Feature"},{"geometry":{"coordinates":[27.7507,-29.0017],"type":"Point"},"id":"wattlas-plant-gemplant-l100001064808","properties":{"aliases":["--","Leribe District solar project"],"canonicalAnchor":"gemplant:L100001064808","canonicalCountryKey":"LS","capacityMw":2.0,"country":"LS","externalIds":{"gemPlant":"L100001064808","gemUnit":"G100001074594"},"gemWikiUrl":"https://www.gem.wiki/Leribe_District_solar_project","geographyId":"LS-63558799B58245420334254","id":"wattlas-plant-gemplant-l100001064808","lifecycleCounts":{"operational":1},"locationPrecision":"exact","name":"Leribe District solar project","operatingCapacityCoverage":{"coveragePercent":100.0,"knownUnitCount":1,"method":"complete_unit_sum","provenance":{"evidenceCount":0,"recordIds":["wattlas-record-gemunit-g100001074594"],"sourceIds":["gem-global-integrated-power-tracker"],"sourceTypes":["research_verified"],"valueKind":"reported"},"totalUnitCount":1},"operatingCapacityMw":2.0,"operatingCapacityMwByTechnology":{"solar":2.0},"plannedCapacityCoverage":{"coveragePercent":0.0,"knownUnitCount":0,"method":"unavailable","totalUnitCount":0},"plannedCapacityMw":0.0,"plannedCapacityMwByTechnology":{},"recordCount":1,"recordIds":["wattlas-record-gemunit-g100001074594"],"sourceIds":["gem-global-integrated-power-tracker"],"sourceUrl":"https://www.gem.wiki/Leribe_District_solar_project","technologies":["solar"],"technologyMixMw":{"solar":2.0},"unitCount":1,"unitIds":["gem-unit-G100001074594"]},"type":"Feature"},{"geometry":{"coordinates":[27.5602,-29.4556],"type":"Point"},"id":"wattlas-plant-gemplant-l100001064809","properties":{"aliases":["--","Maseru District solar project"],"canonicalAnchor":"gemplant:L100001064809","canonicalCountryKey":"LS","capacityMw":1.1,"country":"LS","externalIds":{"gemPlant":"L100001064809","gemUnit":"G100001074595"},"gemWikiUrl":"https://www.gem.wiki/Maseru_District_solar_project","geographyId":"LS-63558799B83139219064193","id":"wattlas-plant-gemplant-l100001064809","lifecycleCounts":{"operational":1},"locationPrecision":"exact","name":"Maseru District solar project","operatingCapacityCoverage":{"coveragePercent":100.0,"knownUnitCount":1,"method":"complete_unit_sum","provenance":{"evidenceCount":0,"recordIds":["wattlas-record-gemunit-g100001074595"],"sourceIds":["gem-global-integrated-power-tracker"],"sourceTypes":["research_verified"],"valueKind":"reported"},"totalUnitCount":1},"operatingCapacityMw":1.1,"operatingCapacityMwByTechnology":{"solar":1.1},"plannedCapacityCoverage":{"coveragePercent":0.0,"knownUnitCount":0,"method":"unavailable","totalUnitCount":0},"plannedCapacityMw":0.0,"plannedCapacityMwByTechnology":{},"recordCount":1,"recordIds":["wattlas-record-gemunit-g100001074595"],"sourceIds":["gem-global-integrated-power-tracker"],"sourceUrl":"https://www.gem.wiki/Maseru_District_solar_project","technologies":["solar"],"technologyMixMw":{"solar":1.1},"unitCount":1,"unitIds":["gem-unit-G100001074595"]},"type":"Feature"},{"geometry":{"coordinates":[27.327811,-29.809378],"type":"Point"},"id":"wattlas-plant-osm-way-1184078943","properties":{"aliases":["Mafeteng Ha Ramarothole Solar Park"],"canonicalAnchor":"osm:way/1184078943","canonicalCountryKey":"LS","capacityMw":30.0,"country":"LS","externalIds":{"osm":"way/1184078943"},"geographyId":"LS-63558799B33254441338778","id":"wattlas-plant-osm-way-1184078943","lifecycleCounts":{"operational":1},"locationPrecision":"exact","name":"Mafeteng Ha Ramarothole Solar Park","operatingCapacityCoverage":{"coveragePercent":100.0,"knownUnitCount":0,"method":"plant_aggregate","provenance":{"evidenceCount":0,"recordIds":["wattlas-record-osm-way-1184078943"],"sourceIds":["openstreetmap-power"],"sourceTypes":["community_mapped"],"valueKind":"reported"},"totalUnitCount":0},"operatingCapacityMw":30.0,"operatingCapacityMwByTechnology":{"solar":30.0},"plannedCapacityCoverage":{"coveragePercent":0.0,"knownUnitCount":0,"method":"unavailable","totalUnitCount":0},"plannedCapacityMw":0.0,"plannedCapacityMwByTechnology":{},"recordCount":1,"recordIds":["wattlas-record-osm-way-1184078943"],"sourceIds":["openstreetmap-power"],"sourceUrl":"https://www.openstreetmap.org/way/1184078943","technologies":["solar"],"technologyMixMw":{"solar":30.0},"unitCount":0,"unitIds":[]},"type":"Feature"},{"geometry":{"coordinates":[28.611926,-28.785364],"type":"Point"},"id":"wattlas-plant-osm-way-1393509114","properties":{"aliases":["Oxbow Hydropower Scheme"],"canonicalAnchor":"osm:way/1393509114","canonicalCountryKey":"LS","capacityMw":0.0,"country":"LS","externalIds":{"osm":"way/1393509114"},"geographyId":"LS-63558799B80267127102175","id":"wattlas-plant-osm-way-1393509114","lifecycleCounts":{"announced":1},"locationPrecision":"exact","name":"Oxbow Hydropower Scheme","operatingCapacityCoverage":{"coveragePercent":0.0,"knownUnitCount":0,"method":"unavailable","totalUnitCount":0},"operatingCapacityMw":0.0,"operatingCapacityMwByTechnology":{},"plannedCapacityCoverage":{"coveragePercent":0.0,"knownUnitCount":0,"method":"unavailable","totalUnitCount":0},"plannedCapacityMw":0.0,"plannedCapacityMwByTechnology":{},"recordCount":1,"recordIds":["wattlas-record-osm-way-1393509114"],"sourceIds":["openstreetmap-power"],"sourceUrl":"https://www.openstreetmap.org/way/1393509114","technologies":["other"],"technologyMixMw":{"other":0.0},"unitCount":0,"unitIds":[]},"type":"Feature"},{"geometry":{"coordinates":[28.593462,-28.964125],"type":"Point"},"id":"wattlas-plant-osm-way-1395395969","properties":{"aliases":["Motete Solar Mini Grid Project"],"canonicalAnchor":"osm:way/1395395969","canonicalCountryKey":"LS","capacityMw":0.0,"country":"LS","externalIds":{"osm":"way/1395395969"},"geographyId":"LS-63558799B80267127102175","id":"wattlas-plant-osm-way-1395395969","lifecycleCounts":{"operational":1},"locationPrecision":"exact","name":"Motete Solar Mini Grid Project","operatingCapacityCoverage":{"coveragePercent":0.0,"knownUnitCount":0,"method":"unavailable","totalUnitCount":0},"operatingCapacityMw":0.0,"operatingCapacityMwByTechnology":{},"plannedCapacityCoverage":{"coveragePercent":0.0,"knownUnitCount":0,"method":"unavailable","totalUnitCount":0},"plannedCapacityMw":0.0,"plannedCapacityMwByTechnology":{},"recordCount":1,"recordIds":["wattlas-record-osm-way-1395395969"],"sourceIds":["openstreetmap-power"],"sourceUrl":"https://www.openstreetmap.org/way/1395395969","technologies":["solar"],"technologyMixMw":{"solar":0.0},"unitCount":0,"unitIds":[]},"type":"Feature"},{"geometry":{"coordinates":[28.256514,-29.593116],"type":"Point"},"id":"wattlas-plant-osm-way-1408857170","properties":{"aliases":["Mantsonyane Power Station"],"canonicalAnchor":"osm:way/1408857170","canonicalCountryKey":"LS","capacityMw":0.0,"country":"LS","externalIds":{"osm":"way/1408857170"},"geographyId":"LS-63558799B97764260128978","id":"wattlas-plant-osm-way-1408857170","lifecycleCounts":{"operational":1},"locationPrecision":"exact","name":"Mantsonyane Power Station","operatingCapacityCoverage":{"coveragePercent":0.0,"knownUnitCount":0,"method":"unavailable","totalUnitCount":0},"operatingCapacityMw":0.0,"operatingCapacityMwByTechnology":{},"plannedCapacityCoverage":{"coveragePercent":0.0,"knownUnitCount":0,"method":"unavailable","totalUnitCount":0},"plannedCapacityMw":0.0,"plannedCapacityMwByTechnology":{},"recordCount":1,"recordIds":["wattlas-record-osm-way-1408857170"],"sourceIds":["openstreetmap-power"],"sourceUrl":"https://www.openstreetmap.org/way/1408857170","technologies":["hydro"],"technologyMixMw":{"hydro":0.0},"unitCount":0,"unitIds":[]},"type":"Feature"},{"geometry":{"coordinates":[28.039701,-29.827617],"type":"Point"},"id":"wattlas-plant-osm-way-320276380","properties":{"aliases":["Semonkong Generation Plant & Office"],"canonicalAnchor":"osm:way/320276380","canonicalCountryKey":"LS","capacityMw":0.0,"country":"LS","externalIds":{"osm":"way/320276380"},"geographyId":"LS-63558799B83139219064193","id":"wattlas-plant-osm-way-320276380","lifecycleCounts":{"operational":1},"locationPrecision":"exact","name":"Semonkong Generation Plant & Office","operatingCapacityCoverage":{"coveragePercent":0.0,"knownUnitCount":0,"method":"unavailable","totalUnitCount":0},"operatingCapacityMw":0.0,"operatingCapacityMwByTechnology":{},"plannedCapacityCoverage":{"coveragePercent":0.0,"knownUnitCount":0,"method":"unavailable","totalUnitCount":0},"plannedCapacityMw":0.0,"plannedCapacityMwByTechnology":{},"recordCount":1,"recordIds":["wattlas-record-osm-way-320276380"],"sourceIds":["openstreetmap-power"],"sourceUrl":"https://www.openstreetmap.org/way/320276380","technologies":["hydro"],"technologyMixMw":{"hydro":0.0},"unitCount":0,"unitIds":[]},"type":"Feature"},{"geometry":{"coordinates":[28.890441,-29.241796],"type":"Point"},"id":"wattlas-plant-osm-way-759476803","properties":{"aliases":["Tlokoeng Power Station"],"canonicalAnchor":"osm:way/759476803","canonicalCountryKey":"LS","capacityMw":0.0,"country":"LS","externalIds":{"osm":"way/759476803"},"geographyId":"LS-63558799B62052207870559","id":"wattlas-plant-osm-way-759476803","lifecycleCounts":{"operational":1},"locationPrecision":"exact","name":"Tlokoeng Power Station","operatingCapacityCoverage":{"coveragePercent":0.0,"knownUnitCount":0,"method":"unavailable","totalUnitCount":0},"operatingCapacityMw":0.0,"operatingCapacityMwByTechnology":{},"plannedCapacityCoverage":{"coveragePercent":0.0,"knownUnitCount":0,"method":"unavailable","totalUnitCount":0},"plannedCapacityMw":0.0,"plannedCapacityMwByTechnology":{},"recordCount":1,"recordIds":["wattlas-record-osm-way-759476803"],"sourceIds":["openstreetmap-power"],"sourceUrl":"https://www.openstreetmap.org/way/759476803","technologies":["hydro"],"technologyMixMw":{"hydro":0.0},"unitCount":0,"unitIds":[]},"type":"Feature"},{"geometry":{"coordinates":[28.452188,-28.779555],"type":"Point"},"id":"wattlas-plant-wikidata-q56374019","properties":{"aliases":["'Muela Power Station"],"canonicalAnchor":"wikidata:Q56374019","canonicalCountryKey":"LS","capacityMw":72.0,"country":"LS","externalIds":{"osm":"way/759469576","wikidata":"Q56374019"},"geographyId":"LS-63558799B80267127102175","id":"wattlas-plant-wikidata-q56374019","idAliases":["wattlas-plant-osm-way-759469576"],"lifecycleCounts":{"operational":1},"locationPrecision":"exact","name":"'Muela Power Station","operatingCapacityCoverage":{"coveragePercent":100.0,"knownUnitCount":0,"method":"plant_aggregate","provenance":{"evidenceCount":0,"recordIds":["wattlas-record-osm-way-759469576"],"sourceIds":["openstreetmap-power"],"sourceTypes":["community_mapped"],"valueKind":"reported"},"totalUnitCount":0},"operatingCapacityMw":72.0,"operatingCapacityMwByTechnology":{"hydro":72.0},"plannedCapacityCoverage":{"coveragePercent":0.0,"knownUnitCount":0,"method":"unavailable","totalUnitCount":0},"plannedCapacityMw":0.0,"plannedCapacityMwByTechnology":{},"recordCount":1,"recordIds":["wattlas-record-osm-way-759469576"],"sourceIds":["openstreetmap-power"],"sourceUrl":"https://www.openstreetmap.org/way/759469576","technologies":["hydro"],"technologyMixMw":{"hydro":72.0},"unitCount":0,"unitIds":[]},"type":"Feature"}],"type":"FeatureCollection"}