{"features":[{"geometry":{"coordinates":[8.95066,13.80042],"type":"Point"},"id":"wattlas-plant-gemplant-l100000409063","properties":{"aliases":["1-1","Zinder power plant"],"canonicalAnchor":"gemplant:L100000409063","canonicalCountryKey":"NE","capacityMw":23.0,"country":"NE","externalIds":{"gemPlant":"L100000409063","gemUnit":"G100000413515"},"gemWikiUrl":"https://www.gem.wiki/Zinder_power_plant","geographyId":"NE-87150794B17606801029036","id":"wattlas-plant-gemplant-l100000409063","lifecycleCounts":{"operational":1},"locationPrecision":"exact","name":"Zinder power plant","operatingCapacityCoverage":{"coveragePercent":100.0,"knownUnitCount":1,"method":"complete_unit_sum","provenance":{"evidenceCount":0,"recordIds":["wattlas-record-gemunit-g100000413515"],"sourceIds":["gem-global-integrated-power-tracker"],"sourceTypes":["research_verified"],"valueKind":"reported"},"totalUnitCount":1},"operatingCapacityMw":23.0,"operatingCapacityMwByTechnology":{"oil":23.0},"plannedCapacityCoverage":{"coveragePercent":0.0,"knownUnitCount":0,"method":"unavailable","totalUnitCount":0},"plannedCapacityMw":0.0,"plannedCapacityMwByTechnology":{},"recordCount":1,"recordIds":["wattlas-record-gemunit-g100000413515"],"sourceIds":["gem-global-integrated-power-tracker"],"sourceUrl":"https://www.gem.wiki/Zinder_power_plant","technologies":["oil"],"technologyMixMw":{"oil":23.0},"unitCount":1,"unitIds":["gem-unit-G100000413515"]},"type":"Feature"},{"geometry":{"coordinates":[2.11993,13.43103],"type":"Point"},"id":"wattlas-plant-gemplant-l100000409065","properties":{"aliases":["1-1","Gorou Banda power plant"],"canonicalAnchor":"gemplant:L100000409065","canonicalCountryKey":"NE","capacityMw":100.0,"country":"NE","externalIds":{"gemPlant":"L100000409065","gemUnit":"G100000413521"},"gemWikiUrl":"https://www.gem.wiki/Gorou_Banda_power_plant","geographyId":"NE-87150794B24708462658640","id":"wattlas-plant-gemplant-l100000409065","lifecycleCounts":{"operational":1},"locationPrecision":"exact","name":"Gorou Banda power plant","operatingCapacityCoverage":{"coveragePercent":100.0,"knownUnitCount":1,"method":"complete_unit_sum","provenance":{"evidenceCount":0,"recordIds":["wattlas-record-gemunit-g100000413521"],"sourceIds":["gem-global-integrated-power-tracker"],"sourceTypes":["research_verified"],"valueKind":"reported"},"totalUnitCount":1},"operatingCapacityMw":100.0,"operatingCapacityMwByTechnology":{"gas":100.0},"plannedCapacityCoverage":{"coveragePercent":0.0,"knownUnitCount":0,"method":"unavailable","totalUnitCount":0},"plannedCapacityMw":0.0,"plannedCapacityMwByTechnology":{},"recordCount":1,"recordIds":["wattlas-record-gemunit-g100000413521"],"sourceIds":["gem-global-integrated-power-tracker"],"sourceUrl":"https://www.gem.wiki/Gorou_Banda_power_plant","technologies":["gas"],"technologyMixMw":{"gas":100.0},"unitCount":1,"unitIds":["gem-unit-G100000413521"]},"type":"Feature"},{"geometry":{"coordinates":[0.936,14.6758],"type":"Point"},"id":"wattlas-plant-gemplant-l100000602851","properties":{"aliases":["Kandadji hydroelectric plant"],"canonicalAnchor":"gemplant:L100000602851","canonicalCountryKey":"NE","capacityMw":0.0,"country":"NE","externalIds":{"gemPlant":"L100000602851","gemUnit":"G100000604494"},"gemWikiUrl":"https://www.gem.wiki/Kandadji_hydroelectric_plant","geographyId":"NE-87150794B24708462658640","id":"wattlas-plant-gemplant-l100000602851","lifecycleCounts":{"paused":1},"locationPrecision":"exact","name":"Kandadji hydroelectric plant","operatingCapacityCoverage":{"coveragePercent":0.0,"knownUnitCount":0,"method":"unavailable","totalUnitCount":0},"operatingCapacityMw":0.0,"operatingCapacityMwByTechnology":{},"plannedCapacityCoverage":{"coveragePercent":0.0,"knownUnitCount":0,"method":"unavailable","totalUnitCount":0},"plannedCapacityMw":0.0,"plannedCapacityMwByTechnology":{},"recordCount":1,"recordIds":["wattlas-record-gemunit-g100000604494"],"sourceIds":["gem-global-integrated-power-tracker"],"sourceUrl":"https://www.gem.wiki/Kandadji_hydroelectric_plant","technologies":["hydro"],"technologyMixMw":{"hydro":0.0},"unitCount":1,"unitIds":["gem-unit-G100000604494"]},"type":"Feature"},{"geometry":{"coordinates":[2.1128,13.4209],"type":"Point"},"id":"wattlas-plant-gemplant-l100000800124","properties":{"aliases":["--","Gorou Banda solar farm"],"canonicalAnchor":"gemplant:L100000800124","canonicalCountryKey":"NE","capacityMw":30.0,"country":"NE","externalIds":{"gemPlant":"L100000800124","gemUnit":"G100000800160"},"gemWikiUrl":"https://www.gem.wiki/Gorou_Banda_solar_farm","geographyId":"NE-87150794B24708462658640","id":"wattlas-plant-gemplant-l100000800124","lifecycleCounts":{"operational":1},"locationPrecision":"exact","name":"Gorou Banda solar farm","operatingCapacityCoverage":{"coveragePercent":100.0,"knownUnitCount":1,"method":"complete_unit_sum","provenance":{"evidenceCount":0,"recordIds":["wattlas-record-gemunit-g100000800160"],"sourceIds":["gem-global-integrated-power-tracker"],"sourceTypes":["research_verified"],"valueKind":"reported"},"totalUnitCount":1},"operatingCapacityMw":30.0,"operatingCapacityMwByTechnology":{"solar":30.0},"plannedCapacityCoverage":{"coveragePercent":0.0,"knownUnitCount":0,"method":"unavailable","totalUnitCount":0},"plannedCapacityMw":0.0,"plannedCapacityMwByTechnology":{},"recordCount":1,"recordIds":["wattlas-record-gemunit-g100000800160"],"sourceIds":["gem-global-integrated-power-tracker"],"sourceUrl":"https://www.gem.wiki/Gorou_Banda_solar_farm","technologies":["solar"],"technologyMixMw":{"solar":30.0},"unitCount":1,"unitIds":["gem-unit-G100000800160"]},"type":"Feature"},{"geometry":{"coordinates":[7.1681,13.5236],"type":"Point"},"id":"wattlas-plant-gemplant-l100000811636","properties":{"aliases":["--","Maradi solar farm"],"canonicalAnchor":"gemplant:L100000811636","canonicalCountryKey":"NE","capacityMw":20.0,"country":"NE","externalIds":{"gemPlant":"L100000811636","gemUnit":"G100000814183"},"gemWikiUrl":"https://www.gem.wiki/Maradi_solar_farm","geographyId":"NE-87150794B5839560144768","id":"wattlas-plant-gemplant-l100000811636","lifecycleCounts":{"announced":1},"locationPrecision":"exact","name":"Maradi solar farm","operatingCapacityCoverage":{"coveragePercent":0.0,"knownUnitCount":0,"method":"unavailable","totalUnitCount":0},"operatingCapacityMw":0.0,"operatingCapacityMwByTechnology":{},"plannedCapacityCoverage":{"coveragePercent":100.0,"knownUnitCount":1,"method":"complete_unit_sum","provenance":{"evidenceCount":0,"recordIds":["wattlas-record-gemunit-g100000814183"],"sourceIds":["gem-global-integrated-power-tracker"],"sourceTypes":["research_verified"],"valueKind":"reported"},"totalUnitCount":1},"plannedCapacityMw":20.0,"plannedCapacityMwByTechnology":{"solar":20.0},"recordCount":1,"recordIds":["wattlas-record-gemunit-g100000814183"],"sourceIds":["gem-global-integrated-power-tracker"],"sourceUrl":"https://www.gem.wiki/Maradi_solar_farm","technologies":["solar"],"technologyMixMw":{"solar":20.0},"unitCount":1,"unitIds":["gem-unit-G100000814183"]},"type":"Feature"},{"geometry":{"coordinates":[5.5201,13.9673],"type":"Point"},"id":"wattlas-plant-gemplant-l100000827701","properties":{"aliases":["--","Malbaza solar project"],"canonicalAnchor":"gemplant:L100000827701","canonicalCountryKey":"NE","capacityMw":6.0,"country":"NE","externalIds":{"gemPlant":"L100000827701","gemUnit":"G100000831247"},"gemWikiUrl":"https://www.gem.wiki/Malbaza_solar_project","geographyId":"NE-87150794B58281898249288","id":"wattlas-plant-gemplant-l100000827701","lifecycleCounts":{"operational":1},"locationPrecision":"exact","name":"Malbaza solar project","operatingCapacityCoverage":{"coveragePercent":100.0,"knownUnitCount":1,"method":"complete_unit_sum","provenance":{"evidenceCount":0,"recordIds":["wattlas-record-gemunit-g100000831247"],"sourceIds":["gem-global-integrated-power-tracker"],"sourceTypes":["research_verified"],"valueKind":"reported"},"totalUnitCount":1},"operatingCapacityMw":6.0,"operatingCapacityMwByTechnology":{"solar":6.0},"plannedCapacityCoverage":{"coveragePercent":0.0,"knownUnitCount":0,"method":"unavailable","totalUnitCount":0},"plannedCapacityMw":0.0,"plannedCapacityMwByTechnology":{},"recordCount":1,"recordIds":["wattlas-record-gemunit-g100000831247"],"sourceIds":["gem-global-integrated-power-tracker"],"sourceUrl":"https://www.gem.wiki/Malbaza_solar_project","technologies":["solar"],"technologyMixMw":{"solar":6.0},"unitCount":1,"unitIds":["gem-unit-G100000831247"]},"type":"Feature"},{"geometry":{"coordinates":[12.8839,18.9994],"type":"Point"},"id":"wattlas-plant-gemplant-l100001020926","properties":{"aliases":["--","Bilma solar project"],"canonicalAnchor":"gemplant:L100001020926","canonicalCountryKey":"NE","capacityMw":1.5,"country":"NE","externalIds":{"gemPlant":"L100001020926","gemUnit":"G100001023895"},"gemWikiUrl":"https://www.gem.wiki/Bilma_solar_project","geographyId":"NE-87150794B58281898249288","id":"wattlas-plant-gemplant-l100001020926","lifecycleCounts":{"operational":1},"locationPrecision":"exact","name":"Bilma solar project","operatingCapacityCoverage":{"coveragePercent":100.0,"knownUnitCount":1,"method":"complete_unit_sum","provenance":{"evidenceCount":0,"recordIds":["wattlas-record-gemunit-g100001023895"],"sourceIds":["gem-global-integrated-power-tracker"],"sourceTypes":["research_verified"],"valueKind":"reported"},"totalUnitCount":1},"operatingCapacityMw":1.5,"operatingCapacityMwByTechnology":{"solar":1.5},"plannedCapacityCoverage":{"coveragePercent":0.0,"knownUnitCount":0,"method":"unavailable","totalUnitCount":0},"plannedCapacityMw":0.0,"plannedCapacityMwByTechnology":{},"recordCount":1,"recordIds":["wattlas-record-gemunit-g100001023895"],"sourceIds":["gem-global-integrated-power-tracker"],"sourceUrl":"https://www.gem.wiki/Bilma_solar_project","technologies":["solar"],"technologyMixMw":{"solar":1.5},"unitCount":1,"unitIds":["gem-unit-G100001023895"]},"type":"Feature"},{"geometry":{"coordinates":[5.408871,14.505942],"type":"Point"},"id":"wattlas-plant-gemplant-l100001025919","properties":{"aliases":["Badaguichiri Cement Plant power station","Unit 1"],"canonicalAnchor":"gemplant:L100001025919","canonicalCountryKey":"NE","capacityMw":30.0,"country":"NE","externalIds":{"gemPlant":"L100001025919","gemUnit":"G100001031066"},"gemWikiUrl":"https://www.gem.wiki/Badaguichiri_Cement_Plant_power_station","geographyId":"NE-87150794B58281898249288","id":"wattlas-plant-gemplant-l100001025919","lifecycleCounts":{"operational":1},"locationPrecision":"exact","name":"Badaguichiri Cement Plant power station","operatingCapacityCoverage":{"coveragePercent":100.0,"knownUnitCount":1,"method":"complete_unit_sum","provenance":{"evidenceCount":0,"recordIds":["wattlas-record-gemunit-g100001031066"],"sourceIds":["gem-global-integrated-power-tracker"],"sourceTypes":["research_verified"],"valueKind":"reported"},"totalUnitCount":1},"operatingCapacityMw":30.0,"operatingCapacityMwByTechnology":{"coal":30.0},"plannedCapacityCoverage":{"coveragePercent":0.0,"knownUnitCount":0,"method":"unavailable","totalUnitCount":0},"plannedCapacityMw":0.0,"plannedCapacityMwByTechnology":{},"recordCount":1,"recordIds":["wattlas-record-gemunit-g100001031066"],"sourceIds":["gem-global-integrated-power-tracker"],"sourceUrl":"https://www.gem.wiki/Badaguichiri_Cement_Plant_power_station","technologies":["coal"],"technologyMixMw":{"coal":30.0},"unitCount":1,"unitIds":["gem-unit-G100001031066"]},"type":"Feature"},{"geometry":{"coordinates":[13.1184,16.0511],"type":"Point"},"id":"wattlas-plant-gemplant-l100001064847","properties":{"aliases":["--","N’Guigmi solar project"],"canonicalAnchor":"gemplant:L100001064847","canonicalCountryKey":"NE","capacityMw":1.8,"country":"NE","externalIds":{"gemPlant":"L100001064847","gemUnit":"G100001074633"},"gemWikiUrl":"https://www.gem.wiki/N’Guigmi_solar_project","geographyId":"NE-87150794B17606801029036","id":"wattlas-plant-gemplant-l100001064847","lifecycleCounts":{"operational":1},"locationPrecision":"exact","name":"N’Guigmi solar project","operatingCapacityCoverage":{"coveragePercent":100.0,"knownUnitCount":1,"method":"complete_unit_sum","provenance":{"evidenceCount":0,"recordIds":["wattlas-record-gemunit-g100001074633"],"sourceIds":["gem-global-integrated-power-tracker"],"sourceTypes":["research_verified"],"valueKind":"reported"},"totalUnitCount":1},"operatingCapacityMw":1.8,"operatingCapacityMwByTechnology":{"solar":1.8},"plannedCapacityCoverage":{"coveragePercent":0.0,"knownUnitCount":0,"method":"unavailable","totalUnitCount":0},"plannedCapacityMw":0.0,"plannedCapacityMwByTechnology":{},"recordCount":1,"recordIds":["wattlas-record-gemunit-g100001074633"],"sourceIds":["gem-global-integrated-power-tracker"],"sourceUrl":"https://www.gem.wiki/N’Guigmi_solar_project","technologies":["solar"],"technologyMixMw":{"solar":1.8},"unitCount":1,"unitIds":["gem-unit-G100001074633"]},"type":"Feature"},{"geometry":{"coordinates":[2.1132,13.4198],"type":"Point"},"id":"wattlas-plant-gemplant-l100001064848","properties":{"aliases":["--","Niamey Kollo solar project"],"canonicalAnchor":"gemplant:L100001064848","canonicalCountryKey":"NE","capacityMw":18.1,"country":"NE","externalIds":{"gemPlant":"L100001064848","gemUnit":"G100001074634"},"gemWikiUrl":"https://www.gem.wiki/Niamey_Kollo_solar_project","geographyId":"NE-87150794B24708462658640","id":"wattlas-plant-gemplant-l100001064848","lifecycleCounts":{"operational":1},"locationPrecision":"exact","name":"Niamey Kollo solar project","operatingCapacityCoverage":{"coveragePercent":100.0,"knownUnitCount":1,"method":"complete_unit_sum","provenance":{"evidenceCount":0,"recordIds":["wattlas-record-gemunit-g100001074634"],"sourceIds":["gem-global-integrated-power-tracker"],"sourceTypes":["research_verified"],"valueKind":"reported"},"totalUnitCount":1},"operatingCapacityMw":18.1,"operatingCapacityMwByTechnology":{"solar":18.1},"plannedCapacityCoverage":{"coveragePercent":0.0,"knownUnitCount":0,"method":"unavailable","totalUnitCount":0},"plannedCapacityMw":0.0,"plannedCapacityMwByTechnology":{},"recordCount":1,"recordIds":["wattlas-record-gemunit-g100001074634"],"sourceIds":["gem-global-integrated-power-tracker"],"sourceUrl":"https://www.gem.wiki/Niamey_Kollo_solar_project","technologies":["solar"],"technologyMixMw":{"solar":18.1},"unitCount":1,"unitIds":["gem-unit-G100001074634"]},"type":"Feature"},{"geometry":{"coordinates":[12.883549,18.999337],"type":"Point"},"id":"wattlas-plant-osm-way-1177248306","properties":{"aliases":["Centrale Solaire Hybride de Dirkou"],"canonicalAnchor":"osm:way/1177248306","canonicalCountryKey":"NE","capacityMw":1.7,"country":"NE","externalIds":{"osm":"way/1177248306"},"geographyId":"NE-87150794B58281898249288","id":"wattlas-plant-osm-way-1177248306","lifecycleCounts":{"operational":1},"locationPrecision":"exact","name":"Centrale Solaire Hybride de Dirkou","operatingCapacityCoverage":{"coveragePercent":100.0,"knownUnitCount":0,"method":"plant_aggregate","provenance":{"evidenceCount":0,"recordIds":["wattlas-record-osm-way-1177248306"],"sourceIds":["openstreetmap-power"],"sourceTypes":["community_mapped"],"valueKind":"reported"},"totalUnitCount":0},"operatingCapacityMw":1.7,"operatingCapacityMwByTechnology":{"solar":1.7},"plannedCapacityCoverage":{"coveragePercent":0.0,"knownUnitCount":0,"method":"unavailable","totalUnitCount":0},"plannedCapacityMw":0.0,"plannedCapacityMwByTechnology":{},"recordCount":1,"recordIds":["wattlas-record-osm-way-1177248306"],"sourceIds":["openstreetmap-power"],"sourceUrl":"https://www.openstreetmap.org/way/1177248306","technologies":["solar"],"technologyMixMw":{"solar":1.7},"unitCount":0,"unitIds":[]},"type":"Feature"},{"geometry":{"coordinates":[5.763696,15.054471],"type":"Point"},"id":"wattlas-plant-osm-way-1231373865","properties":{"aliases":["Centrale PV"],"canonicalAnchor":"osm:way/1231373865","canonicalCountryKey":"NE","capacityMw":1.0,"country":"NE","externalIds":{"osm":"way/1231373865"},"geographyId":"NE-87150794B58281898249288","id":"wattlas-plant-osm-way-1231373865","lifecycleCounts":{"operational":1},"locationPrecision":"exact","name":"Centrale PV","operatingCapacityCoverage":{"coveragePercent":100.0,"knownUnitCount":0,"method":"plant_aggregate","provenance":{"evidenceCount":0,"recordIds":["wattlas-record-osm-way-1231373865"],"sourceIds":["openstreetmap-power"],"sourceTypes":["community_mapped"],"valueKind":"reported"},"totalUnitCount":0},"operatingCapacityMw":1.0,"operatingCapacityMwByTechnology":{"solar":1.0},"plannedCapacityCoverage":{"coveragePercent":0.0,"knownUnitCount":0,"method":"unavailable","totalUnitCount":0},"plannedCapacityMw":0.0,"plannedCapacityMwByTechnology":{},"recordCount":1,"recordIds":["wattlas-record-osm-way-1231373865"],"sourceIds":["openstreetmap-power"],"sourceUrl":"https://www.openstreetmap.org/way/1231373865","technologies":["solar"],"technologyMixMw":{"solar":1.0},"unitCount":0,"unitIds":[]},"type":"Feature"},{"geometry":{"coordinates":[5.512953,13.95579],"type":"Point"},"id":"wattlas-plant-osm-way-1284561222","properties":{"aliases":["Malbaza"],"canonicalAnchor":"osm:way/1284561222","canonicalCountryKey":"NE","capacityMw":0.0,"country":"NE","externalIds":{"osm":"way/1284561222"},"geographyId":"NE-87150794B58281898249288","id":"wattlas-plant-osm-way-1284561222","lifecycleCounts":{"operational":1},"locationPrecision":"exact","name":"Malbaza","operatingCapacityCoverage":{"coveragePercent":0.0,"knownUnitCount":0,"method":"unavailable","totalUnitCount":0},"operatingCapacityMw":0.0,"operatingCapacityMwByTechnology":{},"plannedCapacityCoverage":{"coveragePercent":0.0,"knownUnitCount":0,"method":"unavailable","totalUnitCount":0},"plannedCapacityMw":0.0,"plannedCapacityMwByTechnology":{},"recordCount":1,"recordIds":["wattlas-record-osm-way-1284561222"],"sourceIds":["openstreetmap-power"],"sourceUrl":"https://www.openstreetmap.org/way/1284561222","technologies":["other"],"technologyMixMw":{"other":0.0},"unitCount":0,"unitIds":[]},"type":"Feature"},{"geometry":{"coordinates":[2.069863,13.544736],"type":"Point"},"id":"wattlas-plant-osm-way-265959774","properties":{"aliases":["Central Electrique de Goudel"],"canonicalAnchor":"osm:way/265959774","canonicalCountryKey":"NE","capacityMw":89.0,"country":"NE","externalIds":{"osm":"way/265959774"},"geographyId":"NE-87150794B29979307394387","id":"wattlas-plant-osm-way-265959774","lifecycleCounts":{"operational":1},"locationPrecision":"exact","name":"Central Electrique de Goudel","operatingCapacityCoverage":{"coveragePercent":100.0,"knownUnitCount":0,"method":"plant_aggregate","provenance":{"evidenceCount":0,"recordIds":["wattlas-record-osm-way-265959774"],"sourceIds":["openstreetmap-power"],"sourceTypes":["community_mapped"],"valueKind":"reported"},"totalUnitCount":0},"operatingCapacityMw":89.0,"operatingCapacityMwByTechnology":{"oil":89.0},"plannedCapacityCoverage":{"coveragePercent":0.0,"knownUnitCount":0,"method":"unavailable","totalUnitCount":0},"plannedCapacityMw":0.0,"plannedCapacityMwByTechnology":{},"recordCount":1,"recordIds":["wattlas-record-osm-way-265959774"],"sourceIds":["openstreetmap-power"],"sourceUrl":"https://www.openstreetmap.org/way/265959774","technologies":["oil"],"technologyMixMw":{"oil":89.0},"unitCount":0,"unitIds":[]},"type":"Feature"},{"geometry":{"coordinates":[0.924378,14.725036],"type":"Point"},"id":"wattlas-plant-osm-way-535372029","properties":{"aliases":["Mapped power plant · OSM 535372029"],"canonicalAnchor":"osm:way/535372029","canonicalCountryKey":"NE","capacityMw":0.0,"country":"NE","externalIds":{"osm":"way/535372029"},"geographyId":"NE-87150794B24708462658640","id":"wattlas-plant-osm-way-535372029","lifecycleCounts":{"operational":1},"locationPrecision":"exact","name":"Mapped power plant · OSM 535372029","operatingCapacityCoverage":{"coveragePercent":0.0,"knownUnitCount":0,"method":"unavailable","totalUnitCount":0},"operatingCapacityMw":0.0,"operatingCapacityMwByTechnology":{},"plannedCapacityCoverage":{"coveragePercent":0.0,"knownUnitCount":0,"method":"unavailable","totalUnitCount":0},"plannedCapacityMw":0.0,"plannedCapacityMwByTechnology":{},"recordCount":1,"recordIds":["wattlas-record-osm-way-535372029"],"sourceIds":["openstreetmap-power"],"sourceUrl":"https://www.openstreetmap.org/way/535372029","technologies":["other"],"technologyMixMw":{"other":0.0},"unitCount":0,"unitIds":[]},"type":"Feature"},{"geometry":{"coordinates":[8.950625,13.800423],"type":"Point"},"id":"wattlas-plant-osm-way-625375849","properties":{"aliases":["Zinder Thermal Power Station"],"canonicalAnchor":"osm:way/625375849","canonicalCountryKey":"NE","capacityMw":22.0,"country":"NE","externalIds":{"osm":"way/625375849"},"geographyId":"NE-87150794B17606801029036","id":"wattlas-plant-osm-way-625375849","lifecycleCounts":{"operational":1},"locationPrecision":"exact","name":"Zinder Thermal Power Station","operatingCapacityCoverage":{"coveragePercent":100.0,"knownUnitCount":0,"method":"plant_aggregate","provenance":{"evidenceCount":0,"recordIds":["wattlas-record-osm-way-625375849"],"sourceIds":["openstreetmap-power"],"sourceTypes":["community_mapped"],"valueKind":"reported"},"totalUnitCount":0},"operatingCapacityMw":22.0,"operatingCapacityMwByTechnology":{"other":22.0},"plannedCapacityCoverage":{"coveragePercent":0.0,"knownUnitCount":0,"method":"unavailable","totalUnitCount":0},"plannedCapacityMw":0.0,"plannedCapacityMwByTechnology":{},"recordCount":1,"recordIds":["wattlas-record-osm-way-625375849"],"sourceIds":["openstreetmap-power"],"sourceUrl":"https://www.openstreetmap.org/way/625375849","technologies":["other"],"technologyMixMw":{"other":22.0},"unitCount":0,"unitIds":[]},"type":"Feature"},{"geometry":{"coordinates":[7.83931,17.289243],"type":"Point"},"id":"wattlas-plant-osm-way-678889535","properties":{"aliases":["Sonichar"],"canonicalAnchor":"osm:way/678889535","canonicalCountryKey":"NE","capacityMw":37.6,"country":"NE","externalIds":{"osm":"way/678889535"},"geographyId":"NE-87150794B58281898249288","id":"wattlas-plant-osm-way-678889535","lifecycleCounts":{"operational":1},"locationPrecision":"exact","name":"Sonichar","operatingCapacityCoverage":{"coveragePercent":100.0,"knownUnitCount":0,"method":"plant_aggregate","provenance":{"evidenceCount":0,"recordIds":["wattlas-record-osm-way-678889535"],"sourceIds":["openstreetmap-power"],"sourceTypes":["community_mapped"],"valueKind":"reported"},"totalUnitCount":0},"operatingCapacityMw":37.6,"operatingCapacityMwByTechnology":{"coal":37.6},"plannedCapacityCoverage":{"coveragePercent":0.0,"knownUnitCount":0,"method":"unavailable","totalUnitCount":0},"plannedCapacityMw":0.0,"plannedCapacityMwByTechnology":{},"recordCount":1,"recordIds":["wattlas-record-osm-way-678889535"],"sourceIds":["openstreetmap-power"],"sourceUrl":"https://www.openstreetmap.org/way/678889535","technologies":["coal"],"technologyMixMw":{"coal":37.6},"unitCount":0,"unitIds":[]},"type":"Feature"},{"geometry":{"coordinates":[5.521425,13.969083],"type":"Point"},"id":"wattlas-plant-osm-way-679072317","properties":{"aliases":["Centrale solaire de Malbaza"],"canonicalAnchor":"osm:way/679072317","canonicalCountryKey":"NE","capacityMw":7.0,"country":"NE","externalIds":{"osm":"way/679072317"},"geographyId":"NE-87150794B58281898249288","id":"wattlas-plant-osm-way-679072317","lifecycleCounts":{"operational":1},"locationPrecision":"exact","name":"Centrale solaire de Malbaza","operatingCapacityCoverage":{"coveragePercent":100.0,"knownUnitCount":0,"method":"plant_aggregate","provenance":{"evidenceCount":0,"recordIds":["wattlas-record-osm-way-679072317"],"sourceIds":["openstreetmap-power"],"sourceTypes":["community_mapped"],"valueKind":"reported"},"totalUnitCount":0},"operatingCapacityMw":7.0,"operatingCapacityMwByTechnology":{"solar":7.0},"plannedCapacityCoverage":{"coveragePercent":0.0,"knownUnitCount":0,"method":"unavailable","totalUnitCount":0},"plannedCapacityMw":0.0,"plannedCapacityMwByTechnology":{},"recordCount":1,"recordIds":["wattlas-record-osm-way-679072317"],"sourceIds":["openstreetmap-power"],"sourceUrl":"https://www.openstreetmap.org/way/679072317","technologies":["solar"],"technologyMixMw":{"solar":7.0},"unitCount":0,"unitIds":[]},"type":"Feature"},{"geometry":{"coordinates":[2.113334,13.419802],"type":"Point"},"id":"wattlas-plant-wikidata-q108685227","properties":{"aliases":["Centrale solaire de Gorou Banda"],"canonicalAnchor":"wikidata:Q108685227","canonicalCountryKey":"NE","capacityMw":50.0,"country":"NE","externalIds":{"osm":"way/1166186318","wikidata":"Q108685227"},"geographyId":"NE-87150794B24708462658640","id":"wattlas-plant-wikidata-q108685227","idAliases":["wattlas-plant-osm-way-1166186318"],"lifecycleCounts":{"operational":1},"locationPrecision":"exact","name":"Centrale solaire de Gorou Banda","operatingCapacityCoverage":{"coveragePercent":100.0,"knownUnitCount":0,"method":"plant_aggregate","provenance":{"evidenceCount":0,"recordIds":["wattlas-record-osm-way-1166186318"],"sourceIds":["openstreetmap-power"],"sourceTypes":["community_mapped"],"valueKind":"reported"},"totalUnitCount":0},"operatingCapacityMw":50.0,"operatingCapacityMwByTechnology":{"solar":50.0},"plannedCapacityCoverage":{"coveragePercent":0.0,"knownUnitCount":0,"method":"unavailable","totalUnitCount":0},"plannedCapacityMw":0.0,"plannedCapacityMwByTechnology":{},"recordCount":1,"recordIds":["wattlas-record-osm-way-1166186318"],"sourceIds":["openstreetmap-power"],"sourceUrl":"https://www.openstreetmap.org/way/1166186318","technologies":["solar"],"technologyMixMw":{"solar":50.0},"unitCount":0,"unitIds":[]},"type":"Feature"},{"geometry":{"coordinates":[2.119933,13.431031],"type":"Point"},"id":"wattlas-plant-wikidata-q56372810","properties":{"aliases":["Centrale thermique de Gorou Banda"],"canonicalAnchor":"wikidata:Q56372810","canonicalCountryKey":"NE","capacityMw":80.0,"country":"NE","externalIds":{"osm":"way/653477699","wikidata":"Q56372810","wikipedia":"de:Kraftwerk Gorou Banda"},"geographyId":"NE-87150794B24708462658640","id":"wattlas-plant-wikidata-q56372810","idAliases":["wattlas-plant-osm-way-653477699","wattlas-plant-wikipedia-de-kraftwerk-gorou-banda"],"lifecycleCounts":{"operational":1},"locationPrecision":"exact","name":"Centrale thermique de Gorou Banda","operatingCapacityCoverage":{"coveragePercent":100.0,"knownUnitCount":0,"method":"plant_aggregate","provenance":{"evidenceCount":0,"recordIds":["wattlas-record-osm-way-653477699"],"sourceIds":["openstreetmap-power"],"sourceTypes":["community_mapped"],"valueKind":"reported"},"totalUnitCount":0},"operatingCapacityMw":80.0,"operatingCapacityMwByTechnology":{"other":80.0},"plannedCapacityCoverage":{"coveragePercent":0.0,"knownUnitCount":0,"method":"unavailable","totalUnitCount":0},"plannedCapacityMw":0.0,"plannedCapacityMwByTechnology":{},"recordCount":1,"recordIds":["wattlas-record-osm-way-653477699"],"sourceIds":["openstreetmap-power"],"sourceUrl":"https://www.openstreetmap.org/way/653477699","technologies":["other"],"technologyMixMw":{"other":80.0},"unitCount":0,"unitIds":[]},"type":"Feature"}],"type":"FeatureCollection"}