{"features":[{"geometry":{"coordinates":[51.452,25.0235],"type":"Point"},"id":"wattlas-plant-gemplant-l100000200323","properties":{"aliases":["1.0","Domestic Solid Waste Management Center power station"],"canonicalAnchor":"gemplant:L100000200323","canonicalCountryKey":"QA","capacityMw":50.0,"country":"QA","externalIds":{"gemPlant":"L100000200323","gemUnit":"G100000200359"},"gemWikiUrl":"https://www.gem.wiki/Domestic_Solid_Waste_Management_Center_power_station","geographyId":"QA-59647477B6455548774572","id":"wattlas-plant-gemplant-l100000200323","lifecycleCounts":{"operational":1},"locationPrecision":"exact","name":"Domestic Solid Waste Management Center power station","operatingCapacityCoverage":{"coveragePercent":100.0,"knownUnitCount":1,"method":"complete_unit_sum","provenance":{"evidenceCount":0,"recordIds":["wattlas-record-gemunit-g100000200359"],"sourceIds":["gem-global-integrated-power-tracker"],"sourceTypes":["research_verified"],"valueKind":"reported"},"totalUnitCount":1},"operatingCapacityMw":50.0,"operatingCapacityMwByTechnology":{"gas":50.0},"plannedCapacityCoverage":{"coveragePercent":0.0,"knownUnitCount":0,"method":"unavailable","totalUnitCount":0},"plannedCapacityMw":0.0,"plannedCapacityMwByTechnology":{},"recordCount":1,"recordIds":["wattlas-record-gemunit-g100000200359"],"sourceIds":["gem-global-integrated-power-tracker"],"sourceUrl":"https://www.gem.wiki/Domestic_Solid_Waste_Management_Center_power_station","technologies":["gas"],"technologyMixMw":{"gas":50.0},"unitCount":1,"unitIds":["gem-unit-G100000200359"]},"type":"Feature"},{"geometry":{"coordinates":[51.5783,24.9753],"type":"Point"},"id":"wattlas-plant-gemplant-l100000405529","properties":{"aliases":["1-1","2-1","3-1","Mesaieed CCGT power station"],"canonicalAnchor":"gemplant:L100000405529","canonicalCountryKey":"QA","capacityMw":2007.0,"country":"QA","externalIdAliases":{"gemUnit":["G100000404744","G100000404745","G100000404746"]},"externalIds":{"gemPlant":"L100000405529","gemUnit":"G100000404746"},"gemWikiUrl":"https://www.gem.wiki/Mesaieed_CCGT_power_station","geographyId":"QA-59647477B6455548774572","id":"wattlas-plant-gemplant-l100000405529","lifecycleCounts":{"operational":3},"locationPrecision":"exact","name":"Mesaieed CCGT power station","operatingCapacityCoverage":{"coveragePercent":100.0,"knownUnitCount":3,"method":"complete_unit_sum","provenance":{"evidenceCount":0,"recordIds":["wattlas-record-gemunit-g100000404744","wattlas-record-gemunit-g100000404745","wattlas-record-gemunit-g100000404746"],"sourceIds":["gem-global-integrated-power-tracker"],"sourceTypes":["research_verified"],"valueKind":"reported"},"totalUnitCount":3},"operatingCapacityMw":2007.0,"operatingCapacityMwByTechnology":{"gas":2007.0},"plannedCapacityCoverage":{"coveragePercent":0.0,"knownUnitCount":0,"method":"unavailable","totalUnitCount":0},"plannedCapacityMw":0.0,"plannedCapacityMwByTechnology":{},"recordCount":3,"recordIds":["wattlas-record-gemunit-g100000404744","wattlas-record-gemunit-g100000404745","wattlas-record-gemunit-g100000404746"],"sourceIds":["gem-global-integrated-power-tracker"],"sourceUrl":"https://www.gem.wiki/Mesaieed_CCGT_power_station","technologies":["gas"],"technologyMixMw":{"gas":2007.0},"unitCount":3,"unitIds":["gem-unit-G100000404744","gem-unit-G100000404745","gem-unit-G100000404746"]},"type":"Feature"},{"geometry":{"coordinates":[51.544246,24.930809],"type":"Point"},"id":"wattlas-plant-gemplant-l100000405530","properties":{"aliases":["1-1","Qafco-V power plant"],"canonicalAnchor":"gemplant:L100000405530","canonicalCountryKey":"QA","capacityMw":200.0,"country":"QA","externalIds":{"gemPlant":"L100000405530","gemUnit":"G100000404747"},"gemWikiUrl":"https://www.gem.wiki/Qafco-V_power_plant","geographyId":"QA-59647477B6455548774572","id":"wattlas-plant-gemplant-l100000405530","lifecycleCounts":{"operational":1},"locationPrecision":"exact","name":"Qafco-V power plant","operatingCapacityCoverage":{"coveragePercent":100.0,"knownUnitCount":1,"method":"complete_unit_sum","provenance":{"evidenceCount":0,"recordIds":["wattlas-record-gemunit-g100000404747"],"sourceIds":["gem-global-integrated-power-tracker"],"sourceTypes":["research_verified"],"valueKind":"reported"},"totalUnitCount":1},"operatingCapacityMw":200.0,"operatingCapacityMwByTechnology":{"gas":200.0},"plannedCapacityCoverage":{"coveragePercent":0.0,"knownUnitCount":0,"method":"unavailable","totalUnitCount":0},"plannedCapacityMw":0.0,"plannedCapacityMwByTechnology":{},"recordCount":1,"recordIds":["wattlas-record-gemunit-g100000404747"],"sourceIds":["gem-global-integrated-power-tracker"],"sourceUrl":"https://www.gem.wiki/Qafco-V_power_plant","technologies":["gas"],"technologyMixMw":{"gas":200.0},"unitCount":1,"unitIds":["gem-unit-G100000404747"]},"type":"Feature"},{"geometry":{"coordinates":[51.5811,24.9713],"type":"Point"},"id":"wattlas-plant-gemplant-l100000405531","properties":{"aliases":["1-1","2-1","Qatalum CCGT power station"],"canonicalAnchor":"gemplant:L100000405531","canonicalCountryKey":"QA","capacityMw":1350.0,"country":"QA","externalIdAliases":{"gemUnit":["G100000404725","G100000404726"]},"externalIds":{"gemPlant":"L100000405531","gemUnit":"G100000404726"},"gemWikiUrl":"https://www.gem.wiki/Qatalum_CCGT_power_station","geographyId":"QA-59647477B6455548774572","id":"wattlas-plant-gemplant-l100000405531","lifecycleCounts":{"operational":2},"locationPrecision":"exact","name":"Qatalum CCGT power station","operatingCapacityCoverage":{"coveragePercent":100.0,"knownUnitCount":2,"method":"complete_unit_sum","provenance":{"evidenceCount":0,"recordIds":["wattlas-record-gemunit-g100000404725","wattlas-record-gemunit-g100000404726"],"sourceIds":["gem-global-integrated-power-tracker"],"sourceTypes":["research_verified"],"valueKind":"reported"},"totalUnitCount":2},"operatingCapacityMw":1350.0,"operatingCapacityMwByTechnology":{"gas":1350.0},"plannedCapacityCoverage":{"coveragePercent":0.0,"knownUnitCount":0,"method":"unavailable","totalUnitCount":0},"plannedCapacityMw":0.0,"plannedCapacityMwByTechnology":{},"recordCount":2,"recordIds":["wattlas-record-gemunit-g100000404725","wattlas-record-gemunit-g100000404726"],"sourceIds":["gem-global-integrated-power-tracker"],"sourceUrl":"https://www.gem.wiki/Qatalum_CCGT_power_station","technologies":["gas"],"technologyMixMw":{"gas":1350.0},"unitCount":2,"unitIds":["gem-unit-G100000404725","gem-unit-G100000404726"]},"type":"Feature"},{"geometry":{"coordinates":[51.613097,25.115086],"type":"Point"},"id":"wattlas-plant-gemplant-l100000405538","properties":{"aliases":["1-1","2-1","Umm Al Houl power plant"],"canonicalAnchor":"gemplant:L100000405538","canonicalCountryKey":"QA","capacityMw":2520.0,"country":"QA","externalIdAliases":{"gemUnit":["G100000404749","G100000410062"]},"externalIds":{"gemPlant":"L100000405538","gemUnit":"G100000410062"},"gemWikiUrl":"https://www.gem.wiki/Umm_Al_Houl_power_plant","geographyId":"QA-59647477B6455548774572","id":"wattlas-plant-gemplant-l100000405538","lifecycleCounts":{"operational":2},"locationPrecision":"exact","name":"Umm Al Houl power plant","operatingCapacityCoverage":{"coveragePercent":100.0,"knownUnitCount":2,"method":"complete_unit_sum","provenance":{"evidenceCount":0,"recordIds":["wattlas-record-gemunit-g100000404749","wattlas-record-gemunit-g100000410062"],"sourceIds":["gem-global-integrated-power-tracker"],"sourceTypes":["research_verified"],"valueKind":"reported"},"totalUnitCount":2},"operatingCapacityMw":2520.0,"operatingCapacityMwByTechnology":{"gas":2520.0},"plannedCapacityCoverage":{"coveragePercent":0.0,"knownUnitCount":0,"method":"unavailable","totalUnitCount":0},"plannedCapacityMw":0.0,"plannedCapacityMwByTechnology":{},"recordCount":2,"recordIds":["wattlas-record-gemunit-g100000404749","wattlas-record-gemunit-g100000410062"],"sourceIds":["gem-global-integrated-power-tracker"],"sourceUrl":"https://www.gem.wiki/Umm_Al_Houl_power_plant","technologies":["gas"],"technologyMixMw":{"gas":2520.0},"unitCount":2,"unitIds":["gem-unit-G100000404749","gem-unit-G100000410062"]},"type":"Feature"},{"geometry":{"coordinates":[51.359321,25.204064],"type":"Point"},"id":"wattlas-plant-gemplant-l100000408039","properties":{"aliases":["1-1","2-1","Al Saliyah GT power plant"],"canonicalAnchor":"gemplant:L100000408039","canonicalCountryKey":"QA","capacityMw":134.0,"country":"QA","externalIdAliases":{"gemUnit":["G100000411020","G100000411021"]},"externalIds":{"gemPlant":"L100000408039","gemUnit":"G100000411020"},"gemWikiUrl":"https://www.gem.wiki/Al_Saliyah_GT_power_plant","geographyId":"QA-59647477B98611324208127","id":"wattlas-plant-gemplant-l100000408039","lifecycleCounts":{"operational":2},"locationPrecision":"exact","name":"Al Saliyah GT power plant","operatingCapacityCoverage":{"coveragePercent":100.0,"knownUnitCount":2,"method":"complete_unit_sum","provenance":{"evidenceCount":0,"recordIds":["wattlas-record-gemunit-g100000411020","wattlas-record-gemunit-g100000411021"],"sourceIds":["gem-global-integrated-power-tracker"],"sourceTypes":["research_verified"],"valueKind":"reported"},"totalUnitCount":2},"operatingCapacityMw":134.0,"operatingCapacityMwByTechnology":{"gas":134.0},"plannedCapacityCoverage":{"coveragePercent":0.0,"knownUnitCount":0,"method":"unavailable","totalUnitCount":0},"plannedCapacityMw":0.0,"plannedCapacityMwByTechnology":{},"recordCount":2,"recordIds":["wattlas-record-gemunit-g100000411020","wattlas-record-gemunit-g100000411021"],"sourceIds":["gem-global-integrated-power-tracker"],"sourceUrl":"https://www.gem.wiki/Al_Saliyah_GT_power_plant","technologies":["gas"],"technologyMixMw":{"gas":134.0},"unitCount":2,"unitIds":["gem-unit-G100000411020","gem-unit-G100000411021"]},"type":"Feature"},{"geometry":{"coordinates":[51.5122,25.3171],"type":"Point"},"id":"wattlas-plant-gemplant-l100000804101","properties":{"aliases":["1.0","2.0","Al Kharsaah Solar"],"canonicalAnchor":"gemplant:L100000804101","canonicalCountryKey":"QA","capacityMw":800.0,"country":"QA","externalIdAliases":{"gemUnit":["G100000804692","G100000804693"]},"externalIds":{"gemPlant":"L100000804101","gemUnit":"G100000804692"},"gemWikiUrl":"https://www.gem.wiki/Al_Kharsaah_Solar","geographyId":"QA-59647477B74568109878344","id":"wattlas-plant-gemplant-l100000804101","lifecycleCounts":{"operational":2},"locationPrecision":"exact","name":"Al Kharsaah Solar","operatingCapacityCoverage":{"coveragePercent":100.0,"knownUnitCount":2,"method":"complete_unit_sum","provenance":{"evidenceCount":0,"recordIds":["wattlas-record-gemunit-g100000804692","wattlas-record-gemunit-g100000804693"],"sourceIds":["gem-global-integrated-power-tracker"],"sourceTypes":["research_verified"],"valueKind":"reported"},"totalUnitCount":2},"operatingCapacityMw":800.0,"operatingCapacityMwByTechnology":{"solar":800.0},"plannedCapacityCoverage":{"coveragePercent":0.0,"knownUnitCount":0,"method":"unavailable","totalUnitCount":0},"plannedCapacityMw":0.0,"plannedCapacityMwByTechnology":{},"recordCount":2,"recordIds":["wattlas-record-gemunit-g100000804692","wattlas-record-gemunit-g100000804693"],"sourceIds":["gem-global-integrated-power-tracker"],"sourceUrl":"https://www.gem.wiki/Al_Kharsaah_Solar","technologies":["solar"],"technologyMixMw":{"solar":800.0},"unitCount":2,"unitIds":["gem-unit-G100000804692","gem-unit-G100000804693"]},"type":"Feature"},{"geometry":{"coordinates":[51.5277,25.015],"type":"Point"},"id":"wattlas-plant-gemplant-l100000809130","properties":{"aliases":["--","Mesaieed Solar Plant"],"canonicalAnchor":"gemplant:L100000809130","canonicalCountryKey":"QA","capacityMw":417.0,"country":"QA","externalIds":{"gemPlant":"L100000809130","gemUnit":"G100000811460"},"gemWikiUrl":"https://www.gem.wiki/Mesaieed_Solar_Plant","geographyId":"QA-59647477B6455548774572","id":"wattlas-plant-gemplant-l100000809130","lifecycleCounts":{"operational":1},"locationPrecision":"exact","name":"Mesaieed Solar Plant","operatingCapacityCoverage":{"coveragePercent":100.0,"knownUnitCount":1,"method":"complete_unit_sum","provenance":{"evidenceCount":0,"recordIds":["wattlas-record-gemunit-g100000811460"],"sourceIds":["gem-global-integrated-power-tracker"],"sourceTypes":["research_verified"],"valueKind":"reported"},"totalUnitCount":1},"operatingCapacityMw":417.0,"operatingCapacityMwByTechnology":{"solar":417.0},"plannedCapacityCoverage":{"coveragePercent":0.0,"knownUnitCount":0,"method":"unavailable","totalUnitCount":0},"plannedCapacityMw":0.0,"plannedCapacityMwByTechnology":{},"recordCount":1,"recordIds":["wattlas-record-gemunit-g100000811460"],"sourceIds":["gem-global-integrated-power-tracker"],"sourceUrl":"https://www.gem.wiki/Mesaieed_Solar_Plant","technologies":["solar"],"technologyMixMw":{"solar":417.0},"unitCount":1,"unitIds":["gem-unit-G100000811460"]},"type":"Feature"},{"geometry":{"coordinates":[51.4413,25.9017],"type":"Point"},"id":"wattlas-plant-gemplant-l100000809131","properties":{"aliases":["--","Ras Laffan Solar Plant"],"canonicalAnchor":"gemplant:L100000809131","canonicalCountryKey":"QA","capacityMw":458.0,"country":"QA","externalIds":{"gemPlant":"L100000809131","gemUnit":"G100000811461"},"gemWikiUrl":"https://www.gem.wiki/Ras_Laffan_Solar_Plant","geographyId":"QA-59647477B65717711403998","id":"wattlas-plant-gemplant-l100000809131","lifecycleCounts":{"operational":1},"locationPrecision":"exact","name":"Ras Laffan Solar Plant","operatingCapacityCoverage":{"coveragePercent":100.0,"knownUnitCount":1,"method":"complete_unit_sum","provenance":{"evidenceCount":0,"recordIds":["wattlas-record-gemunit-g100000811461"],"sourceIds":["gem-global-integrated-power-tracker"],"sourceTypes":["research_verified"],"valueKind":"reported"},"totalUnitCount":1},"operatingCapacityMw":458.0,"operatingCapacityMwByTechnology":{"solar":458.0},"plannedCapacityCoverage":{"coveragePercent":0.0,"knownUnitCount":0,"method":"unavailable","totalUnitCount":0},"plannedCapacityMw":0.0,"plannedCapacityMwByTechnology":{},"recordCount":1,"recordIds":["wattlas-record-gemunit-g100000811461"],"sourceIds":["gem-global-integrated-power-tracker"],"sourceUrl":"https://www.gem.wiki/Ras_Laffan_Solar_Plant","technologies":["solar"],"technologyMixMw":{"solar":458.0},"unitCount":1,"unitIds":["gem-unit-G100000811461"]},"type":"Feature"},{"geometry":{"coordinates":[51.3168,25.563],"type":"Point"},"id":"wattlas-plant-gemplant-l100001025482","properties":{"aliases":["--","Qatar solar project"],"canonicalAnchor":"gemplant:L100001025482","canonicalCountryKey":"QA","capacityMw":7.2,"country":"QA","externalIds":{"gemPlant":"L100001025482","gemUnit":"G100001030163"},"gemWikiUrl":"https://www.gem.wiki/Qatar_solar_project","geographyId":"QA-59647477B67880775667160","id":"wattlas-plant-gemplant-l100001025482","lifecycleCounts":{"operational":1},"locationPrecision":"exact","name":"Qatar solar project","operatingCapacityCoverage":{"coveragePercent":100.0,"knownUnitCount":1,"method":"complete_unit_sum","provenance":{"evidenceCount":0,"recordIds":["wattlas-record-gemunit-g100001030163"],"sourceIds":["gem-global-integrated-power-tracker"],"sourceTypes":["research_verified"],"valueKind":"reported"},"totalUnitCount":1},"operatingCapacityMw":7.2,"operatingCapacityMwByTechnology":{"solar":7.2},"plannedCapacityCoverage":{"coveragePercent":0.0,"knownUnitCount":0,"method":"unavailable","totalUnitCount":0},"plannedCapacityMw":0.0,"plannedCapacityMwByTechnology":{},"recordCount":1,"recordIds":["wattlas-record-gemunit-g100001030163"],"sourceIds":["gem-global-integrated-power-tracker"],"sourceUrl":"https://www.gem.wiki/Qatar_solar_project","technologies":["solar"],"technologyMixMw":{"solar":7.2},"unitCount":1,"unitIds":["gem-unit-G100001030163"]},"type":"Feature"},{"geometry":{"coordinates":[51.3728,25.4666],"type":"Point"},"id":"wattlas-plant-gemplant-l100001025483","properties":{"aliases":["--","Umm Salal solar project"],"canonicalAnchor":"gemplant:L100001025483","canonicalCountryKey":"QA","capacityMw":2.1,"country":"QA","externalIds":{"gemPlant":"L100001025483","gemUnit":"G100001030164"},"gemWikiUrl":"https://www.gem.wiki/Umm_Salal_solar_project","geographyId":"QA-59647477B67880775667160","id":"wattlas-plant-gemplant-l100001025483","lifecycleCounts":{"operational":1},"locationPrecision":"exact","name":"Umm Salal solar project","operatingCapacityCoverage":{"coveragePercent":100.0,"knownUnitCount":1,"method":"complete_unit_sum","provenance":{"evidenceCount":0,"recordIds":["wattlas-record-gemunit-g100001030164"],"sourceIds":["gem-global-integrated-power-tracker"],"sourceTypes":["research_verified"],"valueKind":"reported"},"totalUnitCount":1},"operatingCapacityMw":2.1,"operatingCapacityMwByTechnology":{"solar":2.1},"plannedCapacityCoverage":{"coveragePercent":0.0,"knownUnitCount":0,"method":"unavailable","totalUnitCount":0},"plannedCapacityMw":0.0,"plannedCapacityMwByTechnology":{},"recordCount":1,"recordIds":["wattlas-record-gemunit-g100001030164"],"sourceIds":["gem-global-integrated-power-tracker"],"sourceUrl":"https://www.gem.wiki/Umm_Salal_solar_project","technologies":["solar"],"technologyMixMw":{"solar":2.1},"unitCount":1,"unitIds":["gem-unit-G100001030164"]},"type":"Feature"},{"geometry":{"coordinates":[51.4672,25.4084],"type":"Point"},"id":"wattlas-plant-gemplant-l100001069116","properties":{"aliases":["--","Lusail solar project"],"canonicalAnchor":"gemplant:L100001069116","canonicalCountryKey":"QA","capacityMw":4.2,"country":"QA","externalIds":{"gemPlant":"L100001069116","gemUnit":"G100001078902"},"gemWikiUrl":"https://www.gem.wiki/Lusail_solar_project","geographyId":"QA-59647477B54758693261255","id":"wattlas-plant-gemplant-l100001069116","lifecycleCounts":{"operational":1},"locationPrecision":"exact","name":"Lusail solar project","operatingCapacityCoverage":{"coveragePercent":100.0,"knownUnitCount":1,"method":"complete_unit_sum","provenance":{"evidenceCount":0,"recordIds":["wattlas-record-gemunit-g100001078902"],"sourceIds":["gem-global-integrated-power-tracker"],"sourceTypes":["research_verified"],"valueKind":"reported"},"totalUnitCount":1},"operatingCapacityMw":4.2,"operatingCapacityMwByTechnology":{"solar":4.2},"plannedCapacityCoverage":{"coveragePercent":0.0,"knownUnitCount":0,"method":"unavailable","totalUnitCount":0},"plannedCapacityMw":0.0,"plannedCapacityMwByTechnology":{},"recordCount":1,"recordIds":["wattlas-record-gemunit-g100001078902"],"sourceIds":["gem-global-integrated-power-tracker"],"sourceUrl":"https://www.gem.wiki/Lusail_solar_project","technologies":["solar"],"technologyMixMw":{"solar":4.2},"unitCount":1,"unitIds":["gem-unit-G100001078902"]},"type":"Feature"},{"geometry":{"coordinates":[51.4161,25.6363],"type":"Point"},"id":"wattlas-plant-gemplant-l100001069117","properties":{"aliases":["--","Qatar solar project I"],"canonicalAnchor":"gemplant:L100001069117","canonicalCountryKey":"QA","capacityMw":1.0,"country":"QA","externalIds":{"gemPlant":"L100001069117","gemUnit":"G100001078903"},"gemWikiUrl":"https://www.gem.wiki/Qatar_solar_project_I","geographyId":"QA-59647477B65717711403998","id":"wattlas-plant-gemplant-l100001069117","lifecycleCounts":{"operational":1},"locationPrecision":"exact","name":"Qatar solar project I","operatingCapacityCoverage":{"coveragePercent":100.0,"knownUnitCount":1,"method":"complete_unit_sum","provenance":{"evidenceCount":0,"recordIds":["wattlas-record-gemunit-g100001078903"],"sourceIds":["gem-global-integrated-power-tracker"],"sourceTypes":["research_verified"],"valueKind":"reported"},"totalUnitCount":1},"operatingCapacityMw":1.0,"operatingCapacityMwByTechnology":{"solar":1.0},"plannedCapacityCoverage":{"coveragePercent":0.0,"knownUnitCount":0,"method":"unavailable","totalUnitCount":0},"plannedCapacityMw":0.0,"plannedCapacityMwByTechnology":{},"recordCount":1,"recordIds":["wattlas-record-gemunit-g100001078903"],"sourceIds":["gem-global-integrated-power-tracker"],"sourceUrl":"https://www.gem.wiki/Qatar_solar_project_I","technologies":["solar"],"technologyMixMw":{"solar":1.0},"unitCount":1,"unitIds":["gem-unit-G100001078903"]},"type":"Feature"},{"geometry":{"coordinates":[51.3578,25.1716],"type":"Point"},"id":"wattlas-plant-gemplant-l100001069118","properties":{"aliases":["--","Al Rayyan solar project"],"canonicalAnchor":"gemplant:L100001069118","canonicalCountryKey":"QA","capacityMw":2.5,"country":"QA","externalIds":{"gemPlant":"L100001069118","gemUnit":"G100001078904"},"gemWikiUrl":"https://www.gem.wiki/Al_Rayyan_solar_project","geographyId":"QA-59647477B98611324208127","id":"wattlas-plant-gemplant-l100001069118","lifecycleCounts":{"operational":1},"locationPrecision":"exact","name":"Al Rayyan solar project","operatingCapacityCoverage":{"coveragePercent":100.0,"knownUnitCount":1,"method":"complete_unit_sum","provenance":{"evidenceCount":0,"recordIds":["wattlas-record-gemunit-g100001078904"],"sourceIds":["gem-global-integrated-power-tracker"],"sourceTypes":["research_verified"],"valueKind":"reported"},"totalUnitCount":1},"operatingCapacityMw":2.5,"operatingCapacityMwByTechnology":{"solar":2.5},"plannedCapacityCoverage":{"coveragePercent":0.0,"knownUnitCount":0,"method":"unavailable","totalUnitCount":0},"plannedCapacityMw":0.0,"plannedCapacityMwByTechnology":{},"recordCount":1,"recordIds":["wattlas-record-gemunit-g100001078904"],"sourceIds":["gem-global-integrated-power-tracker"],"sourceUrl":"https://www.gem.wiki/Al_Rayyan_solar_project","technologies":["solar"],"technologyMixMw":{"solar":2.5},"unitCount":1,"unitIds":["gem-unit-G100001078904"]},"type":"Feature"},{"geometry":{"coordinates":[51.537285,24.97646],"type":"Point"},"id":"wattlas-plant-osm-way-1151634545","properties":{"aliases":["محطة وقود للغاز الطبيعي المضغوط"],"canonicalAnchor":"osm:way/1151634545","canonicalCountryKey":"QA","capacityMw":0.0,"country":"QA","externalIds":{"osm":"way/1151634545"},"geographyId":"QA-59647477B6455548774572","id":"wattlas-plant-osm-way-1151634545","lifecycleCounts":{"operational":1},"locationPrecision":"exact","name":"محطة وقود للغاز الطبيعي المضغوط","operatingCapacityCoverage":{"coveragePercent":0.0,"knownUnitCount":0,"method":"unavailable","totalUnitCount":0},"operatingCapacityMw":0.0,"operatingCapacityMwByTechnology":{},"plannedCapacityCoverage":{"coveragePercent":0.0,"knownUnitCount":0,"method":"unavailable","totalUnitCount":0},"plannedCapacityMw":0.0,"plannedCapacityMwByTechnology":{},"recordCount":1,"recordIds":["wattlas-record-osm-way-1151634545"],"sourceIds":["openstreetmap-power"],"sourceUrl":"https://www.openstreetmap.org/way/1151634545","technologies":["gas"],"technologyMixMw":{"gas":0.0},"unitCount":0,"unitIds":[]},"type":"Feature"},{"geometry":{"coordinates":[51.014822,25.238884],"type":"Point"},"id":"wattlas-plant-osm-way-916156976","properties":{"aliases":["Al Kharsaah Solar Power Project"],"canonicalAnchor":"osm:way/916156976","canonicalCountryKey":"QA","capacityMw":800.0,"country":"QA","externalIds":{"osm":"way/916156976"},"geographyId":"QA-59647477B8883927479068","id":"wattlas-plant-osm-way-916156976","lifecycleCounts":{"operational":1},"locationPrecision":"exact","name":"Al Kharsaah Solar Power Project","operatingCapacityCoverage":{"coveragePercent":100.0,"knownUnitCount":0,"method":"plant_aggregate","provenance":{"evidenceCount":0,"recordIds":["wattlas-record-osm-way-916156976"],"sourceIds":["openstreetmap-power"],"sourceTypes":["community_mapped"],"valueKind":"reported"},"totalUnitCount":0},"operatingCapacityMw":800.0,"operatingCapacityMwByTechnology":{"solar":800.0},"plannedCapacityCoverage":{"coveragePercent":0.0,"knownUnitCount":0,"method":"unavailable","totalUnitCount":0},"plannedCapacityMw":0.0,"plannedCapacityMwByTechnology":{},"recordCount":1,"recordIds":["wattlas-record-osm-way-916156976"],"sourceIds":["openstreetmap-power"],"sourceUrl":"https://www.openstreetmap.org/way/916156976","technologies":["solar"],"technologyMixMw":{"solar":800.0},"unitCount":0,"unitIds":[]},"type":"Feature"},{"geometry":{"coordinates":[51.500439,25.907983],"type":"Point"},"id":"wattlas-plant-osm-way-949806822","properties":{"aliases":["Pearl GTL Power Plant"],"canonicalAnchor":"osm:way/949806822","canonicalCountryKey":"QA","capacityMw":0.0,"country":"QA","externalIds":{"osm":"way/949806822"},"geographyId":"QA-59647477B65717711403998","id":"wattlas-plant-osm-way-949806822","lifecycleCounts":{"operational":1},"locationPrecision":"exact","name":"Pearl GTL Power Plant","operatingCapacityCoverage":{"coveragePercent":0.0,"knownUnitCount":0,"method":"unavailable","totalUnitCount":0},"operatingCapacityMw":0.0,"operatingCapacityMwByTechnology":{},"plannedCapacityCoverage":{"coveragePercent":0.0,"knownUnitCount":0,"method":"unavailable","totalUnitCount":0},"plannedCapacityMw":0.0,"plannedCapacityMwByTechnology":{},"recordCount":1,"recordIds":["wattlas-record-osm-way-949806822"],"sourceIds":["openstreetmap-power"],"sourceUrl":"https://www.openstreetmap.org/way/949806822","technologies":["gas"],"technologyMixMw":{"gas":0.0},"unitCount":0,"unitIds":[]},"type":"Feature"},{"geometry":{"coordinates":[51.579069,24.974451],"type":"Point"},"id":"wattlas-plant-wikidata-q104896165","properties":{"aliases":["Mesaieed Power Plant"],"canonicalAnchor":"wikidata:Q104896165","canonicalCountryKey":"QA","capacityMw":1995.0,"country":"QA","externalIds":{"osm":"way/220087129","wikidata":"Q104896165"},"geographyId":"QA-59647477B6455548774572","id":"wattlas-plant-wikidata-q104896165","idAliases":["wattlas-plant-osm-way-220087129"],"lifecycleCounts":{"operational":1},"locationPrecision":"exact","name":"Mesaieed Power Plant","operatingCapacityCoverage":{"coveragePercent":100.0,"knownUnitCount":0,"method":"plant_aggregate","provenance":{"evidenceCount":0,"recordIds":["wattlas-record-osm-way-220087129"],"sourceIds":["openstreetmap-power"],"sourceTypes":["community_mapped"],"valueKind":"reported"},"totalUnitCount":0},"operatingCapacityMw":1995.0,"operatingCapacityMwByTechnology":{"gas":1995.0},"plannedCapacityCoverage":{"coveragePercent":0.0,"knownUnitCount":0,"method":"unavailable","totalUnitCount":0},"plannedCapacityMw":0.0,"plannedCapacityMwByTechnology":{},"recordCount":1,"recordIds":["wattlas-record-osm-way-220087129"],"sourceIds":["openstreetmap-power"],"sourceUrl":"https://www.openstreetmap.org/way/220087129","technologies":["gas"],"technologyMixMw":{"gas":1995.0},"unitCount":0,"unitIds":[]},"type":"Feature"},{"geometry":{"coordinates":[51.611506,25.114622],"type":"Point"},"id":"wattlas-plant-wikidata-q104896345","properties":{"aliases":["Umm Al Houl Power Plant"],"canonicalAnchor":"wikidata:Q104896345","canonicalCountryKey":"QA","capacityMw":2520.0,"country":"QA","externalIds":{"osm":"way/896856842","wikidata":"Q104896345"},"geographyId":"QA-59647477B6455548774572","id":"wattlas-plant-wikidata-q104896345","idAliases":["wattlas-plant-osm-way-896856842"],"lifecycleCounts":{"operational":1},"locationPrecision":"exact","name":"Umm Al Houl Power Plant","operatingCapacityCoverage":{"coveragePercent":100.0,"knownUnitCount":0,"method":"plant_aggregate","provenance":{"evidenceCount":0,"recordIds":["wattlas-record-osm-way-896856842"],"sourceIds":["openstreetmap-power"],"sourceTypes":["community_mapped"],"valueKind":"reported"},"totalUnitCount":0},"operatingCapacityMw":2520.0,"operatingCapacityMwByTechnology":{"gas":2520.0},"plannedCapacityCoverage":{"coveragePercent":0.0,"knownUnitCount":0,"method":"unavailable","totalUnitCount":0},"plannedCapacityMw":0.0,"plannedCapacityMwByTechnology":{},"recordCount":1,"recordIds":["wattlas-record-osm-way-896856842"],"sourceIds":["openstreetmap-power"],"sourceUrl":"https://www.openstreetmap.org/way/896856842","technologies":["gas"],"technologyMixMw":{"gas":2520.0},"unitCount":0,"unitIds":[]},"type":"Feature"},{"geometry":{"coordinates":[51.614787,25.204567],"type":"Point"},"id":"wattlas-plant-wikidata-q19386236","properties":{"aliases":["Ras Abu Fontas Power and Desalination Plant"],"canonicalAnchor":"wikidata:Q19386236","canonicalCountryKey":"QA","capacityMw":1553.0,"country":"QA","externalIds":{"osm":"way/25912692","wikidata":"Q19386236"},"geographyId":"QA-59647477B74568109878344","id":"wattlas-plant-wikidata-q19386236","idAliases":["wattlas-plant-osm-way-25912692"],"lifecycleCounts":{"operational":1},"locationPrecision":"exact","name":"Ras Abu Fontas Power and Desalination Plant","operatingCapacityCoverage":{"coveragePercent":100.0,"knownUnitCount":0,"method":"plant_aggregate","provenance":{"evidenceCount":0,"recordIds":["wattlas-record-osm-way-25912692"],"sourceIds":["openstreetmap-power"],"sourceTypes":["community_mapped"],"valueKind":"reported"},"totalUnitCount":0},"operatingCapacityMw":1553.0,"operatingCapacityMwByTechnology":{"gas":1553.0},"plannedCapacityCoverage":{"coveragePercent":0.0,"knownUnitCount":0,"method":"unavailable","totalUnitCount":0},"plannedCapacityMw":0.0,"plannedCapacityMwByTechnology":{},"recordCount":1,"recordIds":["wattlas-record-osm-way-25912692"],"sourceIds":["openstreetmap-power"],"sourceUrl":"https://www.openstreetmap.org/way/25912692","technologies":["gas"],"technologyMixMw":{"gas":1553.0},"unitCount":0,"unitIds":[]},"type":"Feature"},{"geometry":{"coordinates":[51.581687,24.970171],"type":"Point"},"id":"wattlas-plant-wikidata-q21036854","properties":{"aliases":["Qatalum Power Plant"],"canonicalAnchor":"wikidata:Q21036854","canonicalCountryKey":"QA","capacityMw":1350.0,"country":"QA","externalIds":{"osm":"way/250292200","wikidata":"Q21036854"},"geographyId":"QA-59647477B6455548774572","id":"wattlas-plant-wikidata-q21036854","idAliases":["wattlas-plant-osm-way-250292200"],"lifecycleCounts":{"operational":1},"locationPrecision":"exact","name":"Qatalum Power Plant","operatingCapacityCoverage":{"coveragePercent":100.0,"knownUnitCount":0,"method":"plant_aggregate","provenance":{"evidenceCount":0,"recordIds":["wattlas-record-osm-way-250292200"],"sourceIds":["openstreetmap-power"],"sourceTypes":["community_mapped"],"valueKind":"reported"},"totalUnitCount":0},"operatingCapacityMw":1350.0,"operatingCapacityMwByTechnology":{"gas":1350.0},"plannedCapacityCoverage":{"coveragePercent":0.0,"knownUnitCount":0,"method":"unavailable","totalUnitCount":0},"plannedCapacityMw":0.0,"plannedCapacityMwByTechnology":{},"recordCount":1,"recordIds":["wattlas-record-osm-way-250292200"],"sourceIds":["openstreetmap-power"],"sourceUrl":"https://www.openstreetmap.org/way/250292200","technologies":["gas"],"technologyMixMw":{"gas":1350.0},"unitCount":0,"unitIds":[]},"type":"Feature"}],"type":"FeatureCollection"}