{"features":[{"geometry":{"coordinates":[-17.213926,14.686988],"type":"Point"},"id":"wattlas-plant-gemplant-l100000103397","properties":{"aliases":["Sendou power station","Unit 1, timepoint 1","Unit 1, timepoint 2"],"canonicalAnchor":"gemplant:L100000103397","canonicalCountryKey":"SN","capacityMw":250.0,"country":"SN","externalIdAliases":{"gemUnit":["G100000108916","G100001017958"]},"externalIds":{"gemPlant":"L100000103397","gemUnit":"G100001017958"},"gemWikiUrl":"https://www.gem.wiki/Sendou_power_station","geographyId":"SN-71046170B16569890219484","id":"wattlas-plant-gemplant-l100000103397","lifecycleCounts":{"announced":1,"operational":1},"locationPrecision":"exact","name":"Sendou power station","operatingCapacityCoverage":{"coveragePercent":100.0,"knownUnitCount":1,"method":"complete_unit_sum","provenance":{"evidenceCount":0,"recordIds":["wattlas-record-gemunit-g100000108916"],"sourceIds":["gem-global-integrated-power-tracker"],"sourceTypes":["research_verified"],"valueKind":"reported"},"totalUnitCount":1},"operatingCapacityMw":125.0,"operatingCapacityMwByTechnology":{"coal":125.0},"plannedCapacityCoverage":{"coveragePercent":100.0,"knownUnitCount":1,"method":"complete_unit_sum","provenance":{"evidenceCount":0,"recordIds":["wattlas-record-gemunit-g100001017958"],"sourceIds":["gem-global-integrated-power-tracker"],"sourceTypes":["research_verified"],"valueKind":"reported"},"totalUnitCount":1},"plannedCapacityMw":125.0,"plannedCapacityMwByTechnology":{"gas":125.0},"recordCount":2,"recordIds":["wattlas-record-gemunit-g100000108916","wattlas-record-gemunit-g100001017958"],"sourceIds":["gem-global-integrated-power-tracker"],"sourceUrl":"https://www.gem.wiki/Sendou_power_station","technologies":["coal","gas"],"technologyMixMw":{"coal":125.0,"gas":125.0},"unitCount":2,"unitIds":["gem-unit-G100000108916","gem-unit-G100001017958"]},"type":"Feature"},{"geometry":{"coordinates":[-17.039687,14.796229],"type":"Point"},"id":"wattlas-plant-gemplant-l100000103398","properties":{"aliases":["Gallen Cement power station","Unit 1"],"canonicalAnchor":"gemplant:L100000103398","canonicalCountryKey":"SN","capacityMw":30.0,"country":"SN","externalIds":{"gemPlant":"L100000103398","gemUnit":"G100000102916"},"gemWikiUrl":"https://www.gem.wiki/Gallen_Cement_power_station","geographyId":"SN-71046170B89315153043645","id":"wattlas-plant-gemplant-l100000103398","lifecycleCounts":{"operational":1},"locationPrecision":"exact","name":"Gallen Cement power station","operatingCapacityCoverage":{"coveragePercent":100.0,"knownUnitCount":1,"method":"complete_unit_sum","provenance":{"evidenceCount":0,"recordIds":["wattlas-record-gemunit-g100000102916"],"sourceIds":["gem-global-integrated-power-tracker"],"sourceTypes":["research_verified"],"valueKind":"reported"},"totalUnitCount":1},"operatingCapacityMw":30.0,"operatingCapacityMwByTechnology":{"coal":30.0},"plannedCapacityCoverage":{"coveragePercent":0.0,"knownUnitCount":0,"method":"unavailable","totalUnitCount":0},"plannedCapacityMw":0.0,"plannedCapacityMwByTechnology":{},"recordCount":1,"recordIds":["wattlas-record-gemunit-g100000102916"],"sourceIds":["gem-global-integrated-power-tracker"],"sourceUrl":"https://www.gem.wiki/Gallen_Cement_power_station","technologies":["coal"],"technologyMixMw":{"coal":30.0},"unitCount":1,"unitIds":["gem-unit-G100000102916"]},"type":"Feature"},{"geometry":{"coordinates":[-17.297044,14.718988],"type":"Point"},"id":"wattlas-plant-gemplant-l100000406813","properties":{"aliases":["1-1","Cap des Biches (engine) power station"],"canonicalAnchor":"gemplant:L100000406813","canonicalCountryKey":"SN","capacityMw":86.0,"country":"SN","externalIds":{"gemPlant":"L100000406813","gemUnit":"G100000407254"},"gemWikiUrl":"https://www.gem.wiki/Cap_des_Biches_(engine)_power_station","geographyId":"SN-71046170B16569890219484","id":"wattlas-plant-gemplant-l100000406813","lifecycleCounts":{"operational":1},"locationPrecision":"exact","name":"Cap des Biches (engine) power station","operatingCapacityCoverage":{"coveragePercent":100.0,"knownUnitCount":1,"method":"complete_unit_sum","provenance":{"evidenceCount":0,"recordIds":["wattlas-record-gemunit-g100000407254"],"sourceIds":["gem-global-integrated-power-tracker"],"sourceTypes":["research_verified"],"valueKind":"reported"},"totalUnitCount":1},"operatingCapacityMw":86.0,"operatingCapacityMwByTechnology":{"gas":86.0},"plannedCapacityCoverage":{"coveragePercent":0.0,"knownUnitCount":0,"method":"unavailable","totalUnitCount":0},"plannedCapacityMw":0.0,"plannedCapacityMwByTechnology":{},"recordCount":1,"recordIds":["wattlas-record-gemunit-g100000407254"],"sourceIds":["gem-global-integrated-power-tracker"],"sourceUrl":"https://www.gem.wiki/Cap_des_Biches_(engine)_power_station","technologies":["gas"],"technologyMixMw":{"gas":86.0},"unitCount":1,"unitIds":["gem-unit-G100000407254"]},"type":"Feature"},{"geometry":{"coordinates":[-16.950748,14.472403],"type":"Point"},"id":"wattlas-plant-gemplant-l100000406815","properties":{"aliases":["1-1","Malicounda power station"],"canonicalAnchor":"gemplant:L100000406815","canonicalCountryKey":"SN","capacityMw":120.0,"country":"SN","externalIds":{"gemPlant":"L100000406815","gemUnit":"G100000407256"},"gemWikiUrl":"https://www.gem.wiki/Malicounda_power_station","geographyId":"SN-71046170B89315153043645","id":"wattlas-plant-gemplant-l100000406815","lifecycleCounts":{"operational":1},"locationPrecision":"exact","name":"Malicounda power station","operatingCapacityCoverage":{"coveragePercent":100.0,"knownUnitCount":1,"method":"complete_unit_sum","provenance":{"evidenceCount":0,"recordIds":["wattlas-record-gemunit-g100000407256"],"sourceIds":["gem-global-integrated-power-tracker"],"sourceTypes":["research_verified"],"valueKind":"reported"},"totalUnitCount":1},"operatingCapacityMw":120.0,"operatingCapacityMwByTechnology":{"gas":120.0},"plannedCapacityCoverage":{"coveragePercent":0.0,"knownUnitCount":0,"method":"unavailable","totalUnitCount":0},"plannedCapacityMw":0.0,"plannedCapacityMwByTechnology":{},"recordCount":1,"recordIds":["wattlas-record-gemunit-g100000407256"],"sourceIds":["gem-global-integrated-power-tracker"],"sourceUrl":"https://www.gem.wiki/Malicounda_power_station","technologies":["gas"],"technologyMixMw":{"gas":120.0},"unitCount":1,"unitIds":["gem-unit-G100000407256"]},"type":"Feature"},{"geometry":{"coordinates":[-16.861741,15.007438],"type":"Point"},"id":"wattlas-plant-gemplant-l100000406816","properties":{"aliases":["1-1","Tobène power station"],"canonicalAnchor":"gemplant:L100000406816","canonicalCountryKey":"SN","capacityMw":115.0,"country":"SN","externalIds":{"gemPlant":"L100000406816","gemUnit":"G100000407257"},"gemWikiUrl":"https://www.gem.wiki/Tobène_power_station","geographyId":"SN-71046170B89315153043645","id":"wattlas-plant-gemplant-l100000406816","lifecycleCounts":{"operational":1},"locationPrecision":"exact","name":"Tobène power station","operatingCapacityCoverage":{"coveragePercent":100.0,"knownUnitCount":1,"method":"complete_unit_sum","provenance":{"evidenceCount":0,"recordIds":["wattlas-record-gemunit-g100000407257"],"sourceIds":["gem-global-integrated-power-tracker"],"sourceTypes":["research_verified"],"valueKind":"reported"},"totalUnitCount":1},"operatingCapacityMw":115.0,"operatingCapacityMwByTechnology":{"gas":115.0},"plannedCapacityCoverage":{"coveragePercent":0.0,"knownUnitCount":0,"method":"unavailable","totalUnitCount":0},"plannedCapacityMw":0.0,"plannedCapacityMwByTechnology":{},"recordCount":1,"recordIds":["wattlas-record-gemunit-g100000407257"],"sourceIds":["gem-global-integrated-power-tracker"],"sourceUrl":"https://www.gem.wiki/Tobène_power_station","technologies":["gas"],"technologyMixMw":{"gas":115.0},"unitCount":1,"unitIds":["gem-unit-G100000407257"]},"type":"Feature"},{"geometry":{"coordinates":[-17.26635,14.743768],"type":"Point"},"id":"wattlas-plant-gemplant-l100000409160","properties":{"aliases":["1-1","Kounoune power station"],"canonicalAnchor":"gemplant:L100000409160","canonicalCountryKey":"SN","capacityMw":67.5,"country":"SN","externalIds":{"gemPlant":"L100000409160","gemUnit":"G100000413926"},"gemWikiUrl":"https://www.gem.wiki/Kounoune_power_station","geographyId":"SN-71046170B16569890219484","id":"wattlas-plant-gemplant-l100000409160","lifecycleCounts":{"operational":1},"locationPrecision":"exact","name":"Kounoune power station","operatingCapacityCoverage":{"coveragePercent":100.0,"knownUnitCount":1,"method":"complete_unit_sum","provenance":{"evidenceCount":0,"recordIds":["wattlas-record-gemunit-g100000413926"],"sourceIds":["gem-global-integrated-power-tracker"],"sourceTypes":["research_verified"],"valueKind":"reported"},"totalUnitCount":1},"operatingCapacityMw":67.5,"operatingCapacityMwByTechnology":{"gas":67.5},"plannedCapacityCoverage":{"coveragePercent":0.0,"knownUnitCount":0,"method":"unavailable","totalUnitCount":0},"plannedCapacityMw":0.0,"plannedCapacityMwByTechnology":{},"recordCount":1,"recordIds":["wattlas-record-gemunit-g100000413926"],"sourceIds":["gem-global-integrated-power-tracker"],"sourceUrl":"https://www.gem.wiki/Kounoune_power_station","technologies":["gas"],"technologyMixMw":{"gas":67.5},"unitCount":1,"unitIds":["gem-unit-G100000413926"]},"type":"Feature"},{"geometry":{"coordinates":[-15.4692,16.5172],"type":"Point"},"id":"wattlas-plant-gemplant-l100000800063","properties":{"aliases":["--","Bokhol solar farm"],"canonicalAnchor":"gemplant:L100000800063","canonicalCountryKey":"SN","capacityMw":20.0,"country":"SN","externalIds":{"gemPlant":"L100000800063","gemUnit":"G100000800081"},"gemWikiUrl":"https://www.gem.wiki/Bokhol_solar_farm","geographyId":"SN-71046170B37999982332216","id":"wattlas-plant-gemplant-l100000800063","lifecycleCounts":{"operational":1},"locationPrecision":"exact","name":"Bokhol solar farm","operatingCapacityCoverage":{"coveragePercent":100.0,"knownUnitCount":1,"method":"complete_unit_sum","provenance":{"evidenceCount":0,"recordIds":["wattlas-record-gemunit-g100000800081"],"sourceIds":["gem-global-integrated-power-tracker"],"sourceTypes":["research_verified"],"valueKind":"reported"},"totalUnitCount":1},"operatingCapacityMw":20.0,"operatingCapacityMwByTechnology":{"solar":20.0},"plannedCapacityCoverage":{"coveragePercent":0.0,"knownUnitCount":0,"method":"unavailable","totalUnitCount":0},"plannedCapacityMw":0.0,"plannedCapacityMwByTechnology":{},"recordCount":1,"recordIds":["wattlas-record-gemunit-g100000800081"],"sourceIds":["gem-global-integrated-power-tracker"],"sourceUrl":"https://www.gem.wiki/Bokhol_solar_farm","technologies":["solar"],"technologyMixMw":{"solar":20.0},"unitCount":1,"unitIds":["gem-unit-G100000800081"]},"type":"Feature"},{"geometry":{"coordinates":[-15.9222,14.7728],"type":"Point"},"id":"wattlas-plant-gemplant-l100000800151","properties":{"aliases":["--","Kaél solar farm"],"canonicalAnchor":"gemplant:L100000800151","canonicalCountryKey":"SN","capacityMw":35.0,"country":"SN","externalIds":{"gemPlant":"L100000800151","gemUnit":"G100000800190"},"gemWikiUrl":"https://www.gem.wiki/Kaél_solar_farm","geographyId":"SN-71046170B89912390768536","id":"wattlas-plant-gemplant-l100000800151","lifecycleCounts":{"operational":1},"locationPrecision":"exact","name":"Kaél solar farm","operatingCapacityCoverage":{"coveragePercent":100.0,"knownUnitCount":1,"method":"complete_unit_sum","provenance":{"evidenceCount":0,"recordIds":["wattlas-record-gemunit-g100000800190"],"sourceIds":["gem-global-integrated-power-tracker"],"sourceTypes":["research_verified"],"valueKind":"reported"},"totalUnitCount":1},"operatingCapacityMw":35.0,"operatingCapacityMwByTechnology":{"solar":35.0},"plannedCapacityCoverage":{"coveragePercent":0.0,"knownUnitCount":0,"method":"unavailable","totalUnitCount":0},"plannedCapacityMw":0.0,"plannedCapacityMwByTechnology":{},"recordCount":1,"recordIds":["wattlas-record-gemunit-g100000800190"],"sourceIds":["gem-global-integrated-power-tracker"],"sourceUrl":"https://www.gem.wiki/Kaél_solar_farm","technologies":["solar"],"technologyMixMw":{"solar":35.0},"unitCount":1,"unitIds":["gem-unit-G100000800190"]},"type":"Feature"},{"geometry":{"coordinates":[-16.025,14.169],"type":"Point"},"id":"wattlas-plant-gemplant-l100000800152","properties":{"aliases":["--","Kahone Solaire Sa solar farm"],"canonicalAnchor":"gemplant:L100000800152","canonicalCountryKey":"SN","capacityMw":35.0,"country":"SN","externalIds":{"gemPlant":"L100000800152","gemUnit":"G100000800191"},"gemWikiUrl":"https://www.gem.wiki/Kahone_Solaire_Sa_solar_farm","geographyId":"SN-71046170B19471834738959","id":"wattlas-plant-gemplant-l100000800152","lifecycleCounts":{"operational":1},"locationPrecision":"exact","name":"Kahone Solaire Sa solar farm","operatingCapacityCoverage":{"coveragePercent":100.0,"knownUnitCount":1,"method":"complete_unit_sum","provenance":{"evidenceCount":0,"recordIds":["wattlas-record-gemunit-g100000800191"],"sourceIds":["gem-global-integrated-power-tracker"],"sourceTypes":["research_verified"],"valueKind":"reported"},"totalUnitCount":1},"operatingCapacityMw":35.0,"operatingCapacityMwByTechnology":{"solar":35.0},"plannedCapacityCoverage":{"coveragePercent":0.0,"knownUnitCount":0,"method":"unavailable","totalUnitCount":0},"plannedCapacityMw":0.0,"plannedCapacityMwByTechnology":{},"recordCount":1,"recordIds":["wattlas-record-gemunit-g100000800191"],"sourceIds":["gem-global-integrated-power-tracker"],"sourceUrl":"https://www.gem.wiki/Kahone_Solaire_Sa_solar_farm","technologies":["solar"],"technologyMixMw":{"solar":35.0},"unitCount":1,"unitIds":["gem-unit-G100000800191"]},"type":"Feature"},{"geometry":{"coordinates":[-16.027,14.178],"type":"Point"},"id":"wattlas-plant-gemplant-l100000800153","properties":{"aliases":["--","Kahone solar farm"],"canonicalAnchor":"gemplant:L100000800153","canonicalCountryKey":"SN","capacityMw":25.0,"country":"SN","externalIds":{"gemPlant":"L100000800153","gemUnit":"G100000800192"},"gemWikiUrl":"https://www.gem.wiki/Kahone_solar_farm","geographyId":"SN-71046170B19471834738959","id":"wattlas-plant-gemplant-l100000800153","lifecycleCounts":{"operational":1},"locationPrecision":"exact","name":"Kahone solar farm","operatingCapacityCoverage":{"coveragePercent":100.0,"knownUnitCount":1,"method":"complete_unit_sum","provenance":{"evidenceCount":0,"recordIds":["wattlas-record-gemunit-g100000800192"],"sourceIds":["gem-global-integrated-power-tracker"],"sourceTypes":["research_verified"],"valueKind":"reported"},"totalUnitCount":1},"operatingCapacityMw":25.0,"operatingCapacityMwByTechnology":{"solar":25.0},"plannedCapacityCoverage":{"coveragePercent":0.0,"knownUnitCount":0,"method":"unavailable","totalUnitCount":0},"plannedCapacityMw":0.0,"plannedCapacityMwByTechnology":{},"recordCount":1,"recordIds":["wattlas-record-gemunit-g100000800192"],"sourceIds":["gem-global-integrated-power-tracker"],"sourceUrl":"https://www.gem.wiki/Kahone_solar_farm","technologies":["solar"],"technologyMixMw":{"solar":25.0},"unitCount":1,"unitIds":["gem-unit-G100000800192"]},"type":"Feature"},{"geometry":{"coordinates":[-16.9354,14.4736],"type":"Point"},"id":"wattlas-plant-gemplant-l100000800203","properties":{"aliases":["--","Malicounda solar farm"],"canonicalAnchor":"gemplant:L100000800203","canonicalCountryKey":"SN","capacityMw":22.0,"country":"SN","externalIds":{"gemPlant":"L100000800203","gemUnit":"G100000800248"},"gemWikiUrl":"https://www.gem.wiki/Malicounda_solar_farm","geographyId":"SN-71046170B89315153043645","id":"wattlas-plant-gemplant-l100000800203","lifecycleCounts":{"operational":1},"locationPrecision":"exact","name":"Malicounda solar farm","operatingCapacityCoverage":{"coveragePercent":100.0,"knownUnitCount":1,"method":"complete_unit_sum","provenance":{"evidenceCount":0,"recordIds":["wattlas-record-gemunit-g100000800248"],"sourceIds":["gem-global-integrated-power-tracker"],"sourceTypes":["research_verified"],"valueKind":"reported"},"totalUnitCount":1},"operatingCapacityMw":22.0,"operatingCapacityMwByTechnology":{"solar":22.0},"plannedCapacityCoverage":{"coveragePercent":0.0,"knownUnitCount":0,"method":"unavailable","totalUnitCount":0},"plannedCapacityMw":0.0,"plannedCapacityMwByTechnology":{},"recordCount":1,"recordIds":["wattlas-record-gemunit-g100000800248"],"sourceIds":["gem-global-integrated-power-tracker"],"sourceUrl":"https://www.gem.wiki/Malicounda_solar_farm","technologies":["solar"],"technologyMixMw":{"solar":22.0},"unitCount":1,"unitIds":["gem-unit-G100000800248"]},"type":"Feature"},{"geometry":{"coordinates":[-16.131,15.5983],"type":"Point"},"id":"wattlas-plant-gemplant-l100000800276","properties":{"aliases":["--","Sakal solar farm"],"canonicalAnchor":"gemplant:L100000800276","canonicalCountryKey":"SN","capacityMw":20.0,"country":"SN","externalIds":{"gemPlant":"L100000800276","gemUnit":"G100000800328"},"gemWikiUrl":"https://www.gem.wiki/Sakal_solar_farm","geographyId":"SN-71046170B63374102885919","id":"wattlas-plant-gemplant-l100000800276","lifecycleCounts":{"operational":1},"locationPrecision":"exact","name":"Sakal solar farm","operatingCapacityCoverage":{"coveragePercent":100.0,"knownUnitCount":1,"method":"complete_unit_sum","provenance":{"evidenceCount":0,"recordIds":["wattlas-record-gemunit-g100000800328"],"sourceIds":["gem-global-integrated-power-tracker"],"sourceTypes":["research_verified"],"valueKind":"reported"},"totalUnitCount":1},"operatingCapacityMw":20.0,"operatingCapacityMwByTechnology":{"solar":20.0},"plannedCapacityCoverage":{"coveragePercent":0.0,"knownUnitCount":0,"method":"unavailable","totalUnitCount":0},"plannedCapacityMw":0.0,"plannedCapacityMwByTechnology":{},"recordCount":1,"recordIds":["wattlas-record-gemunit-g100000800328"],"sourceIds":["gem-global-integrated-power-tracker"],"sourceUrl":"https://www.gem.wiki/Sakal_solar_farm","technologies":["solar"],"technologyMixMw":{"solar":20.0},"unitCount":1,"unitIds":["gem-unit-G100000800328"]},"type":"Feature"},{"geometry":{"coordinates":[-16.6761,15.1326],"type":"Point"},"id":"wattlas-plant-gemplant-l100000800278","properties":{"aliases":["--","Santhiou Mékhé solar farm"],"canonicalAnchor":"gemplant:L100000800278","canonicalCountryKey":"SN","capacityMw":30.0,"country":"SN","externalIds":{"gemPlant":"L100000800278","gemUnit":"G100000800330"},"gemWikiUrl":"https://www.gem.wiki/Santhiou_Mékhé_solar_farm","geographyId":"SN-71046170B89315153043645","id":"wattlas-plant-gemplant-l100000800278","lifecycleCounts":{"operational":1},"locationPrecision":"exact","name":"Santhiou Mékhé solar farm","operatingCapacityCoverage":{"coveragePercent":100.0,"knownUnitCount":1,"method":"complete_unit_sum","provenance":{"evidenceCount":0,"recordIds":["wattlas-record-gemunit-g100000800330"],"sourceIds":["gem-global-integrated-power-tracker"],"sourceTypes":["research_verified"],"valueKind":"reported"},"totalUnitCount":1},"operatingCapacityMw":30.0,"operatingCapacityMwByTechnology":{"solar":30.0},"plannedCapacityCoverage":{"coveragePercent":0.0,"knownUnitCount":0,"method":"unavailable","totalUnitCount":0},"plannedCapacityMw":0.0,"plannedCapacityMwByTechnology":{},"recordCount":1,"recordIds":["wattlas-record-gemunit-g100000800330"],"sourceIds":["gem-global-integrated-power-tracker"],"sourceUrl":"https://www.gem.wiki/Santhiou_Mékhé_solar_farm","technologies":["solar"],"technologyMixMw":{"solar":30.0},"unitCount":1,"unitIds":["gem-unit-G100000800330"]},"type":"Feature"},{"geometry":{"coordinates":[-16.676,15.1301],"type":"Point"},"id":"wattlas-plant-gemplant-l100000800325","properties":{"aliases":["--","Ten Merina solar farm"],"canonicalAnchor":"gemplant:L100000800325","canonicalCountryKey":"SN","capacityMw":30.0,"country":"SN","externalIds":{"gemPlant":"L100000800325","gemUnit":"G100000800396"},"gemWikiUrl":"https://www.gem.wiki/Ten_Merina_solar_farm","geographyId":"SN-71046170B89315153043645","id":"wattlas-plant-gemplant-l100000800325","lifecycleCounts":{"operational":1},"locationPrecision":"exact","name":"Ten Merina solar farm","operatingCapacityCoverage":{"coveragePercent":100.0,"knownUnitCount":1,"method":"complete_unit_sum","provenance":{"evidenceCount":0,"recordIds":["wattlas-record-gemunit-g100000800396"],"sourceIds":["gem-global-integrated-power-tracker"],"sourceTypes":["research_verified"],"valueKind":"reported"},"totalUnitCount":1},"operatingCapacityMw":30.0,"operatingCapacityMwByTechnology":{"solar":30.0},"plannedCapacityCoverage":{"coveragePercent":0.0,"knownUnitCount":0,"method":"unavailable","totalUnitCount":0},"plannedCapacityMw":0.0,"plannedCapacityMwByTechnology":{},"recordCount":1,"recordIds":["wattlas-record-gemunit-g100000800396"],"sourceIds":["gem-global-integrated-power-tracker"],"sourceUrl":"https://www.gem.wiki/Ten_Merina_solar_farm","technologies":["solar"],"technologyMixMw":{"solar":30.0},"unitCount":1,"unitIds":["gem-unit-G100000800396"]},"type":"Feature"},{"geometry":{"coordinates":[-17.103,14.652],"type":"Point"},"id":"wattlas-plant-gemplant-l100000811643","properties":{"aliases":["--","Diass solar farm"],"canonicalAnchor":"gemplant:L100000811643","canonicalCountryKey":"SN","capacityMw":23.0,"country":"SN","externalIds":{"gemPlant":"L100000811643","gemUnit":"G100000814195"},"gemWikiUrl":"https://www.gem.wiki/Diass_solar_farm","geographyId":"SN-71046170B89315153043645","id":"wattlas-plant-gemplant-l100000811643","lifecycleCounts":{"operational":1},"locationPrecision":"exact","name":"Diass solar farm","operatingCapacityCoverage":{"coveragePercent":100.0,"knownUnitCount":1,"method":"complete_unit_sum","provenance":{"evidenceCount":0,"recordIds":["wattlas-record-gemunit-g100000814195"],"sourceIds":["gem-global-integrated-power-tracker"],"sourceTypes":["research_verified"],"valueKind":"reported"},"totalUnitCount":1},"operatingCapacityMw":23.0,"operatingCapacityMwByTechnology":{"solar":23.0},"plannedCapacityCoverage":{"coveragePercent":0.0,"knownUnitCount":0,"method":"unavailable","totalUnitCount":0},"plannedCapacityMw":0.0,"plannedCapacityMwByTechnology":{},"recordCount":1,"recordIds":["wattlas-record-gemunit-g100000814195"],"sourceIds":["gem-global-integrated-power-tracker"],"sourceUrl":"https://www.gem.wiki/Diass_solar_farm","technologies":["solar"],"technologyMixMw":{"solar":23.0},"unitCount":1,"unitIds":["gem-unit-G100000814195"]},"type":"Feature"},{"geometry":{"coordinates":[-16.8594,15.0101],"type":"Point"},"id":"wattlas-plant-gemplant-l100000900094","properties":{"aliases":["1.0","2.0","3.0","4.0","Taiba N’Diaye wind farm"],"canonicalAnchor":"gemplant:L100000900094","canonicalCountryKey":"SN","capacityMw":258.0,"country":"SN","externalIdAliases":{"gemUnit":["G100000900120","G100000900121","G100000900122","G100000900123"]},"externalIds":{"gemPlant":"L100000900094","gemUnit":"G100000900120"},"gemWikiUrl":"https://www.gem.wiki/Taiba_N’Diaye_wind_farm","geographyId":"SN-71046170B89315153043645","id":"wattlas-plant-gemplant-l100000900094","lifecycleCounts":{"announced":1,"operational":3},"locationPrecision":"exact","name":"Taiba N’Diaye wind farm","operatingCapacityCoverage":{"coveragePercent":100.0,"knownUnitCount":3,"method":"complete_unit_sum","provenance":{"evidenceCount":0,"recordIds":["wattlas-record-gemunit-g100000900121","wattlas-record-gemunit-g100000900122","wattlas-record-gemunit-g100000900123"],"sourceIds":["gem-global-integrated-power-tracker"],"sourceTypes":["research_verified"],"valueKind":"reported"},"totalUnitCount":3},"operatingCapacityMw":158.0,"operatingCapacityMwByTechnology":{"wind":158.0},"plannedCapacityCoverage":{"coveragePercent":100.0,"knownUnitCount":1,"method":"complete_unit_sum","provenance":{"evidenceCount":0,"recordIds":["wattlas-record-gemunit-g100000900120"],"sourceIds":["gem-global-integrated-power-tracker"],"sourceTypes":["research_verified"],"valueKind":"reported"},"totalUnitCount":1},"plannedCapacityMw":100.0,"plannedCapacityMwByTechnology":{"wind":100.0},"recordCount":4,"recordIds":["wattlas-record-gemunit-g100000900120","wattlas-record-gemunit-g100000900121","wattlas-record-gemunit-g100000900122","wattlas-record-gemunit-g100000900123"],"sourceIds":["gem-global-integrated-power-tracker"],"sourceUrl":"https://www.gem.wiki/Taiba_N’Diaye_wind_farm","technologies":["wind"],"technologyMixMw":{"wind":258.0},"unitCount":4,"unitIds":["gem-unit-G100000900120","gem-unit-G100000900121","gem-unit-G100000900122","gem-unit-G100000900123"]},"type":"Feature"},{"geometry":{"coordinates":[-17.1942,14.7435],"type":"Point"},"id":"wattlas-plant-gemplant-l100001020950","properties":{"aliases":["--","Dakar Region solar project I"],"canonicalAnchor":"gemplant:L100001020950","canonicalCountryKey":"SN","capacityMw":2.1,"country":"SN","externalIds":{"gemPlant":"L100001020950","gemUnit":"G100001023919"},"gemWikiUrl":"https://www.gem.wiki/Dakar_Region_solar_project_I","geographyId":"SN-71046170B16569890219484","id":"wattlas-plant-gemplant-l100001020950","lifecycleCounts":{"operational":1},"locationPrecision":"exact","name":"Dakar Region solar project I","operatingCapacityCoverage":{"coveragePercent":100.0,"knownUnitCount":1,"method":"complete_unit_sum","provenance":{"evidenceCount":0,"recordIds":["wattlas-record-gemunit-g100001023919"],"sourceIds":["gem-global-integrated-power-tracker"],"sourceTypes":["research_verified"],"valueKind":"reported"},"totalUnitCount":1},"operatingCapacityMw":2.1,"operatingCapacityMwByTechnology":{"solar":2.1},"plannedCapacityCoverage":{"coveragePercent":0.0,"knownUnitCount":0,"method":"unavailable","totalUnitCount":0},"plannedCapacityMw":0.0,"plannedCapacityMwByTechnology":{},"recordCount":1,"recordIds":["wattlas-record-gemunit-g100001023919"],"sourceIds":["gem-global-integrated-power-tracker"],"sourceUrl":"https://www.gem.wiki/Dakar_Region_solar_project_I","technologies":["solar"],"technologyMixMw":{"solar":2.1},"unitCount":1,"unitIds":["gem-unit-G100001023919"]},"type":"Feature"},{"geometry":{"coordinates":[-17.2421,14.7278],"type":"Point"},"id":"wattlas-plant-gemplant-l100001020951","properties":{"aliases":["--","Rufisque solar project"],"canonicalAnchor":"gemplant:L100001020951","canonicalCountryKey":"SN","capacityMw":9.2,"country":"SN","externalIds":{"gemPlant":"L100001020951","gemUnit":"G100001023920"},"gemWikiUrl":"https://www.gem.wiki/Rufisque_solar_project","geographyId":"SN-71046170B16569890219484","id":"wattlas-plant-gemplant-l100001020951","lifecycleCounts":{"operational":1},"locationPrecision":"exact","name":"Rufisque solar project","operatingCapacityCoverage":{"coveragePercent":100.0,"knownUnitCount":1,"method":"complete_unit_sum","provenance":{"evidenceCount":0,"recordIds":["wattlas-record-gemunit-g100001023920"],"sourceIds":["gem-global-integrated-power-tracker"],"sourceTypes":["research_verified"],"valueKind":"reported"},"totalUnitCount":1},"operatingCapacityMw":9.2,"operatingCapacityMwByTechnology":{"solar":9.2},"plannedCapacityCoverage":{"coveragePercent":0.0,"knownUnitCount":0,"method":"unavailable","totalUnitCount":0},"plannedCapacityMw":0.0,"plannedCapacityMwByTechnology":{},"recordCount":1,"recordIds":["wattlas-record-gemunit-g100001023920"],"sourceIds":["gem-global-integrated-power-tracker"],"sourceUrl":"https://www.gem.wiki/Rufisque_solar_project","technologies":["solar"],"technologyMixMw":{"solar":9.2},"unitCount":1,"unitIds":["gem-unit-G100001023920"]},"type":"Feature"},{"geometry":{"coordinates":[-17.1972,14.686],"type":"Point"},"id":"wattlas-plant-gemplant-l100001020952","properties":{"aliases":["--","Dakar Region solar project II"],"canonicalAnchor":"gemplant:L100001020952","canonicalCountryKey":"SN","capacityMw":7.8,"country":"SN","externalIds":{"gemPlant":"L100001020952","gemUnit":"G100001023921"},"gemWikiUrl":"https://www.gem.wiki/Dakar_Region_solar_project_II","geographyId":"SN-71046170B16569890219484","id":"wattlas-plant-gemplant-l100001020952","lifecycleCounts":{"operational":1},"locationPrecision":"exact","name":"Dakar Region solar project II","operatingCapacityCoverage":{"coveragePercent":100.0,"knownUnitCount":1,"method":"complete_unit_sum","provenance":{"evidenceCount":0,"recordIds":["wattlas-record-gemunit-g100001023921"],"sourceIds":["gem-global-integrated-power-tracker"],"sourceTypes":["research_verified"],"valueKind":"reported"},"totalUnitCount":1},"operatingCapacityMw":7.8,"operatingCapacityMwByTechnology":{"solar":7.8},"plannedCapacityCoverage":{"coveragePercent":0.0,"knownUnitCount":0,"method":"unavailable","totalUnitCount":0},"plannedCapacityMw":0.0,"plannedCapacityMwByTechnology":{},"recordCount":1,"recordIds":["wattlas-record-gemunit-g100001023921"],"sourceIds":["gem-global-integrated-power-tracker"],"sourceUrl":"https://www.gem.wiki/Dakar_Region_solar_project_II","technologies":["solar"],"technologyMixMw":{"solar":7.8},"unitCount":1,"unitIds":["gem-unit-G100001023921"]},"type":"Feature"},{"geometry":{"coordinates":[-15.7916,16.1744],"type":"Point"},"id":"wattlas-plant-gemplant-l100001020953","properties":{"aliases":["--","Senegal solar project"],"canonicalAnchor":"gemplant:L100001020953","canonicalCountryKey":"SN","capacityMw":8.3,"country":"SN","externalIds":{"gemPlant":"L100001020953","gemUnit":"G100001023922"},"gemWikiUrl":"https://www.gem.wiki/Senegal_solar_project","geographyId":"SN-71046170B37999982332216","id":"wattlas-plant-gemplant-l100001020953","lifecycleCounts":{"operational":1},"locationPrecision":"exact","name":"Senegal solar project","operatingCapacityCoverage":{"coveragePercent":100.0,"knownUnitCount":1,"method":"complete_unit_sum","provenance":{"evidenceCount":0,"recordIds":["wattlas-record-gemunit-g100001023922"],"sourceIds":["gem-global-integrated-power-tracker"],"sourceTypes":["research_verified"],"valueKind":"reported"},"totalUnitCount":1},"operatingCapacityMw":8.3,"operatingCapacityMwByTechnology":{"solar":8.3},"plannedCapacityCoverage":{"coveragePercent":0.0,"knownUnitCount":0,"method":"unavailable","totalUnitCount":0},"plannedCapacityMw":0.0,"plannedCapacityMwByTechnology":{},"recordCount":1,"recordIds":["wattlas-record-gemunit-g100001023922"],"sourceIds":["gem-global-integrated-power-tracker"],"sourceUrl":"https://www.gem.wiki/Senegal_solar_project","technologies":["solar"],"technologyMixMw":{"solar":8.3},"unitCount":1,"unitIds":["gem-unit-G100001023922"]},"type":"Feature"},{"geometry":{"coordinates":[-17.2027,14.732],"type":"Point"},"id":"wattlas-plant-gemplant-l100001064868","properties":{"aliases":["--","Dakar Region solar project"],"canonicalAnchor":"gemplant:L100001064868","canonicalCountryKey":"SN","capacityMw":1.5,"country":"SN","externalIds":{"gemPlant":"L100001064868","gemUnit":"G100001074654"},"gemWikiUrl":"https://www.gem.wiki/Dakar_Region_solar_project","geographyId":"SN-71046170B16569890219484","id":"wattlas-plant-gemplant-l100001064868","lifecycleCounts":{"operational":1},"locationPrecision":"exact","name":"Dakar Region solar project","operatingCapacityCoverage":{"coveragePercent":100.0,"knownUnitCount":1,"method":"complete_unit_sum","provenance":{"evidenceCount":0,"recordIds":["wattlas-record-gemunit-g100001074654"],"sourceIds":["gem-global-integrated-power-tracker"],"sourceTypes":["research_verified"],"valueKind":"reported"},"totalUnitCount":1},"operatingCapacityMw":1.5,"operatingCapacityMwByTechnology":{"solar":1.5},"plannedCapacityCoverage":{"coveragePercent":0.0,"knownUnitCount":0,"method":"unavailable","totalUnitCount":0},"plannedCapacityMw":0.0,"plannedCapacityMwByTechnology":{},"recordCount":1,"recordIds":["wattlas-record-gemunit-g100001074654"],"sourceIds":["gem-global-integrated-power-tracker"],"sourceUrl":"https://www.gem.wiki/Dakar_Region_solar_project","technologies":["solar"],"technologyMixMw":{"solar":1.5},"unitCount":1,"unitIds":["gem-unit-G100001074654"]},"type":"Feature"},{"geometry":{"coordinates":[-17.242607,14.727849],"type":"Point"},"id":"wattlas-plant-osm-way-1086465735","properties":{"aliases":["Centrale Solaire Sococim"],"canonicalAnchor":"osm:way/1086465735","canonicalCountryKey":"SN","capacityMw":7.0,"country":"SN","externalIds":{"osm":"way/1086465735"},"geographyId":"SN-71046170B16569890219484","id":"wattlas-plant-osm-way-1086465735","lifecycleCounts":{"operational":1},"locationPrecision":"exact","name":"Centrale Solaire Sococim","operatingCapacityCoverage":{"coveragePercent":100.0,"knownUnitCount":0,"method":"plant_aggregate","provenance":{"evidenceCount":0,"recordIds":["wattlas-record-osm-way-1086465735"],"sourceIds":["openstreetmap-power"],"sourceTypes":["community_mapped"],"valueKind":"reported"},"totalUnitCount":0},"operatingCapacityMw":7.0,"operatingCapacityMwByTechnology":{"solar":7.0},"plannedCapacityCoverage":{"coveragePercent":0.0,"knownUnitCount":0,"method":"unavailable","totalUnitCount":0},"plannedCapacityMw":0.0,"plannedCapacityMwByTechnology":{},"recordCount":1,"recordIds":["wattlas-record-osm-way-1086465735"],"sourceIds":["openstreetmap-power"],"sourceUrl":"https://www.openstreetmap.org/way/1086465735","technologies":["solar"],"technologyMixMw":{"solar":7.0},"unitCount":0,"unitIds":[]},"type":"Feature"},{"geometry":{"coordinates":[-16.025043,14.169067],"type":"Point"},"id":"wattlas-plant-osm-way-1165378436","properties":{"aliases":["Kahone II"],"canonicalAnchor":"osm:way/1165378436","canonicalCountryKey":"SN","capacityMw":30.0,"country":"SN","externalIds":{"osm":"way/1165378436"},"geographyId":"SN-71046170B19471834738959","id":"wattlas-plant-osm-way-1165378436","lifecycleCounts":{"operational":1},"locationPrecision":"exact","name":"Kahone II","operatingCapacityCoverage":{"coveragePercent":100.0,"knownUnitCount":0,"method":"plant_aggregate","provenance":{"evidenceCount":0,"recordIds":["wattlas-record-osm-way-1165378436"],"sourceIds":["openstreetmap-power"],"sourceTypes":["community_mapped"],"valueKind":"reported"},"totalUnitCount":0},"operatingCapacityMw":30.0,"operatingCapacityMwByTechnology":{"solar":30.0},"plannedCapacityCoverage":{"coveragePercent":0.0,"knownUnitCount":0,"method":"unavailable","totalUnitCount":0},"plannedCapacityMw":0.0,"plannedCapacityMwByTechnology":{},"recordCount":1,"recordIds":["wattlas-record-osm-way-1165378436"],"sourceIds":["openstreetmap-power"],"sourceUrl":"https://www.openstreetmap.org/way/1165378436","technologies":["solar"],"technologyMixMw":{"solar":30.0},"unitCount":0,"unitIds":[]},"type":"Feature"},{"geometry":{"coordinates":[-17.197226,14.685912],"type":"Point"},"id":"wattlas-plant-osm-way-1174843788","properties":{"aliases":["NEA Minersol"],"canonicalAnchor":"osm:way/1174843788","canonicalCountryKey":"SN","capacityMw":15.0,"country":"SN","externalIds":{"osm":"way/1174843788"},"geographyId":"SN-71046170B16569890219484","id":"wattlas-plant-osm-way-1174843788","lifecycleCounts":{"operational":1},"locationPrecision":"exact","name":"NEA Minersol","operatingCapacityCoverage":{"coveragePercent":100.0,"knownUnitCount":0,"method":"plant_aggregate","provenance":{"evidenceCount":0,"recordIds":["wattlas-record-osm-way-1174843788"],"sourceIds":["openstreetmap-power"],"sourceTypes":["community_mapped"],"valueKind":"reported"},"totalUnitCount":0},"operatingCapacityMw":15.0,"operatingCapacityMwByTechnology":{"solar":15.0},"plannedCapacityCoverage":{"coveragePercent":0.0,"knownUnitCount":0,"method":"unavailable","totalUnitCount":0},"plannedCapacityMw":0.0,"plannedCapacityMwByTechnology":{},"recordCount":1,"recordIds":["wattlas-record-osm-way-1174843788"],"sourceIds":["openstreetmap-power"],"sourceUrl":"https://www.openstreetmap.org/way/1174843788","technologies":["solar"],"technologyMixMw":{"solar":15.0},"unitCount":0,"unitIds":[]},"type":"Feature"},{"geometry":{"coordinates":[-15.92154,14.77263],"type":"Point"},"id":"wattlas-plant-osm-way-1284365121","properties":{"aliases":["Central Solaire de Kael"],"canonicalAnchor":"osm:way/1284365121","canonicalCountryKey":"SN","capacityMw":30.0,"country":"SN","externalIds":{"osm":"way/1284365121"},"geographyId":"SN-71046170B89912390768536","id":"wattlas-plant-osm-way-1284365121","lifecycleCounts":{"operational":1},"locationPrecision":"exact","name":"Central Solaire de Kael","operatingCapacityCoverage":{"coveragePercent":100.0,"knownUnitCount":0,"method":"plant_aggregate","provenance":{"evidenceCount":0,"recordIds":["wattlas-record-osm-way-1284365121"],"sourceIds":["openstreetmap-power"],"sourceTypes":["community_mapped"],"valueKind":"reported"},"totalUnitCount":0},"operatingCapacityMw":30.0,"operatingCapacityMwByTechnology":{"solar":30.0},"plannedCapacityCoverage":{"coveragePercent":0.0,"knownUnitCount":0,"method":"unavailable","totalUnitCount":0},"plannedCapacityMw":0.0,"plannedCapacityMwByTechnology":{},"recordCount":1,"recordIds":["wattlas-record-osm-way-1284365121"],"sourceIds":["openstreetmap-power"],"sourceUrl":"https://www.openstreetmap.org/way/1284365121","technologies":["solar"],"technologyMixMw":{"solar":30.0},"unitCount":0,"unitIds":[]},"type":"Feature"},{"geometry":{"coordinates":[-12.12206,13.197997],"type":"Point"},"id":"wattlas-plant-osm-way-1292695227","properties":{"aliases":["Sabodala-Massawa Power Plant"],"canonicalAnchor":"osm:way/1292695227","canonicalCountryKey":"SN","capacityMw":36.0,"country":"SN","externalIds":{"osm":"way/1292695227"},"geographyId":"SN-71046170B5066698136661","id":"wattlas-plant-osm-way-1292695227","lifecycleCounts":{"operational":1},"locationPrecision":"exact","name":"Sabodala-Massawa Power Plant","operatingCapacityCoverage":{"coveragePercent":100.0,"knownUnitCount":0,"method":"plant_aggregate","provenance":{"evidenceCount":0,"recordIds":["wattlas-record-osm-way-1292695227"],"sourceIds":["openstreetmap-power"],"sourceTypes":["community_mapped"],"valueKind":"reported"},"totalUnitCount":0},"operatingCapacityMw":36.0,"operatingCapacityMwByTechnology":{"oil":36.0},"plannedCapacityCoverage":{"coveragePercent":0.0,"knownUnitCount":0,"method":"unavailable","totalUnitCount":0},"plannedCapacityMw":0.0,"plannedCapacityMwByTechnology":{},"recordCount":1,"recordIds":["wattlas-record-osm-way-1292695227"],"sourceIds":["openstreetmap-power"],"sourceUrl":"https://www.openstreetmap.org/way/1292695227","technologies":["oil"],"technologyMixMw":{"oil":36.0},"unitCount":0,"unitIds":[]},"type":"Feature"},{"geometry":{"coordinates":[-12.439586,12.838074],"type":"Point"},"id":"wattlas-plant-osm-way-1292695229","properties":{"aliases":["Mako Mine Power Plant"],"canonicalAnchor":"osm:way/1292695229","canonicalCountryKey":"SN","capacityMw":14.0,"country":"SN","externalIds":{"osm":"way/1292695229"},"geographyId":"SN-71046170B5066698136661","id":"wattlas-plant-osm-way-1292695229","lifecycleCounts":{"operational":1},"locationPrecision":"exact","name":"Mako Mine Power Plant","operatingCapacityCoverage":{"coveragePercent":100.0,"knownUnitCount":0,"method":"plant_aggregate","provenance":{"evidenceCount":0,"recordIds":["wattlas-record-osm-way-1292695229"],"sourceIds":["openstreetmap-power"],"sourceTypes":["community_mapped"],"valueKind":"reported"},"totalUnitCount":0},"operatingCapacityMw":14.0,"operatingCapacityMwByTechnology":{"other":14.0},"plannedCapacityCoverage":{"coveragePercent":0.0,"knownUnitCount":0,"method":"unavailable","totalUnitCount":0},"plannedCapacityMw":0.0,"plannedCapacityMwByTechnology":{},"recordCount":1,"recordIds":["wattlas-record-osm-way-1292695229"],"sourceIds":["openstreetmap-power"],"sourceUrl":"https://www.openstreetmap.org/way/1292695229","technologies":["other"],"technologyMixMw":{"other":14.0},"unitCount":0,"unitIds":[]},"type":"Feature"},{"geometry":{"coordinates":[-16.767988,15.260441],"type":"Point"},"id":"wattlas-plant-osm-way-1292695232","properties":{"aliases":["GCO Power Plant"],"canonicalAnchor":"osm:way/1292695232","canonicalCountryKey":"SN","capacityMw":36.0,"country":"SN","externalIds":{"osm":"way/1292695232"},"geographyId":"SN-71046170B89315153043645","id":"wattlas-plant-osm-way-1292695232","lifecycleCounts":{"operational":1},"locationPrecision":"exact","name":"GCO Power Plant","operatingCapacityCoverage":{"coveragePercent":100.0,"knownUnitCount":0,"method":"plant_aggregate","provenance":{"evidenceCount":0,"recordIds":["wattlas-record-osm-way-1292695232"],"sourceIds":["openstreetmap-power"],"sourceTypes":["community_mapped"],"valueKind":"reported"},"totalUnitCount":0},"operatingCapacityMw":36.0,"operatingCapacityMwByTechnology":{"oil":36.0},"plannedCapacityCoverage":{"coveragePercent":0.0,"knownUnitCount":0,"method":"unavailable","totalUnitCount":0},"plannedCapacityMw":0.0,"plannedCapacityMwByTechnology":{},"recordCount":1,"recordIds":["wattlas-record-osm-way-1292695232"],"sourceIds":["openstreetmap-power"],"sourceUrl":"https://www.openstreetmap.org/way/1292695232","technologies":["oil"],"technologyMixMw":{"oil":36.0},"unitCount":0,"unitIds":[]},"type":"Feature"},{"geometry":{"coordinates":[-13.737203,15.936025],"type":"Point"},"id":"wattlas-plant-osm-way-1341628102","properties":{"aliases":["Mini central solaire"],"canonicalAnchor":"osm:way/1341628102","canonicalCountryKey":"SN","capacityMw":0.0,"country":"SN","externalIds":{"osm":"way/1341628102"},"geographyId":"SN-71046170B85295751834134","id":"wattlas-plant-osm-way-1341628102","lifecycleCounts":{"operational":1},"locationPrecision":"exact","name":"Mini central solaire","operatingCapacityCoverage":{"coveragePercent":0.0,"knownUnitCount":0,"method":"unavailable","totalUnitCount":0},"operatingCapacityMw":0.0,"operatingCapacityMwByTechnology":{},"plannedCapacityCoverage":{"coveragePercent":0.0,"knownUnitCount":0,"method":"unavailable","totalUnitCount":0},"plannedCapacityMw":0.0,"plannedCapacityMwByTechnology":{},"recordCount":1,"recordIds":["wattlas-record-osm-way-1341628102"],"sourceIds":["openstreetmap-power"],"sourceUrl":"https://www.openstreetmap.org/way/1341628102","technologies":["solar"],"technologyMixMw":{"solar":0.0},"unitCount":0,"unitIds":[]},"type":"Feature"},{"geometry":{"coordinates":[-16.225249,12.559351],"type":"Point"},"id":"wattlas-plant-osm-way-253775706","properties":{"aliases":["Centrale électrique de Boutoute"],"canonicalAnchor":"osm:way/253775706","canonicalCountryKey":"SN","capacityMw":26.77,"country":"SN","externalIds":{"osm":"way/253775706"},"geographyId":"SN-71046170B26251724010642","id":"wattlas-plant-osm-way-253775706","lifecycleCounts":{"operational":1},"locationPrecision":"exact","name":"Centrale électrique de Boutoute","operatingCapacityCoverage":{"coveragePercent":100.0,"knownUnitCount":0,"method":"plant_aggregate","provenance":{"evidenceCount":0,"recordIds":["wattlas-record-osm-way-253775706"],"sourceIds":["openstreetmap-power"],"sourceTypes":["community_mapped"],"valueKind":"reported"},"totalUnitCount":0},"operatingCapacityMw":26.77,"operatingCapacityMwByTechnology":{"oil":26.77},"plannedCapacityCoverage":{"coveragePercent":0.0,"knownUnitCount":0,"method":"unavailable","totalUnitCount":0},"plannedCapacityMw":0.0,"plannedCapacityMwByTechnology":{},"recordCount":1,"recordIds":["wattlas-record-osm-way-253775706"],"sourceIds":["openstreetmap-power"],"sourceUrl":"https://www.openstreetmap.org/way/253775706","technologies":["oil"],"technologyMixMw":{"oil":26.77},"unitCount":0,"unitIds":[]},"type":"Feature"},{"geometry":{"coordinates":[-17.194192,14.743642],"type":"Point"},"id":"wattlas-plant-osm-way-535306849","properties":{"aliases":["Centrale solaire du CICAD"],"canonicalAnchor":"osm:way/535306849","canonicalCountryKey":"SN","capacityMw":2.0,"country":"SN","externalIds":{"osm":"way/535306849"},"geographyId":"SN-71046170B16569890219484","id":"wattlas-plant-osm-way-535306849","lifecycleCounts":{"operational":1},"locationPrecision":"exact","name":"Centrale solaire du CICAD","operatingCapacityCoverage":{"coveragePercent":100.0,"knownUnitCount":0,"method":"plant_aggregate","provenance":{"evidenceCount":0,"recordIds":["wattlas-record-osm-way-535306849"],"sourceIds":["openstreetmap-power"],"sourceTypes":["community_mapped"],"valueKind":"reported"},"totalUnitCount":0},"operatingCapacityMw":2.0,"operatingCapacityMwByTechnology":{"solar":2.0},"plannedCapacityCoverage":{"coveragePercent":0.0,"knownUnitCount":0,"method":"unavailable","totalUnitCount":0},"plannedCapacityMw":0.0,"plannedCapacityMwByTechnology":{},"recordCount":1,"recordIds":["wattlas-record-osm-way-535306849"],"sourceIds":["openstreetmap-power"],"sourceUrl":"https://www.openstreetmap.org/way/535306849","technologies":["solar"],"technologyMixMw":{"solar":2.0},"unitCount":0,"unitIds":[]},"type":"Feature"},{"geometry":{"coordinates":[-16.594451,15.154948],"type":"Point"},"id":"wattlas-plant-osm-way-554286336","properties":{"aliases":["Centrale Solaire de Ten Merina"],"canonicalAnchor":"osm:way/554286336","canonicalCountryKey":"SN","capacityMw":29.5,"country":"SN","externalIds":{"osm":"way/554286336"},"geographyId":"SN-71046170B89315153043645","id":"wattlas-plant-osm-way-554286336","lifecycleCounts":{"operational":1},"locationPrecision":"exact","name":"Centrale Solaire de Ten Merina","operatingCapacityCoverage":{"coveragePercent":100.0,"knownUnitCount":0,"method":"plant_aggregate","provenance":{"evidenceCount":0,"recordIds":["wattlas-record-osm-way-554286336"],"sourceIds":["openstreetmap-power"],"sourceTypes":["community_mapped"],"valueKind":"reported"},"totalUnitCount":0},"operatingCapacityMw":29.5,"operatingCapacityMwByTechnology":{"solar":29.5},"plannedCapacityCoverage":{"coveragePercent":0.0,"knownUnitCount":0,"method":"unavailable","totalUnitCount":0},"plannedCapacityMw":0.0,"plannedCapacityMwByTechnology":{},"recordCount":1,"recordIds":["wattlas-record-osm-way-554286336"],"sourceIds":["openstreetmap-power"],"sourceUrl":"https://www.openstreetmap.org/way/554286336","technologies":["solar"],"technologyMixMw":{"solar":29.5},"unitCount":0,"unitIds":[]},"type":"Feature"},{"geometry":{"coordinates":[-13.683299,13.777022],"type":"Point"},"id":"wattlas-plant-osm-way-584910335","properties":{"aliases":["Centrale électrique de Tamba"],"canonicalAnchor":"osm:way/584910335","canonicalCountryKey":"SN","capacityMw":13.87,"country":"SN","externalIds":{"osm":"way/584910335"},"geographyId":"SN-71046170B85662395344337","id":"wattlas-plant-osm-way-584910335","lifecycleCounts":{"operational":1},"locationPrecision":"exact","name":"Centrale électrique de Tamba","operatingCapacityCoverage":{"coveragePercent":100.0,"knownUnitCount":0,"method":"plant_aggregate","provenance":{"evidenceCount":0,"recordIds":["wattlas-record-osm-way-584910335"],"sourceIds":["openstreetmap-power"],"sourceTypes":["community_mapped"],"valueKind":"reported"},"totalUnitCount":0},"operatingCapacityMw":13.87,"operatingCapacityMwByTechnology":{"oil":13.87},"plannedCapacityCoverage":{"coveragePercent":0.0,"knownUnitCount":0,"method":"unavailable","totalUnitCount":0},"plannedCapacityMw":0.0,"plannedCapacityMwByTechnology":{},"recordCount":1,"recordIds":["wattlas-record-osm-way-584910335"],"sourceIds":["openstreetmap-power"],"sourceUrl":"https://www.openstreetmap.org/way/584910335","technologies":["oil"],"technologyMixMw":{"oil":13.87},"unitCount":0,"unitIds":[]},"type":"Feature"},{"geometry":{"coordinates":[-16.223888,15.857405],"type":"Point"},"id":"wattlas-plant-osm-way-620584032","properties":{"aliases":["Centrale solaire de Sakal"],"canonicalAnchor":"osm:way/620584032","canonicalCountryKey":"SN","capacityMw":20.0,"country":"SN","externalIds":{"osm":"way/620584032"},"geographyId":"SN-71046170B63374102885919","id":"wattlas-plant-osm-way-620584032","lifecycleCounts":{"operational":1},"locationPrecision":"exact","name":"Centrale solaire de Sakal","operatingCapacityCoverage":{"coveragePercent":100.0,"knownUnitCount":0,"method":"plant_aggregate","provenance":{"evidenceCount":0,"recordIds":["wattlas-record-osm-way-620584032"],"sourceIds":["openstreetmap-power"],"sourceTypes":["community_mapped"],"valueKind":"reported"},"totalUnitCount":0},"operatingCapacityMw":20.0,"operatingCapacityMwByTechnology":{"solar":20.0},"plannedCapacityCoverage":{"coveragePercent":0.0,"knownUnitCount":0,"method":"unavailable","totalUnitCount":0},"plannedCapacityMw":0.0,"plannedCapacityMwByTechnology":{},"recordCount":1,"recordIds":["wattlas-record-osm-way-620584032"],"sourceIds":["openstreetmap-power"],"sourceUrl":"https://www.openstreetmap.org/way/620584032","technologies":["solar"],"technologyMixMw":{"solar":20.0},"unitCount":0,"unitIds":[]},"type":"Feature"},{"geometry":{"coordinates":[-16.026081,14.177914],"type":"Point"},"id":"wattlas-plant-osm-way-695795487","properties":{"aliases":["Centrale Solaire de Kahone"],"canonicalAnchor":"osm:way/695795487","canonicalCountryKey":"SN","capacityMw":21.2,"country":"SN","externalIds":{"osm":"way/695795487"},"geographyId":"SN-71046170B19471834738959","id":"wattlas-plant-osm-way-695795487","lifecycleCounts":{"operational":1},"locationPrecision":"exact","name":"Centrale Solaire de Kahone","operatingCapacityCoverage":{"coveragePercent":100.0,"knownUnitCount":0,"method":"plant_aggregate","provenance":{"evidenceCount":0,"recordIds":["wattlas-record-osm-way-695795487"],"sourceIds":["openstreetmap-power"],"sourceTypes":["community_mapped"],"valueKind":"reported"},"totalUnitCount":0},"operatingCapacityMw":21.2,"operatingCapacityMwByTechnology":{"solar":21.2},"plannedCapacityCoverage":{"coveragePercent":0.0,"knownUnitCount":0,"method":"unavailable","totalUnitCount":0},"plannedCapacityMw":0.0,"plannedCapacityMwByTechnology":{},"recordCount":1,"recordIds":["wattlas-record-osm-way-695795487"],"sourceIds":["openstreetmap-power"],"sourceUrl":"https://www.openstreetmap.org/way/695795487","technologies":["solar"],"technologyMixMw":{"solar":21.2},"unitCount":0,"unitIds":[]},"type":"Feature"},{"geometry":{"coordinates":[-17.103334,14.652377],"type":"Point"},"id":"wattlas-plant-osm-way-755349356","properties":{"aliases":["Centrale solaire de Diass"],"canonicalAnchor":"osm:way/755349356","canonicalCountryKey":"SN","capacityMw":15.0,"country":"SN","externalIds":{"osm":"way/755349356"},"geographyId":"SN-71046170B89315153043645","id":"wattlas-plant-osm-way-755349356","lifecycleCounts":{"operational":1},"locationPrecision":"exact","name":"Centrale solaire de Diass","operatingCapacityCoverage":{"coveragePercent":100.0,"knownUnitCount":0,"method":"plant_aggregate","provenance":{"evidenceCount":0,"recordIds":["wattlas-record-osm-way-755349356"],"sourceIds":["openstreetmap-power"],"sourceTypes":["community_mapped"],"valueKind":"reported"},"totalUnitCount":0},"operatingCapacityMw":15.0,"operatingCapacityMwByTechnology":{"solar":15.0},"plannedCapacityCoverage":{"coveragePercent":0.0,"knownUnitCount":0,"method":"unavailable","totalUnitCount":0},"plannedCapacityMw":0.0,"plannedCapacityMwByTechnology":{},"recordCount":1,"recordIds":["wattlas-record-osm-way-755349356"],"sourceIds":["openstreetmap-power"],"sourceUrl":"https://www.openstreetmap.org/way/755349356","technologies":["solar"],"technologyMixMw":{"solar":15.0},"unitCount":0,"unitIds":[]},"type":"Feature"},{"geometry":{"coordinates":[-17.297207,14.721704],"type":"Point"},"id":"wattlas-plant-osm-way-837487531","properties":{"aliases":["Cap des Biches APR Energy"],"canonicalAnchor":"osm:way/837487531","canonicalCountryKey":"SN","capacityMw":30.0,"country":"SN","externalIds":{"osm":"way/837487531"},"geographyId":"SN-71046170B16569890219484","id":"wattlas-plant-osm-way-837487531","lifecycleCounts":{"operational":1},"locationPrecision":"exact","name":"Cap des Biches APR Energy","operatingCapacityCoverage":{"coveragePercent":100.0,"knownUnitCount":0,"method":"plant_aggregate","provenance":{"evidenceCount":0,"recordIds":["wattlas-record-osm-way-837487531"],"sourceIds":["openstreetmap-power"],"sourceTypes":["community_mapped"],"valueKind":"reported"},"totalUnitCount":0},"operatingCapacityMw":30.0,"operatingCapacityMwByTechnology":{"oil":30.0},"plannedCapacityCoverage":{"coveragePercent":0.0,"knownUnitCount":0,"method":"unavailable","totalUnitCount":0},"plannedCapacityMw":0.0,"plannedCapacityMwByTechnology":{},"recordCount":1,"recordIds":["wattlas-record-osm-way-837487531"],"sourceIds":["openstreetmap-power"],"sourceUrl":"https://www.openstreetmap.org/way/837487531","technologies":["oil"],"technologyMixMw":{"oil":30.0},"unitCount":0,"unitIds":[]},"type":"Feature"},{"geometry":{"coordinates":[-12.198903,12.400974],"type":"Point"},"id":"wattlas-plant-wikidata-q104880424","properties":{"aliases":["Centrale Hydroélectrique de Sambangalou"],"canonicalAnchor":"wikidata:Q104880424","canonicalCountryKey":"SN","capacityMw":128.0,"country":"SN","externalIds":{"osm":"way/1165413747","wikidata":"Q104880424"},"geographyId":"SN-71046170B5066698136661","id":"wattlas-plant-wikidata-q104880424","idAliases":["wattlas-plant-osm-way-1165413747"],"lifecycleCounts":{"under_construction":1},"locationPrecision":"exact","name":"Centrale Hydroélectrique de Sambangalou","operatingCapacityCoverage":{"coveragePercent":0.0,"knownUnitCount":0,"method":"unavailable","totalUnitCount":0},"operatingCapacityMw":0.0,"operatingCapacityMwByTechnology":{},"plannedCapacityCoverage":{"coveragePercent":100.0,"knownUnitCount":0,"method":"plant_aggregate","provenance":{"evidenceCount":0,"recordIds":["wattlas-record-osm-way-1165413747"],"sourceIds":["openstreetmap-power"],"sourceTypes":["community_mapped"],"valueKind":"reported"},"totalUnitCount":0},"plannedCapacityMw":128.0,"plannedCapacityMwByTechnology":{"hydro":128.0},"recordCount":1,"recordIds":["wattlas-record-osm-way-1165413747"],"sourceIds":["openstreetmap-power"],"sourceUrl":"https://www.openstreetmap.org/way/1165413747","technologies":["hydro"],"technologyMixMw":{"hydro":128.0},"unitCount":0,"unitIds":[]},"type":"Feature"},{"geometry":{"coordinates":[-16.933579,14.471767],"type":"Point"},"id":"wattlas-plant-wikidata-q30744138","properties":{"aliases":["Centrale solaire de Malicounda"],"canonicalAnchor":"wikidata:Q30744138","canonicalCountryKey":"SN","capacityMw":22.0,"country":"SN","externalIds":{"osm":"way/659045004","wikidata":"Q30744138","wikipedia":"fr:Centrale solaire de Malicounda"},"geographyId":"SN-71046170B89315153043645","id":"wattlas-plant-wikidata-q30744138","idAliases":["wattlas-plant-osm-way-659045004","wattlas-plant-wikipedia-fr-centrale-solaire-de-malicounda"],"lifecycleCounts":{"operational":1},"locationPrecision":"exact","name":"Centrale solaire de Malicounda","operatingCapacityCoverage":{"coveragePercent":100.0,"knownUnitCount":0,"method":"plant_aggregate","provenance":{"evidenceCount":0,"recordIds":["wattlas-record-osm-way-659045004"],"sourceIds":["openstreetmap-power"],"sourceTypes":["community_mapped"],"valueKind":"reported"},"totalUnitCount":0},"operatingCapacityMw":22.0,"operatingCapacityMwByTechnology":{"solar":22.0},"plannedCapacityCoverage":{"coveragePercent":0.0,"knownUnitCount":0,"method":"unavailable","totalUnitCount":0},"plannedCapacityMw":0.0,"plannedCapacityMwByTechnology":{},"recordCount":1,"recordIds":["wattlas-record-osm-way-659045004"],"sourceIds":["openstreetmap-power"],"sourceUrl":"https://www.openstreetmap.org/way/659045004","technologies":["solar"],"technologyMixMw":{"solar":22.0},"unitCount":0,"unitIds":[]},"type":"Feature"},{"geometry":{"coordinates":[-15.467011,16.516676],"type":"Point"},"id":"wattlas-plant-wikidata-q52430750","properties":{"aliases":["Centrale Solaire Senergy II"],"canonicalAnchor":"wikidata:Q52430750","canonicalCountryKey":"SN","capacityMw":20.0,"country":"SN","externalIds":{"osm":"way/554266820","wikidata":"Q52430750"},"geographyId":"SN-71046170B37999982332216","id":"wattlas-plant-wikidata-q52430750","idAliases":["wattlas-plant-osm-way-554266820"],"lifecycleCounts":{"operational":1},"locationPrecision":"exact","name":"Centrale Solaire Senergy II","operatingCapacityCoverage":{"coveragePercent":100.0,"knownUnitCount":0,"method":"plant_aggregate","provenance":{"evidenceCount":0,"recordIds":["wattlas-record-osm-way-554266820"],"sourceIds":["openstreetmap-power"],"sourceTypes":["community_mapped"],"valueKind":"reported"},"totalUnitCount":0},"operatingCapacityMw":20.0,"operatingCapacityMwByTechnology":{"solar":20.0},"plannedCapacityCoverage":{"coveragePercent":0.0,"knownUnitCount":0,"method":"unavailable","totalUnitCount":0},"plannedCapacityMw":0.0,"plannedCapacityMwByTechnology":{},"recordCount":1,"recordIds":["wattlas-record-osm-way-554266820"],"sourceIds":["openstreetmap-power"],"sourceUrl":"https://www.openstreetmap.org/way/554266820","technologies":["solar"],"technologyMixMw":{"solar":20.0},"unitCount":0,"unitIds":[]},"type":"Feature"},{"geometry":{"coordinates":[-16.676385,15.130043],"type":"Point"},"id":"wattlas-plant-wikidata-q53618155","properties":{"aliases":["Centrale solaire Santhiou Mékhé"],"canonicalAnchor":"wikidata:Q53618155","canonicalCountryKey":"SN","capacityMw":30.0,"country":"SN","externalIds":{"osm":"way/554250792","wikidata":"Q53618155"},"geographyId":"SN-71046170B89315153043645","id":"wattlas-plant-wikidata-q53618155","idAliases":["wattlas-plant-osm-way-554250792"],"lifecycleCounts":{"operational":1},"locationPrecision":"exact","name":"Centrale solaire Santhiou Mékhé","operatingCapacityCoverage":{"coveragePercent":100.0,"knownUnitCount":0,"method":"plant_aggregate","provenance":{"evidenceCount":0,"recordIds":["wattlas-record-osm-way-554250792"],"sourceIds":["openstreetmap-power"],"sourceTypes":["community_mapped"],"valueKind":"reported"},"totalUnitCount":0},"operatingCapacityMw":30.0,"operatingCapacityMwByTechnology":{"solar":30.0},"plannedCapacityCoverage":{"coveragePercent":0.0,"knownUnitCount":0,"method":"unavailable","totalUnitCount":0},"plannedCapacityMw":0.0,"plannedCapacityMwByTechnology":{},"recordCount":1,"recordIds":["wattlas-record-osm-way-554250792"],"sourceIds":["openstreetmap-power"],"sourceUrl":"https://www.openstreetmap.org/way/554250792","technologies":["solar"],"technologyMixMw":{"solar":30.0},"unitCount":0,"unitIds":[]},"type":"Feature"},{"geometry":{"coordinates":[-16.861662,15.00708],"type":"Point"},"id":"wattlas-plant-wikidata-q56372845","properties":{"aliases":["Centrale électrique de Tobène"],"canonicalAnchor":"wikidata:Q56372845","canonicalCountryKey":"SN","capacityMw":115.0,"country":"SN","externalIds":{"osm":"way/810714539","wikidata":"Q56372845"},"geographyId":"SN-71046170B89315153043645","id":"wattlas-plant-wikidata-q56372845","idAliases":["wattlas-plant-osm-way-810714539"],"lifecycleCounts":{"operational":1},"locationPrecision":"exact","name":"Centrale électrique de Tobène","operatingCapacityCoverage":{"coveragePercent":100.0,"knownUnitCount":0,"method":"plant_aggregate","provenance":{"evidenceCount":0,"recordIds":["wattlas-record-osm-way-810714539"],"sourceIds":["openstreetmap-power"],"sourceTypes":["community_mapped"],"valueKind":"reported"},"totalUnitCount":0},"operatingCapacityMw":115.0,"operatingCapacityMwByTechnology":{"oil":115.0},"plannedCapacityCoverage":{"coveragePercent":0.0,"knownUnitCount":0,"method":"unavailable","totalUnitCount":0},"plannedCapacityMw":0.0,"plannedCapacityMwByTechnology":{},"recordCount":1,"recordIds":["wattlas-record-osm-way-810714539"],"sourceIds":["openstreetmap-power"],"sourceUrl":"https://www.openstreetmap.org/way/810714539","technologies":["oil"],"technologyMixMw":{"oil":115.0},"unitCount":0,"unitIds":[]},"type":"Feature"},{"geometry":{"coordinates":[-17.297084,14.719115],"type":"Point"},"id":"wattlas-plant-wikidata-q56372858","properties":{"aliases":["Cap des Biches Contour Global"],"canonicalAnchor":"wikidata:Q56372858","canonicalCountryKey":"SN","capacityMw":86.0,"country":"SN","externalIds":{"osm":"way/837487532","wikidata":"Q56372858"},"geographyId":"SN-71046170B16569890219484","id":"wattlas-plant-wikidata-q56372858","idAliases":["wattlas-plant-osm-way-837487532"],"lifecycleCounts":{"operational":1},"locationPrecision":"exact","name":"Cap des Biches Contour Global","operatingCapacityCoverage":{"coveragePercent":100.0,"knownUnitCount":0,"method":"plant_aggregate","provenance":{"evidenceCount":0,"recordIds":["wattlas-record-osm-way-837487532"],"sourceIds":["openstreetmap-power"],"sourceTypes":["community_mapped"],"valueKind":"reported"},"totalUnitCount":0},"operatingCapacityMw":86.0,"operatingCapacityMwByTechnology":{"oil":86.0},"plannedCapacityCoverage":{"coveragePercent":0.0,"knownUnitCount":0,"method":"unavailable","totalUnitCount":0},"plannedCapacityMw":0.0,"plannedCapacityMwByTechnology":{},"recordCount":1,"recordIds":["wattlas-record-osm-way-837487532"],"sourceIds":["openstreetmap-power"],"sourceUrl":"https://www.openstreetmap.org/way/837487532","technologies":["oil"],"technologyMixMw":{"oil":86.0},"unitCount":0,"unitIds":[]},"type":"Feature"},{"geometry":{"coordinates":[-17.299869,14.719582],"type":"Point"},"id":"wattlas-plant-wikidata-q56372881","properties":{"aliases":["Centrale électrique du Cap des Biches"],"canonicalAnchor":"wikidata:Q56372881","canonicalCountryKey":"SN","capacityMw":224.5,"country":"SN","externalIds":{"osm":"way/675024772","wikidata":"Q56372881"},"geographyId":"SN-71046170B16569890219484","id":"wattlas-plant-wikidata-q56372881","idAliases":["wattlas-plant-osm-way-675024772"],"lifecycleCounts":{"operational":1},"locationPrecision":"exact","name":"Centrale électrique du Cap des Biches","operatingCapacityCoverage":{"coveragePercent":100.0,"knownUnitCount":0,"method":"plant_aggregate","provenance":{"evidenceCount":0,"recordIds":["wattlas-record-osm-way-675024772"],"sourceIds":["openstreetmap-power"],"sourceTypes":["community_mapped"],"valueKind":"reported"},"totalUnitCount":0},"operatingCapacityMw":224.5,"operatingCapacityMwByTechnology":{"oil":224.5},"plannedCapacityCoverage":{"coveragePercent":0.0,"knownUnitCount":0,"method":"unavailable","totalUnitCount":0},"plannedCapacityMw":0.0,"plannedCapacityMwByTechnology":{},"recordCount":1,"recordIds":["wattlas-record-osm-way-675024772"],"sourceIds":["openstreetmap-power"],"sourceUrl":"https://www.openstreetmap.org/way/675024772","technologies":["oil"],"technologyMixMw":{"oil":224.5},"unitCount":0,"unitIds":[]},"type":"Feature"},{"geometry":{"coordinates":[-16.032478,14.166281],"type":"Point"},"id":"wattlas-plant-wikidata-q56372890-0fcdcd9d00","properties":{"aliases":["Centrale électrique de Kahone 1"],"canonicalAnchor":"wikidata:Q56372890","canonicalCountryKey":"SN","capacityMw":14.0,"country":"SN","externalIds":{"osm":"way/273078557","wikidata":"Q56372890"},"geographyId":"SN-71046170B19471834738959","id":"wattlas-plant-wikidata-q56372890-0fcdcd9d00","idAliases":["wattlas-plant-osm-way-273078557","wattlas-plant-wikidata-q56372890"],"lifecycleCounts":{"operational":1},"locationPrecision":"exact","name":"Centrale électrique de Kahone 1","operatingCapacityCoverage":{"coveragePercent":100.0,"knownUnitCount":0,"method":"plant_aggregate","provenance":{"evidenceCount":0,"recordIds":["wattlas-record-osm-way-273078557"],"sourceIds":["openstreetmap-power"],"sourceTypes":["community_mapped"],"valueKind":"reported"},"totalUnitCount":0},"operatingCapacityMw":14.0,"operatingCapacityMwByTechnology":{"oil":14.0},"plannedCapacityCoverage":{"coveragePercent":0.0,"knownUnitCount":0,"method":"unavailable","totalUnitCount":0},"plannedCapacityMw":0.0,"plannedCapacityMwByTechnology":{},"recordCount":1,"recordIds":["wattlas-record-osm-way-273078557"],"sourceIds":["openstreetmap-power"],"sourceUrl":"https://www.openstreetmap.org/way/273078557","technologies":["oil"],"technologyMixMw":{"oil":14.0},"unitCount":0,"unitIds":[]},"type":"Feature"},{"geometry":{"coordinates":[-16.033307,14.16743],"type":"Point"},"id":"wattlas-plant-wikidata-q56372890-1447727430","properties":{"aliases":["Centrale électrique de Kahone 2"],"canonicalAnchor":"wikidata:Q56372890","canonicalCountryKey":"SN","capacityMw":102.0,"country":"SN","externalIds":{"osm":"way/837276598","wikidata":"Q56372890"},"geographyId":"SN-71046170B19471834738959","id":"wattlas-plant-wikidata-q56372890-1447727430","idAliases":["wattlas-plant-osm-way-837276598"],"lifecycleCounts":{"operational":1},"locationPrecision":"exact","name":"Centrale électrique de Kahone 2","operatingCapacityCoverage":{"coveragePercent":100.0,"knownUnitCount":0,"method":"plant_aggregate","provenance":{"evidenceCount":0,"recordIds":["wattlas-record-osm-way-837276598"],"sourceIds":["openstreetmap-power"],"sourceTypes":["community_mapped"],"valueKind":"reported"},"totalUnitCount":0},"operatingCapacityMw":102.0,"operatingCapacityMwByTechnology":{"oil":102.0},"plannedCapacityCoverage":{"coveragePercent":0.0,"knownUnitCount":0,"method":"unavailable","totalUnitCount":0},"plannedCapacityMw":0.0,"plannedCapacityMwByTechnology":{},"recordCount":1,"recordIds":["wattlas-record-osm-way-837276598"],"sourceIds":["openstreetmap-power"],"sourceUrl":"https://www.openstreetmap.org/way/837276598","technologies":["oil"],"technologyMixMw":{"oil":102.0},"unitCount":0,"unitIds":[]},"type":"Feature"},{"geometry":{"coordinates":[-17.266537,14.743639],"type":"Point"},"id":"wattlas-plant-wikidata-q6434653","properties":{"aliases":["Centrale électrique de Kounoune"],"canonicalAnchor":"wikidata:Q6434653","canonicalCountryKey":"SN","capacityMw":67.5,"country":"SN","externalIds":{"osm":"way/179883539","wikidata":"Q6434653"},"geographyId":"SN-71046170B16569890219484","id":"wattlas-plant-wikidata-q6434653","idAliases":["wattlas-plant-osm-way-179883539"],"lifecycleCounts":{"operational":1},"locationPrecision":"exact","name":"Centrale électrique de Kounoune","operatingCapacityCoverage":{"coveragePercent":100.0,"knownUnitCount":0,"method":"plant_aggregate","provenance":{"evidenceCount":0,"recordIds":["wattlas-record-osm-way-179883539"],"sourceIds":["openstreetmap-power"],"sourceTypes":["community_mapped"],"valueKind":"reported"},"totalUnitCount":0},"operatingCapacityMw":67.5,"operatingCapacityMwByTechnology":{"oil":67.5},"plannedCapacityCoverage":{"coveragePercent":0.0,"knownUnitCount":0,"method":"unavailable","totalUnitCount":0},"plannedCapacityMw":0.0,"plannedCapacityMwByTechnology":{},"recordCount":1,"recordIds":["wattlas-record-osm-way-179883539"],"sourceIds":["openstreetmap-power"],"sourceUrl":"https://www.openstreetmap.org/way/179883539","technologies":["oil"],"technologyMixMw":{"oil":67.5},"unitCount":0,"unitIds":[]},"type":"Feature"},{"geometry":{"coordinates":[-17.216293,14.687342],"type":"Point"},"id":"wattlas-plant-wikidata-q7450246","properties":{"aliases":["Centrale électrique de Sendou"],"canonicalAnchor":"wikidata:Q7450246","canonicalCountryKey":"SN","capacityMw":115.0,"country":"SN","externalIds":{"osm":"way/784481182","wikidata":"Q7450246","wikipedia":"en:Sendou power station"},"geographyId":"SN-71046170B16569890219484","id":"wattlas-plant-wikidata-q7450246","idAliases":["wattlas-plant-osm-way-784481182","wattlas-plant-wikipedia-en-sendou-power-station"],"lifecycleCounts":{"operational":1},"locationPrecision":"exact","name":"Centrale électrique de Sendou","operatingCapacityCoverage":{"coveragePercent":100.0,"knownUnitCount":0,"method":"plant_aggregate","provenance":{"evidenceCount":0,"recordIds":["wattlas-record-osm-way-784481182"],"sourceIds":["openstreetmap-power"],"sourceTypes":["community_mapped"],"valueKind":"reported"},"totalUnitCount":0},"operatingCapacityMw":115.0,"operatingCapacityMwByTechnology":{"coal":115.0},"plannedCapacityCoverage":{"coveragePercent":0.0,"knownUnitCount":0,"method":"unavailable","totalUnitCount":0},"plannedCapacityMw":0.0,"plannedCapacityMwByTechnology":{},"recordCount":1,"recordIds":["wattlas-record-osm-way-784481182"],"sourceIds":["openstreetmap-power"],"sourceUrl":"https://www.openstreetmap.org/way/784481182","technologies":["coal"],"technologyMixMw":{"coal":115.0},"unitCount":0,"unitIds":[]},"type":"Feature"},{"geometry":{"coordinates":[-16.918931,15.033336],"type":"Point"},"id":"wattlas-plant-wikidata-q96407595","properties":{"aliases":["Parc éolien de Taïba Ndiaye"],"canonicalAnchor":"wikidata:Q96407595","canonicalCountryKey":"SN","capacityMw":0.0,"country":"SN","externalIds":{"osm":"relation/11873131","wikidata":"Q96407595","wikipedia":"fr:Parc éolien de Taïba Ndiaye"},"geographyId":"SN-71046170B89315153043645","id":"wattlas-plant-wikidata-q96407595","idAliases":["wattlas-plant-osm-relation-11873131","wattlas-plant-wikipedia-fr-parc-olien-de-ta-ba-ndiaye"],"lifecycleCounts":{"operational":1},"locationPrecision":"exact","name":"Parc éolien de Taïba Ndiaye","operatingCapacityCoverage":{"coveragePercent":0.0,"knownUnitCount":0,"method":"unavailable","totalUnitCount":0},"operatingCapacityMw":0.0,"operatingCapacityMwByTechnology":{},"plannedCapacityCoverage":{"coveragePercent":0.0,"knownUnitCount":0,"method":"unavailable","totalUnitCount":0},"plannedCapacityMw":0.0,"plannedCapacityMwByTechnology":{},"recordCount":1,"recordIds":["wattlas-record-osm-relation-11873131"],"sourceIds":["openstreetmap-power"],"sourceUrl":"https://www.openstreetmap.org/relation/11873131","technologies":["wind"],"technologyMixMw":{"wind":0.0},"unitCount":0,"unitIds":[]},"type":"Feature"}],"type":"FeatureCollection"}