{"features":[{"geometry":{"coordinates":[45.2377,2.1201],"type":"Point"},"id":"wattlas-plant-gemplant-l100000827724","properties":{"aliases":["1.0","Mogadishu solar farm","future phases"],"canonicalAnchor":"gemplant:L100000827724","canonicalCountryKey":"SO","capacityMw":8.0,"country":"SO","externalIdAliases":{"gemUnit":["G100000831271","G100000831272"]},"externalIds":{"gemPlant":"L100000827724","gemUnit":"G100000831272"},"gemWikiUrl":"https://www.gem.wiki/Mogadishu_solar_farm","geographyId":"SO-83879307B35519599536274","id":"wattlas-plant-gemplant-l100000827724","lifecycleCounts":{"operational":1,"paused":1},"locationPrecision":"exact","name":"Mogadishu solar farm","operatingCapacityCoverage":{"coveragePercent":100.0,"knownUnitCount":1,"method":"complete_unit_sum","provenance":{"evidenceCount":0,"recordIds":["wattlas-record-gemunit-g100000831271"],"sourceIds":["gem-global-integrated-power-tracker"],"sourceTypes":["research_verified"],"valueKind":"reported"},"totalUnitCount":1},"operatingCapacityMw":8.0,"operatingCapacityMwByTechnology":{"solar":8.0},"plannedCapacityCoverage":{"coveragePercent":0.0,"knownUnitCount":0,"method":"unavailable","totalUnitCount":0},"plannedCapacityMw":0.0,"plannedCapacityMwByTechnology":{},"recordCount":2,"recordIds":["wattlas-record-gemunit-g100000831271","wattlas-record-gemunit-g100000831272"],"sourceIds":["gem-global-integrated-power-tracker"],"sourceUrl":"https://www.gem.wiki/Mogadishu_solar_farm","technologies":["solar"],"technologyMixMw":{"solar":8.0},"unitCount":2,"unitIds":["gem-unit-G100000831271","gem-unit-G100000831272"]},"type":"Feature"},{"geometry":{"coordinates":[45.5325,2.145],"type":"Point"},"id":"wattlas-plant-gemplant-l100001019125","properties":{"aliases":["--","GEEL Power solar farm"],"canonicalAnchor":"gemplant:L100001019125","canonicalCountryKey":"SO","capacityMw":0.0,"country":"SO","externalIds":{"gemPlant":"L100001019125","gemUnit":"G100001021555"},"gemWikiUrl":"https://www.gem.wiki/GEEL_Power_solar_farm","geographyId":"SO-83879307B32896531038690","id":"wattlas-plant-gemplant-l100001019125","lifecycleCounts":{"paused":1},"locationPrecision":"exact","name":"GEEL Power solar farm","operatingCapacityCoverage":{"coveragePercent":0.0,"knownUnitCount":0,"method":"unavailable","totalUnitCount":0},"operatingCapacityMw":0.0,"operatingCapacityMwByTechnology":{},"plannedCapacityCoverage":{"coveragePercent":0.0,"knownUnitCount":0,"method":"unavailable","totalUnitCount":0},"plannedCapacityMw":0.0,"plannedCapacityMwByTechnology":{},"recordCount":1,"recordIds":["wattlas-record-gemunit-g100001021555"],"sourceIds":["gem-global-integrated-power-tracker"],"sourceUrl":"https://www.gem.wiki/GEEL_Power_solar_farm","technologies":["solar"],"technologyMixMw":{"solar":0.0},"unitCount":1,"unitIds":["gem-unit-G100001021555"]},"type":"Feature"},{"geometry":{"coordinates":[45.3236,2.147],"type":"Point"},"id":"wattlas-plant-gemplant-l100001020956","properties":{"aliases":["--","Daru-Salaam City Afgooye District solar project I"],"canonicalAnchor":"gemplant:L100001020956","canonicalCountryKey":"SO","capacityMw":2.4,"country":"SO","externalIds":{"gemPlant":"L100001020956","gemUnit":"G100001023925"},"gemWikiUrl":"https://www.gem.wiki/Daru-Salaam_City_Afgooye_District_solar_project_I","geographyId":"SO-83879307B35519599536274","id":"wattlas-plant-gemplant-l100001020956","lifecycleCounts":{"operational":1},"locationPrecision":"exact","name":"Daru-Salaam City Afgooye District solar project I","operatingCapacityCoverage":{"coveragePercent":100.0,"knownUnitCount":1,"method":"complete_unit_sum","provenance":{"evidenceCount":0,"recordIds":["wattlas-record-gemunit-g100001023925"],"sourceIds":["gem-global-integrated-power-tracker"],"sourceTypes":["research_verified"],"valueKind":"reported"},"totalUnitCount":1},"operatingCapacityMw":2.4,"operatingCapacityMwByTechnology":{"solar":2.4},"plannedCapacityCoverage":{"coveragePercent":0.0,"knownUnitCount":0,"method":"unavailable","totalUnitCount":0},"plannedCapacityMw":0.0,"plannedCapacityMwByTechnology":{},"recordCount":1,"recordIds":["wattlas-record-gemunit-g100001023925"],"sourceIds":["gem-global-integrated-power-tracker"],"sourceUrl":"https://www.gem.wiki/Daru-Salaam_City_Afgooye_District_solar_project_I","technologies":["solar"],"technologyMixMw":{"solar":2.4},"unitCount":1,"unitIds":["gem-unit-G100001023925"]},"type":"Feature"},{"geometry":{"coordinates":[44.972,10.3999],"type":"Point"},"id":"wattlas-plant-gemplant-l100001020957","properties":{"aliases":["--","Berbera solar project"],"canonicalAnchor":"gemplant:L100001020957","canonicalCountryKey":"SO","capacityMw":4.7,"country":"SO","externalIds":{"gemPlant":"L100001020957","gemUnit":"G100001023926"},"gemWikiUrl":"https://www.gem.wiki/Berbera_solar_project","geographyId":"SO-83879307B42572798770371","id":"wattlas-plant-gemplant-l100001020957","lifecycleCounts":{"operational":1},"locationPrecision":"exact","name":"Berbera solar project","operatingCapacityCoverage":{"coveragePercent":100.0,"knownUnitCount":1,"method":"complete_unit_sum","provenance":{"evidenceCount":0,"recordIds":["wattlas-record-gemunit-g100001023926"],"sourceIds":["gem-global-integrated-power-tracker"],"sourceTypes":["research_verified"],"valueKind":"reported"},"totalUnitCount":1},"operatingCapacityMw":4.7,"operatingCapacityMwByTechnology":{"solar":4.7},"plannedCapacityCoverage":{"coveragePercent":0.0,"knownUnitCount":0,"method":"unavailable","totalUnitCount":0},"plannedCapacityMw":0.0,"plannedCapacityMwByTechnology":{},"recordCount":1,"recordIds":["wattlas-record-gemunit-g100001023926"],"sourceIds":["gem-global-integrated-power-tracker"],"sourceUrl":"https://www.gem.wiki/Berbera_solar_project","technologies":["solar"],"technologyMixMw":{"solar":4.7},"unitCount":1,"unitIds":["gem-unit-G100001023926"]},"type":"Feature"},{"geometry":{"coordinates":[45.3172,2.1066],"type":"Point"},"id":"wattlas-plant-gemplant-l100001020958","properties":{"aliases":["--","Daru-Salaam City Afgooye District solar project III"],"canonicalAnchor":"gemplant:L100001020958","canonicalCountryKey":"SO","capacityMw":5.2,"country":"SO","externalIds":{"gemPlant":"L100001020958","gemUnit":"G100001023927"},"gemWikiUrl":"https://www.gem.wiki/Daru-Salaam_City_Afgooye_District_solar_project_III","geographyId":"SO-83879307B35519599536274","id":"wattlas-plant-gemplant-l100001020958","lifecycleCounts":{"operational":1},"locationPrecision":"exact","name":"Daru-Salaam City Afgooye District solar project III","operatingCapacityCoverage":{"coveragePercent":100.0,"knownUnitCount":1,"method":"complete_unit_sum","provenance":{"evidenceCount":0,"recordIds":["wattlas-record-gemunit-g100001023927"],"sourceIds":["gem-global-integrated-power-tracker"],"sourceTypes":["research_verified"],"valueKind":"reported"},"totalUnitCount":1},"operatingCapacityMw":5.2,"operatingCapacityMwByTechnology":{"solar":5.2},"plannedCapacityCoverage":{"coveragePercent":0.0,"knownUnitCount":0,"method":"unavailable","totalUnitCount":0},"plannedCapacityMw":0.0,"plannedCapacityMwByTechnology":{},"recordCount":1,"recordIds":["wattlas-record-gemunit-g100001023927"],"sourceIds":["gem-global-integrated-power-tracker"],"sourceUrl":"https://www.gem.wiki/Daru-Salaam_City_Afgooye_District_solar_project_III","technologies":["solar"],"technologyMixMw":{"solar":5.2},"unitCount":1,"unitIds":["gem-unit-G100001023927"]},"type":"Feature"},{"geometry":{"coordinates":[45.5529,9.5551],"type":"Point"},"id":"wattlas-plant-gemplant-l100001020959","properties":{"aliases":["--","Burao Burao District solar project"],"canonicalAnchor":"gemplant:L100001020959","canonicalCountryKey":"SO","capacityMw":2.5,"country":"SO","externalIds":{"gemPlant":"L100001020959","gemUnit":"G100001023928"},"gemWikiUrl":"https://www.gem.wiki/Burao_Burao_District_solar_project","geographyId":"SO-83879307B67680758004346","id":"wattlas-plant-gemplant-l100001020959","lifecycleCounts":{"operational":1},"locationPrecision":"exact","name":"Burao Burao District solar project","operatingCapacityCoverage":{"coveragePercent":100.0,"knownUnitCount":1,"method":"complete_unit_sum","provenance":{"evidenceCount":0,"recordIds":["wattlas-record-gemunit-g100001023928"],"sourceIds":["gem-global-integrated-power-tracker"],"sourceTypes":["research_verified"],"valueKind":"reported"},"totalUnitCount":1},"operatingCapacityMw":2.5,"operatingCapacityMwByTechnology":{"solar":2.5},"plannedCapacityCoverage":{"coveragePercent":0.0,"knownUnitCount":0,"method":"unavailable","totalUnitCount":0},"plannedCapacityMw":0.0,"plannedCapacityMwByTechnology":{},"recordCount":1,"recordIds":["wattlas-record-gemunit-g100001023928"],"sourceIds":["gem-global-integrated-power-tracker"],"sourceUrl":"https://www.gem.wiki/Burao_Burao_District_solar_project","technologies":["solar"],"technologyMixMw":{"solar":2.5},"unitCount":1,"unitIds":["gem-unit-G100001023928"]},"type":"Feature"},{"geometry":{"coordinates":[48.5029,8.3997],"type":"Point"},"id":"wattlas-plant-gemplant-l100001045722","properties":{"aliases":["--","Garowe solar farm"],"canonicalAnchor":"gemplant:L100001045722","canonicalCountryKey":"SO","capacityMw":10.0,"country":"SO","externalIds":{"gemPlant":"L100001045722","gemUnit":"G100001051508"},"gemWikiUrl":"https://www.gem.wiki/Garowe_solar_farm","geographyId":"SO-83879307B66585548815331","id":"wattlas-plant-gemplant-l100001045722","lifecycleCounts":{"announced":1},"locationPrecision":"exact","name":"Garowe solar farm","operatingCapacityCoverage":{"coveragePercent":0.0,"knownUnitCount":0,"method":"unavailable","totalUnitCount":0},"operatingCapacityMw":0.0,"operatingCapacityMwByTechnology":{},"plannedCapacityCoverage":{"coveragePercent":100.0,"knownUnitCount":1,"method":"complete_unit_sum","provenance":{"evidenceCount":0,"recordIds":["wattlas-record-gemunit-g100001051508"],"sourceIds":["gem-global-integrated-power-tracker"],"sourceTypes":["research_verified"],"valueKind":"reported"},"totalUnitCount":1},"plannedCapacityMw":10.0,"plannedCapacityMwByTechnology":{"solar":10.0},"recordCount":1,"recordIds":["wattlas-record-gemunit-g100001051508"],"sourceIds":["gem-global-integrated-power-tracker"],"sourceUrl":"https://www.gem.wiki/Garowe_solar_farm","technologies":["solar"],"technologyMixMw":{"solar":10.0},"unitCount":1,"unitIds":["gem-unit-G100001051508"]},"type":"Feature"},{"geometry":{"coordinates":[45.185,2.1562],"type":"Point"},"id":"wattlas-plant-gemplant-l100001045723","properties":{"aliases":["--","Daynile Power Plant solar farm"],"canonicalAnchor":"gemplant:L100001045723","canonicalCountryKey":"SO","capacityMw":55.0,"country":"SO","externalIds":{"gemPlant":"L100001045723","gemUnit":"G100001051509"},"gemWikiUrl":"https://www.gem.wiki/Daynile_Power_Plant_solar_farm","geographyId":"SO-83879307B35519599536274","id":"wattlas-plant-gemplant-l100001045723","lifecycleCounts":{"announced":1},"locationPrecision":"exact","name":"Daynile Power Plant solar farm","operatingCapacityCoverage":{"coveragePercent":0.0,"knownUnitCount":0,"method":"unavailable","totalUnitCount":0},"operatingCapacityMw":0.0,"operatingCapacityMwByTechnology":{},"plannedCapacityCoverage":{"coveragePercent":100.0,"knownUnitCount":1,"method":"complete_unit_sum","provenance":{"evidenceCount":0,"recordIds":["wattlas-record-gemunit-g100001051509"],"sourceIds":["gem-global-integrated-power-tracker"],"sourceTypes":["research_verified"],"valueKind":"reported"},"totalUnitCount":1},"plannedCapacityMw":55.0,"plannedCapacityMwByTechnology":{"solar":55.0},"recordCount":1,"recordIds":["wattlas-record-gemunit-g100001051509"],"sourceIds":["gem-global-integrated-power-tracker"],"sourceUrl":"https://www.gem.wiki/Daynile_Power_Plant_solar_farm","technologies":["solar"],"technologyMixMw":{"solar":55.0},"unitCount":1,"unitIds":["gem-unit-G100001051509"]},"type":"Feature"},{"geometry":{"coordinates":[44.0645,9.6462],"type":"Point"},"id":"wattlas-plant-gemplant-l100001064869","properties":{"aliases":["--","Hargeisa District solar project"],"canonicalAnchor":"gemplant:L100001064869","canonicalCountryKey":"SO","capacityMw":6.7,"country":"SO","externalIds":{"gemPlant":"L100001064869","gemUnit":"G100001074655"},"gemWikiUrl":"https://www.gem.wiki/Hargeisa_District_solar_project","geographyId":"SO-83879307B42572798770371","id":"wattlas-plant-gemplant-l100001064869","lifecycleCounts":{"operational":1},"locationPrecision":"exact","name":"Hargeisa District solar project","operatingCapacityCoverage":{"coveragePercent":100.0,"knownUnitCount":1,"method":"complete_unit_sum","provenance":{"evidenceCount":0,"recordIds":["wattlas-record-gemunit-g100001074655"],"sourceIds":["gem-global-integrated-power-tracker"],"sourceTypes":["research_verified"],"valueKind":"reported"},"totalUnitCount":1},"operatingCapacityMw":6.7,"operatingCapacityMwByTechnology":{"solar":6.7},"plannedCapacityCoverage":{"coveragePercent":0.0,"knownUnitCount":0,"method":"unavailable","totalUnitCount":0},"plannedCapacityMw":0.0,"plannedCapacityMwByTechnology":{},"recordCount":1,"recordIds":["wattlas-record-gemunit-g100001074655"],"sourceIds":["gem-global-integrated-power-tracker"],"sourceUrl":"https://www.gem.wiki/Hargeisa_District_solar_project","technologies":["solar"],"technologyMixMw":{"solar":6.7},"unitCount":1,"unitIds":["gem-unit-G100001074655"]},"type":"Feature"},{"geometry":{"coordinates":[42.5122,-0.3201],"type":"Point"},"id":"wattlas-plant-gemplant-l100001064870","properties":{"aliases":["--","Kismayo District solar project"],"canonicalAnchor":"gemplant:L100001064870","canonicalCountryKey":"SO","capacityMw":1.2,"country":"SO","externalIds":{"gemPlant":"L100001064870","gemUnit":"G100001074656"},"gemWikiUrl":"https://www.gem.wiki/Kismayo_District_solar_project","geographyId":"SO-83879307B35818532110087","id":"wattlas-plant-gemplant-l100001064870","lifecycleCounts":{"operational":1},"locationPrecision":"exact","name":"Kismayo District solar project","operatingCapacityCoverage":{"coveragePercent":100.0,"knownUnitCount":1,"method":"complete_unit_sum","provenance":{"evidenceCount":0,"recordIds":["wattlas-record-gemunit-g100001074656"],"sourceIds":["gem-global-integrated-power-tracker"],"sourceTypes":["research_verified"],"valueKind":"reported"},"totalUnitCount":1},"operatingCapacityMw":1.2,"operatingCapacityMwByTechnology":{"solar":1.2},"plannedCapacityCoverage":{"coveragePercent":0.0,"knownUnitCount":0,"method":"unavailable","totalUnitCount":0},"plannedCapacityMw":0.0,"plannedCapacityMwByTechnology":{},"recordCount":1,"recordIds":["wattlas-record-gemunit-g100001074656"],"sourceIds":["gem-global-integrated-power-tracker"],"sourceUrl":"https://www.gem.wiki/Kismayo_District_solar_project","technologies":["solar"],"technologyMixMw":{"solar":1.2},"unitCount":1,"unitIds":["gem-unit-G100001074656"]},"type":"Feature"},{"geometry":{"coordinates":[49.1779,11.2611],"type":"Point"},"id":"wattlas-plant-gemplant-l100001064871","properties":{"aliases":["--","Bosaso Bosaso District solar project I"],"canonicalAnchor":"gemplant:L100001064871","canonicalCountryKey":"SO","capacityMw":1.2,"country":"SO","externalIds":{"gemPlant":"L100001064871","gemUnit":"G100001074657"},"gemWikiUrl":"https://www.gem.wiki/Bosaso_Bosaso_District_solar_project_I","geographyId":"SO-83879307B19000204873860","id":"wattlas-plant-gemplant-l100001064871","lifecycleCounts":{"operational":1},"locationPrecision":"exact","name":"Bosaso Bosaso District solar project I","operatingCapacityCoverage":{"coveragePercent":100.0,"knownUnitCount":1,"method":"complete_unit_sum","provenance":{"evidenceCount":0,"recordIds":["wattlas-record-gemunit-g100001074657"],"sourceIds":["gem-global-integrated-power-tracker"],"sourceTypes":["research_verified"],"valueKind":"reported"},"totalUnitCount":1},"operatingCapacityMw":1.2,"operatingCapacityMwByTechnology":{"solar":1.2},"plannedCapacityCoverage":{"coveragePercent":0.0,"knownUnitCount":0,"method":"unavailable","totalUnitCount":0},"plannedCapacityMw":0.0,"plannedCapacityMwByTechnology":{},"recordCount":1,"recordIds":["wattlas-record-gemunit-g100001074657"],"sourceIds":["gem-global-integrated-power-tracker"],"sourceUrl":"https://www.gem.wiki/Bosaso_Bosaso_District_solar_project_I","technologies":["solar"],"technologyMixMw":{"solar":1.2},"unitCount":1,"unitIds":["gem-unit-G100001074657"]},"type":"Feature"},{"geometry":{"coordinates":[45.2436,4.734],"type":"Point"},"id":"wattlas-plant-gemplant-l100001064872","properties":{"aliases":["--","Beledweyne Beledweyne District solar project"],"canonicalAnchor":"gemplant:L100001064872","canonicalCountryKey":"SO","capacityMw":1.3,"country":"SO","externalIds":{"gemPlant":"L100001064872","gemUnit":"G100001074658"},"gemWikiUrl":"https://www.gem.wiki/Beledweyne_Beledweyne_District_solar_project","geographyId":"SO-83879307B66756469447496","id":"wattlas-plant-gemplant-l100001064872","lifecycleCounts":{"operational":1},"locationPrecision":"exact","name":"Beledweyne Beledweyne District solar project","operatingCapacityCoverage":{"coveragePercent":100.0,"knownUnitCount":1,"method":"complete_unit_sum","provenance":{"evidenceCount":0,"recordIds":["wattlas-record-gemunit-g100001074658"],"sourceIds":["gem-global-integrated-power-tracker"],"sourceTypes":["research_verified"],"valueKind":"reported"},"totalUnitCount":1},"operatingCapacityMw":1.3,"operatingCapacityMwByTechnology":{"solar":1.3},"plannedCapacityCoverage":{"coveragePercent":0.0,"knownUnitCount":0,"method":"unavailable","totalUnitCount":0},"plannedCapacityMw":0.0,"plannedCapacityMwByTechnology":{},"recordCount":1,"recordIds":["wattlas-record-gemunit-g100001074658"],"sourceIds":["gem-global-integrated-power-tracker"],"sourceUrl":"https://www.gem.wiki/Beledweyne_Beledweyne_District_solar_project","technologies":["solar"],"technologyMixMw":{"solar":1.3},"unitCount":1,"unitIds":["gem-unit-G100001074658"]},"type":"Feature"},{"geometry":{"coordinates":[48.5036,8.3988],"type":"Point"},"id":"wattlas-plant-gemplant-l100001064873","properties":{"aliases":["--","Garoowe Garowe District solar project"],"canonicalAnchor":"gemplant:L100001064873","canonicalCountryKey":"SO","capacityMw":4.8,"country":"SO","externalIds":{"gemPlant":"L100001064873","gemUnit":"G100001074659"},"gemWikiUrl":"https://www.gem.wiki/Garoowe_Garowe_District_solar_project","geographyId":"SO-83879307B66585548815331","id":"wattlas-plant-gemplant-l100001064873","lifecycleCounts":{"operational":1},"locationPrecision":"exact","name":"Garoowe Garowe District solar project","operatingCapacityCoverage":{"coveragePercent":100.0,"knownUnitCount":1,"method":"complete_unit_sum","provenance":{"evidenceCount":0,"recordIds":["wattlas-record-gemunit-g100001074659"],"sourceIds":["gem-global-integrated-power-tracker"],"sourceTypes":["research_verified"],"valueKind":"reported"},"totalUnitCount":1},"operatingCapacityMw":4.8,"operatingCapacityMwByTechnology":{"solar":4.8},"plannedCapacityCoverage":{"coveragePercent":0.0,"knownUnitCount":0,"method":"unavailable","totalUnitCount":0},"plannedCapacityMw":0.0,"plannedCapacityMwByTechnology":{},"recordCount":1,"recordIds":["wattlas-record-gemunit-g100001074659"],"sourceIds":["gem-global-integrated-power-tracker"],"sourceUrl":"https://www.gem.wiki/Garoowe_Garowe_District_solar_project","technologies":["solar"],"technologyMixMw":{"solar":4.8},"unitCount":1,"unitIds":["gem-unit-G100001074659"]},"type":"Feature"},{"geometry":{"coordinates":[43.6369,3.107],"type":"Point"},"id":"wattlas-plant-gemplant-l100001064874","properties":{"aliases":["--","Baidoa Baidoa District solar project"],"canonicalAnchor":"gemplant:L100001064874","canonicalCountryKey":"SO","capacityMw":2.4,"country":"SO","externalIds":{"gemPlant":"L100001064874","gemUnit":"G100001074660"},"gemWikiUrl":"https://www.gem.wiki/Baidoa_Baidoa_District_solar_project","geographyId":"SO-83879307B67196763494499","id":"wattlas-plant-gemplant-l100001064874","lifecycleCounts":{"operational":1},"locationPrecision":"exact","name":"Baidoa Baidoa District solar project","operatingCapacityCoverage":{"coveragePercent":100.0,"knownUnitCount":1,"method":"complete_unit_sum","provenance":{"evidenceCount":0,"recordIds":["wattlas-record-gemunit-g100001074660"],"sourceIds":["gem-global-integrated-power-tracker"],"sourceTypes":["research_verified"],"valueKind":"reported"},"totalUnitCount":1},"operatingCapacityMw":2.4,"operatingCapacityMwByTechnology":{"solar":2.4},"plannedCapacityCoverage":{"coveragePercent":0.0,"knownUnitCount":0,"method":"unavailable","totalUnitCount":0},"plannedCapacityMw":0.0,"plannedCapacityMwByTechnology":{},"recordCount":1,"recordIds":["wattlas-record-gemunit-g100001074660"],"sourceIds":["gem-global-integrated-power-tracker"],"sourceUrl":"https://www.gem.wiki/Baidoa_Baidoa_District_solar_project","technologies":["solar"],"technologyMixMw":{"solar":2.4},"unitCount":1,"unitIds":["gem-unit-G100001074660"]},"type":"Feature"},{"geometry":{"coordinates":[45.2923,2.1196],"type":"Point"},"id":"wattlas-plant-gemplant-l100001064875","properties":{"aliases":["--","Daru-Salaam City Afgooye District solar project"],"canonicalAnchor":"gemplant:L100001064875","canonicalCountryKey":"SO","capacityMw":6.1,"country":"SO","externalIds":{"gemPlant":"L100001064875","gemUnit":"G100001074661"},"gemWikiUrl":"https://www.gem.wiki/Daru-Salaam_City_Afgooye_District_solar_project","geographyId":"SO-83879307B35519599536274","id":"wattlas-plant-gemplant-l100001064875","lifecycleCounts":{"operational":1},"locationPrecision":"exact","name":"Daru-Salaam City Afgooye District solar project","operatingCapacityCoverage":{"coveragePercent":100.0,"knownUnitCount":1,"method":"complete_unit_sum","provenance":{"evidenceCount":0,"recordIds":["wattlas-record-gemunit-g100001074661"],"sourceIds":["gem-global-integrated-power-tracker"],"sourceTypes":["research_verified"],"valueKind":"reported"},"totalUnitCount":1},"operatingCapacityMw":6.1,"operatingCapacityMwByTechnology":{"solar":6.1},"plannedCapacityCoverage":{"coveragePercent":0.0,"knownUnitCount":0,"method":"unavailable","totalUnitCount":0},"plannedCapacityMw":0.0,"plannedCapacityMwByTechnology":{},"recordCount":1,"recordIds":["wattlas-record-gemunit-g100001074661"],"sourceIds":["gem-global-integrated-power-tracker"],"sourceUrl":"https://www.gem.wiki/Daru-Salaam_City_Afgooye_District_solar_project","technologies":["solar"],"technologyMixMw":{"solar":6.1},"unitCount":1,"unitIds":["gem-unit-G100001074661"]},"type":"Feature"},{"geometry":{"coordinates":[47.3169,8.5197],"type":"Point"},"id":"wattlas-plant-gemplant-l100001064876","properties":{"aliases":["--","Las Anod District solar project"],"canonicalAnchor":"gemplant:L100001064876","canonicalCountryKey":"SO","capacityMw":11.1,"country":"SO","externalIds":{"gemPlant":"L100001064876","gemUnit":"G100001074662"},"gemWikiUrl":"https://www.gem.wiki/Las_Anod_District_solar_project","geographyId":"SO-83879307B65026001570916","id":"wattlas-plant-gemplant-l100001064876","lifecycleCounts":{"operational":1},"locationPrecision":"exact","name":"Las Anod District solar project","operatingCapacityCoverage":{"coveragePercent":100.0,"knownUnitCount":1,"method":"complete_unit_sum","provenance":{"evidenceCount":0,"recordIds":["wattlas-record-gemunit-g100001074662"],"sourceIds":["gem-global-integrated-power-tracker"],"sourceTypes":["research_verified"],"valueKind":"reported"},"totalUnitCount":1},"operatingCapacityMw":11.1,"operatingCapacityMwByTechnology":{"solar":11.1},"plannedCapacityCoverage":{"coveragePercent":0.0,"knownUnitCount":0,"method":"unavailable","totalUnitCount":0},"plannedCapacityMw":0.0,"plannedCapacityMwByTechnology":{},"recordCount":1,"recordIds":["wattlas-record-gemunit-g100001074662"],"sourceIds":["gem-global-integrated-power-tracker"],"sourceUrl":"https://www.gem.wiki/Las_Anod_District_solar_project","technologies":["solar"],"technologyMixMw":{"solar":11.1},"unitCount":1,"unitIds":["gem-unit-G100001074662"]},"type":"Feature"},{"geometry":{"coordinates":[49.1723,11.2293],"type":"Point"},"id":"wattlas-plant-gemplant-l100001064877","properties":{"aliases":["--","Bosaso Bosaso District solar project II"],"canonicalAnchor":"gemplant:L100001064877","canonicalCountryKey":"SO","capacityMw":1.9,"country":"SO","externalIds":{"gemPlant":"L100001064877","gemUnit":"G100001074663"},"gemWikiUrl":"https://www.gem.wiki/Bosaso_Bosaso_District_solar_project_II","geographyId":"SO-83879307B19000204873860","id":"wattlas-plant-gemplant-l100001064877","lifecycleCounts":{"operational":1},"locationPrecision":"exact","name":"Bosaso Bosaso District solar project II","operatingCapacityCoverage":{"coveragePercent":100.0,"knownUnitCount":1,"method":"complete_unit_sum","provenance":{"evidenceCount":0,"recordIds":["wattlas-record-gemunit-g100001074663"],"sourceIds":["gem-global-integrated-power-tracker"],"sourceTypes":["research_verified"],"valueKind":"reported"},"totalUnitCount":1},"operatingCapacityMw":1.9,"operatingCapacityMwByTechnology":{"solar":1.9},"plannedCapacityCoverage":{"coveragePercent":0.0,"knownUnitCount":0,"method":"unavailable","totalUnitCount":0},"plannedCapacityMw":0.0,"plannedCapacityMwByTechnology":{},"recordCount":1,"recordIds":["wattlas-record-gemunit-g100001074663"],"sourceIds":["gem-global-integrated-power-tracker"],"sourceUrl":"https://www.gem.wiki/Bosaso_Bosaso_District_solar_project_II","technologies":["solar"],"technologyMixMw":{"solar":1.9},"unitCount":1,"unitIds":["gem-unit-G100001074663"]},"type":"Feature"},{"geometry":{"coordinates":[43.2144,9.953],"type":"Point"},"id":"wattlas-plant-gemplant-l100001064878","properties":{"aliases":["--","Borama District solar project"],"canonicalAnchor":"gemplant:L100001064878","canonicalCountryKey":"SO","capacityMw":2.6,"country":"SO","externalIds":{"gemPlant":"L100001064878","gemUnit":"G100001074664"},"gemWikiUrl":"https://www.gem.wiki/Borama_District_solar_project","geographyId":"SO-83879307B11376444747055","id":"wattlas-plant-gemplant-l100001064878","lifecycleCounts":{"operational":1},"locationPrecision":"exact","name":"Borama District solar project","operatingCapacityCoverage":{"coveragePercent":100.0,"knownUnitCount":1,"method":"complete_unit_sum","provenance":{"evidenceCount":0,"recordIds":["wattlas-record-gemunit-g100001074664"],"sourceIds":["gem-global-integrated-power-tracker"],"sourceTypes":["research_verified"],"valueKind":"reported"},"totalUnitCount":1},"operatingCapacityMw":2.6,"operatingCapacityMwByTechnology":{"solar":2.6},"plannedCapacityCoverage":{"coveragePercent":0.0,"knownUnitCount":0,"method":"unavailable","totalUnitCount":0},"plannedCapacityMw":0.0,"plannedCapacityMwByTechnology":{},"recordCount":1,"recordIds":["wattlas-record-gemunit-g100001074664"],"sourceIds":["gem-global-integrated-power-tracker"],"sourceUrl":"https://www.gem.wiki/Borama_District_solar_project","technologies":["solar"],"technologyMixMw":{"solar":2.6},"unitCount":1,"unitIds":["gem-unit-G100001074664"]},"type":"Feature"},{"geometry":{"coordinates":[44.0921,9.549],"type":"Point"},"id":"wattlas-plant-gemplant-l100001064879","properties":{"aliases":["--","Hargeisa Hargeisa District solar project"],"canonicalAnchor":"gemplant:L100001064879","canonicalCountryKey":"SO","capacityMw":1.5,"country":"SO","externalIds":{"gemPlant":"L100001064879","gemUnit":"G100001074665"},"gemWikiUrl":"https://www.gem.wiki/Hargeisa_Hargeisa_District_solar_project","geographyId":"SO-83879307B42572798770371","id":"wattlas-plant-gemplant-l100001064879","lifecycleCounts":{"operational":1},"locationPrecision":"exact","name":"Hargeisa Hargeisa District solar project","operatingCapacityCoverage":{"coveragePercent":100.0,"knownUnitCount":1,"method":"complete_unit_sum","provenance":{"evidenceCount":0,"recordIds":["wattlas-record-gemunit-g100001074665"],"sourceIds":["gem-global-integrated-power-tracker"],"sourceTypes":["research_verified"],"valueKind":"reported"},"totalUnitCount":1},"operatingCapacityMw":1.5,"operatingCapacityMwByTechnology":{"solar":1.5},"plannedCapacityCoverage":{"coveragePercent":0.0,"knownUnitCount":0,"method":"unavailable","totalUnitCount":0},"plannedCapacityMw":0.0,"plannedCapacityMwByTechnology":{},"recordCount":1,"recordIds":["wattlas-record-gemunit-g100001074665"],"sourceIds":["gem-global-integrated-power-tracker"],"sourceUrl":"https://www.gem.wiki/Hargeisa_Hargeisa_District_solar_project","technologies":["solar"],"technologyMixMw":{"solar":1.5},"unitCount":1,"unitIds":["gem-unit-G100001074665"]},"type":"Feature"},{"geometry":{"coordinates":[46.409504,8.95578],"type":"Point"},"id":"wattlas-plant-osm-way-1099005893","properties":{"aliases":["Mapped power plant · OSM 1099005893"],"canonicalAnchor":"osm:way/1099005893","canonicalCountryKey":"SO","capacityMw":0.0,"country":"SO","externalIds":{"osm":"way/1099005893"},"geographyId":"SO-83879307B65026001570916","id":"wattlas-plant-osm-way-1099005893","lifecycleCounts":{"operational":1},"locationPrecision":"exact","name":"Mapped power plant · OSM 1099005893","operatingCapacityCoverage":{"coveragePercent":0.0,"knownUnitCount":0,"method":"unavailable","totalUnitCount":0},"operatingCapacityMw":0.0,"operatingCapacityMwByTechnology":{},"plannedCapacityCoverage":{"coveragePercent":0.0,"knownUnitCount":0,"method":"unavailable","totalUnitCount":0},"plannedCapacityMw":0.0,"plannedCapacityMwByTechnology":{},"recordCount":1,"recordIds":["wattlas-record-osm-way-1099005893"],"sourceIds":["openstreetmap-power"],"sourceUrl":"https://www.openstreetmap.org/way/1099005893","technologies":["solar"],"technologyMixMw":{"solar":0.0},"unitCount":0,"unitIds":[]},"type":"Feature"},{"geometry":{"coordinates":[49.177886,11.261078],"type":"Point"},"id":"wattlas-plant-osm-way-1148400143","properties":{"aliases":["Bosaso Solar Power Plant"],"canonicalAnchor":"osm:way/1148400143","canonicalCountryKey":"SO","capacityMw":0.0,"country":"SO","externalIds":{"osm":"way/1148400143"},"geographyId":"SO-83879307B19000204873860","id":"wattlas-plant-osm-way-1148400143","lifecycleCounts":{"operational":1},"locationPrecision":"exact","name":"Bosaso Solar Power Plant","operatingCapacityCoverage":{"coveragePercent":0.0,"knownUnitCount":0,"method":"unavailable","totalUnitCount":0},"operatingCapacityMw":0.0,"operatingCapacityMwByTechnology":{},"plannedCapacityCoverage":{"coveragePercent":0.0,"knownUnitCount":0,"method":"unavailable","totalUnitCount":0},"plannedCapacityMw":0.0,"plannedCapacityMwByTechnology":{},"recordCount":1,"recordIds":["wattlas-record-osm-way-1148400143"],"sourceIds":["openstreetmap-power"],"sourceUrl":"https://www.openstreetmap.org/way/1148400143","technologies":["solar"],"technologyMixMw":{"solar":0.0},"unitCount":0,"unitIds":[]},"type":"Feature"},{"geometry":{"coordinates":[43.636944,3.106821],"type":"Point"},"id":"wattlas-plant-osm-way-1300096998","properties":{"aliases":["Baidoa Solar Farm"],"canonicalAnchor":"osm:way/1300096998","canonicalCountryKey":"SO","capacityMw":0.0,"country":"SO","externalIds":{"osm":"way/1300096998"},"geographyId":"SO-83879307B67196763494499","id":"wattlas-plant-osm-way-1300096998","lifecycleCounts":{"operational":1},"locationPrecision":"exact","name":"Baidoa Solar Farm","operatingCapacityCoverage":{"coveragePercent":0.0,"knownUnitCount":0,"method":"unavailable","totalUnitCount":0},"operatingCapacityMw":0.0,"operatingCapacityMwByTechnology":{},"plannedCapacityCoverage":{"coveragePercent":0.0,"knownUnitCount":0,"method":"unavailable","totalUnitCount":0},"plannedCapacityMw":0.0,"plannedCapacityMwByTechnology":{},"recordCount":1,"recordIds":["wattlas-record-osm-way-1300096998"],"sourceIds":["openstreetmap-power"],"sourceUrl":"https://www.openstreetmap.org/way/1300096998","technologies":["solar"],"technologyMixMw":{"solar":0.0},"unitCount":0,"unitIds":[]},"type":"Feature"},{"geometry":{"coordinates":[47.316859,8.519649],"type":"Point"},"id":"wattlas-plant-osm-way-1300099151","properties":{"aliases":["Sool Power"],"canonicalAnchor":"osm:way/1300099151","canonicalCountryKey":"SO","capacityMw":0.0,"country":"SO","externalIds":{"osm":"way/1300099151"},"geographyId":"SO-83879307B65026001570916","id":"wattlas-plant-osm-way-1300099151","lifecycleCounts":{"operational":1},"locationPrecision":"exact","name":"Sool Power","operatingCapacityCoverage":{"coveragePercent":0.0,"knownUnitCount":0,"method":"unavailable","totalUnitCount":0},"operatingCapacityMw":0.0,"operatingCapacityMwByTechnology":{},"plannedCapacityCoverage":{"coveragePercent":0.0,"knownUnitCount":0,"method":"unavailable","totalUnitCount":0},"plannedCapacityMw":0.0,"plannedCapacityMwByTechnology":{},"recordCount":1,"recordIds":["wattlas-record-osm-way-1300099151"],"sourceIds":["openstreetmap-power"],"sourceUrl":"https://www.openstreetmap.org/way/1300099151","technologies":["solar"],"technologyMixMw":{"solar":0.0},"unitCount":0,"unitIds":[]},"type":"Feature"},{"geometry":{"coordinates":[48.328368,10.7132],"type":"Point"},"id":"wattlas-plant-osm-way-1318771262","properties":{"aliases":["FV"],"canonicalAnchor":"osm:way/1318771262","canonicalCountryKey":"SO","capacityMw":0.0,"country":"SO","externalIds":{"osm":"way/1318771262"},"geographyId":"SO-83879307B13610404434600","id":"wattlas-plant-osm-way-1318771262","lifecycleCounts":{"operational":1},"locationPrecision":"exact","name":"FV","operatingCapacityCoverage":{"coveragePercent":0.0,"knownUnitCount":0,"method":"unavailable","totalUnitCount":0},"operatingCapacityMw":0.0,"operatingCapacityMwByTechnology":{},"plannedCapacityCoverage":{"coveragePercent":0.0,"knownUnitCount":0,"method":"unavailable","totalUnitCount":0},"plannedCapacityMw":0.0,"plannedCapacityMwByTechnology":{},"recordCount":1,"recordIds":["wattlas-record-osm-way-1318771262"],"sourceIds":["openstreetmap-power"],"sourceUrl":"https://www.openstreetmap.org/way/1318771262","technologies":["solar"],"technologyMixMw":{"solar":0.0},"unitCount":0,"unitIds":[]},"type":"Feature"},{"geometry":{"coordinates":[45.553568,9.555602],"type":"Point"},"id":"wattlas-plant-osm-way-1411991478","properties":{"aliases":["HECO Solar power Station"],"canonicalAnchor":"osm:way/1411991478","canonicalCountryKey":"SO","capacityMw":0.0,"country":"SO","externalIds":{"osm":"way/1411991478"},"geographyId":"SO-83879307B67680758004346","id":"wattlas-plant-osm-way-1411991478","lifecycleCounts":{"operational":1},"locationPrecision":"exact","name":"HECO Solar power Station","operatingCapacityCoverage":{"coveragePercent":0.0,"knownUnitCount":0,"method":"unavailable","totalUnitCount":0},"operatingCapacityMw":0.0,"operatingCapacityMwByTechnology":{},"plannedCapacityCoverage":{"coveragePercent":0.0,"knownUnitCount":0,"method":"unavailable","totalUnitCount":0},"plannedCapacityMw":0.0,"plannedCapacityMwByTechnology":{},"recordCount":1,"recordIds":["wattlas-record-osm-way-1411991478"],"sourceIds":["openstreetmap-power"],"sourceUrl":"https://www.openstreetmap.org/way/1411991478","technologies":["solar"],"technologyMixMw":{"solar":0.0},"unitCount":0,"unitIds":[]},"type":"Feature"},{"geometry":{"coordinates":[44.971885,10.399925],"type":"Point"},"id":"wattlas-plant-osm-way-965745508","properties":{"aliases":["Mapped power plant · OSM 965745508"],"canonicalAnchor":"osm:way/965745508","canonicalCountryKey":"SO","capacityMw":7.0,"country":"SO","externalIds":{"osm":"way/965745508"},"geographyId":"SO-83879307B42572798770371","id":"wattlas-plant-osm-way-965745508","lifecycleCounts":{"operational":1},"locationPrecision":"exact","name":"Mapped power plant · OSM 965745508","operatingCapacityCoverage":{"coveragePercent":100.0,"knownUnitCount":0,"method":"plant_aggregate","provenance":{"evidenceCount":0,"recordIds":["wattlas-record-osm-way-965745508"],"sourceIds":["openstreetmap-power"],"sourceTypes":["community_mapped"],"valueKind":"reported"},"totalUnitCount":0},"operatingCapacityMw":7.0,"operatingCapacityMwByTechnology":{"solar":7.0},"plannedCapacityCoverage":{"coveragePercent":0.0,"knownUnitCount":0,"method":"unavailable","totalUnitCount":0},"plannedCapacityMw":0.0,"plannedCapacityMwByTechnology":{},"recordCount":1,"recordIds":["wattlas-record-osm-way-965745508"],"sourceIds":["openstreetmap-power"],"sourceUrl":"https://www.openstreetmap.org/way/965745508","technologies":["solar"],"technologyMixMw":{"solar":7.0},"unitCount":0,"unitIds":[]},"type":"Feature"}],"type":"FeatureCollection"}