{"features":[{"geometry":{"coordinates":[31.570616,4.859615],"type":"Point"},"id":"wattlas-plant-gemplant-l100000409037","properties":{"aliases":["1-1","Paloch Oil Field power plant"],"canonicalAnchor":"gemplant:L100000409037","canonicalCountryKey":"SS","capacityMw":85.0,"country":"SS","externalIds":{"gemPlant":"L100000409037","gemUnit":"G100000413503"},"gemWikiUrl":"https://www.gem.wiki/Paloch_Oil_Field_power_plant","geographyId":"SS-48771326B10235544430886","id":"wattlas-plant-gemplant-l100000409037","lifecycleCounts":{"operational":1},"locationPrecision":"exact","name":"Paloch Oil Field power plant","operatingCapacityCoverage":{"coveragePercent":100.0,"knownUnitCount":1,"method":"complete_unit_sum","provenance":{"evidenceCount":0,"recordIds":["wattlas-record-gemunit-g100000413503"],"sourceIds":["gem-global-integrated-power-tracker"],"sourceTypes":["research_verified"],"valueKind":"reported"},"totalUnitCount":1},"operatingCapacityMw":85.0,"operatingCapacityMwByTechnology":{"gas":85.0},"plannedCapacityCoverage":{"coveragePercent":0.0,"knownUnitCount":0,"method":"unavailable","totalUnitCount":0},"plannedCapacityMw":0.0,"plannedCapacityMwByTechnology":{},"recordCount":1,"recordIds":["wattlas-record-gemunit-g100000413503"],"sourceIds":["gem-global-integrated-power-tracker"],"sourceUrl":"https://www.gem.wiki/Paloch_Oil_Field_power_plant","technologies":["gas"],"technologyMixMw":{"gas":85.0},"unitCount":1,"unitIds":["gem-unit-G100000413503"]},"type":"Feature"},{"geometry":{"coordinates":[31.634501,4.846326],"type":"Point"},"id":"wattlas-plant-gemplant-l100000409069","properties":{"aliases":["1-1","2-1","Juba diesel power plant"],"canonicalAnchor":"gemplant:L100000409069","canonicalCountryKey":"SS","capacityMw":33.0,"country":"SS","externalIdAliases":{"gemUnit":["G100000413504","G100000413505"]},"externalIds":{"gemPlant":"L100000409069","gemUnit":"G100000413504"},"gemWikiUrl":"https://www.gem.wiki/Juba_diesel_power_plant","geographyId":"SS-48771326B10235544430886","id":"wattlas-plant-gemplant-l100000409069","lifecycleCounts":{"operational":1,"paused":1},"locationPrecision":"exact","name":"Juba diesel power plant","operatingCapacityCoverage":{"coveragePercent":100.0,"knownUnitCount":1,"method":"complete_unit_sum","provenance":{"evidenceCount":0,"recordIds":["wattlas-record-gemunit-g100000413505"],"sourceIds":["gem-global-integrated-power-tracker"],"sourceTypes":["research_verified"],"valueKind":"reported"},"totalUnitCount":1},"operatingCapacityMw":33.0,"operatingCapacityMwByTechnology":{"gas":33.0},"plannedCapacityCoverage":{"coveragePercent":0.0,"knownUnitCount":0,"method":"unavailable","totalUnitCount":0},"plannedCapacityMw":0.0,"plannedCapacityMwByTechnology":{},"recordCount":2,"recordIds":["wattlas-record-gemunit-g100000413504","wattlas-record-gemunit-g100000413505"],"sourceIds":["gem-global-integrated-power-tracker"],"sourceUrl":"https://www.gem.wiki/Juba_diesel_power_plant","technologies":["gas"],"technologyMixMw":{"gas":33.0},"unitCount":2,"unitIds":["gem-unit-G100000413504","gem-unit-G100000413505"]},"type":"Feature"},{"geometry":{"coordinates":[27.9662,7.7147],"type":"Point"},"id":"wattlas-plant-gemplant-l100001064990","properties":{"aliases":["--","Wau solar project"],"canonicalAnchor":"gemplant:L100001064990","canonicalCountryKey":"SS","capacityMw":1.6,"country":"SS","externalIds":{"gemPlant":"L100001064990","gemUnit":"G100001074776"},"gemWikiUrl":"https://www.gem.wiki/Wau_solar_project","geographyId":"SS-48771326B76913720880161","id":"wattlas-plant-gemplant-l100001064990","lifecycleCounts":{"operational":1},"locationPrecision":"exact","name":"Wau solar project","operatingCapacityCoverage":{"coveragePercent":100.0,"knownUnitCount":1,"method":"complete_unit_sum","provenance":{"evidenceCount":0,"recordIds":["wattlas-record-gemunit-g100001074776"],"sourceIds":["gem-global-integrated-power-tracker"],"sourceTypes":["research_verified"],"valueKind":"reported"},"totalUnitCount":1},"operatingCapacityMw":1.6,"operatingCapacityMwByTechnology":{"solar":1.6},"plannedCapacityCoverage":{"coveragePercent":0.0,"knownUnitCount":0,"method":"unavailable","totalUnitCount":0},"plannedCapacityMw":0.0,"plannedCapacityMwByTechnology":{},"recordCount":1,"recordIds":["wattlas-record-gemunit-g100001074776"],"sourceIds":["gem-global-integrated-power-tracker"],"sourceUrl":"https://www.gem.wiki/Wau_solar_project","technologies":["solar"],"technologyMixMw":{"solar":1.6},"unitCount":1,"unitIds":["gem-unit-G100001074776"]},"type":"Feature"},{"geometry":{"coordinates":[31.6367,4.8435],"type":"Point"},"id":"wattlas-plant-gemplant-l100001080218","properties":{"aliases":["--","Juba (Ezra) solar farm"],"canonicalAnchor":"gemplant:L100001080218","canonicalCountryKey":"SS","capacityMw":20.0,"country":"SS","externalIds":{"gemPlant":"L100001080218","gemUnit":"G100001090068"},"gemWikiUrl":"https://www.gem.wiki/Juba_(Ezra)_solar_farm","geographyId":"SS-48771326B10235544430886","id":"wattlas-plant-gemplant-l100001080218","lifecycleCounts":{"operational":1},"locationPrecision":"exact","name":"Juba (Ezra) solar farm","operatingCapacityCoverage":{"coveragePercent":100.0,"knownUnitCount":1,"method":"complete_unit_sum","provenance":{"evidenceCount":0,"recordIds":["wattlas-record-gemunit-g100001090068"],"sourceIds":["gem-global-integrated-power-tracker"],"sourceTypes":["research_verified"],"valueKind":"reported"},"totalUnitCount":1},"operatingCapacityMw":20.0,"operatingCapacityMwByTechnology":{"solar":20.0},"plannedCapacityCoverage":{"coveragePercent":0.0,"knownUnitCount":0,"method":"unavailable","totalUnitCount":0},"plannedCapacityMw":0.0,"plannedCapacityMwByTechnology":{},"recordCount":1,"recordIds":["wattlas-record-gemunit-g100001090068"],"sourceIds":["gem-global-integrated-power-tracker"],"sourceUrl":"https://www.gem.wiki/Juba_(Ezra)_solar_farm","technologies":["solar"],"technologyMixMw":{"solar":20.0},"unitCount":1,"unitIds":["gem-unit-G100001090068"]},"type":"Feature"},{"geometry":{"coordinates":[31.540401,4.81677],"type":"Point"},"id":"wattlas-plant-osm-way-1096381738","properties":{"aliases":["UN House - Juba"],"canonicalAnchor":"osm:way/1096381738","canonicalCountryKey":"SS","capacityMw":1.0,"country":"SS","externalIds":{"osm":"way/1096381738"},"geographyId":"SS-48771326B10235544430886","id":"wattlas-plant-osm-way-1096381738","lifecycleCounts":{"operational":1},"locationPrecision":"exact","name":"UN House - Juba","operatingCapacityCoverage":{"coveragePercent":100.0,"knownUnitCount":0,"method":"plant_aggregate","provenance":{"evidenceCount":0,"recordIds":["wattlas-record-osm-way-1096381738"],"sourceIds":["openstreetmap-power"],"sourceTypes":["community_mapped"],"valueKind":"reported"},"totalUnitCount":0},"operatingCapacityMw":1.0,"operatingCapacityMwByTechnology":{"solar":1.0},"plannedCapacityCoverage":{"coveragePercent":0.0,"knownUnitCount":0,"method":"unavailable","totalUnitCount":0},"plannedCapacityMw":0.0,"plannedCapacityMwByTechnology":{},"recordCount":1,"recordIds":["wattlas-record-osm-way-1096381738"],"sourceIds":["openstreetmap-power"],"sourceUrl":"https://www.openstreetmap.org/way/1096381738","technologies":["solar"],"technologyMixMw":{"solar":1.0},"unitCount":0,"unitIds":[]},"type":"Feature"},{"geometry":{"coordinates":[27.966038,7.714783],"type":"Point"},"id":"wattlas-plant-osm-way-1096422039","properties":{"aliases":["UN Compound - Wau"],"canonicalAnchor":"osm:way/1096422039","canonicalCountryKey":"SS","capacityMw":1.25,"country":"SS","externalIds":{"osm":"way/1096422039"},"geographyId":"SS-48771326B76913720880161","id":"wattlas-plant-osm-way-1096422039","lifecycleCounts":{"operational":1},"locationPrecision":"exact","name":"UN Compound - Wau","operatingCapacityCoverage":{"coveragePercent":100.0,"knownUnitCount":0,"method":"plant_aggregate","provenance":{"evidenceCount":0,"recordIds":["wattlas-record-osm-way-1096422039"],"sourceIds":["openstreetmap-power"],"sourceTypes":["community_mapped"],"valueKind":"reported"},"totalUnitCount":0},"operatingCapacityMw":1.25,"operatingCapacityMwByTechnology":{"solar":1.25},"plannedCapacityCoverage":{"coveragePercent":0.0,"knownUnitCount":0,"method":"unavailable","totalUnitCount":0},"plannedCapacityMw":0.0,"plannedCapacityMwByTechnology":{},"recordCount":1,"recordIds":["wattlas-record-osm-way-1096422039"],"sourceIds":["openstreetmap-power"],"sourceUrl":"https://www.openstreetmap.org/way/1096422039","technologies":["solar"],"technologyMixMw":{"solar":1.25},"unitCount":0,"unitIds":[]},"type":"Feature"},{"geometry":{"coordinates":[31.636977,4.84369],"type":"Point"},"id":"wattlas-plant-osm-way-1208612800","properties":{"aliases":["Ezra Power - Juba"],"canonicalAnchor":"osm:way/1208612800","canonicalCountryKey":"SS","capacityMw":30.0,"country":"SS","externalIds":{"osm":"way/1208612800"},"geographyId":"SS-48771326B10235544430886","id":"wattlas-plant-osm-way-1208612800","lifecycleCounts":{"operational":1},"locationPrecision":"exact","name":"Ezra Power - Juba","operatingCapacityCoverage":{"coveragePercent":100.0,"knownUnitCount":0,"method":"plant_aggregate","provenance":{"evidenceCount":0,"recordIds":["wattlas-record-osm-way-1208612800"],"sourceIds":["openstreetmap-power"],"sourceTypes":["community_mapped"],"valueKind":"reported"},"totalUnitCount":0},"operatingCapacityMw":30.0,"operatingCapacityMwByTechnology":{"solar":30.0},"plannedCapacityCoverage":{"coveragePercent":0.0,"knownUnitCount":0,"method":"unavailable","totalUnitCount":0},"plannedCapacityMw":0.0,"plannedCapacityMwByTechnology":{},"recordCount":1,"recordIds":["wattlas-record-osm-way-1208612800"],"sourceIds":["openstreetmap-power"],"sourceUrl":"https://www.openstreetmap.org/way/1208612800","technologies":["solar"],"technologyMixMw":{"solar":30.0},"unitCount":0,"unitIds":[]},"type":"Feature"},{"geometry":{"coordinates":[31.635017,4.843599],"type":"Point"},"id":"wattlas-plant-osm-way-1208612831","properties":{"aliases":["Ezra Power"],"canonicalAnchor":"osm:way/1208612831","canonicalCountryKey":"SS","capacityMw":30.0,"country":"SS","externalIds":{"osm":"way/1208612831"},"geographyId":"SS-48771326B10235544430886","id":"wattlas-plant-osm-way-1208612831","lifecycleCounts":{"operational":1},"locationPrecision":"exact","name":"Ezra Power","operatingCapacityCoverage":{"coveragePercent":100.0,"knownUnitCount":0,"method":"plant_aggregate","provenance":{"evidenceCount":0,"recordIds":["wattlas-record-osm-way-1208612831"],"sourceIds":["openstreetmap-power"],"sourceTypes":["community_mapped"],"valueKind":"reported"},"totalUnitCount":0},"operatingCapacityMw":30.0,"operatingCapacityMwByTechnology":{"other":30.0},"plannedCapacityCoverage":{"coveragePercent":0.0,"knownUnitCount":0,"method":"unavailable","totalUnitCount":0},"plannedCapacityMw":0.0,"plannedCapacityMwByTechnology":{},"recordCount":1,"recordIds":["wattlas-record-osm-way-1208612831"],"sourceIds":["openstreetmap-power"],"sourceUrl":"https://www.openstreetmap.org/way/1208612831","technologies":["other"],"technologyMixMw":{"other":30.0},"unitCount":0,"unitIds":[]},"type":"Feature"},{"geometry":{"coordinates":[31.489888,4.869474],"type":"Point"},"id":"wattlas-plant-osm-way-1364817506","properties":{"aliases":["Juba Solar Power Station"],"canonicalAnchor":"osm:way/1364817506","canonicalCountryKey":"SS","capacityMw":20.0,"country":"SS","externalIds":{"osm":"way/1364817506"},"geographyId":"SS-48771326B10235544430886","id":"wattlas-plant-osm-way-1364817506","lifecycleCounts":{"operational":1},"locationPrecision":"exact","name":"Juba Solar Power Station","operatingCapacityCoverage":{"coveragePercent":100.0,"knownUnitCount":0,"method":"plant_aggregate","provenance":{"evidenceCount":0,"recordIds":["wattlas-record-osm-way-1364817506"],"sourceIds":["openstreetmap-power"],"sourceTypes":["community_mapped"],"valueKind":"reported"},"totalUnitCount":0},"operatingCapacityMw":20.0,"operatingCapacityMwByTechnology":{"solar":20.0},"plannedCapacityCoverage":{"coveragePercent":0.0,"knownUnitCount":0,"method":"unavailable","totalUnitCount":0},"plannedCapacityMw":0.0,"plannedCapacityMwByTechnology":{},"recordCount":1,"recordIds":["wattlas-record-osm-way-1364817506"],"sourceIds":["openstreetmap-power"],"sourceUrl":"https://www.openstreetmap.org/way/1364817506","technologies":["solar"],"technologyMixMw":{"solar":20.0},"unitCount":0,"unitIds":[]},"type":"Feature"},{"geometry":{"coordinates":[27.967856,7.714932],"type":"Point"},"id":"wattlas-plant-osm-way-939739445","properties":{"aliases":["UN Compound - Wau"],"canonicalAnchor":"osm:way/939739445","canonicalCountryKey":"SS","capacityMw":0.0,"country":"SS","externalIds":{"osm":"way/939739445"},"geographyId":"SS-48771326B76913720880161","id":"wattlas-plant-osm-way-939739445","lifecycleCounts":{"operational":1},"locationPrecision":"exact","name":"UN Compound - Wau","operatingCapacityCoverage":{"coveragePercent":0.0,"knownUnitCount":0,"method":"unavailable","totalUnitCount":0},"operatingCapacityMw":0.0,"operatingCapacityMwByTechnology":{},"plannedCapacityCoverage":{"coveragePercent":0.0,"knownUnitCount":0,"method":"unavailable","totalUnitCount":0},"plannedCapacityMw":0.0,"plannedCapacityMwByTechnology":{},"recordCount":1,"recordIds":["wattlas-record-osm-way-939739445"],"sourceIds":["openstreetmap-power"],"sourceUrl":"https://www.openstreetmap.org/way/939739445","technologies":["oil"],"technologyMixMw":{"oil":0.0},"unitCount":0,"unitIds":[]},"type":"Feature"}],"type":"FeatureCollection"}