{"features":[{"geometry":{"coordinates":[10.054547,36.46247],"type":"Point"},"id":"wattlas-plant-gemplant-l100000406166","properties":{"aliases":["1-1","2-1","3-1","4-1","Bir Mcherga power station"],"canonicalAnchor":"gemplant:L100000406166","canonicalCountryKey":"TN","capacityMw":496.0,"country":"TN","externalIdAliases":{"gemUnit":["G100000407535","G100000407536","G100000407537","G100000407538"]},"externalIds":{"gemPlant":"L100000406166","gemUnit":"G100000407535"},"gemWikiUrl":"https://www.gem.wiki/Bir_Mcherga_power_station","geographyId":"TN-13205935B3129194497982","id":"wattlas-plant-gemplant-l100000406166","lifecycleCounts":{"operational":4},"locationPrecision":"exact","name":"Bir Mcherga power station","operatingCapacityCoverage":{"coveragePercent":100.0,"knownUnitCount":4,"method":"complete_unit_sum","provenance":{"evidenceCount":0,"recordIds":["wattlas-record-gemunit-g100000407535","wattlas-record-gemunit-g100000407536","wattlas-record-gemunit-g100000407537","wattlas-record-gemunit-g100000407538"],"sourceIds":["gem-global-integrated-power-tracker"],"sourceTypes":["research_verified"],"valueKind":"reported"},"totalUnitCount":4},"operatingCapacityMw":496.0,"operatingCapacityMwByTechnology":{"gas":496.0},"plannedCapacityCoverage":{"coveragePercent":0.0,"knownUnitCount":0,"method":"unavailable","totalUnitCount":0},"plannedCapacityMw":0.0,"plannedCapacityMwByTechnology":{},"recordCount":4,"recordIds":["wattlas-record-gemunit-g100000407535","wattlas-record-gemunit-g100000407536","wattlas-record-gemunit-g100000407537","wattlas-record-gemunit-g100000407538"],"sourceIds":["gem-global-integrated-power-tracker"],"sourceUrl":"https://www.gem.wiki/Bir_Mcherga_power_station","technologies":["gas"],"technologyMixMw":{"gas":496.0},"unitCount":4,"unitIds":["gem-unit-G100000407535","gem-unit-G100000407536","gem-unit-G100000407537","gem-unit-G100000407538"]},"type":"Feature"},{"geometry":{"coordinates":[10.0376,33.9181],"type":"Point"},"id":"wattlas-plant-gemplant-l100000406167","properties":{"aliases":["3-1","4-1","5-1","Bouchemma power station"],"canonicalAnchor":"gemplant:L100000406167","canonicalCountryKey":"TN","capacityMw":370.0,"country":"TN","externalIdAliases":{"gemUnit":["G100000407531","G100000407532","G100000407533"]},"externalIds":{"gemPlant":"L100000406167","gemUnit":"G100000407531"},"gemWikiUrl":"https://www.gem.wiki/Bouchemma_power_station","geographyId":"TN-13205935B69181748376292","id":"wattlas-plant-gemplant-l100000406167","lifecycleCounts":{"operational":3},"locationPrecision":"exact","name":"Bouchemma power station","operatingCapacityCoverage":{"coveragePercent":100.0,"knownUnitCount":3,"method":"complete_unit_sum","provenance":{"evidenceCount":0,"recordIds":["wattlas-record-gemunit-g100000407531","wattlas-record-gemunit-g100000407532","wattlas-record-gemunit-g100000407533"],"sourceIds":["gem-global-integrated-power-tracker"],"sourceTypes":["research_verified"],"valueKind":"reported"},"totalUnitCount":3},"operatingCapacityMw":370.0,"operatingCapacityMwByTechnology":{"gas":370.0},"plannedCapacityCoverage":{"coveragePercent":0.0,"knownUnitCount":0,"method":"unavailable","totalUnitCount":0},"plannedCapacityMw":0.0,"plannedCapacityMwByTechnology":{},"recordCount":3,"recordIds":["wattlas-record-gemunit-g100000407531","wattlas-record-gemunit-g100000407532","wattlas-record-gemunit-g100000407533"],"sourceIds":["gem-global-integrated-power-tracker"],"sourceUrl":"https://www.gem.wiki/Bouchemma_power_station","technologies":["gas"],"technologyMixMw":{"gas":370.0},"unitCount":3,"unitIds":["gem-unit-G100000407531","gem-unit-G100000407532","gem-unit-G100000407533"]},"type":"Feature"},{"geometry":{"coordinates":[8.5408,34.9054],"type":"Point"},"id":"wattlas-plant-gemplant-l100000406168","properties":{"aliases":["1-1","2-1","Feriana power station"],"canonicalAnchor":"gemplant:L100000406168","canonicalCountryKey":"TN","capacityMw":240.0,"country":"TN","externalIdAliases":{"gemUnit":["G100000407528","G100000407529"]},"externalIds":{"gemPlant":"L100000406168","gemUnit":"G100000407528"},"gemWikiUrl":"https://www.gem.wiki/Feriana_power_station","geographyId":"TN-13205935B52637504718586","id":"wattlas-plant-gemplant-l100000406168","lifecycleCounts":{"operational":2},"locationPrecision":"exact","name":"Feriana power station","operatingCapacityCoverage":{"coveragePercent":100.0,"knownUnitCount":2,"method":"complete_unit_sum","provenance":{"evidenceCount":0,"recordIds":["wattlas-record-gemunit-g100000407528","wattlas-record-gemunit-g100000407529"],"sourceIds":["gem-global-integrated-power-tracker"],"sourceTypes":["research_verified"],"valueKind":"reported"},"totalUnitCount":2},"operatingCapacityMw":240.0,"operatingCapacityMwByTechnology":{"gas":240.0},"plannedCapacityCoverage":{"coveragePercent":0.0,"knownUnitCount":0,"method":"unavailable","totalUnitCount":0},"plannedCapacityMw":0.0,"plannedCapacityMwByTechnology":{},"recordCount":2,"recordIds":["wattlas-record-gemunit-g100000407528","wattlas-record-gemunit-g100000407529"],"sourceIds":["gem-global-integrated-power-tracker"],"sourceUrl":"https://www.gem.wiki/Feriana_power_station","technologies":["gas"],"technologyMixMw":{"gas":240.0},"unitCount":2,"unitIds":["gem-unit-G100000407528","gem-unit-G100000407529"]},"type":"Feature"},{"geometry":{"coordinates":[10.0932,33.9263],"type":"Point"},"id":"wattlas-plant-gemplant-l100000406169","properties":{"aliases":["1-1","Ghannouch power station"],"canonicalAnchor":"gemplant:L100000406169","canonicalCountryKey":"TN","capacityMw":400.0,"country":"TN","externalIds":{"gemPlant":"L100000406169","gemUnit":"G100000407527"},"gemWikiUrl":"https://www.gem.wiki/Ghannouch_power_station","geographyId":"TN-13205935B69181748376292","id":"wattlas-plant-gemplant-l100000406169","lifecycleCounts":{"operational":1},"locationPrecision":"exact","name":"Ghannouch power station","operatingCapacityCoverage":{"coveragePercent":100.0,"knownUnitCount":1,"method":"complete_unit_sum","provenance":{"evidenceCount":0,"recordIds":["wattlas-record-gemunit-g100000407527"],"sourceIds":["gem-global-integrated-power-tracker"],"sourceTypes":["research_verified"],"valueKind":"reported"},"totalUnitCount":1},"operatingCapacityMw":400.0,"operatingCapacityMwByTechnology":{"gas":400.0},"plannedCapacityCoverage":{"coveragePercent":0.0,"knownUnitCount":0,"method":"unavailable","totalUnitCount":0},"plannedCapacityMw":0.0,"plannedCapacityMwByTechnology":{},"recordCount":1,"recordIds":["wattlas-record-gemunit-g100000407527"],"sourceIds":["gem-global-integrated-power-tracker"],"sourceUrl":"https://www.gem.wiki/Ghannouch_power_station","technologies":["gas"],"technologyMixMw":{"gas":400.0},"unitCount":1,"unitIds":["gem-unit-G100000407527"]},"type":"Feature"},{"geometry":{"coordinates":[9.921053,36.677342],"type":"Point"},"id":"wattlas-plant-gemplant-l100000406174","properties":{"aliases":["1-1","2-1","Mornaguia power station"],"canonicalAnchor":"gemplant:L100000406174","canonicalCountryKey":"TN","capacityMw":624.0,"country":"TN","externalIdAliases":{"gemUnit":["G100000407524","G100000407525"]},"externalIds":{"gemPlant":"L100000406174","gemUnit":"G100000407524"},"gemWikiUrl":"https://www.gem.wiki/Mornaguia_power_station","geographyId":"TN-13205935B47286197858453","id":"wattlas-plant-gemplant-l100000406174","lifecycleCounts":{"operational":2},"locationPrecision":"exact","name":"Mornaguia power station","operatingCapacityCoverage":{"coveragePercent":100.0,"knownUnitCount":2,"method":"complete_unit_sum","provenance":{"evidenceCount":0,"recordIds":["wattlas-record-gemunit-g100000407524","wattlas-record-gemunit-g100000407525"],"sourceIds":["gem-global-integrated-power-tracker"],"sourceTypes":["research_verified"],"valueKind":"reported"},"totalUnitCount":2},"operatingCapacityMw":624.0,"operatingCapacityMwByTechnology":{"gas":624.0},"plannedCapacityCoverage":{"coveragePercent":0.0,"knownUnitCount":0,"method":"unavailable","totalUnitCount":0},"plannedCapacityMw":0.0,"plannedCapacityMwByTechnology":{},"recordCount":2,"recordIds":["wattlas-record-gemunit-g100000407524","wattlas-record-gemunit-g100000407525"],"sourceIds":["gem-global-integrated-power-tracker"],"sourceUrl":"https://www.gem.wiki/Mornaguia_power_station","technologies":["gas"],"technologyMixMw":{"gas":624.0},"unitCount":2,"unitIds":["gem-unit-G100000407524","gem-unit-G100000407525"]},"type":"Feature"},{"geometry":{"coordinates":[10.678426,35.785575],"type":"Point"},"id":"wattlas-plant-gemplant-l100000406177","properties":{"aliases":["1-1","Sousse B power station"],"canonicalAnchor":"gemplant:L100000406177","canonicalCountryKey":"TN","capacityMw":357.0,"country":"TN","externalIds":{"gemPlant":"L100000406177","gemUnit":"G100000407512"},"gemWikiUrl":"https://www.gem.wiki/Sousse_B_power_station","geographyId":"TN-13205935B49970022939178","id":"wattlas-plant-gemplant-l100000406177","lifecycleCounts":{"operational":1},"locationPrecision":"exact","name":"Sousse B power station","operatingCapacityCoverage":{"coveragePercent":100.0,"knownUnitCount":1,"method":"complete_unit_sum","provenance":{"evidenceCount":0,"recordIds":["wattlas-record-gemunit-g100000407512"],"sourceIds":["gem-global-integrated-power-tracker"],"sourceTypes":["research_verified"],"valueKind":"reported"},"totalUnitCount":1},"operatingCapacityMw":357.0,"operatingCapacityMwByTechnology":{"gas":357.0},"plannedCapacityCoverage":{"coveragePercent":0.0,"knownUnitCount":0,"method":"unavailable","totalUnitCount":0},"plannedCapacityMw":0.0,"plannedCapacityMwByTechnology":{},"recordCount":1,"recordIds":["wattlas-record-gemunit-g100000407512"],"sourceIds":["gem-global-integrated-power-tracker"],"sourceUrl":"https://www.gem.wiki/Sousse_B_power_station","technologies":["gas"],"technologyMixMw":{"gas":357.0},"unitCount":1,"unitIds":["gem-unit-G100000407512"]},"type":"Feature"},{"geometry":{"coordinates":[10.677649,35.785913],"type":"Point"},"id":"wattlas-plant-gemplant-l100000406178","properties":{"aliases":["1-1","Sousse C power station"],"canonicalAnchor":"gemplant:L100000406178","canonicalCountryKey":"TN","capacityMw":424.0,"country":"TN","externalIds":{"gemPlant":"L100000406178","gemUnit":"G100000407511"},"gemWikiUrl":"https://www.gem.wiki/Sousse_C_power_station","geographyId":"TN-13205935B49970022939178","id":"wattlas-plant-gemplant-l100000406178","lifecycleCounts":{"operational":1},"locationPrecision":"exact","name":"Sousse C power station","operatingCapacityCoverage":{"coveragePercent":100.0,"knownUnitCount":1,"method":"complete_unit_sum","provenance":{"evidenceCount":0,"recordIds":["wattlas-record-gemunit-g100000407511"],"sourceIds":["gem-global-integrated-power-tracker"],"sourceTypes":["research_verified"],"valueKind":"reported"},"totalUnitCount":1},"operatingCapacityMw":424.0,"operatingCapacityMwByTechnology":{"gas":424.0},"plannedCapacityCoverage":{"coveragePercent":0.0,"knownUnitCount":0,"method":"unavailable","totalUnitCount":0},"plannedCapacityMw":0.0,"plannedCapacityMwByTechnology":{},"recordCount":1,"recordIds":["wattlas-record-gemunit-g100000407511"],"sourceIds":["gem-global-integrated-power-tracker"],"sourceUrl":"https://www.gem.wiki/Sousse_C_power_station","technologies":["gas"],"technologyMixMw":{"gas":424.0},"unitCount":1,"unitIds":["gem-unit-G100000407511"]},"type":"Feature"},{"geometry":{"coordinates":[10.675387,35.787695],"type":"Point"},"id":"wattlas-plant-gemplant-l100000406179","properties":{"aliases":["1-1","Sousse D power station"],"canonicalAnchor":"gemplant:L100000406179","canonicalCountryKey":"TN","capacityMw":424.0,"country":"TN","externalIds":{"gemPlant":"L100000406179","gemUnit":"G100000407510"},"gemWikiUrl":"https://www.gem.wiki/Sousse_D_power_station","geographyId":"TN-13205935B49970022939178","id":"wattlas-plant-gemplant-l100000406179","lifecycleCounts":{"operational":1},"locationPrecision":"exact","name":"Sousse D power station","operatingCapacityCoverage":{"coveragePercent":100.0,"knownUnitCount":1,"method":"complete_unit_sum","provenance":{"evidenceCount":0,"recordIds":["wattlas-record-gemunit-g100000407510"],"sourceIds":["gem-global-integrated-power-tracker"],"sourceTypes":["research_verified"],"valueKind":"reported"},"totalUnitCount":1},"operatingCapacityMw":424.0,"operatingCapacityMwByTechnology":{"gas":424.0},"plannedCapacityCoverage":{"coveragePercent":0.0,"knownUnitCount":0,"method":"unavailable","totalUnitCount":0},"plannedCapacityMw":0.0,"plannedCapacityMwByTechnology":{},"recordCount":1,"recordIds":["wattlas-record-gemunit-g100000407510"],"sourceIds":["gem-global-integrated-power-tracker"],"sourceUrl":"https://www.gem.wiki/Sousse_D_power_station","technologies":["gas"],"technologyMixMw":{"gas":424.0},"unitCount":1,"unitIds":["gem-unit-G100000407510"]},"type":"Feature"},{"geometry":{"coordinates":[10.6424,34.6868],"type":"Point"},"id":"wattlas-plant-gemplant-l100000406180","properties":{"aliases":["1-1","2-1","3-1","Thyna power station"],"canonicalAnchor":"gemplant:L100000406180","canonicalCountryKey":"TN","capacityMw":366.0,"country":"TN","externalIdAliases":{"gemUnit":["G100000407507","G100000407508","G100000407509"]},"externalIds":{"gemPlant":"L100000406180","gemUnit":"G100000407507"},"gemWikiUrl":"https://www.gem.wiki/Thyna_power_station","geographyId":"TN-13205935B27259873852948","id":"wattlas-plant-gemplant-l100000406180","lifecycleCounts":{"operational":3},"locationPrecision":"exact","name":"Thyna power station","operatingCapacityCoverage":{"coveragePercent":100.0,"knownUnitCount":3,"method":"complete_unit_sum","provenance":{"evidenceCount":0,"recordIds":["wattlas-record-gemunit-g100000407507","wattlas-record-gemunit-g100000407508","wattlas-record-gemunit-g100000407509"],"sourceIds":["gem-global-integrated-power-tracker"],"sourceTypes":["research_verified"],"valueKind":"reported"},"totalUnitCount":3},"operatingCapacityMw":366.0,"operatingCapacityMwByTechnology":{"gas":366.0},"plannedCapacityCoverage":{"coveragePercent":0.0,"knownUnitCount":0,"method":"unavailable","totalUnitCount":0},"plannedCapacityMw":0.0,"plannedCapacityMwByTechnology":{},"recordCount":3,"recordIds":["wattlas-record-gemunit-g100000407507","wattlas-record-gemunit-g100000407508","wattlas-record-gemunit-g100000407509"],"sourceIds":["gem-global-integrated-power-tracker"],"sourceUrl":"https://www.gem.wiki/Thyna_power_station","technologies":["gas"],"technologyMixMw":{"gas":366.0},"unitCount":3,"unitIds":["gem-unit-G100000407507","gem-unit-G100000407508","gem-unit-G100000407509"]},"type":"Feature"},{"geometry":{"coordinates":[10.0105,33.8675],"type":"Point"},"id":"wattlas-plant-gemplant-l100000800113","properties":{"aliases":["--","Gabes Sud Solar Plant"],"canonicalAnchor":"gemplant:L100000800113","canonicalCountryKey":"TN","capacityMw":10.0,"country":"TN","externalIds":{"gemPlant":"L100000800113","gemUnit":"G100000800147"},"gemWikiUrl":"https://www.gem.wiki/Gabes_Sud_Solar_Plant","geographyId":"TN-13205935B69181748376292","id":"wattlas-plant-gemplant-l100000800113","lifecycleCounts":{"announced":1},"locationPrecision":"exact","name":"Gabes Sud Solar Plant","operatingCapacityCoverage":{"coveragePercent":0.0,"knownUnitCount":0,"method":"unavailable","totalUnitCount":0},"operatingCapacityMw":0.0,"operatingCapacityMwByTechnology":{},"plannedCapacityCoverage":{"coveragePercent":100.0,"knownUnitCount":1,"method":"complete_unit_sum","provenance":{"evidenceCount":0,"recordIds":["wattlas-record-gemunit-g100000800147"],"sourceIds":["gem-global-integrated-power-tracker"],"sourceTypes":["research_verified"],"valueKind":"reported"},"totalUnitCount":1},"plannedCapacityMw":10.0,"plannedCapacityMwByTechnology":{"solar":10.0},"recordCount":1,"recordIds":["wattlas-record-gemunit-g100000800147"],"sourceIds":["gem-global-integrated-power-tracker"],"sourceUrl":"https://www.gem.wiki/Gabes_Sud_Solar_Plant","technologies":["solar"],"technologyMixMw":{"solar":10.0},"unitCount":1,"unitIds":["gem-unit-G100000800147"]},"type":"Feature"},{"geometry":{"coordinates":[10.134,35.8159],"type":"Point"},"id":"wattlas-plant-gemplant-l100000800154","properties":{"aliases":["--","Kairouan Solar Plant"],"canonicalAnchor":"gemplant:L100000800154","canonicalCountryKey":"TN","capacityMw":120.0,"country":"TN","externalIds":{"gemPlant":"L100000800154","gemUnit":"G100000800193"},"gemWikiUrl":"https://www.gem.wiki/Kairouan_Solar_Plant","geographyId":"TN-13205935B9888826763551","id":"wattlas-plant-gemplant-l100000800154","lifecycleCounts":{"operational":1},"locationPrecision":"exact","name":"Kairouan Solar Plant","operatingCapacityCoverage":{"coveragePercent":100.0,"knownUnitCount":1,"method":"complete_unit_sum","provenance":{"evidenceCount":0,"recordIds":["wattlas-record-gemunit-g100000800193"],"sourceIds":["gem-global-integrated-power-tracker"],"sourceTypes":["research_verified"],"valueKind":"reported"},"totalUnitCount":1},"operatingCapacityMw":120.0,"operatingCapacityMwByTechnology":{"solar":120.0},"plannedCapacityCoverage":{"coveragePercent":0.0,"knownUnitCount":0,"method":"unavailable","totalUnitCount":0},"plannedCapacityMw":0.0,"plannedCapacityMwByTechnology":{},"recordCount":1,"recordIds":["wattlas-record-gemunit-g100000800193"],"sourceIds":["gem-global-integrated-power-tracker"],"sourceUrl":"https://www.gem.wiki/Kairouan_Solar_Plant","technologies":["solar"],"technologyMixMw":{"solar":120.0},"unitCount":1,"unitIds":["gem-unit-G100000800193"]},"type":"Feature"},{"geometry":{"coordinates":[8.5529,34.8891],"type":"Point"},"id":"wattlas-plant-gemplant-l100000800268","properties":{"aliases":["1.0","2.0","Qair Feriana solar farm"],"canonicalAnchor":"gemplant:L100000800268","canonicalCountryKey":"TN","capacityMw":20.0,"country":"TN","externalIdAliases":{"gemUnit":["G100000800320","G100001023417"]},"externalIds":{"gemPlant":"L100000800268","gemUnit":"G100001023417"},"gemWikiUrl":"https://www.gem.wiki/Qair_Feriana_solar_farm","geographyId":"TN-13205935B52637504718586","id":"wattlas-plant-gemplant-l100000800268","lifecycleCounts":{"operational":2},"locationPrecision":"exact","name":"Qair Feriana solar farm","operatingCapacityCoverage":{"coveragePercent":100.0,"knownUnitCount":2,"method":"complete_unit_sum","provenance":{"evidenceCount":0,"recordIds":["wattlas-record-gemunit-g100000800320","wattlas-record-gemunit-g100001023417"],"sourceIds":["gem-global-integrated-power-tracker"],"sourceTypes":["research_verified"],"valueKind":"reported"},"totalUnitCount":2},"operatingCapacityMw":20.0,"operatingCapacityMwByTechnology":{"solar":20.0},"plannedCapacityCoverage":{"coveragePercent":0.0,"knownUnitCount":0,"method":"unavailable","totalUnitCount":0},"plannedCapacityMw":0.0,"plannedCapacityMwByTechnology":{},"recordCount":2,"recordIds":["wattlas-record-gemunit-g100000800320","wattlas-record-gemunit-g100001023417"],"sourceIds":["gem-global-integrated-power-tracker"],"sourceUrl":"https://www.gem.wiki/Qair_Feriana_solar_farm","technologies":["solar"],"technologyMixMw":{"solar":20.0},"unitCount":2,"unitIds":["gem-unit-G100000800320","gem-unit-G100001023417"]},"type":"Feature"},{"geometry":{"coordinates":[8.0467,33.9081],"type":"Point"},"id":"wattlas-plant-gemplant-l100000800337","properties":{"aliases":["1.0","2.0","Tozeur (Tunisian Electicity And Gas Co) solar farm"],"canonicalAnchor":"gemplant:L100000800337","canonicalCountryKey":"TN","capacityMw":20.0,"country":"TN","externalIdAliases":{"gemUnit":["G100000800409","G100000800410"]},"externalIds":{"gemPlant":"L100000800337","gemUnit":"G100000800410"},"gemWikiUrl":"https://www.gem.wiki/Tozeur_(Tunisian_Electicity_And_Gas_Co)_solar_farm","geographyId":"TN-13205935B95771050896452","id":"wattlas-plant-gemplant-l100000800337","lifecycleCounts":{"operational":2},"locationPrecision":"exact","name":"Tozeur (Tunisian Electicity And Gas Co) solar farm","operatingCapacityCoverage":{"coveragePercent":100.0,"knownUnitCount":2,"method":"complete_unit_sum","provenance":{"evidenceCount":0,"recordIds":["wattlas-record-gemunit-g100000800409","wattlas-record-gemunit-g100000800410"],"sourceIds":["gem-global-integrated-power-tracker"],"sourceTypes":["research_verified"],"valueKind":"reported"},"totalUnitCount":2},"operatingCapacityMw":20.0,"operatingCapacityMwByTechnology":{"solar":20.0},"plannedCapacityCoverage":{"coveragePercent":0.0,"knownUnitCount":0,"method":"unavailable","totalUnitCount":0},"plannedCapacityMw":0.0,"plannedCapacityMwByTechnology":{},"recordCount":2,"recordIds":["wattlas-record-gemunit-g100000800409","wattlas-record-gemunit-g100000800410"],"sourceIds":["gem-global-integrated-power-tracker"],"sourceUrl":"https://www.gem.wiki/Tozeur_(Tunisian_Electicity_And_Gas_Co)_solar_farm","technologies":["solar"],"technologyMixMw":{"solar":20.0},"unitCount":2,"unitIds":["gem-unit-G100000800409","gem-unit-G100000800410"]},"type":"Feature"},{"geometry":{"coordinates":[10.4638,33.0504],"type":"Point"},"id":"wattlas-plant-gemplant-l100000811679","properties":{"aliases":["--","Elgordhab solar farm"],"canonicalAnchor":"gemplant:L100000811679","canonicalCountryKey":"TN","capacityMw":16.4,"country":"TN","externalIds":{"gemPlant":"L100000811679","gemUnit":"G100000814238"},"gemWikiUrl":"https://www.gem.wiki/Elgordhab_solar_farm","geographyId":"TN-13205935B85172640982228","id":"wattlas-plant-gemplant-l100000811679","lifecycleCounts":{"operational":1},"locationPrecision":"exact","name":"Elgordhab solar farm","operatingCapacityCoverage":{"coveragePercent":100.0,"knownUnitCount":1,"method":"complete_unit_sum","provenance":{"evidenceCount":0,"recordIds":["wattlas-record-gemunit-g100000814238"],"sourceIds":["gem-global-integrated-power-tracker"],"sourceTypes":["research_verified"],"valueKind":"reported"},"totalUnitCount":1},"operatingCapacityMw":16.4,"operatingCapacityMwByTechnology":{"solar":16.4},"plannedCapacityCoverage":{"coveragePercent":0.0,"knownUnitCount":0,"method":"unavailable","totalUnitCount":0},"plannedCapacityMw":0.0,"plannedCapacityMwByTechnology":{},"recordCount":1,"recordIds":["wattlas-record-gemunit-g100000814238"],"sourceIds":["gem-global-integrated-power-tracker"],"sourceUrl":"https://www.gem.wiki/Elgordhab_solar_farm","technologies":["solar"],"technologyMixMw":{"solar":16.4},"unitCount":1,"unitIds":["gem-unit-G100000814238"]},"type":"Feature"},{"geometry":{"coordinates":[9.0253,33.4574],"type":"Point"},"id":"wattlas-plant-gemplant-l100000811681","properties":{"aliases":["PV-1","Solar Thermal-1","Solar Thermal-2","TuNur solar farm"],"canonicalAnchor":"gemplant:L100000811681","canonicalCountryKey":"TN","capacityMw":4500.0,"country":"TN","externalIdAliases":{"gemUnit":["G100000814241","G100000814242","G100000814243"]},"externalIds":{"gemPlant":"L100000811681","gemUnit":"G100000814243"},"gemWikiUrl":"https://www.gem.wiki/TuNur_solar_farm","geographyId":"TN-13205935B11721331776240","id":"wattlas-plant-gemplant-l100000811681","lifecycleCounts":{"under_construction":3},"locationPrecision":"exact","name":"TuNur solar farm","operatingCapacityCoverage":{"coveragePercent":0.0,"knownUnitCount":0,"method":"unavailable","totalUnitCount":0},"operatingCapacityMw":0.0,"operatingCapacityMwByTechnology":{},"plannedCapacityCoverage":{"coveragePercent":100.0,"knownUnitCount":3,"method":"complete_unit_sum","provenance":{"evidenceCount":0,"recordIds":["wattlas-record-gemunit-g100000814241","wattlas-record-gemunit-g100000814242","wattlas-record-gemunit-g100000814243"],"sourceIds":["gem-global-integrated-power-tracker"],"sourceTypes":["research_verified"],"valueKind":"reported"},"totalUnitCount":3},"plannedCapacityMw":4500.0,"plannedCapacityMwByTechnology":{"solar":4500.0},"recordCount":3,"recordIds":["wattlas-record-gemunit-g100000814241","wattlas-record-gemunit-g100000814242","wattlas-record-gemunit-g100000814243"],"sourceIds":["gem-global-integrated-power-tracker"],"sourceUrl":"https://www.gem.wiki/TuNur_solar_farm","technologies":["solar"],"technologyMixMw":{"solar":4500.0},"unitCount":3,"unitIds":["gem-unit-G100000814241","gem-unit-G100000814242","gem-unit-G100000814243"]},"type":"Feature"},{"geometry":{"coordinates":[10.0309,31.399],"type":"Point"},"id":"wattlas-plant-gemplant-l100000827746","properties":{"aliases":["--","Adam solar project"],"canonicalAnchor":"gemplant:L100000827746","canonicalCountryKey":"TN","capacityMw":4.8,"country":"TN","externalIds":{"gemPlant":"L100000827746","gemUnit":"G100000831297"},"gemWikiUrl":"https://www.gem.wiki/Adam_solar_project","geographyId":"TN-13205935B85172640982228","id":"wattlas-plant-gemplant-l100000827746","lifecycleCounts":{"operational":1},"locationPrecision":"exact","name":"Adam solar project","operatingCapacityCoverage":{"coveragePercent":100.0,"knownUnitCount":1,"method":"complete_unit_sum","provenance":{"evidenceCount":0,"recordIds":["wattlas-record-gemunit-g100000831297"],"sourceIds":["gem-global-integrated-power-tracker"],"sourceTypes":["research_verified"],"valueKind":"reported"},"totalUnitCount":1},"operatingCapacityMw":4.8,"operatingCapacityMwByTechnology":{"solar":4.8},"plannedCapacityCoverage":{"coveragePercent":0.0,"knownUnitCount":0,"method":"unavailable","totalUnitCount":0},"plannedCapacityMw":0.0,"plannedCapacityMwByTechnology":{},"recordCount":1,"recordIds":["wattlas-record-gemunit-g100000831297"],"sourceIds":["gem-global-integrated-power-tracker"],"sourceUrl":"https://www.gem.wiki/Adam_solar_project","technologies":["solar"],"technologyMixMw":{"solar":4.8},"unitCount":1,"unitIds":["gem-unit-G100000831297"]},"type":"Feature"},{"geometry":{"coordinates":[9.6095,34.2382],"type":"Point"},"id":"wattlas-plant-gemplant-l100000827749","properties":{"aliases":["--","Voltalia-Menzel Habib solar farm"],"canonicalAnchor":"gemplant:L100000827749","canonicalCountryKey":"TN","capacityMw":139.0,"country":"TN","externalIds":{"gemPlant":"L100000827749","gemUnit":"G100000831300"},"gemWikiUrl":"https://www.gem.wiki/STEG_solar_farm_1","geographyId":"TN-13205935B69181748376292","id":"wattlas-plant-gemplant-l100000827749","lifecycleCounts":{"announced":1},"locationPrecision":"exact","name":"Voltalia-Menzel Habib solar farm","operatingCapacityCoverage":{"coveragePercent":0.0,"knownUnitCount":0,"method":"unavailable","totalUnitCount":0},"operatingCapacityMw":0.0,"operatingCapacityMwByTechnology":{},"plannedCapacityCoverage":{"coveragePercent":100.0,"knownUnitCount":1,"method":"complete_unit_sum","provenance":{"evidenceCount":0,"recordIds":["wattlas-record-gemunit-g100000831300"],"sourceIds":["gem-global-integrated-power-tracker"],"sourceTypes":["research_verified"],"valueKind":"reported"},"totalUnitCount":1},"plannedCapacityMw":139.0,"plannedCapacityMwByTechnology":{"solar":139.0},"recordCount":1,"recordIds":["wattlas-record-gemunit-g100000831300"],"sourceIds":["gem-global-integrated-power-tracker"],"sourceUrl":"https://www.gem.wiki/STEG_solar_farm_1","technologies":["solar"],"technologyMixMw":{"solar":139.0},"unitCount":1,"unitIds":["gem-unit-G100000831300"]},"type":"Feature"},{"geometry":{"coordinates":[10.061,37.1946],"type":"Point"},"id":"wattlas-plant-gemplant-l100000900053","properties":{"aliases":["1-1","2.0","Sidi Daoud wind farm","clone of 1-2"],"canonicalAnchor":"gemplant:L100000900053","canonicalCountryKey":"TN","capacityMw":86.5,"country":"TN","externalIdAliases":{"gemUnit":["G100000900069","G100000927430","G100001073267"]},"externalIds":{"gemPlant":"L100000900053","gemUnit":"G100001073267"},"gemWikiUrl":"https://www.gem.wiki/Sidi_Daoud_wind_farm","geographyId":"TN-13205935B29646166511918","id":"wattlas-plant-gemplant-l100000900053","lifecycleCounts":{"announced":1,"operational":2},"locationPrecision":"exact","name":"Sidi Daoud wind farm","operatingCapacityCoverage":{"coveragePercent":100.0,"knownUnitCount":2,"method":"complete_unit_sum","provenance":{"evidenceCount":0,"recordIds":["wattlas-record-gemunit-g100000900069","wattlas-record-gemunit-g100000927430"],"sourceIds":["gem-global-integrated-power-tracker"],"sourceTypes":["research_verified"],"valueKind":"reported"},"totalUnitCount":2},"operatingCapacityMw":65.0,"operatingCapacityMwByTechnology":{"wind":65.0},"plannedCapacityCoverage":{"coveragePercent":100.0,"knownUnitCount":1,"method":"complete_unit_sum","provenance":{"evidenceCount":0,"recordIds":["wattlas-record-gemunit-g100001073267"],"sourceIds":["gem-global-integrated-power-tracker"],"sourceTypes":["research_verified"],"valueKind":"reported"},"totalUnitCount":1},"plannedCapacityMw":21.5,"plannedCapacityMwByTechnology":{"wind":21.5},"recordCount":3,"recordIds":["wattlas-record-gemunit-g100000900069","wattlas-record-gemunit-g100000927430","wattlas-record-gemunit-g100001073267"],"sourceIds":["gem-global-integrated-power-tracker"],"sourceUrl":"https://www.gem.wiki/Sidi_Daoud_wind_farm","technologies":["wind"],"technologyMixMw":{"wind":86.5},"unitCount":3,"unitIds":["gem-unit-G100000900069","gem-unit-G100000927430","gem-unit-G100001073267"]},"type":"Feature"},{"geometry":{"coordinates":[10.1448,37.1557],"type":"Point"},"id":"wattlas-plant-gemplant-l100000900054","properties":{"aliases":["1.0","2.0","Bizerte Métline wind farm"],"canonicalAnchor":"gemplant:L100000900054","canonicalCountryKey":"TN","capacityMw":94.0,"country":"TN","externalIdAliases":{"gemUnit":["G100000900071","G100000900072"]},"externalIds":{"gemPlant":"L100000900054","gemUnit":"G100000900072"},"gemWikiUrl":"https://www.gem.wiki/Bizerte_Métline_wind_farm","geographyId":"TN-13205935B29646166511918","id":"wattlas-plant-gemplant-l100000900054","lifecycleCounts":{"operational":2},"locationPrecision":"exact","name":"Bizerte Métline wind farm","operatingCapacityCoverage":{"coveragePercent":100.0,"knownUnitCount":2,"method":"complete_unit_sum","provenance":{"evidenceCount":0,"recordIds":["wattlas-record-gemunit-g100000900071","wattlas-record-gemunit-g100000900072"],"sourceIds":["gem-global-integrated-power-tracker"],"sourceTypes":["research_verified"],"valueKind":"reported"},"totalUnitCount":2},"operatingCapacityMw":94.0,"operatingCapacityMwByTechnology":{"wind":94.0},"plannedCapacityCoverage":{"coveragePercent":0.0,"knownUnitCount":0,"method":"unavailable","totalUnitCount":0},"plannedCapacityMw":0.0,"plannedCapacityMwByTechnology":{},"recordCount":2,"recordIds":["wattlas-record-gemunit-g100000900071","wattlas-record-gemunit-g100000900072"],"sourceIds":["gem-global-integrated-power-tracker"],"sourceUrl":"https://www.gem.wiki/Bizerte_Métline_wind_farm","technologies":["wind"],"technologyMixMw":{"wind":94.0},"unitCount":2,"unitIds":["gem-unit-G100000900071","gem-unit-G100000900072"]},"type":"Feature"},{"geometry":{"coordinates":[9.8669,37.0856],"type":"Point"},"id":"wattlas-plant-gemplant-l100000900055","properties":{"aliases":["1.0","2.0","Bizerte Kchabta wind farm"],"canonicalAnchor":"gemplant:L100000900055","canonicalCountryKey":"TN","capacityMw":94.0,"country":"TN","externalIdAliases":{"gemUnit":["G100000900073","G100000900074"]},"externalIds":{"gemPlant":"L100000900055","gemUnit":"G100000900074"},"gemWikiUrl":"https://www.gem.wiki/Bizerte_Kchabta_wind_farm","geographyId":"TN-13205935B29646166511918","id":"wattlas-plant-gemplant-l100000900055","lifecycleCounts":{"operational":2},"locationPrecision":"exact","name":"Bizerte Kchabta wind farm","operatingCapacityCoverage":{"coveragePercent":100.0,"knownUnitCount":2,"method":"complete_unit_sum","provenance":{"evidenceCount":0,"recordIds":["wattlas-record-gemunit-g100000900073","wattlas-record-gemunit-g100000900074"],"sourceIds":["gem-global-integrated-power-tracker"],"sourceTypes":["research_verified"],"valueKind":"reported"},"totalUnitCount":2},"operatingCapacityMw":94.0,"operatingCapacityMwByTechnology":{"wind":94.0},"plannedCapacityCoverage":{"coveragePercent":0.0,"knownUnitCount":0,"method":"unavailable","totalUnitCount":0},"plannedCapacityMw":0.0,"plannedCapacityMwByTechnology":{},"recordCount":2,"recordIds":["wattlas-record-gemunit-g100000900073","wattlas-record-gemunit-g100000900074"],"sourceIds":["gem-global-integrated-power-tracker"],"sourceUrl":"https://www.gem.wiki/Bizerte_Kchabta_wind_farm","technologies":["wind"],"technologyMixMw":{"wind":94.0},"unitCount":2,"unitIds":["gem-unit-G100000900073","gem-unit-G100000900074"]},"type":"Feature"},{"geometry":{"coordinates":[10.3512,36.0826],"type":"Point"},"id":"wattlas-plant-gemplant-l100001020880","properties":{"aliases":["--","Enfidha solar project"],"canonicalAnchor":"gemplant:L100001020880","canonicalCountryKey":"TN","capacityMw":1.4,"country":"TN","externalIds":{"gemPlant":"L100001020880","gemUnit":"G100001023849"},"gemWikiUrl":"https://www.gem.wiki/Enfidha_solar_project","geographyId":"TN-13205935B49970022939178","id":"wattlas-plant-gemplant-l100001020880","lifecycleCounts":{"operational":1},"locationPrecision":"exact","name":"Enfidha solar project","operatingCapacityCoverage":{"coveragePercent":100.0,"knownUnitCount":1,"method":"complete_unit_sum","provenance":{"evidenceCount":0,"recordIds":["wattlas-record-gemunit-g100001023849"],"sourceIds":["gem-global-integrated-power-tracker"],"sourceTypes":["research_verified"],"valueKind":"reported"},"totalUnitCount":1},"operatingCapacityMw":1.4,"operatingCapacityMwByTechnology":{"solar":1.4},"plannedCapacityCoverage":{"coveragePercent":0.0,"knownUnitCount":0,"method":"unavailable","totalUnitCount":0},"plannedCapacityMw":0.0,"plannedCapacityMwByTechnology":{},"recordCount":1,"recordIds":["wattlas-record-gemunit-g100001023849"],"sourceIds":["gem-global-integrated-power-tracker"],"sourceUrl":"https://www.gem.wiki/Enfidha_solar_project","technologies":["solar"],"technologyMixMw":{"solar":1.4},"unitCount":1,"unitIds":["gem-unit-G100001023849"]},"type":"Feature"},{"geometry":{"coordinates":[10.705833,34.808412],"type":"Point"},"id":"wattlas-plant-gemplant-l100001045933","properties":{"aliases":["2-1","Sfax power station"],"canonicalAnchor":"gemplant:L100001045933","canonicalCountryKey":"TN","capacityMw":0.0,"country":"TN","externalIds":{"gemPlant":"L100001045933","gemUnit":"G100001051785"},"gemWikiUrl":"https://www.gem.wiki/Sfax_power_station","geographyId":"TN-13205935B27259873852948","id":"wattlas-plant-gemplant-l100001045933","lifecycleCounts":{"cancelled":1},"locationPrecision":"exact","name":"Sfax power station","operatingCapacityCoverage":{"coveragePercent":0.0,"knownUnitCount":0,"method":"unavailable","totalUnitCount":0},"operatingCapacityMw":0.0,"operatingCapacityMwByTechnology":{},"plannedCapacityCoverage":{"coveragePercent":0.0,"knownUnitCount":0,"method":"unavailable","totalUnitCount":0},"plannedCapacityMw":0.0,"plannedCapacityMwByTechnology":{},"recordCount":1,"recordIds":["wattlas-record-gemunit-g100001051785"],"sourceIds":["gem-global-integrated-power-tracker"],"sourceUrl":"https://www.gem.wiki/Sfax_power_station","technologies":["gas"],"technologyMixMw":{"gas":0.0},"unitCount":1,"unitIds":["gem-unit-G100001051785"]},"type":"Feature"},{"geometry":{"coordinates":[9.397,36.59001],"type":"Point"},"id":"wattlas-plant-gemplant-l100001054873","properties":{"aliases":["Sidi Salem hydroelectric plant"],"canonicalAnchor":"gemplant:L100001054873","canonicalCountryKey":"TN","capacityMw":25.0,"country":"TN","externalIds":{"gemPlant":"L100001054873","gemUnit":"G100001062765"},"gemWikiUrl":"https://www.gem.wiki/Sidi_Salem_hydroelectric_plant","geographyId":"TN-13205935B67114336122672","id":"wattlas-plant-gemplant-l100001054873","lifecycleCounts":{"operational":1},"locationPrecision":"exact","name":"Sidi Salem hydroelectric plant","operatingCapacityCoverage":{"coveragePercent":100.0,"knownUnitCount":1,"method":"complete_unit_sum","provenance":{"evidenceCount":0,"recordIds":["wattlas-record-gemunit-g100001062765"],"sourceIds":["gem-global-integrated-power-tracker"],"sourceTypes":["research_verified"],"valueKind":"reported"},"totalUnitCount":1},"operatingCapacityMw":25.0,"operatingCapacityMwByTechnology":{"hydro":25.0},"plannedCapacityCoverage":{"coveragePercent":0.0,"knownUnitCount":0,"method":"unavailable","totalUnitCount":0},"plannedCapacityMw":0.0,"plannedCapacityMwByTechnology":{},"recordCount":1,"recordIds":["wattlas-record-gemunit-g100001062765"],"sourceIds":["gem-global-integrated-power-tracker"],"sourceUrl":"https://www.gem.wiki/Sidi_Salem_hydroelectric_plant","technologies":["hydro"],"technologyMixMw":{"hydro":25.0},"unitCount":1,"unitIds":["gem-unit-G100001062765"]},"type":"Feature"},{"geometry":{"coordinates":[10.065768,37.204421],"type":"Point"},"id":"wattlas-plant-osm-relation-11373865","properties":{"aliases":["Parc éolien de Metline"],"canonicalAnchor":"osm:relation/11373865","canonicalCountryKey":"TN","capacityMw":95.04,"country":"TN","externalIds":{"osm":"relation/11373865"},"geographyId":"TN-13205935B29646166511918","id":"wattlas-plant-osm-relation-11373865","lifecycleCounts":{"operational":1},"locationPrecision":"exact","name":"Parc éolien de Metline","operatingCapacityCoverage":{"coveragePercent":100.0,"knownUnitCount":0,"method":"plant_aggregate","provenance":{"evidenceCount":0,"recordIds":["wattlas-record-osm-relation-11373865"],"sourceIds":["openstreetmap-power"],"sourceTypes":["community_mapped"],"valueKind":"reported"},"totalUnitCount":0},"operatingCapacityMw":95.04,"operatingCapacityMwByTechnology":{"wind":95.04},"plannedCapacityCoverage":{"coveragePercent":0.0,"knownUnitCount":0,"method":"unavailable","totalUnitCount":0},"plannedCapacityMw":0.0,"plannedCapacityMwByTechnology":{},"recordCount":1,"recordIds":["wattlas-record-osm-relation-11373865"],"sourceIds":["openstreetmap-power"],"sourceUrl":"https://www.openstreetmap.org/relation/11373865","technologies":["wind"],"technologyMixMw":{"wind":95.04},"unitCount":0,"unitIds":[]},"type":"Feature"},{"geometry":{"coordinates":[9.917565,37.113702],"type":"Point"},"id":"wattlas-plant-osm-relation-11373866","properties":{"aliases":["Parc éolien de Kchabta"],"canonicalAnchor":"osm:relation/11373866","canonicalCountryKey":"TN","capacityMw":93.72,"country":"TN","externalIds":{"osm":"relation/11373866"},"geographyId":"TN-13205935B29646166511918","id":"wattlas-plant-osm-relation-11373866","lifecycleCounts":{"operational":1},"locationPrecision":"exact","name":"Parc éolien de Kchabta","operatingCapacityCoverage":{"coveragePercent":100.0,"knownUnitCount":0,"method":"plant_aggregate","provenance":{"evidenceCount":0,"recordIds":["wattlas-record-osm-relation-11373866"],"sourceIds":["openstreetmap-power"],"sourceTypes":["community_mapped"],"valueKind":"reported"},"totalUnitCount":0},"operatingCapacityMw":93.72,"operatingCapacityMwByTechnology":{"wind":93.72},"plannedCapacityCoverage":{"coveragePercent":0.0,"knownUnitCount":0,"method":"unavailable","totalUnitCount":0},"plannedCapacityMw":0.0,"plannedCapacityMwByTechnology":{},"recordCount":1,"recordIds":["wattlas-record-osm-relation-11373866"],"sourceIds":["openstreetmap-power"],"sourceUrl":"https://www.openstreetmap.org/relation/11373866","technologies":["wind"],"technologyMixMw":{"wind":93.72},"unitCount":0,"unitIds":[]},"type":"Feature"},{"geometry":{"coordinates":[8.04386,33.907891],"type":"Point"},"id":"wattlas-plant-osm-way-1202071935","properties":{"aliases":["Centrale Photovoltaïque de Tozeur (Phase 2)"],"canonicalAnchor":"osm:way/1202071935","canonicalCountryKey":"TN","capacityMw":10.0,"country":"TN","externalIds":{"osm":"way/1202071935"},"geographyId":"TN-13205935B95771050896452","id":"wattlas-plant-osm-way-1202071935","lifecycleCounts":{"operational":1},"locationPrecision":"exact","name":"Centrale Photovoltaïque de Tozeur (Phase 2)","operatingCapacityCoverage":{"coveragePercent":100.0,"knownUnitCount":0,"method":"plant_aggregate","provenance":{"evidenceCount":0,"recordIds":["wattlas-record-osm-way-1202071935"],"sourceIds":["openstreetmap-power"],"sourceTypes":["community_mapped"],"valueKind":"reported"},"totalUnitCount":0},"operatingCapacityMw":10.0,"operatingCapacityMwByTechnology":{"solar":10.0},"plannedCapacityCoverage":{"coveragePercent":0.0,"knownUnitCount":0,"method":"unavailable","totalUnitCount":0},"plannedCapacityMw":0.0,"plannedCapacityMwByTechnology":{},"recordCount":1,"recordIds":["wattlas-record-osm-way-1202071935"],"sourceIds":["openstreetmap-power"],"sourceUrl":"https://www.openstreetmap.org/way/1202071935","technologies":["solar"],"technologyMixMw":{"solar":10.0},"unitCount":0,"unitIds":[]},"type":"Feature"},{"geometry":{"coordinates":[10.064928,31.001157],"type":"Point"},"id":"wattlas-plant-osm-way-1215158630","properties":{"aliases":["Nawara Gas CPF"],"canonicalAnchor":"osm:way/1215158630","canonicalCountryKey":"TN","capacityMw":0.0,"country":"TN","externalIds":{"osm":"way/1215158630"},"geographyId":"TN-13205935B85172640982228","id":"wattlas-plant-osm-way-1215158630","lifecycleCounts":{"operational":1},"locationPrecision":"exact","name":"Nawara Gas CPF","operatingCapacityCoverage":{"coveragePercent":0.0,"knownUnitCount":0,"method":"unavailable","totalUnitCount":0},"operatingCapacityMw":0.0,"operatingCapacityMwByTechnology":{},"plannedCapacityCoverage":{"coveragePercent":0.0,"knownUnitCount":0,"method":"unavailable","totalUnitCount":0},"plannedCapacityMw":0.0,"plannedCapacityMwByTechnology":{},"recordCount":1,"recordIds":["wattlas-record-osm-way-1215158630"],"sourceIds":["openstreetmap-power"],"sourceUrl":"https://www.openstreetmap.org/way/1215158630","technologies":["gas"],"technologyMixMw":{"gas":0.0},"unitCount":0,"unitIds":[]},"type":"Feature"},{"geometry":{"coordinates":[10.829422,36.580905],"type":"Point"},"id":"wattlas-plant-osm-way-208448967","properties":{"aliases":["Centrale électrique de Korba 1"],"canonicalAnchor":"osm:way/208448967","canonicalCountryKey":"TN","capacityMw":56.0,"country":"TN","externalIds":{"osm":"way/208448967"},"geographyId":"TN-13205935B21712567795690","id":"wattlas-plant-osm-way-208448967","lifecycleCounts":{"operational":1},"locationPrecision":"exact","name":"Centrale électrique de Korba 1","operatingCapacityCoverage":{"coveragePercent":100.0,"knownUnitCount":0,"method":"plant_aggregate","provenance":{"evidenceCount":0,"recordIds":["wattlas-record-osm-way-208448967"],"sourceIds":["openstreetmap-power"],"sourceTypes":["community_mapped"],"valueKind":"reported"},"totalUnitCount":0},"operatingCapacityMw":56.0,"operatingCapacityMwByTechnology":{"gas":56.0},"plannedCapacityCoverage":{"coveragePercent":0.0,"knownUnitCount":0,"method":"unavailable","totalUnitCount":0},"plannedCapacityMw":0.0,"plannedCapacityMwByTechnology":{},"recordCount":1,"recordIds":["wattlas-record-osm-way-208448967"],"sourceIds":["openstreetmap-power"],"sourceUrl":"https://www.openstreetmap.org/way/208448967","technologies":["gas"],"technologyMixMw":{"gas":56.0},"unitCount":0,"unitIds":[]},"type":"Feature"},{"geometry":{"coordinates":[8.049128,33.908355],"type":"Point"},"id":"wattlas-plant-osm-way-688579835","properties":{"aliases":["Centrale Photovoltaïque de Tozeur (Phase 1)"],"canonicalAnchor":"osm:way/688579835","canonicalCountryKey":"TN","capacityMw":10.0,"country":"TN","externalIds":{"osm":"way/688579835"},"geographyId":"TN-13205935B95771050896452","id":"wattlas-plant-osm-way-688579835","lifecycleCounts":{"operational":1},"locationPrecision":"exact","name":"Centrale Photovoltaïque de Tozeur (Phase 1)","operatingCapacityCoverage":{"coveragePercent":100.0,"knownUnitCount":0,"method":"plant_aggregate","provenance":{"evidenceCount":0,"recordIds":["wattlas-record-osm-way-688579835"],"sourceIds":["openstreetmap-power"],"sourceTypes":["community_mapped"],"valueKind":"reported"},"totalUnitCount":0},"operatingCapacityMw":10.0,"operatingCapacityMwByTechnology":{"solar":10.0},"plannedCapacityCoverage":{"coveragePercent":0.0,"knownUnitCount":0,"method":"unavailable","totalUnitCount":0},"plannedCapacityMw":0.0,"plannedCapacityMwByTechnology":{},"recordCount":1,"recordIds":["wattlas-record-osm-way-688579835"],"sourceIds":["openstreetmap-power"],"sourceUrl":"https://www.openstreetmap.org/way/688579835","technologies":["solar"],"technologyMixMw":{"solar":10.0},"unitCount":0,"unitIds":[]},"type":"Feature"},{"geometry":{"coordinates":[9.800678,37.148202],"type":"Point"},"id":"wattlas-plant-osm-way-833217483","properties":{"aliases":["Centrale électrique de Menzel Bourguiba"],"canonicalAnchor":"osm:way/833217483","canonicalCountryKey":"TN","capacityMw":44.0,"country":"TN","externalIds":{"osm":"way/833217483"},"geographyId":"TN-13205935B29646166511918","id":"wattlas-plant-osm-way-833217483","lifecycleCounts":{"operational":1},"locationPrecision":"exact","name":"Centrale électrique de Menzel Bourguiba","operatingCapacityCoverage":{"coveragePercent":100.0,"knownUnitCount":0,"method":"plant_aggregate","provenance":{"evidenceCount":0,"recordIds":["wattlas-record-osm-way-833217483"],"sourceIds":["openstreetmap-power"],"sourceTypes":["community_mapped"],"valueKind":"reported"},"totalUnitCount":0},"operatingCapacityMw":44.0,"operatingCapacityMwByTechnology":{"gas":44.0},"plannedCapacityCoverage":{"coveragePercent":0.0,"knownUnitCount":0,"method":"unavailable","totalUnitCount":0},"plannedCapacityMw":0.0,"plannedCapacityMwByTechnology":{},"recordCount":1,"recordIds":["wattlas-record-osm-way-833217483"],"sourceIds":["openstreetmap-power"],"sourceUrl":"https://www.openstreetmap.org/way/833217483","technologies":["gas"],"technologyMixMw":{"gas":44.0},"unitCount":0,"unitIds":[]},"type":"Feature"},{"geometry":{"coordinates":[8.770743,35.203067],"type":"Point"},"id":"wattlas-plant-osm-way-833217484","properties":{"aliases":["Centrale électrique de Kasserine Nord"],"canonicalAnchor":"osm:way/833217484","canonicalCountryKey":"TN","capacityMw":68.0,"country":"TN","externalIds":{"osm":"way/833217484"},"geographyId":"TN-13205935B52637504718586","id":"wattlas-plant-osm-way-833217484","lifecycleCounts":{"operational":1},"locationPrecision":"exact","name":"Centrale électrique de Kasserine Nord","operatingCapacityCoverage":{"coveragePercent":100.0,"knownUnitCount":0,"method":"plant_aggregate","provenance":{"evidenceCount":0,"recordIds":["wattlas-record-osm-way-833217484"],"sourceIds":["openstreetmap-power"],"sourceTypes":["community_mapped"],"valueKind":"reported"},"totalUnitCount":0},"operatingCapacityMw":68.0,"operatingCapacityMwByTechnology":{"gas":68.0},"plannedCapacityCoverage":{"coveragePercent":0.0,"knownUnitCount":0,"method":"unavailable","totalUnitCount":0},"plannedCapacityMw":0.0,"plannedCapacityMwByTechnology":{},"recordCount":1,"recordIds":["wattlas-record-osm-way-833217484"],"sourceIds":["openstreetmap-power"],"sourceUrl":"https://www.openstreetmap.org/way/833217484","technologies":["gas"],"technologyMixMw":{"gas":68.0},"unitCount":0,"unitIds":[]},"type":"Feature"},{"geometry":{"coordinates":[10.080752,33.923584],"type":"Point"},"id":"wattlas-plant-osm-way-833217486","properties":{"aliases":["Centrale électrique de Ghannouch"],"canonicalAnchor":"osm:way/833217486","canonicalCountryKey":"TN","capacityMw":44.0,"country":"TN","externalIds":{"osm":"way/833217486"},"geographyId":"TN-13205935B69181748376292","id":"wattlas-plant-osm-way-833217486","lifecycleCounts":{"operational":1},"locationPrecision":"exact","name":"Centrale électrique de Ghannouch","operatingCapacityCoverage":{"coveragePercent":100.0,"knownUnitCount":0,"method":"plant_aggregate","provenance":{"evidenceCount":0,"recordIds":["wattlas-record-osm-way-833217486"],"sourceIds":["openstreetmap-power"],"sourceTypes":["community_mapped"],"valueKind":"reported"},"totalUnitCount":0},"operatingCapacityMw":44.0,"operatingCapacityMwByTechnology":{"gas":44.0},"plannedCapacityCoverage":{"coveragePercent":0.0,"knownUnitCount":0,"method":"unavailable","totalUnitCount":0},"plannedCapacityMw":0.0,"plannedCapacityMwByTechnology":{},"recordCount":1,"recordIds":["wattlas-record-osm-way-833217486"],"sourceIds":["openstreetmap-power"],"sourceUrl":"https://www.openstreetmap.org/way/833217486","technologies":["gas"],"technologyMixMw":{"gas":44.0},"unitCount":0,"unitIds":[]},"type":"Feature"},{"geometry":{"coordinates":[8.424569,34.313718],"type":"Point"},"id":"wattlas-plant-osm-way-833217488","properties":{"aliases":["Centrale électrique de Metlaoui"],"canonicalAnchor":"osm:way/833217488","canonicalCountryKey":"TN","capacityMw":22.0,"country":"TN","externalIds":{"osm":"way/833217488"},"geographyId":"TN-13205935B54080015312342","id":"wattlas-plant-osm-way-833217488","lifecycleCounts":{"operational":1},"locationPrecision":"exact","name":"Centrale électrique de Metlaoui","operatingCapacityCoverage":{"coveragePercent":100.0,"knownUnitCount":0,"method":"plant_aggregate","provenance":{"evidenceCount":0,"recordIds":["wattlas-record-osm-way-833217488"],"sourceIds":["openstreetmap-power"],"sourceTypes":["community_mapped"],"valueKind":"reported"},"totalUnitCount":0},"operatingCapacityMw":22.0,"operatingCapacityMwByTechnology":{"gas":22.0},"plannedCapacityCoverage":{"coveragePercent":0.0,"knownUnitCount":0,"method":"unavailable","totalUnitCount":0},"plannedCapacityMw":0.0,"plannedCapacityMwByTechnology":{},"recordCount":1,"recordIds":["wattlas-record-osm-way-833217488"],"sourceIds":["openstreetmap-power"],"sourceUrl":"https://www.openstreetmap.org/way/833217488","technologies":["gas"],"technologyMixMw":{"gas":22.0},"unitCount":0,"unitIds":[]},"type":"Feature"},{"geometry":{"coordinates":[11.011529,33.470031],"type":"Point"},"id":"wattlas-plant-osm-way-833217489","properties":{"aliases":["Centrale électrique de Zarzis"],"canonicalAnchor":"osm:way/833217489","canonicalCountryKey":"TN","capacityMw":34.0,"country":"TN","externalIds":{"osm":"way/833217489"},"geographyId":"TN-13205935B11392830158982","id":"wattlas-plant-osm-way-833217489","lifecycleCounts":{"operational":1},"locationPrecision":"exact","name":"Centrale électrique de Zarzis","operatingCapacityCoverage":{"coveragePercent":100.0,"knownUnitCount":0,"method":"plant_aggregate","provenance":{"evidenceCount":0,"recordIds":["wattlas-record-osm-way-833217489"],"sourceIds":["openstreetmap-power"],"sourceTypes":["community_mapped"],"valueKind":"reported"},"totalUnitCount":0},"operatingCapacityMw":34.0,"operatingCapacityMwByTechnology":{"gas":34.0},"plannedCapacityCoverage":{"coveragePercent":0.0,"knownUnitCount":0,"method":"unavailable","totalUnitCount":0},"plannedCapacityMw":0.0,"plannedCapacityMwByTechnology":{},"recordCount":1,"recordIds":["wattlas-record-osm-way-833217489"],"sourceIds":["openstreetmap-power"],"sourceUrl":"https://www.openstreetmap.org/way/833217489","technologies":["gas"],"technologyMixMw":{"gas":34.0},"unitCount":0,"unitIds":[]},"type":"Feature"},{"geometry":{"coordinates":[10.703092,34.807269],"type":"Point"},"id":"wattlas-plant-osm-way-833217490","properties":{"aliases":["Centrale électrique de Sfax"],"canonicalAnchor":"osm:way/833217490","canonicalCountryKey":"TN","capacityMw":44.0,"country":"TN","externalIds":{"osm":"way/833217490"},"geographyId":"TN-13205935B27259873852948","id":"wattlas-plant-osm-way-833217490","lifecycleCounts":{"operational":1},"locationPrecision":"exact","name":"Centrale électrique de Sfax","operatingCapacityCoverage":{"coveragePercent":100.0,"knownUnitCount":0,"method":"plant_aggregate","provenance":{"evidenceCount":0,"recordIds":["wattlas-record-osm-way-833217490"],"sourceIds":["openstreetmap-power"],"sourceTypes":["community_mapped"],"valueKind":"reported"},"totalUnitCount":0},"operatingCapacityMw":44.0,"operatingCapacityMwByTechnology":{"gas":44.0},"plannedCapacityCoverage":{"coveragePercent":0.0,"knownUnitCount":0,"method":"unavailable","totalUnitCount":0},"plannedCapacityMw":0.0,"plannedCapacityMwByTechnology":{},"recordCount":1,"recordIds":["wattlas-record-osm-way-833217490"],"sourceIds":["openstreetmap-power"],"sourceUrl":"https://www.openstreetmap.org/way/833217490","technologies":["gas"],"technologyMixMw":{"gas":44.0},"unitCount":0,"unitIds":[]},"type":"Feature"},{"geometry":{"coordinates":[9.920563,36.677112],"type":"Point"},"id":"wattlas-plant-osm-way-833217492","properties":{"aliases":["Centrale de Borj El Amri"],"canonicalAnchor":"osm:way/833217492","canonicalCountryKey":"TN","capacityMw":624.0,"country":"TN","externalIds":{"osm":"way/833217492"},"geographyId":"TN-13205935B47286197858453","id":"wattlas-plant-osm-way-833217492","lifecycleCounts":{"operational":1},"locationPrecision":"exact","name":"Centrale de Borj El Amri","operatingCapacityCoverage":{"coveragePercent":100.0,"knownUnitCount":0,"method":"plant_aggregate","provenance":{"evidenceCount":0,"recordIds":["wattlas-record-osm-way-833217492"],"sourceIds":["openstreetmap-power"],"sourceTypes":["community_mapped"],"valueKind":"reported"},"totalUnitCount":0},"operatingCapacityMw":624.0,"operatingCapacityMwByTechnology":{"gas":624.0},"plannedCapacityCoverage":{"coveragePercent":0.0,"knownUnitCount":0,"method":"unavailable","totalUnitCount":0},"plannedCapacityMw":0.0,"plannedCapacityMwByTechnology":{},"recordCount":1,"recordIds":["wattlas-record-osm-way-833217492"],"sourceIds":["openstreetmap-power"],"sourceUrl":"https://www.openstreetmap.org/way/833217492","technologies":["gas"],"technologyMixMw":{"gas":624.0},"unitCount":0,"unitIds":[]},"type":"Feature"},{"geometry":{"coordinates":[10.677483,35.785889],"type":"Point"},"id":"wattlas-plant-wikidata-q12002134","properties":{"aliases":["Centrale Thermique de Sousse"],"canonicalAnchor":"wikidata:Q12002134","canonicalCountryKey":"TN","capacityMw":1208.0,"country":"TN","externalIds":{"osm":"way/111375425","wikidata":"Q12002134"},"geographyId":"TN-13205935B49970022939178","id":"wattlas-plant-wikidata-q12002134","idAliases":["wattlas-plant-osm-way-111375425"],"lifecycleCounts":{"operational":1},"locationPrecision":"exact","name":"Centrale Thermique de Sousse","operatingCapacityCoverage":{"coveragePercent":100.0,"knownUnitCount":0,"method":"plant_aggregate","provenance":{"evidenceCount":0,"recordIds":["wattlas-record-osm-way-111375425"],"sourceIds":["openstreetmap-power"],"sourceTypes":["community_mapped"],"valueKind":"reported"},"totalUnitCount":0},"operatingCapacityMw":1208.0,"operatingCapacityMwByTechnology":{"gas":1208.0},"plannedCapacityCoverage":{"coveragePercent":0.0,"knownUnitCount":0,"method":"unavailable","totalUnitCount":0},"plannedCapacityMw":0.0,"plannedCapacityMwByTechnology":{},"recordCount":1,"recordIds":["wattlas-record-osm-way-111375425"],"sourceIds":["openstreetmap-power"],"sourceUrl":"https://www.openstreetmap.org/way/111375425","technologies":["gas"],"technologyMixMw":{"gas":1208.0},"unitCount":0,"unitIds":[]},"type":"Feature"},{"geometry":{"coordinates":[9.396857,36.589936],"type":"Point"},"id":"wattlas-plant-wikidata-q2885301","properties":{"aliases":["Barrage Sidi Salem"],"canonicalAnchor":"wikidata:Q2885301","canonicalCountryKey":"TN","capacityMw":33.0,"country":"TN","externalIds":{"osm":"way/172827257","wikidata":"Q2885301"},"geographyId":"TN-13205935B67114336122672","id":"wattlas-plant-wikidata-q2885301","idAliases":["wattlas-plant-osm-way-172827257"],"lifecycleCounts":{"operational":1},"locationPrecision":"exact","name":"Barrage Sidi Salem","operatingCapacityCoverage":{"coveragePercent":100.0,"knownUnitCount":0,"method":"plant_aggregate","provenance":{"evidenceCount":0,"recordIds":["wattlas-record-osm-way-172827257"],"sourceIds":["openstreetmap-power"],"sourceTypes":["community_mapped"],"valueKind":"reported"},"totalUnitCount":0},"operatingCapacityMw":33.0,"operatingCapacityMwByTechnology":{"hydro":33.0},"plannedCapacityCoverage":{"coveragePercent":0.0,"knownUnitCount":0,"method":"unavailable","totalUnitCount":0},"plannedCapacityMw":0.0,"plannedCapacityMwByTechnology":{},"recordCount":1,"recordIds":["wattlas-record-osm-way-172827257"],"sourceIds":["openstreetmap-power"],"sourceUrl":"https://www.openstreetmap.org/way/172827257","technologies":["hydro"],"technologyMixMw":{"hydro":33.0},"unitCount":0,"unitIds":[]},"type":"Feature"},{"geometry":{"coordinates":[10.037671,33.918368],"type":"Point"},"id":"wattlas-plant-wikidata-q56371828","properties":{"aliases":["محطة بوشمة الفرعية"],"canonicalAnchor":"wikidata:Q56371828","canonicalCountryKey":"TN","capacityMw":430.0,"country":"TN","externalIds":{"osm":"way/189193656","wikidata":"Q56371828"},"geographyId":"TN-13205935B69181748376292","id":"wattlas-plant-wikidata-q56371828","idAliases":["wattlas-plant-osm-way-189193656"],"lifecycleCounts":{"operational":1},"locationPrecision":"exact","name":"محطة بوشمة الفرعية","operatingCapacityCoverage":{"coveragePercent":100.0,"knownUnitCount":0,"method":"plant_aggregate","provenance":{"evidenceCount":0,"recordIds":["wattlas-record-osm-way-189193656"],"sourceIds":["openstreetmap-power"],"sourceTypes":["community_mapped"],"valueKind":"reported"},"totalUnitCount":0},"operatingCapacityMw":430.0,"operatingCapacityMwByTechnology":{"gas":430.0},"plannedCapacityCoverage":{"coveragePercent":0.0,"knownUnitCount":0,"method":"unavailable","totalUnitCount":0},"plannedCapacityMw":0.0,"plannedCapacityMwByTechnology":{},"recordCount":1,"recordIds":["wattlas-record-osm-way-189193656"],"sourceIds":["openstreetmap-power"],"sourceUrl":"https://www.openstreetmap.org/way/189193656","technologies":["gas"],"technologyMixMw":{"gas":430.0},"unitCount":0,"unitIds":[]},"type":"Feature"},{"geometry":{"coordinates":[10.642336,34.686417],"type":"Point"},"id":"wattlas-plant-wikidata-q56371831","properties":{"aliases":["محطة توليد الكهرباء بطينة"],"canonicalAnchor":"wikidata:Q56371831","canonicalCountryKey":"TN","capacityMw":360.0,"country":"TN","externalIds":{"osm":"way/444445992","wikidata":"Q56371831"},"geographyId":"TN-13205935B27259873852948","id":"wattlas-plant-wikidata-q56371831","idAliases":["wattlas-plant-osm-way-444445992"],"lifecycleCounts":{"operational":1},"locationPrecision":"exact","name":"محطة توليد الكهرباء بطينة","operatingCapacityCoverage":{"coveragePercent":100.0,"knownUnitCount":0,"method":"plant_aggregate","provenance":{"evidenceCount":0,"recordIds":["wattlas-record-osm-way-444445992"],"sourceIds":["openstreetmap-power"],"sourceTypes":["community_mapped"],"valueKind":"reported"},"totalUnitCount":0},"operatingCapacityMw":360.0,"operatingCapacityMwByTechnology":{"gas":360.0},"plannedCapacityCoverage":{"coveragePercent":0.0,"knownUnitCount":0,"method":"unavailable","totalUnitCount":0},"plannedCapacityMw":0.0,"plannedCapacityMwByTechnology":{},"recordCount":1,"recordIds":["wattlas-record-osm-way-444445992"],"sourceIds":["openstreetmap-power"],"sourceUrl":"https://www.openstreetmap.org/way/444445992","technologies":["gas"],"technologyMixMw":{"gas":360.0},"unitCount":0,"unitIds":[]},"type":"Feature"},{"geometry":{"coordinates":[8.541551,34.904786],"type":"Point"},"id":"wattlas-plant-wikidata-q56371833","properties":{"aliases":["Centrale électrique de Fériana"],"canonicalAnchor":"wikidata:Q56371833","canonicalCountryKey":"TN","capacityMw":240.0,"country":"TN","externalIds":{"osm":"way/286063913","wikidata":"Q56371833"},"geographyId":"TN-13205935B52637504718586","id":"wattlas-plant-wikidata-q56371833","idAliases":["wattlas-plant-osm-way-286063913"],"lifecycleCounts":{"operational":1},"locationPrecision":"exact","name":"Centrale électrique de Fériana","operatingCapacityCoverage":{"coveragePercent":100.0,"knownUnitCount":0,"method":"plant_aggregate","provenance":{"evidenceCount":0,"recordIds":["wattlas-record-osm-way-286063913"],"sourceIds":["openstreetmap-power"],"sourceTypes":["community_mapped"],"valueKind":"reported"},"totalUnitCount":0},"operatingCapacityMw":240.0,"operatingCapacityMwByTechnology":{"gas":240.0},"plannedCapacityCoverage":{"coveragePercent":0.0,"knownUnitCount":0,"method":"unavailable","totalUnitCount":0},"plannedCapacityMw":0.0,"plannedCapacityMwByTechnology":{},"recordCount":1,"recordIds":["wattlas-record-osm-way-286063913"],"sourceIds":["openstreetmap-power"],"sourceUrl":"https://www.openstreetmap.org/way/286063913","technologies":["gas"],"technologyMixMw":{"gas":240.0},"unitCount":0,"unitIds":[]},"type":"Feature"},{"geometry":{"coordinates":[10.05407,36.462663],"type":"Point"},"id":"wattlas-plant-wikidata-q56371843","properties":{"aliases":["Centrale électrique de Bir Mcherga"],"canonicalAnchor":"wikidata:Q56371843","canonicalCountryKey":"TN","capacityMw":480.0,"country":"TN","externalIds":{"osm":"way/173531193","wikidata":"Q56371843"},"geographyId":"TN-13205935B3129194497982","id":"wattlas-plant-wikidata-q56371843","idAliases":["wattlas-plant-osm-way-173531193"],"lifecycleCounts":{"operational":1},"locationPrecision":"exact","name":"Centrale électrique de Bir Mcherga","operatingCapacityCoverage":{"coveragePercent":100.0,"knownUnitCount":0,"method":"plant_aggregate","provenance":{"evidenceCount":0,"recordIds":["wattlas-record-osm-way-173531193"],"sourceIds":["openstreetmap-power"],"sourceTypes":["community_mapped"],"valueKind":"reported"},"totalUnitCount":0},"operatingCapacityMw":480.0,"operatingCapacityMwByTechnology":{"gas":480.0},"plannedCapacityCoverage":{"coveragePercent":0.0,"knownUnitCount":0,"method":"unavailable","totalUnitCount":0},"plannedCapacityMw":0.0,"plannedCapacityMwByTechnology":{},"recordCount":1,"recordIds":["wattlas-record-osm-way-173531193"],"sourceIds":["openstreetmap-power"],"sourceUrl":"https://www.openstreetmap.org/way/173531193","technologies":["gas"],"technologyMixMw":{"gas":480.0},"unitCount":0,"unitIds":[]},"type":"Feature"},{"geometry":{"coordinates":[10.092759,33.927033],"type":"Point"},"id":"wattlas-plant-wikidata-q56371854","properties":{"aliases":["الطاقة الحرارية غنوش"],"canonicalAnchor":"wikidata:Q56371854","canonicalCountryKey":"TN","capacityMw":485.0,"country":"TN","externalIds":{"osm":"way/189193394","wikidata":"Q56371854"},"geographyId":"TN-13205935B69181748376292","id":"wattlas-plant-wikidata-q56371854","idAliases":["wattlas-plant-osm-way-189193394"],"lifecycleCounts":{"operational":1},"locationPrecision":"exact","name":"الطاقة الحرارية غنوش","operatingCapacityCoverage":{"coveragePercent":100.0,"knownUnitCount":0,"method":"plant_aggregate","provenance":{"evidenceCount":0,"recordIds":["wattlas-record-osm-way-189193394"],"sourceIds":["openstreetmap-power"],"sourceTypes":["community_mapped"],"valueKind":"reported"},"totalUnitCount":0},"operatingCapacityMw":485.0,"operatingCapacityMwByTechnology":{"gas":485.0},"plannedCapacityCoverage":{"coveragePercent":0.0,"knownUnitCount":0,"method":"unavailable","totalUnitCount":0},"plannedCapacityMw":0.0,"plannedCapacityMwByTechnology":{},"recordCount":1,"recordIds":["wattlas-record-osm-way-189193394"],"sourceIds":["openstreetmap-power"],"sourceUrl":"https://www.openstreetmap.org/way/189193394","technologies":["gas"],"technologyMixMw":{"gas":485.0},"unitCount":0,"unitIds":[]},"type":"Feature"}],"type":"FeatureCollection"}