{"features":[{"geometry":{"coordinates":[33.29,0.5089],"type":"Point"},"id":"wattlas-plant-gemplant-l100000201412","properties":{"aliases":["4.0","Kakira Sugar power station"],"canonicalAnchor":"gemplant:L100000201412","canonicalCountryKey":"UG","capacityMw":30.0,"country":"UG","externalIds":{"gemPlant":"L100000201412","gemUnit":"G100000201703"},"gemWikiUrl":"https://www.gem.wiki/Kakira_Sugar_power_station","geographyId":"UG-17295835B57878138064711","id":"wattlas-plant-gemplant-l100000201412","lifecycleCounts":{"operational":1},"locationPrecision":"exact","name":"Kakira Sugar power station","operatingCapacityCoverage":{"coveragePercent":100.0,"knownUnitCount":1,"method":"complete_unit_sum","provenance":{"evidenceCount":0,"recordIds":["wattlas-record-gemunit-g100000201703"],"sourceIds":["gem-global-integrated-power-tracker"],"sourceTypes":["research_verified"],"valueKind":"reported"},"totalUnitCount":1},"operatingCapacityMw":30.0,"operatingCapacityMwByTechnology":{"biomass":30.0},"plannedCapacityCoverage":{"coveragePercent":0.0,"knownUnitCount":0,"method":"unavailable","totalUnitCount":0},"plannedCapacityMw":0.0,"plannedCapacityMwByTechnology":{},"recordCount":1,"recordIds":["wattlas-record-gemunit-g100000201703"],"sourceIds":["gem-global-integrated-power-tracker"],"sourceUrl":"https://www.gem.wiki/Kakira_Sugar_power_station","technologies":["biomass"],"technologyMixMw":{"biomass":30.0},"unitCount":1,"unitIds":["gem-unit-G100000201703"]},"type":"Feature"},{"geometry":{"coordinates":[34.116657,0.637328],"type":"Point"},"id":"wattlas-plant-gemplant-l100000409026","properties":{"aliases":["1-1","Tororo power station"],"canonicalAnchor":"gemplant:L100000409026","canonicalCountryKey":"UG","capacityMw":89.0,"country":"UG","externalIds":{"gemPlant":"L100000409026","gemUnit":"G100000413492"},"gemWikiUrl":"https://www.gem.wiki/Tororo_power_station","geographyId":"UG-17295835B57878138064711","id":"wattlas-plant-gemplant-l100000409026","lifecycleCounts":{"operational":1},"locationPrecision":"exact","name":"Tororo power station","operatingCapacityCoverage":{"coveragePercent":100.0,"knownUnitCount":1,"method":"complete_unit_sum","provenance":{"evidenceCount":0,"recordIds":["wattlas-record-gemunit-g100000413492"],"sourceIds":["gem-global-integrated-power-tracker"],"sourceTypes":["research_verified"],"valueKind":"reported"},"totalUnitCount":1},"operatingCapacityMw":89.0,"operatingCapacityMwByTechnology":{"oil":89.0},"plannedCapacityCoverage":{"coveragePercent":0.0,"knownUnitCount":0,"method":"unavailable","totalUnitCount":0},"plannedCapacityMw":0.0,"plannedCapacityMwByTechnology":{},"recordCount":1,"recordIds":["wattlas-record-gemunit-g100000413492"],"sourceIds":["gem-global-integrated-power-tracker"],"sourceUrl":"https://www.gem.wiki/Tororo_power_station","technologies":["oil"],"technologyMixMw":{"oil":89.0},"unitCount":1,"unitIds":["gem-unit-G100000413492"]},"type":"Feature"},{"geometry":{"coordinates":[32.67862,0.38207],"type":"Point"},"id":"wattlas-plant-gemplant-l100000409027","properties":{"aliases":["1-1","Namanve Thermal power station"],"canonicalAnchor":"gemplant:L100000409027","canonicalCountryKey":"UG","capacityMw":50.0,"country":"UG","externalIds":{"gemPlant":"L100000409027","gemUnit":"G100000413493"},"gemWikiUrl":"https://www.gem.wiki/Namanve_Thermal_power_station","geographyId":"UG-17295835B48340970483027","id":"wattlas-plant-gemplant-l100000409027","lifecycleCounts":{"operational":1},"locationPrecision":"exact","name":"Namanve Thermal power station","operatingCapacityCoverage":{"coveragePercent":100.0,"knownUnitCount":1,"method":"complete_unit_sum","provenance":{"evidenceCount":0,"recordIds":["wattlas-record-gemunit-g100000413493"],"sourceIds":["gem-global-integrated-power-tracker"],"sourceTypes":["research_verified"],"valueKind":"reported"},"totalUnitCount":1},"operatingCapacityMw":50.0,"operatingCapacityMwByTechnology":{"oil":50.0},"plannedCapacityCoverage":{"coveragePercent":0.0,"knownUnitCount":0,"method":"unavailable","totalUnitCount":0},"plannedCapacityMw":0.0,"plannedCapacityMwByTechnology":{},"recordCount":1,"recordIds":["wattlas-record-gemunit-g100000413493"],"sourceIds":["gem-global-integrated-power-tracker"],"sourceUrl":"https://www.gem.wiki/Namanve_Thermal_power_station","technologies":["oil"],"technologyMixMw":{"oil":50.0},"unitCount":1,"unitIds":["gem-unit-G100000413493"]},"type":"Feature"},{"geometry":{"coordinates":[32.533888,0.293636],"type":"Point"},"id":"wattlas-plant-gemplant-l100000409028","properties":{"aliases":["1-1","Mutundwe power station"],"canonicalAnchor":"gemplant:L100000409028","canonicalCountryKey":"UG","capacityMw":50.0,"country":"UG","externalIds":{"gemPlant":"L100000409028","gemUnit":"G100000413494"},"gemWikiUrl":"https://www.gem.wiki/Mutundwe_power_station","geographyId":"UG-17295835B48340970483027","id":"wattlas-plant-gemplant-l100000409028","lifecycleCounts":{"operational":1},"locationPrecision":"exact","name":"Mutundwe power station","operatingCapacityCoverage":{"coveragePercent":100.0,"knownUnitCount":1,"method":"complete_unit_sum","provenance":{"evidenceCount":0,"recordIds":["wattlas-record-gemunit-g100000413494"],"sourceIds":["gem-global-integrated-power-tracker"],"sourceTypes":["research_verified"],"valueKind":"reported"},"totalUnitCount":1},"operatingCapacityMw":50.0,"operatingCapacityMwByTechnology":{"oil":50.0},"plannedCapacityCoverage":{"coveragePercent":0.0,"knownUnitCount":0,"method":"unavailable","totalUnitCount":0},"plannedCapacityMw":0.0,"plannedCapacityMwByTechnology":{},"recordCount":1,"recordIds":["wattlas-record-gemunit-g100000413494"],"sourceIds":["gem-global-integrated-power-tracker"],"sourceUrl":"https://www.gem.wiki/Mutundwe_power_station","technologies":["oil"],"technologyMixMw":{"oil":50.0},"unitCount":1,"unitIds":["gem-unit-G100000413494"]},"type":"Feature"},{"geometry":{"coordinates":[31.9369,2.3454],"type":"Point"},"id":"wattlas-plant-gemplant-l100000603674","properties":{"aliases":["Ayago hydroelectric plant"],"canonicalAnchor":"gemplant:L100000603674","canonicalCountryKey":"UG","capacityMw":840.0,"country":"UG","externalIds":{"gemPlant":"L100000603674","gemUnit":"G100000604216"},"gemWikiUrl":"https://www.gem.wiki/Ayago_hydroelectric_plant","geographyId":"UG-17295835B80141219017784","id":"wattlas-plant-gemplant-l100000603674","lifecycleCounts":{"announced":1},"locationPrecision":"exact","name":"Ayago hydroelectric plant","operatingCapacityCoverage":{"coveragePercent":0.0,"knownUnitCount":0,"method":"unavailable","totalUnitCount":0},"operatingCapacityMw":0.0,"operatingCapacityMwByTechnology":{},"plannedCapacityCoverage":{"coveragePercent":100.0,"knownUnitCount":1,"method":"complete_unit_sum","provenance":{"evidenceCount":0,"recordIds":["wattlas-record-gemunit-g100000604216"],"sourceIds":["gem-global-integrated-power-tracker"],"sourceTypes":["research_verified"],"valueKind":"reported"},"totalUnitCount":1},"plannedCapacityMw":840.0,"plannedCapacityMwByTechnology":{"hydro":840.0},"recordCount":1,"recordIds":["wattlas-record-gemunit-g100000604216"],"sourceIds":["gem-global-integrated-power-tracker"],"sourceUrl":"https://www.gem.wiki/Ayago_hydroelectric_plant","technologies":["hydro"],"technologyMixMw":{"hydro":840.0},"unitCount":1,"unitIds":["gem-unit-G100000604216"]},"type":"Feature"},{"geometry":{"coordinates":[33.1359,0.5015],"type":"Point"},"id":"wattlas-plant-gemplant-l100000603675","properties":{"aliases":["Bujagali hydroelectric plant"],"canonicalAnchor":"gemplant:L100000603675","canonicalCountryKey":"UG","capacityMw":250.0,"country":"UG","externalIds":{"gemPlant":"L100000603675","gemUnit":"G100000603711"},"gemWikiUrl":"https://www.gem.wiki/Bujagali_hydroelectric_plant","geographyId":"UG-17295835B48340970483027","id":"wattlas-plant-gemplant-l100000603675","lifecycleCounts":{"operational":1},"locationPrecision":"exact","name":"Bujagali hydroelectric plant","operatingCapacityCoverage":{"coveragePercent":100.0,"knownUnitCount":1,"method":"complete_unit_sum","provenance":{"evidenceCount":0,"recordIds":["wattlas-record-gemunit-g100000603711"],"sourceIds":["gem-global-integrated-power-tracker"],"sourceTypes":["research_verified"],"valueKind":"reported"},"totalUnitCount":1},"operatingCapacityMw":250.0,"operatingCapacityMwByTechnology":{"hydro":250.0},"plannedCapacityCoverage":{"coveragePercent":0.0,"knownUnitCount":0,"method":"unavailable","totalUnitCount":0},"plannedCapacityMw":0.0,"plannedCapacityMwByTechnology":{},"recordCount":1,"recordIds":["wattlas-record-gemunit-g100000603711"],"sourceIds":["gem-global-integrated-power-tracker"],"sourceUrl":"https://www.gem.wiki/Bujagali_hydroelectric_plant","technologies":["hydro"],"technologyMixMw":{"hydro":250.0},"unitCount":1,"unitIds":["gem-unit-G100000603711"]},"type":"Feature"},{"geometry":{"coordinates":[33.0416,0.7714],"type":"Point"},"id":"wattlas-plant-gemplant-l100000603676","properties":{"aliases":["Isimba hydroelectric plant"],"canonicalAnchor":"gemplant:L100000603676","canonicalCountryKey":"UG","capacityMw":183.0,"country":"UG","externalIds":{"gemPlant":"L100000603676","gemUnit":"G100000603712"},"gemWikiUrl":"https://www.gem.wiki/Isimba_hydroelectric_plant","geographyId":"UG-17295835B57878138064711","id":"wattlas-plant-gemplant-l100000603676","lifecycleCounts":{"operational":1},"locationPrecision":"exact","name":"Isimba hydroelectric plant","operatingCapacityCoverage":{"coveragePercent":100.0,"knownUnitCount":1,"method":"complete_unit_sum","provenance":{"evidenceCount":0,"recordIds":["wattlas-record-gemunit-g100000603712"],"sourceIds":["gem-global-integrated-power-tracker"],"sourceTypes":["research_verified"],"valueKind":"reported"},"totalUnitCount":1},"operatingCapacityMw":183.0,"operatingCapacityMwByTechnology":{"hydro":183.0},"plannedCapacityCoverage":{"coveragePercent":0.0,"knownUnitCount":0,"method":"unavailable","totalUnitCount":0},"plannedCapacityMw":0.0,"plannedCapacityMwByTechnology":{},"recordCount":1,"recordIds":["wattlas-record-gemunit-g100000603712"],"sourceIds":["gem-global-integrated-power-tracker"],"sourceUrl":"https://www.gem.wiki/Isimba_hydroelectric_plant","technologies":["hydro"],"technologyMixMw":{"hydro":183.0},"unitCount":1,"unitIds":["gem-unit-G100000603712"]},"type":"Feature"},{"geometry":{"coordinates":[32.2682,2.2484],"type":"Point"},"id":"wattlas-plant-gemplant-l100000603677","properties":{"aliases":["Karuma hydroelectric plant"],"canonicalAnchor":"gemplant:L100000603677","canonicalCountryKey":"UG","capacityMw":600.0,"country":"UG","externalIds":{"gemPlant":"L100000603677","gemUnit":"G100000604501"},"gemWikiUrl":"https://www.gem.wiki/Karuma_hydroelectric_plant","geographyId":"UG-17295835B80141219017784","id":"wattlas-plant-gemplant-l100000603677","lifecycleCounts":{"operational":1},"locationPrecision":"exact","name":"Karuma hydroelectric plant","operatingCapacityCoverage":{"coveragePercent":100.0,"knownUnitCount":1,"method":"complete_unit_sum","provenance":{"evidenceCount":0,"recordIds":["wattlas-record-gemunit-g100000604501"],"sourceIds":["gem-global-integrated-power-tracker"],"sourceTypes":["research_verified"],"valueKind":"reported"},"totalUnitCount":1},"operatingCapacityMw":600.0,"operatingCapacityMwByTechnology":{"hydro":600.0},"plannedCapacityCoverage":{"coveragePercent":0.0,"knownUnitCount":0,"method":"unavailable","totalUnitCount":0},"plannedCapacityMw":0.0,"plannedCapacityMwByTechnology":{},"recordCount":1,"recordIds":["wattlas-record-gemunit-g100000604501"],"sourceIds":["gem-global-integrated-power-tracker"],"sourceUrl":"https://www.gem.wiki/Karuma_hydroelectric_plant","technologies":["hydro"],"technologyMixMw":{"hydro":600.0},"unitCount":1,"unitIds":["gem-unit-G100000604501"]},"type":"Feature"},{"geometry":{"coordinates":[33.1856,0.4503],"type":"Point"},"id":"wattlas-plant-gemplant-l100000603679","properties":{"aliases":["Kiira hydroelectric plant"],"canonicalAnchor":"gemplant:L100000603679","canonicalCountryKey":"UG","capacityMw":200.0,"country":"UG","externalIds":{"gemPlant":"L100000603679","gemUnit":"G100000603715"},"gemWikiUrl":"https://www.gem.wiki/Kiira_hydroelectric_plant","geographyId":"UG-17295835B48340970483027","id":"wattlas-plant-gemplant-l100000603679","lifecycleCounts":{"operational":1},"locationPrecision":"exact","name":"Kiira hydroelectric plant","operatingCapacityCoverage":{"coveragePercent":100.0,"knownUnitCount":1,"method":"complete_unit_sum","provenance":{"evidenceCount":0,"recordIds":["wattlas-record-gemunit-g100000603715"],"sourceIds":["gem-global-integrated-power-tracker"],"sourceTypes":["research_verified"],"valueKind":"reported"},"totalUnitCount":1},"operatingCapacityMw":200.0,"operatingCapacityMwByTechnology":{"hydro":200.0},"plannedCapacityCoverage":{"coveragePercent":0.0,"knownUnitCount":0,"method":"unavailable","totalUnitCount":0},"plannedCapacityMw":0.0,"plannedCapacityMwByTechnology":{},"recordCount":1,"recordIds":["wattlas-record-gemunit-g100000603715"],"sourceIds":["gem-global-integrated-power-tracker"],"sourceUrl":"https://www.gem.wiki/Kiira_hydroelectric_plant","technologies":["hydro"],"technologyMixMw":{"hydro":200.0},"unitCount":1,"unitIds":["gem-unit-G100000603715"]},"type":"Feature"},{"geometry":{"coordinates":[33.1847,0.4435],"type":"Point"},"id":"wattlas-plant-gemplant-l100000603680","properties":{"aliases":["Nalubaale hydroelectric plant"],"canonicalAnchor":"gemplant:L100000603680","canonicalCountryKey":"UG","capacityMw":180.0,"country":"UG","externalIds":{"gemPlant":"L100000603680","gemUnit":"G100000603716"},"gemWikiUrl":"https://www.gem.wiki/Nalubaale_hydroelectric_plant","geographyId":"UG-17295835B48340970483027","id":"wattlas-plant-gemplant-l100000603680","lifecycleCounts":{"operational":1},"locationPrecision":"exact","name":"Nalubaale hydroelectric plant","operatingCapacityCoverage":{"coveragePercent":100.0,"knownUnitCount":1,"method":"complete_unit_sum","provenance":{"evidenceCount":0,"recordIds":["wattlas-record-gemunit-g100000603716"],"sourceIds":["gem-global-integrated-power-tracker"],"sourceTypes":["research_verified"],"valueKind":"reported"},"totalUnitCount":1},"operatingCapacityMw":180.0,"operatingCapacityMwByTechnology":{"hydro":180.0},"plannedCapacityCoverage":{"coveragePercent":0.0,"knownUnitCount":0,"method":"unavailable","totalUnitCount":0},"plannedCapacityMw":0.0,"plannedCapacityMwByTechnology":{},"recordCount":1,"recordIds":["wattlas-record-gemunit-g100000603716"],"sourceIds":["gem-global-integrated-power-tracker"],"sourceUrl":"https://www.gem.wiki/Nalubaale_hydroelectric_plant","technologies":["hydro"],"technologyMixMw":{"hydro":180.0},"unitCount":1,"unitIds":["gem-unit-G100000603716"]},"type":"Feature"},{"geometry":{"coordinates":[32.0827,2.2655],"type":"Point"},"id":"wattlas-plant-gemplant-l100000603681","properties":{"aliases":["Oriang hydroelectric plant"],"canonicalAnchor":"gemplant:L100000603681","canonicalCountryKey":"UG","capacityMw":392.0,"country":"UG","externalIds":{"gemPlant":"L100000603681","gemUnit":"G100000604688"},"gemWikiUrl":"https://www.gem.wiki/Oriang_hydroelectric_plant","geographyId":"UG-17295835B91329899113986","id":"wattlas-plant-gemplant-l100000603681","lifecycleCounts":{"announced":1},"locationPrecision":"exact","name":"Oriang hydroelectric plant","operatingCapacityCoverage":{"coveragePercent":0.0,"knownUnitCount":0,"method":"unavailable","totalUnitCount":0},"operatingCapacityMw":0.0,"operatingCapacityMwByTechnology":{},"plannedCapacityCoverage":{"coveragePercent":100.0,"knownUnitCount":1,"method":"complete_unit_sum","provenance":{"evidenceCount":0,"recordIds":["wattlas-record-gemunit-g100000604688"],"sourceIds":["gem-global-integrated-power-tracker"],"sourceTypes":["research_verified"],"valueKind":"reported"},"totalUnitCount":1},"plannedCapacityMw":392.0,"plannedCapacityMwByTechnology":{"hydro":392.0},"recordCount":1,"recordIds":["wattlas-record-gemunit-g100000604688"],"sourceIds":["gem-global-integrated-power-tracker"],"sourceUrl":"https://www.gem.wiki/Oriang_hydroelectric_plant","technologies":["hydro"],"technologyMixMw":{"hydro":392.0},"unitCount":1,"unitIds":["gem-unit-G100000604688"]},"type":"Feature"},{"geometry":{"coordinates":[31.7951,0.1501],"type":"Point"},"id":"wattlas-plant-gemplant-l100000800148","properties":{"aliases":["--","Kabulasoke solar farm"],"canonicalAnchor":"gemplant:L100000800148","canonicalCountryKey":"UG","capacityMw":24.0,"country":"UG","externalIds":{"gemPlant":"L100000800148","gemUnit":"G100000800187"},"gemWikiUrl":"https://www.gem.wiki/Kabulasoke_solar_farm","geographyId":"UG-17295835B48340970483027","id":"wattlas-plant-gemplant-l100000800148","lifecycleCounts":{"operational":1},"locationPrecision":"exact","name":"Kabulasoke solar farm","operatingCapacityCoverage":{"coveragePercent":100.0,"knownUnitCount":1,"method":"complete_unit_sum","provenance":{"evidenceCount":0,"recordIds":["wattlas-record-gemunit-g100000800187"],"sourceIds":["gem-global-integrated-power-tracker"],"sourceTypes":["research_verified"],"valueKind":"reported"},"totalUnitCount":1},"operatingCapacityMw":24.0,"operatingCapacityMwByTechnology":{"solar":24.0},"plannedCapacityCoverage":{"coveragePercent":0.0,"knownUnitCount":0,"method":"unavailable","totalUnitCount":0},"plannedCapacityMw":0.0,"plannedCapacityMwByTechnology":{},"recordCount":1,"recordIds":["wattlas-record-gemunit-g100000800187"],"sourceIds":["gem-global-integrated-power-tracker"],"sourceUrl":"https://www.gem.wiki/Kabulasoke_solar_farm","technologies":["solar"],"technologyMixMw":{"solar":24.0},"unitCount":1,"unitIds":["gem-unit-G100000800187"]},"type":"Feature"},{"geometry":{"coordinates":[32.927,2.3555],"type":"Point"},"id":"wattlas-plant-gemplant-l100000800196","properties":{"aliases":["--","Lira solar farm"],"canonicalAnchor":"gemplant:L100000800196","canonicalCountryKey":"UG","capacityMw":50.0,"country":"UG","externalIds":{"gemPlant":"L100000800196","gemUnit":"G100000800241"},"gemWikiUrl":"https://www.gem.wiki/Lira_solar_farm","geographyId":"UG-17295835B80141219017784","id":"wattlas-plant-gemplant-l100000800196","lifecycleCounts":{"announced":1},"locationPrecision":"exact","name":"Lira solar farm","operatingCapacityCoverage":{"coveragePercent":0.0,"knownUnitCount":0,"method":"unavailable","totalUnitCount":0},"operatingCapacityMw":0.0,"operatingCapacityMwByTechnology":{},"plannedCapacityCoverage":{"coveragePercent":100.0,"knownUnitCount":1,"method":"complete_unit_sum","provenance":{"evidenceCount":0,"recordIds":["wattlas-record-gemunit-g100000800241"],"sourceIds":["gem-global-integrated-power-tracker"],"sourceTypes":["research_verified"],"valueKind":"reported"},"totalUnitCount":1},"plannedCapacityMw":50.0,"plannedCapacityMwByTechnology":{"solar":50.0},"recordCount":1,"recordIds":["wattlas-record-gemunit-g100000800241"],"sourceIds":["gem-global-integrated-power-tracker"],"sourceUrl":"https://www.gem.wiki/Lira_solar_farm","technologies":["solar"],"technologyMixMw":{"solar":50.0},"unitCount":1,"unitIds":["gem-unit-G100000800241"]},"type":"Feature"},{"geometry":{"coordinates":[31.8287,0.6209],"type":"Point"},"id":"wattlas-plant-gemplant-l100000800233","properties":{"aliases":["--","Nkonge solar farm"],"canonicalAnchor":"gemplant:L100000800233","canonicalCountryKey":"UG","capacityMw":23.0,"country":"UG","externalIds":{"gemPlant":"L100000800233","gemUnit":"G100000800279"},"gemWikiUrl":"https://www.gem.wiki/Nkonge_solar_farm","geographyId":"UG-17295835B48340970483027","id":"wattlas-plant-gemplant-l100000800233","lifecycleCounts":{"operational":1},"locationPrecision":"exact","name":"Nkonge solar farm","operatingCapacityCoverage":{"coveragePercent":100.0,"knownUnitCount":1,"method":"complete_unit_sum","provenance":{"evidenceCount":0,"recordIds":["wattlas-record-gemunit-g100000800279"],"sourceIds":["gem-global-integrated-power-tracker"],"sourceTypes":["research_verified"],"valueKind":"reported"},"totalUnitCount":1},"operatingCapacityMw":23.0,"operatingCapacityMwByTechnology":{"solar":23.0},"plannedCapacityCoverage":{"coveragePercent":0.0,"knownUnitCount":0,"method":"unavailable","totalUnitCount":0},"plannedCapacityMw":0.0,"plannedCapacityMwByTechnology":{},"recordCount":1,"recordIds":["wattlas-record-gemunit-g100000800279"],"sourceIds":["gem-global-integrated-power-tracker"],"sourceUrl":"https://www.gem.wiki/Nkonge_solar_farm","technologies":["solar"],"technologyMixMw":{"solar":23.0},"unitCount":1,"unitIds":["gem-unit-G100000800279"]},"type":"Feature"},{"geometry":{"coordinates":[33.4295,0.4904],"type":"Point"},"id":"wattlas-plant-gemplant-l100000827757","properties":{"aliases":["--","Bufulubi solar project"],"canonicalAnchor":"gemplant:L100000827757","canonicalCountryKey":"UG","capacityMw":13.6,"country":"UG","externalIds":{"gemPlant":"L100000827757","gemUnit":"G100000831308"},"gemWikiUrl":"https://www.gem.wiki/Bufulubi_solar_project","geographyId":"UG-17295835B57878138064711","id":"wattlas-plant-gemplant-l100000827757","lifecycleCounts":{"operational":1},"locationPrecision":"exact","name":"Bufulubi solar project","operatingCapacityCoverage":{"coveragePercent":100.0,"knownUnitCount":1,"method":"complete_unit_sum","provenance":{"evidenceCount":0,"recordIds":["wattlas-record-gemunit-g100000831308"],"sourceIds":["gem-global-integrated-power-tracker"],"sourceTypes":["research_verified"],"valueKind":"reported"},"totalUnitCount":1},"operatingCapacityMw":13.6,"operatingCapacityMwByTechnology":{"solar":13.6},"plannedCapacityCoverage":{"coveragePercent":0.0,"knownUnitCount":0,"method":"unavailable","totalUnitCount":0},"plannedCapacityMw":0.0,"plannedCapacityMwByTechnology":{},"recordCount":1,"recordIds":["wattlas-record-gemunit-g100000831308"],"sourceIds":["gem-global-integrated-power-tracker"],"sourceUrl":"https://www.gem.wiki/Bufulubi_solar_project","technologies":["solar"],"technologyMixMw":{"solar":13.6},"unitCount":1,"unitIds":["gem-unit-G100000831308"]},"type":"Feature"},{"geometry":{"coordinates":[33.658,1.6855],"type":"Point"},"id":"wattlas-plant-gemplant-l100000827759","properties":{"aliases":["--","Soroti solar project"],"canonicalAnchor":"gemplant:L100000827759","canonicalCountryKey":"UG","capacityMw":10.0,"country":"UG","externalIds":{"gemPlant":"L100000827759","gemUnit":"G100000831310"},"gemWikiUrl":"https://www.gem.wiki/Soroti_solar_project","geographyId":"UG-17295835B57878138064711","id":"wattlas-plant-gemplant-l100000827759","lifecycleCounts":{"operational":1},"locationPrecision":"exact","name":"Soroti solar project","operatingCapacityCoverage":{"coveragePercent":100.0,"knownUnitCount":1,"method":"complete_unit_sum","provenance":{"evidenceCount":0,"recordIds":["wattlas-record-gemunit-g100000831310"],"sourceIds":["gem-global-integrated-power-tracker"],"sourceTypes":["research_verified"],"valueKind":"reported"},"totalUnitCount":1},"operatingCapacityMw":10.0,"operatingCapacityMwByTechnology":{"solar":10.0},"plannedCapacityCoverage":{"coveragePercent":0.0,"knownUnitCount":0,"method":"unavailable","totalUnitCount":0},"plannedCapacityMw":0.0,"plannedCapacityMwByTechnology":{},"recordCount":1,"recordIds":["wattlas-record-gemunit-g100000831310"],"sourceIds":["gem-global-integrated-power-tracker"],"sourceUrl":"https://www.gem.wiki/Soroti_solar_project","technologies":["solar"],"technologyMixMw":{"solar":10.0},"unitCount":1,"unitIds":["gem-unit-G100000831310"]},"type":"Feature"},{"geometry":{"coordinates":[34.111,0.6303],"type":"Point"},"id":"wattlas-plant-gemplant-l100000827760","properties":{"aliases":["--","Tororo solar project I"],"canonicalAnchor":"gemplant:L100000827760","canonicalCountryKey":"UG","capacityMw":10.8,"country":"UG","externalIds":{"gemPlant":"L100000827760","gemUnit":"G100000831311"},"gemWikiUrl":"https://www.gem.wiki/Tororo_solar_project_I","geographyId":"UG-17295835B57878138064711","id":"wattlas-plant-gemplant-l100000827760","lifecycleCounts":{"operational":1},"locationPrecision":"exact","name":"Tororo solar project I","operatingCapacityCoverage":{"coveragePercent":100.0,"knownUnitCount":1,"method":"complete_unit_sum","provenance":{"evidenceCount":0,"recordIds":["wattlas-record-gemunit-g100000831311"],"sourceIds":["gem-global-integrated-power-tracker"],"sourceTypes":["research_verified"],"valueKind":"reported"},"totalUnitCount":1},"operatingCapacityMw":10.8,"operatingCapacityMwByTechnology":{"solar":10.8},"plannedCapacityCoverage":{"coveragePercent":0.0,"knownUnitCount":0,"method":"unavailable","totalUnitCount":0},"plannedCapacityMw":0.0,"plannedCapacityMwByTechnology":{},"recordCount":1,"recordIds":["wattlas-record-gemunit-g100000831311"],"sourceIds":["gem-global-integrated-power-tracker"],"sourceUrl":"https://www.gem.wiki/Tororo_solar_project_I","technologies":["solar"],"technologyMixMw":{"solar":10.8},"unitCount":1,"unitIds":["gem-unit-G100000831311"]},"type":"Feature"},{"geometry":{"coordinates":[34.139,0.5904],"type":"Point"},"id":"wattlas-plant-gemplant-l100001021051","properties":{"aliases":["--","Tororo solar project II"],"canonicalAnchor":"gemplant:L100001021051","canonicalCountryKey":"UG","capacityMw":14.3,"country":"UG","externalIds":{"gemPlant":"L100001021051","gemUnit":"G100001024020"},"gemWikiUrl":"https://www.gem.wiki/Tororo_solar_project_II","geographyId":"UG-17295835B57878138064711","id":"wattlas-plant-gemplant-l100001021051","lifecycleCounts":{"operational":1},"locationPrecision":"exact","name":"Tororo solar project II","operatingCapacityCoverage":{"coveragePercent":100.0,"knownUnitCount":1,"method":"complete_unit_sum","provenance":{"evidenceCount":0,"recordIds":["wattlas-record-gemunit-g100001024020"],"sourceIds":["gem-global-integrated-power-tracker"],"sourceTypes":["research_verified"],"valueKind":"reported"},"totalUnitCount":1},"operatingCapacityMw":14.3,"operatingCapacityMwByTechnology":{"solar":14.3},"plannedCapacityCoverage":{"coveragePercent":0.0,"knownUnitCount":0,"method":"unavailable","totalUnitCount":0},"plannedCapacityMw":0.0,"plannedCapacityMwByTechnology":{},"recordCount":1,"recordIds":["wattlas-record-gemunit-g100001024020"],"sourceIds":["gem-global-integrated-power-tracker"],"sourceUrl":"https://www.gem.wiki/Tororo_solar_project_II","technologies":["solar"],"technologyMixMw":{"solar":14.3},"unitCount":1,"unitIds":["gem-unit-G100001024020"]},"type":"Feature"},{"geometry":{"coordinates":[34.0187,0.5505],"type":"Point"},"id":"wattlas-plant-gemplant-l100001021052","properties":{"aliases":["--","Busia solar project"],"canonicalAnchor":"gemplant:L100001021052","canonicalCountryKey":"UG","capacityMw":4.2,"country":"UG","externalIds":{"gemPlant":"L100001021052","gemUnit":"G100001024021"},"gemWikiUrl":"https://www.gem.wiki/Busia_solar_project","geographyId":"UG-17295835B57878138064711","id":"wattlas-plant-gemplant-l100001021052","lifecycleCounts":{"operational":1},"locationPrecision":"exact","name":"Busia solar project","operatingCapacityCoverage":{"coveragePercent":100.0,"knownUnitCount":1,"method":"complete_unit_sum","provenance":{"evidenceCount":0,"recordIds":["wattlas-record-gemunit-g100001024021"],"sourceIds":["gem-global-integrated-power-tracker"],"sourceTypes":["research_verified"],"valueKind":"reported"},"totalUnitCount":1},"operatingCapacityMw":4.2,"operatingCapacityMwByTechnology":{"solar":4.2},"plannedCapacityCoverage":{"coveragePercent":0.0,"knownUnitCount":0,"method":"unavailable","totalUnitCount":0},"plannedCapacityMw":0.0,"plannedCapacityMwByTechnology":{},"recordCount":1,"recordIds":["wattlas-record-gemunit-g100001024021"],"sourceIds":["gem-global-integrated-power-tracker"],"sourceUrl":"https://www.gem.wiki/Busia_solar_project","technologies":["solar"],"technologyMixMw":{"solar":4.2},"unitCount":1,"unitIds":["gem-unit-G100001024021"]},"type":"Feature"},{"geometry":{"coordinates":[31.8204,0.149],"type":"Point"},"id":"wattlas-plant-gemplant-l100001021053","properties":{"aliases":["--","Gomba solar project"],"canonicalAnchor":"gemplant:L100001021053","canonicalCountryKey":"UG","capacityMw":12.8,"country":"UG","externalIds":{"gemPlant":"L100001021053","gemUnit":"G100001024022"},"gemWikiUrl":"https://www.gem.wiki/Gomba_solar_project","geographyId":"UG-17295835B48340970483027","id":"wattlas-plant-gemplant-l100001021053","lifecycleCounts":{"operational":1},"locationPrecision":"exact","name":"Gomba solar project","operatingCapacityCoverage":{"coveragePercent":100.0,"knownUnitCount":1,"method":"complete_unit_sum","provenance":{"evidenceCount":0,"recordIds":["wattlas-record-gemunit-g100001024022"],"sourceIds":["gem-global-integrated-power-tracker"],"sourceTypes":["research_verified"],"valueKind":"reported"},"totalUnitCount":1},"operatingCapacityMw":12.8,"operatingCapacityMwByTechnology":{"solar":12.8},"plannedCapacityCoverage":{"coveragePercent":0.0,"knownUnitCount":0,"method":"unavailable","totalUnitCount":0},"plannedCapacityMw":0.0,"plannedCapacityMwByTechnology":{},"recordCount":1,"recordIds":["wattlas-record-gemunit-g100001024022"],"sourceIds":["gem-global-integrated-power-tracker"],"sourceUrl":"https://www.gem.wiki/Gomba_solar_project","technologies":["solar"],"technologyMixMw":{"solar":12.8},"unitCount":1,"unitIds":["gem-unit-G100001024022"]},"type":"Feature"},{"geometry":{"coordinates":[31.8204,0.1565],"type":"Point"},"id":"wattlas-plant-gemplant-l100001021054","properties":{"aliases":["--","Kanoni solar project"],"canonicalAnchor":"gemplant:L100001021054","canonicalCountryKey":"UG","capacityMw":7.4,"country":"UG","externalIds":{"gemPlant":"L100001021054","gemUnit":"G100001024023"},"gemWikiUrl":"https://www.gem.wiki/Kanoni_solar_project","geographyId":"UG-17295835B48340970483027","id":"wattlas-plant-gemplant-l100001021054","lifecycleCounts":{"operational":1},"locationPrecision":"exact","name":"Kanoni solar project","operatingCapacityCoverage":{"coveragePercent":100.0,"knownUnitCount":1,"method":"complete_unit_sum","provenance":{"evidenceCount":0,"recordIds":["wattlas-record-gemunit-g100001024023"],"sourceIds":["gem-global-integrated-power-tracker"],"sourceTypes":["research_verified"],"valueKind":"reported"},"totalUnitCount":1},"operatingCapacityMw":7.4,"operatingCapacityMwByTechnology":{"solar":7.4},"plannedCapacityCoverage":{"coveragePercent":0.0,"knownUnitCount":0,"method":"unavailable","totalUnitCount":0},"plannedCapacityMw":0.0,"plannedCapacityMwByTechnology":{},"recordCount":1,"recordIds":["wattlas-record-gemunit-g100001024023"],"sourceIds":["gem-global-integrated-power-tracker"],"sourceUrl":"https://www.gem.wiki/Kanoni_solar_project","technologies":["solar"],"technologyMixMw":{"solar":7.4},"unitCount":1,"unitIds":["gem-unit-G100001024023"]},"type":"Feature"},{"geometry":{"coordinates":[32.945,0.379813],"type":"Point"},"id":"wattlas-plant-gemplant-l100001046302","properties":{"aliases":["1.0","2.0","Lugazi Sugar power station"],"canonicalAnchor":"gemplant:L100001046302","canonicalCountryKey":"UG","capacityMw":35.5,"country":"UG","externalIdAliases":{"gemUnit":["G100001052292","G100001052293"]},"externalIds":{"gemPlant":"L100001046302","gemUnit":"G100001052293"},"gemWikiUrl":"https://www.gem.wiki/Lugazi_Sugar_power_station","geographyId":"UG-17295835B48340970483027","id":"wattlas-plant-gemplant-l100001046302","lifecycleCounts":{"announced":1,"operational":1},"locationPrecision":"exact","name":"Lugazi Sugar power station","operatingCapacityCoverage":{"coveragePercent":100.0,"knownUnitCount":1,"method":"complete_unit_sum","provenance":{"evidenceCount":0,"recordIds":["wattlas-record-gemunit-g100001052292"],"sourceIds":["gem-global-integrated-power-tracker"],"sourceTypes":["research_verified"],"valueKind":"reported"},"totalUnitCount":1},"operatingCapacityMw":9.5,"operatingCapacityMwByTechnology":{"biomass":9.5},"plannedCapacityCoverage":{"coveragePercent":100.0,"knownUnitCount":1,"method":"complete_unit_sum","provenance":{"evidenceCount":0,"recordIds":["wattlas-record-gemunit-g100001052293"],"sourceIds":["gem-global-integrated-power-tracker"],"sourceTypes":["research_verified"],"valueKind":"reported"},"totalUnitCount":1},"plannedCapacityMw":26.0,"plannedCapacityMwByTechnology":{"biomass":26.0},"recordCount":2,"recordIds":["wattlas-record-gemunit-g100001052292","wattlas-record-gemunit-g100001052293"],"sourceIds":["gem-global-integrated-power-tracker"],"sourceUrl":"https://www.gem.wiki/Lugazi_Sugar_power_station","technologies":["biomass"],"technologyMixMw":{"biomass":35.5},"unitCount":2,"unitIds":["gem-unit-G100001052292","gem-unit-G100001052293"]},"type":"Feature"},{"geometry":{"coordinates":[33.486806,0.945951],"type":"Point"},"id":"wattlas-plant-gemplant-l100001046303","properties":{"aliases":["--","Kaliro Sugar power station"],"canonicalAnchor":"gemplant:L100001046303","canonicalCountryKey":"UG","capacityMw":12.0,"country":"UG","externalIds":{"gemPlant":"L100001046303","gemUnit":"G100001052294"},"gemWikiUrl":"https://www.gem.wiki/Kaliro_Sugar_power_station","geographyId":"UG-17295835B57878138064711","id":"wattlas-plant-gemplant-l100001046303","lifecycleCounts":{"operational":1},"locationPrecision":"exact","name":"Kaliro Sugar power station","operatingCapacityCoverage":{"coveragePercent":100.0,"knownUnitCount":1,"method":"complete_unit_sum","provenance":{"evidenceCount":0,"recordIds":["wattlas-record-gemunit-g100001052294"],"sourceIds":["gem-global-integrated-power-tracker"],"sourceTypes":["research_verified"],"valueKind":"reported"},"totalUnitCount":1},"operatingCapacityMw":12.0,"operatingCapacityMwByTechnology":{"biomass":12.0},"plannedCapacityCoverage":{"coveragePercent":0.0,"knownUnitCount":0,"method":"unavailable","totalUnitCount":0},"plannedCapacityMw":0.0,"plannedCapacityMwByTechnology":{},"recordCount":1,"recordIds":["wattlas-record-gemunit-g100001052294"],"sourceIds":["gem-global-integrated-power-tracker"],"sourceUrl":"https://www.gem.wiki/Kaliro_Sugar_power_station","technologies":["biomass"],"technologyMixMw":{"biomass":12.0},"unitCount":1,"unitIds":["gem-unit-G100001052294"]},"type":"Feature"},{"geometry":{"coordinates":[33.415715,0.50559],"type":"Point"},"id":"wattlas-plant-gemplant-l100001046304","properties":{"aliases":["--","Mayuge Sugar power station"],"canonicalAnchor":"gemplant:L100001046304","canonicalCountryKey":"UG","capacityMw":9.2,"country":"UG","externalIds":{"gemPlant":"L100001046304","gemUnit":"G100001052296"},"gemWikiUrl":"https://www.gem.wiki/Mayuge_Sugar_power_station","geographyId":"UG-17295835B57878138064711","id":"wattlas-plant-gemplant-l100001046304","lifecycleCounts":{"operational":1},"locationPrecision":"exact","name":"Mayuge Sugar power station","operatingCapacityCoverage":{"coveragePercent":100.0,"knownUnitCount":1,"method":"complete_unit_sum","provenance":{"evidenceCount":0,"recordIds":["wattlas-record-gemunit-g100001052296"],"sourceIds":["gem-global-integrated-power-tracker"],"sourceTypes":["research_verified"],"valueKind":"reported"},"totalUnitCount":1},"operatingCapacityMw":9.2,"operatingCapacityMwByTechnology":{"biomass":9.2},"plannedCapacityCoverage":{"coveragePercent":0.0,"knownUnitCount":0,"method":"unavailable","totalUnitCount":0},"plannedCapacityMw":0.0,"plannedCapacityMwByTechnology":{},"recordCount":1,"recordIds":["wattlas-record-gemunit-g100001052296"],"sourceIds":["gem-global-integrated-power-tracker"],"sourceUrl":"https://www.gem.wiki/Mayuge_Sugar_power_station","technologies":["biomass"],"technologyMixMw":{"biomass":9.2},"unitCount":1,"unitIds":["gem-unit-G100001052296"]},"type":"Feature"},{"geometry":{"coordinates":[32.5145,3.1293],"type":"Point"},"id":"wattlas-plant-gemplant-l100001081890","properties":{"aliases":["Achwa I hydroelectric plant"],"canonicalAnchor":"gemplant:L100001081890","canonicalCountryKey":"UG","capacityMw":42.0,"country":"UG","externalIds":{"gemPlant":"L100001081890","gemUnit":"G100001092208"},"gemWikiUrl":"https://www.gem.wiki/Achwa_I_hydroelectric_plant","geographyId":"UG-17295835B80141219017784","id":"wattlas-plant-gemplant-l100001081890","lifecycleCounts":{"operational":1},"locationPrecision":"exact","name":"Achwa I hydroelectric plant","operatingCapacityCoverage":{"coveragePercent":100.0,"knownUnitCount":1,"method":"complete_unit_sum","provenance":{"evidenceCount":0,"recordIds":["wattlas-record-gemunit-g100001092208"],"sourceIds":["gem-global-integrated-power-tracker"],"sourceTypes":["research_verified"],"valueKind":"reported"},"totalUnitCount":1},"operatingCapacityMw":42.0,"operatingCapacityMwByTechnology":{"hydro":42.0},"plannedCapacityCoverage":{"coveragePercent":0.0,"knownUnitCount":0,"method":"unavailable","totalUnitCount":0},"plannedCapacityMw":0.0,"plannedCapacityMwByTechnology":{},"recordCount":1,"recordIds":["wattlas-record-gemunit-g100001092208"],"sourceIds":["gem-global-integrated-power-tracker"],"sourceUrl":"https://www.gem.wiki/Achwa_I_hydroelectric_plant","technologies":["hydro"],"technologyMixMw":{"hydro":42.0},"unitCount":1,"unitIds":["gem-unit-G100001092208"]},"type":"Feature"},{"geometry":{"coordinates":[32.5176,3.148],"type":"Point"},"id":"wattlas-plant-gemplant-l100001081892","properties":{"aliases":["Achwa II hydroelectric plant"],"canonicalAnchor":"gemplant:L100001081892","canonicalCountryKey":"UG","capacityMw":42.0,"country":"UG","externalIds":{"gemPlant":"L100001081892","gemUnit":"G100001092210"},"gemWikiUrl":"https://www.gem.wiki/Achwa_II_hydroelectric_plant","geographyId":"UG-17295835B80141219017784","id":"wattlas-plant-gemplant-l100001081892","lifecycleCounts":{"operational":1},"locationPrecision":"exact","name":"Achwa II hydroelectric plant","operatingCapacityCoverage":{"coveragePercent":100.0,"knownUnitCount":1,"method":"complete_unit_sum","provenance":{"evidenceCount":0,"recordIds":["wattlas-record-gemunit-g100001092210"],"sourceIds":["gem-global-integrated-power-tracker"],"sourceTypes":["research_verified"],"valueKind":"reported"},"totalUnitCount":1},"operatingCapacityMw":42.0,"operatingCapacityMwByTechnology":{"hydro":42.0},"plannedCapacityCoverage":{"coveragePercent":0.0,"knownUnitCount":0,"method":"unavailable","totalUnitCount":0},"plannedCapacityMw":0.0,"plannedCapacityMwByTechnology":{},"recordCount":1,"recordIds":["wattlas-record-gemunit-g100001092210"],"sourceIds":["gem-global-integrated-power-tracker"],"sourceUrl":"https://www.gem.wiki/Achwa_II_hydroelectric_plant","technologies":["hydro"],"technologyMixMw":{"hydro":42.0},"unitCount":1,"unitIds":["gem-unit-G100001092210"]},"type":"Feature"},{"geometry":{"coordinates":[31.1613,3.12647],"type":"Point"},"id":"wattlas-plant-osm-node-9852465837","properties":{"aliases":["Mapped power plant · OSM 9852465837"],"canonicalAnchor":"osm:node/9852465837","canonicalCountryKey":"UG","capacityMw":0.0,"country":"UG","externalIds":{"osm":"node/9852465837"},"geographyId":"UG-17295835B80141219017784","id":"wattlas-plant-osm-node-9852465837","lifecycleCounts":{"operational":1},"locationPrecision":"exact","name":"Mapped power plant · OSM 9852465837","operatingCapacityCoverage":{"coveragePercent":0.0,"knownUnitCount":0,"method":"unavailable","totalUnitCount":0},"operatingCapacityMw":0.0,"operatingCapacityMwByTechnology":{},"plannedCapacityCoverage":{"coveragePercent":0.0,"knownUnitCount":0,"method":"unavailable","totalUnitCount":0},"plannedCapacityMw":0.0,"plannedCapacityMwByTechnology":{},"recordCount":1,"recordIds":["wattlas-record-osm-node-9852465837"],"sourceIds":["openstreetmap-power"],"sourceUrl":"https://www.openstreetmap.org/node/9852465837","technologies":["other"],"technologyMixMw":{"other":0.0},"unitCount":0,"unitIds":[]},"type":"Feature"},{"geometry":{"coordinates":[29.984537,0.599405],"type":"Point"},"id":"wattlas-plant-osm-way-1040443793","properties":{"aliases":["Ndugutu"],"canonicalAnchor":"osm:way/1040443793","canonicalCountryKey":"UG","capacityMw":5.9,"country":"UG","externalIds":{"osm":"way/1040443793"},"geographyId":"UG-17295835B91329899113986","id":"wattlas-plant-osm-way-1040443793","lifecycleCounts":{"operational":1},"locationPrecision":"exact","name":"Ndugutu","operatingCapacityCoverage":{"coveragePercent":100.0,"knownUnitCount":0,"method":"plant_aggregate","provenance":{"evidenceCount":0,"recordIds":["wattlas-record-osm-way-1040443793"],"sourceIds":["openstreetmap-power"],"sourceTypes":["community_mapped"],"valueKind":"reported"},"totalUnitCount":0},"operatingCapacityMw":5.9,"operatingCapacityMwByTechnology":{"hydro":5.9},"plannedCapacityCoverage":{"coveragePercent":0.0,"knownUnitCount":0,"method":"unavailable","totalUnitCount":0},"plannedCapacityMw":0.0,"plannedCapacityMwByTechnology":{},"recordCount":1,"recordIds":["wattlas-record-osm-way-1040443793"],"sourceIds":["openstreetmap-power"],"sourceUrl":"https://www.openstreetmap.org/way/1040443793","technologies":["hydro"],"technologyMixMw":{"hydro":5.9},"unitCount":0,"unitIds":[]},"type":"Feature"},{"geometry":{"coordinates":[34.139317,0.590408],"type":"Point"},"id":"wattlas-plant-osm-way-1145471809","properties":{"aliases":["Tororo South"],"canonicalAnchor":"osm:way/1145471809","canonicalCountryKey":"UG","capacityMw":10.0,"country":"UG","externalIds":{"osm":"way/1145471809"},"geographyId":"UG-17295835B57878138064711","id":"wattlas-plant-osm-way-1145471809","lifecycleCounts":{"operational":1},"locationPrecision":"exact","name":"Tororo South","operatingCapacityCoverage":{"coveragePercent":100.0,"knownUnitCount":0,"method":"plant_aggregate","provenance":{"evidenceCount":0,"recordIds":["wattlas-record-osm-way-1145471809"],"sourceIds":["openstreetmap-power"],"sourceTypes":["community_mapped"],"valueKind":"reported"},"totalUnitCount":0},"operatingCapacityMw":10.0,"operatingCapacityMwByTechnology":{"solar":10.0},"plannedCapacityCoverage":{"coveragePercent":0.0,"knownUnitCount":0,"method":"unavailable","totalUnitCount":0},"plannedCapacityMw":0.0,"plannedCapacityMwByTechnology":{},"recordCount":1,"recordIds":["wattlas-record-osm-way-1145471809"],"sourceIds":["openstreetmap-power"],"sourceUrl":"https://www.openstreetmap.org/way/1145471809","technologies":["solar"],"technologyMixMw":{"solar":10.0},"unitCount":0,"unitIds":[]},"type":"Feature"},{"geometry":{"coordinates":[34.018437,0.550581],"type":"Point"},"id":"wattlas-plant-osm-way-1191626456","properties":{"aliases":["Busitema University Solar Farm"],"canonicalAnchor":"osm:way/1191626456","canonicalCountryKey":"UG","capacityMw":4.0,"country":"UG","externalIds":{"osm":"way/1191626456"},"geographyId":"UG-17295835B57878138064711","id":"wattlas-plant-osm-way-1191626456","lifecycleCounts":{"operational":1},"locationPrecision":"exact","name":"Busitema University Solar Farm","operatingCapacityCoverage":{"coveragePercent":100.0,"knownUnitCount":0,"method":"plant_aggregate","provenance":{"evidenceCount":0,"recordIds":["wattlas-record-osm-way-1191626456"],"sourceIds":["openstreetmap-power"],"sourceTypes":["community_mapped"],"valueKind":"reported"},"totalUnitCount":0},"operatingCapacityMw":4.0,"operatingCapacityMwByTechnology":{"solar":4.0},"plannedCapacityCoverage":{"coveragePercent":0.0,"knownUnitCount":0,"method":"unavailable","totalUnitCount":0},"plannedCapacityMw":0.0,"plannedCapacityMwByTechnology":{},"recordCount":1,"recordIds":["wattlas-record-osm-way-1191626456"],"sourceIds":["openstreetmap-power"],"sourceUrl":"https://www.openstreetmap.org/way/1191626456","technologies":["solar"],"technologyMixMw":{"solar":4.0},"unitCount":0,"unitIds":[]},"type":"Feature"},{"geometry":{"coordinates":[29.992859,0.224289],"type":"Point"},"id":"wattlas-plant-osm-way-1198474320","properties":{"aliases":["Nyamwamba II Hydroelectric Power Station"],"canonicalAnchor":"osm:way/1198474320","canonicalCountryKey":"UG","capacityMw":7.8,"country":"UG","externalIds":{"osm":"way/1198474320"},"geographyId":"UG-17295835B91329899113986","id":"wattlas-plant-osm-way-1198474320","lifecycleCounts":{"operational":1},"locationPrecision":"exact","name":"Nyamwamba II Hydroelectric Power Station","operatingCapacityCoverage":{"coveragePercent":100.0,"knownUnitCount":0,"method":"plant_aggregate","provenance":{"evidenceCount":0,"recordIds":["wattlas-record-osm-way-1198474320"],"sourceIds":["openstreetmap-power"],"sourceTypes":["community_mapped"],"valueKind":"reported"},"totalUnitCount":0},"operatingCapacityMw":7.8,"operatingCapacityMwByTechnology":{"hydro":7.8},"plannedCapacityCoverage":{"coveragePercent":0.0,"knownUnitCount":0,"method":"unavailable","totalUnitCount":0},"plannedCapacityMw":0.0,"plannedCapacityMwByTechnology":{},"recordCount":1,"recordIds":["wattlas-record-osm-way-1198474320"],"sourceIds":["openstreetmap-power"],"sourceUrl":"https://www.openstreetmap.org/way/1198474320","technologies":["hydro"],"technologyMixMw":{"hydro":7.8},"unitCount":0,"unitIds":[]},"type":"Feature"},{"geometry":{"coordinates":[30.016279,0.195975],"type":"Point"},"id":"wattlas-plant-osm-way-1198475626","properties":{"aliases":["Nyamwamba I Hydroelectric Power Station"],"canonicalAnchor":"osm:way/1198475626","canonicalCountryKey":"UG","capacityMw":7.8,"country":"UG","externalIds":{"osm":"way/1198475626"},"geographyId":"UG-17295835B91329899113986","id":"wattlas-plant-osm-way-1198475626","lifecycleCounts":{"operational":1},"locationPrecision":"exact","name":"Nyamwamba I Hydroelectric Power Station","operatingCapacityCoverage":{"coveragePercent":100.0,"knownUnitCount":0,"method":"plant_aggregate","provenance":{"evidenceCount":0,"recordIds":["wattlas-record-osm-way-1198475626"],"sourceIds":["openstreetmap-power"],"sourceTypes":["community_mapped"],"valueKind":"reported"},"totalUnitCount":0},"operatingCapacityMw":7.8,"operatingCapacityMwByTechnology":{"hydro":7.8},"plannedCapacityCoverage":{"coveragePercent":0.0,"knownUnitCount":0,"method":"unavailable","totalUnitCount":0},"plannedCapacityMw":0.0,"plannedCapacityMwByTechnology":{},"recordCount":1,"recordIds":["wattlas-record-osm-way-1198475626"],"sourceIds":["openstreetmap-power"],"sourceUrl":"https://www.openstreetmap.org/way/1198475626","technologies":["hydro"],"technologyMixMw":{"hydro":7.8},"unitCount":0,"unitIds":[]},"type":"Feature"},{"geometry":{"coordinates":[30.261079,0.471598],"type":"Point"},"id":"wattlas-plant-osm-way-1198478332","properties":{"aliases":["Mahoma Hydro Plant"],"canonicalAnchor":"osm:way/1198478332","canonicalCountryKey":"UG","capacityMw":2.7,"country":"UG","externalIds":{"osm":"way/1198478332"},"geographyId":"UG-17295835B91329899113986","id":"wattlas-plant-osm-way-1198478332","lifecycleCounts":{"operational":1},"locationPrecision":"exact","name":"Mahoma Hydro Plant","operatingCapacityCoverage":{"coveragePercent":100.0,"knownUnitCount":0,"method":"plant_aggregate","provenance":{"evidenceCount":0,"recordIds":["wattlas-record-osm-way-1198478332"],"sourceIds":["openstreetmap-power"],"sourceTypes":["community_mapped"],"valueKind":"reported"},"totalUnitCount":0},"operatingCapacityMw":2.7,"operatingCapacityMwByTechnology":{"hydro":2.7},"plannedCapacityCoverage":{"coveragePercent":0.0,"knownUnitCount":0,"method":"unavailable","totalUnitCount":0},"plannedCapacityMw":0.0,"plannedCapacityMwByTechnology":{},"recordCount":1,"recordIds":["wattlas-record-osm-way-1198478332"],"sourceIds":["openstreetmap-power"],"sourceUrl":"https://www.openstreetmap.org/way/1198478332","technologies":["hydro"],"technologyMixMw":{"hydro":2.7},"unitCount":0,"unitIds":[]},"type":"Feature"},{"geometry":{"coordinates":[30.117291,-0.209405],"type":"Point"},"id":"wattlas-plant-osm-way-1201608636","properties":{"aliases":["Kyambura"],"canonicalAnchor":"osm:way/1201608636","canonicalCountryKey":"UG","capacityMw":7.6,"country":"UG","externalIds":{"osm":"way/1201608636"},"geographyId":"UG-17295835B91329899113986","id":"wattlas-plant-osm-way-1201608636","lifecycleCounts":{"operational":1},"locationPrecision":"exact","name":"Kyambura","operatingCapacityCoverage":{"coveragePercent":100.0,"knownUnitCount":0,"method":"plant_aggregate","provenance":{"evidenceCount":0,"recordIds":["wattlas-record-osm-way-1201608636"],"sourceIds":["openstreetmap-power"],"sourceTypes":["community_mapped"],"valueKind":"reported"},"totalUnitCount":0},"operatingCapacityMw":7.6,"operatingCapacityMwByTechnology":{"hydro":7.6},"plannedCapacityCoverage":{"coveragePercent":0.0,"knownUnitCount":0,"method":"unavailable","totalUnitCount":0},"plannedCapacityMw":0.0,"plannedCapacityMwByTechnology":{},"recordCount":1,"recordIds":["wattlas-record-osm-way-1201608636"],"sourceIds":["openstreetmap-power"],"sourceUrl":"https://www.openstreetmap.org/way/1201608636","technologies":["hydro"],"technologyMixMw":{"hydro":7.6},"unitCount":0,"unitIds":[]},"type":"Feature"},{"geometry":{"coordinates":[34.666849,1.34774],"type":"Point"},"id":"wattlas-plant-osm-way-1201707696","properties":{"aliases":["Siti I"],"canonicalAnchor":"osm:way/1201707696","canonicalCountryKey":"UG","capacityMw":5.0,"country":"UG","externalIds":{"osm":"way/1201707696"},"geographyId":"UG-17295835B57878138064711","id":"wattlas-plant-osm-way-1201707696","lifecycleCounts":{"operational":1},"locationPrecision":"exact","name":"Siti I","operatingCapacityCoverage":{"coveragePercent":100.0,"knownUnitCount":0,"method":"plant_aggregate","provenance":{"evidenceCount":0,"recordIds":["wattlas-record-osm-way-1201707696"],"sourceIds":["openstreetmap-power"],"sourceTypes":["community_mapped"],"valueKind":"reported"},"totalUnitCount":0},"operatingCapacityMw":5.0,"operatingCapacityMwByTechnology":{"hydro":5.0},"plannedCapacityCoverage":{"coveragePercent":0.0,"knownUnitCount":0,"method":"unavailable","totalUnitCount":0},"plannedCapacityMw":0.0,"plannedCapacityMwByTechnology":{},"recordCount":1,"recordIds":["wattlas-record-osm-way-1201707696"],"sourceIds":["openstreetmap-power"],"sourceUrl":"https://www.openstreetmap.org/way/1201707696","technologies":["hydro"],"technologyMixMw":{"hydro":5.0},"unitCount":0,"unitIds":[]},"type":"Feature"},{"geometry":{"coordinates":[34.680828,1.374606],"type":"Point"},"id":"wattlas-plant-osm-way-1201708833","properties":{"aliases":["Siti II"],"canonicalAnchor":"osm:way/1201708833","canonicalCountryKey":"UG","capacityMw":16.5,"country":"UG","externalIds":{"osm":"way/1201708833"},"geographyId":"UG-17295835B57878138064711","id":"wattlas-plant-osm-way-1201708833","lifecycleCounts":{"operational":1},"locationPrecision":"exact","name":"Siti II","operatingCapacityCoverage":{"coveragePercent":100.0,"knownUnitCount":0,"method":"plant_aggregate","provenance":{"evidenceCount":0,"recordIds":["wattlas-record-osm-way-1201708833"],"sourceIds":["openstreetmap-power"],"sourceTypes":["community_mapped"],"valueKind":"reported"},"totalUnitCount":0},"operatingCapacityMw":16.5,"operatingCapacityMwByTechnology":{"hydro":16.5},"plannedCapacityCoverage":{"coveragePercent":0.0,"knownUnitCount":0,"method":"unavailable","totalUnitCount":0},"plannedCapacityMw":0.0,"plannedCapacityMwByTechnology":{},"recordCount":1,"recordIds":["wattlas-record-osm-way-1201708833"],"sourceIds":["openstreetmap-power"],"sourceUrl":"https://www.openstreetmap.org/way/1201708833","technologies":["hydro"],"technologyMixMw":{"hydro":16.5},"unitCount":0,"unitIds":[]},"type":"Feature"},{"geometry":{"coordinates":[31.214202,0.214716],"type":"Point"},"id":"wattlas-plant-osm-way-1424445931","properties":{"aliases":["Nkonge Solar Farm"],"canonicalAnchor":"osm:way/1424445931","canonicalCountryKey":"UG","capacityMw":20.0,"country":"UG","externalIds":{"osm":"way/1424445931"},"geographyId":"UG-17295835B48340970483027","id":"wattlas-plant-osm-way-1424445931","lifecycleCounts":{"operational":1},"locationPrecision":"exact","name":"Nkonge Solar Farm","operatingCapacityCoverage":{"coveragePercent":100.0,"knownUnitCount":0,"method":"plant_aggregate","provenance":{"evidenceCount":0,"recordIds":["wattlas-record-osm-way-1424445931"],"sourceIds":["openstreetmap-power"],"sourceTypes":["community_mapped"],"valueKind":"reported"},"totalUnitCount":0},"operatingCapacityMw":20.0,"operatingCapacityMwByTechnology":{"solar":20.0},"plannedCapacityCoverage":{"coveragePercent":0.0,"knownUnitCount":0,"method":"unavailable","totalUnitCount":0},"plannedCapacityMw":0.0,"plannedCapacityMwByTechnology":{},"recordCount":1,"recordIds":["wattlas-record-osm-way-1424445931"],"sourceIds":["openstreetmap-power"],"sourceUrl":"https://www.openstreetmap.org/way/1424445931","technologies":["solar"],"technologyMixMw":{"solar":20.0},"unitCount":0,"unitIds":[]},"type":"Feature"},{"geometry":{"coordinates":[30.20433,0.374428],"type":"Point"},"id":"wattlas-plant-osm-way-676269601","properties":{"aliases":["Rwimi Power Station"],"canonicalAnchor":"osm:way/676269601","canonicalCountryKey":"UG","capacityMw":5.5,"country":"UG","externalIds":{"osm":"way/676269601"},"geographyId":"UG-17295835B91329899113986","id":"wattlas-plant-osm-way-676269601","lifecycleCounts":{"operational":1},"locationPrecision":"exact","name":"Rwimi Power Station","operatingCapacityCoverage":{"coveragePercent":100.0,"knownUnitCount":0,"method":"plant_aggregate","provenance":{"evidenceCount":0,"recordIds":["wattlas-record-osm-way-676269601"],"sourceIds":["openstreetmap-power"],"sourceTypes":["community_mapped"],"valueKind":"reported"},"totalUnitCount":0},"operatingCapacityMw":5.5,"operatingCapacityMwByTechnology":{"hydro":5.5},"plannedCapacityCoverage":{"coveragePercent":0.0,"knownUnitCount":0,"method":"unavailable","totalUnitCount":0},"plannedCapacityMw":0.0,"plannedCapacityMwByTechnology":{},"recordCount":1,"recordIds":["wattlas-record-osm-way-676269601"],"sourceIds":["openstreetmap-power"],"sourceUrl":"https://www.openstreetmap.org/way/676269601","technologies":["hydro"],"technologyMixMw":{"hydro":5.5},"unitCount":0,"unitIds":[]},"type":"Feature"},{"geometry":{"coordinates":[30.096302,-1.312818],"type":"Point"},"id":"wattlas-plant-osm-way-733482634","properties":{"aliases":["Muvumbe"],"canonicalAnchor":"osm:way/733482634","canonicalCountryKey":"UG","capacityMw":6.5,"country":"UG","externalIds":{"osm":"way/733482634"},"geographyId":"UG-17295835B91329899113986","id":"wattlas-plant-osm-way-733482634","lifecycleCounts":{"operational":1},"locationPrecision":"exact","name":"Muvumbe","operatingCapacityCoverage":{"coveragePercent":100.0,"knownUnitCount":0,"method":"plant_aggregate","provenance":{"evidenceCount":0,"recordIds":["wattlas-record-osm-way-733482634"],"sourceIds":["openstreetmap-power"],"sourceTypes":["community_mapped"],"valueKind":"reported"},"totalUnitCount":0},"operatingCapacityMw":6.5,"operatingCapacityMwByTechnology":{"hydro":6.5},"plannedCapacityCoverage":{"coveragePercent":0.0,"knownUnitCount":0,"method":"unavailable","totalUnitCount":0},"plannedCapacityMw":0.0,"plannedCapacityMwByTechnology":{},"recordCount":1,"recordIds":["wattlas-record-osm-way-733482634"],"sourceIds":["openstreetmap-power"],"sourceUrl":"https://www.openstreetmap.org/way/733482634","technologies":["hydro"],"technologyMixMw":{"hydro":6.5},"unitCount":0,"unitIds":[]},"type":"Feature"},{"geometry":{"coordinates":[30.321275,0.066544],"type":"Point"},"id":"wattlas-plant-wikidata-q15260138","properties":{"aliases":["Mpanga Hydroelectric Power Station"],"canonicalAnchor":"wikidata:Q15260138","canonicalCountryKey":"UG","capacityMw":18.0,"country":"UG","externalIds":{"osm":"way/539927279","wikidata":"Q15260138","wikipedia":"en:Mpanga Hydroelectric Power Station"},"geographyId":"UG-17295835B91329899113986","id":"wattlas-plant-wikidata-q15260138","idAliases":["wattlas-plant-osm-way-539927279","wattlas-plant-wikipedia-en-mpanga-hydroelectric-power-station"],"lifecycleCounts":{"operational":1},"locationPrecision":"exact","name":"Mpanga Hydroelectric Power Station","operatingCapacityCoverage":{"coveragePercent":100.0,"knownUnitCount":0,"method":"plant_aggregate","provenance":{"evidenceCount":0,"recordIds":["wattlas-record-osm-way-539927279"],"sourceIds":["openstreetmap-power"],"sourceTypes":["community_mapped"],"valueKind":"reported"},"totalUnitCount":0},"operatingCapacityMw":18.0,"operatingCapacityMwByTechnology":{"hydro":18.0},"plannedCapacityCoverage":{"coveragePercent":0.0,"knownUnitCount":0,"method":"unavailable","totalUnitCount":0},"plannedCapacityMw":0.0,"plannedCapacityMwByTechnology":{},"recordCount":1,"recordIds":["wattlas-record-osm-way-539927279"],"sourceIds":["openstreetmap-power"],"sourceUrl":"https://www.openstreetmap.org/way/539927279","technologies":["hydro"],"technologyMixMw":{"hydro":18.0},"unitCount":0,"unitIds":[]},"type":"Feature"},{"geometry":{"coordinates":[30.149309,0.26034],"type":"Point"},"id":"wattlas-plant-wikidata-q15260165","properties":{"aliases":["Mubuku III Power Station"],"canonicalAnchor":"wikidata:Q15260165","canonicalCountryKey":"UG","capacityMw":9.9,"country":"UG","externalIds":{"osm":"way/254604756","wikidata":"Q15260165","wikipedia":"en:Mubuku III Hydroelectric Power Station"},"geographyId":"UG-17295835B91329899113986","id":"wattlas-plant-wikidata-q15260165","idAliases":["wattlas-plant-osm-way-254604756","wattlas-plant-wikipedia-en-mubuku-iii-hydroelectric-power-station"],"lifecycleCounts":{"operational":1},"locationPrecision":"exact","name":"Mubuku III Power Station","operatingCapacityCoverage":{"coveragePercent":100.0,"knownUnitCount":0,"method":"plant_aggregate","provenance":{"evidenceCount":0,"recordIds":["wattlas-record-osm-way-254604756"],"sourceIds":["openstreetmap-power"],"sourceTypes":["community_mapped"],"valueKind":"reported"},"totalUnitCount":0},"operatingCapacityMw":9.9,"operatingCapacityMwByTechnology":{"hydro":9.9},"plannedCapacityCoverage":{"coveragePercent":0.0,"knownUnitCount":0,"method":"unavailable","totalUnitCount":0},"plannedCapacityMw":0.0,"plannedCapacityMwByTechnology":{},"recordCount":1,"recordIds":["wattlas-record-osm-way-254604756"],"sourceIds":["openstreetmap-power"],"sourceUrl":"https://www.openstreetmap.org/way/254604756","technologies":["hydro"],"technologyMixMw":{"hydro":9.9},"unitCount":0,"unitIds":[]},"type":"Feature"},{"geometry":{"coordinates":[32.150462,-0.305648],"type":"Point"},"id":"wattlas-plant-wikidata-q18163371","properties":{"aliases":["Bukuzindu Hybrid Solar and Thermal Power Station"],"canonicalAnchor":"wikidata:Q18163371","canonicalCountryKey":"UG","capacityMw":1.6,"country":"UG","externalIds":{"osm":"way/477224318","wikidata":"Q18163371","wikipedia":"en:Bukuzindu Hybrid Solar and Thermal Power Station"},"geographyId":"UG-17295835B48340970483027","id":"wattlas-plant-wikidata-q18163371","idAliases":["wattlas-plant-osm-way-477224318","wattlas-plant-wikipedia-en-bukuzindu-hybrid-solar-and-thermal-power-stat-4ba8598f55"],"lifecycleCounts":{"operational":1},"locationPrecision":"exact","name":"Bukuzindu Hybrid Solar and Thermal Power Station","operatingCapacityCoverage":{"coveragePercent":100.0,"knownUnitCount":0,"method":"plant_aggregate","provenance":{"evidenceCount":0,"recordIds":["wattlas-record-osm-way-477224318"],"sourceIds":["openstreetmap-power"],"sourceTypes":["community_mapped"],"valueKind":"reported"},"totalUnitCount":0},"operatingCapacityMw":1.6,"operatingCapacityMwByTechnology":{"solar":1.6},"plannedCapacityCoverage":{"coveragePercent":0.0,"knownUnitCount":0,"method":"unavailable","totalUnitCount":0},"plannedCapacityMw":0.0,"plannedCapacityMwByTechnology":{},"recordCount":1,"recordIds":["wattlas-record-osm-way-477224318"],"sourceIds":["openstreetmap-power"],"sourceUrl":"https://www.openstreetmap.org/way/477224318","technologies":["solar"],"technologyMixMw":{"solar":1.6},"unitCount":0,"unitIds":[]},"type":"Feature"},{"geometry":{"coordinates":[33.486527,0.946548],"type":"Point"},"id":"wattlas-plant-wikidata-q18386727","properties":{"aliases":["Kaliro Power Station"],"canonicalAnchor":"wikidata:Q18386727","canonicalCountryKey":"UG","capacityMw":11.9,"country":"UG","externalIds":{"osm":"way/1411651202","wikidata":"Q18386727","wikipedia":"en:Kaliro Thermal Power Station"},"geographyId":"UG-17295835B57878138064711","id":"wattlas-plant-wikidata-q18386727","idAliases":["wattlas-plant-osm-way-1411651202","wattlas-plant-wikipedia-en-kaliro-thermal-power-station"],"lifecycleCounts":{"operational":1},"locationPrecision":"exact","name":"Kaliro Power Station","operatingCapacityCoverage":{"coveragePercent":100.0,"knownUnitCount":0,"method":"plant_aggregate","provenance":{"evidenceCount":0,"recordIds":["wattlas-record-osm-way-1411651202"],"sourceIds":["openstreetmap-power"],"sourceTypes":["community_mapped"],"valueKind":"reported"},"totalUnitCount":0},"operatingCapacityMw":11.9,"operatingCapacityMwByTechnology":{"biomass":11.9},"plannedCapacityCoverage":{"coveragePercent":0.0,"knownUnitCount":0,"method":"unavailable","totalUnitCount":0},"plannedCapacityMw":0.0,"plannedCapacityMwByTechnology":{},"recordCount":1,"recordIds":["wattlas-record-osm-way-1411651202"],"sourceIds":["openstreetmap-power"],"sourceUrl":"https://www.openstreetmap.org/way/1411651202","technologies":["biomass"],"technologyMixMw":{"biomass":11.9},"unitCount":0,"unitIds":[]},"type":"Feature"},{"geometry":{"coordinates":[33.413033,0.506483],"type":"Point"},"id":"wattlas-plant-wikidata-q20894753","properties":{"aliases":["Mayuge Thermal Power Station"],"canonicalAnchor":"wikidata:Q20894753","canonicalCountryKey":"UG","capacityMw":9.2,"country":"UG","externalIds":{"osm":"way/584663034","wikidata":"Q20894753","wikipedia":"en:Mayuge Thermal Power Station"},"geographyId":"UG-17295835B57878138064711","id":"wattlas-plant-wikidata-q20894753","idAliases":["wattlas-plant-osm-way-584663034","wattlas-plant-wikipedia-en-mayuge-thermal-power-station"],"lifecycleCounts":{"operational":1},"locationPrecision":"exact","name":"Mayuge Thermal Power Station","operatingCapacityCoverage":{"coveragePercent":100.0,"knownUnitCount":0,"method":"plant_aggregate","provenance":{"evidenceCount":0,"recordIds":["wattlas-record-osm-way-584663034"],"sourceIds":["openstreetmap-power"],"sourceTypes":["community_mapped"],"valueKind":"reported"},"totalUnitCount":0},"operatingCapacityMw":9.2,"operatingCapacityMwByTechnology":{"biomass":9.2},"plannedCapacityCoverage":{"coveragePercent":0.0,"knownUnitCount":0,"method":"unavailable","totalUnitCount":0},"plannedCapacityMw":0.0,"plannedCapacityMwByTechnology":{},"recordCount":1,"recordIds":["wattlas-record-osm-way-584663034"],"sourceIds":["openstreetmap-power"],"sourceUrl":"https://www.openstreetmap.org/way/584663034","technologies":["biomass"],"technologyMixMw":{"biomass":9.2},"unitCount":0,"unitIds":[]},"type":"Feature"},{"geometry":{"coordinates":[34.110978,0.630781],"type":"Point"},"id":"wattlas-plant-wikidata-q25049038","properties":{"aliases":["Tororo Solar North Power Station"],"canonicalAnchor":"wikidata:Q25049038","canonicalCountryKey":"UG","capacityMw":10.0,"country":"UG","externalIds":{"osm":"way/955569154","wikidata":"Q25049038","wikipedia":"en:Tororo Solar Power Station"},"geographyId":"UG-17295835B57878138064711","id":"wattlas-plant-wikidata-q25049038","idAliases":["wattlas-plant-osm-way-955569154","wattlas-plant-wikipedia-en-tororo-solar-power-station"],"lifecycleCounts":{"operational":1},"locationPrecision":"exact","name":"Tororo Solar North Power Station","operatingCapacityCoverage":{"coveragePercent":100.0,"knownUnitCount":0,"method":"plant_aggregate","provenance":{"evidenceCount":0,"recordIds":["wattlas-record-osm-way-955569154"],"sourceIds":["openstreetmap-power"],"sourceTypes":["community_mapped"],"valueKind":"reported"},"totalUnitCount":0},"operatingCapacityMw":10.0,"operatingCapacityMwByTechnology":{"solar":10.0},"plannedCapacityCoverage":{"coveragePercent":0.0,"knownUnitCount":0,"method":"unavailable","totalUnitCount":0},"plannedCapacityMw":0.0,"plannedCapacityMwByTechnology":{},"recordCount":1,"recordIds":["wattlas-record-osm-way-955569154"],"sourceIds":["openstreetmap-power"],"sourceUrl":"https://www.openstreetmap.org/way/955569154","technologies":["solar"],"technologyMixMw":{"solar":10.0},"unitCount":0,"unitIds":[]},"type":"Feature"},{"geometry":{"coordinates":[33.658289,1.685605],"type":"Point"},"id":"wattlas-plant-wikidata-q25049048","properties":{"aliases":["Soroti Solar Power Station"],"canonicalAnchor":"wikidata:Q25049048","canonicalCountryKey":"UG","capacityMw":10.0,"country":"UG","externalIds":{"osm":"way/1145471811","wikidata":"Q25049048"},"geographyId":"UG-17295835B57878138064711","id":"wattlas-plant-wikidata-q25049048","idAliases":["wattlas-plant-osm-way-1145471811"],"lifecycleCounts":{"operational":1},"locationPrecision":"exact","name":"Soroti Solar Power Station","operatingCapacityCoverage":{"coveragePercent":100.0,"knownUnitCount":0,"method":"plant_aggregate","provenance":{"evidenceCount":0,"recordIds":["wattlas-record-osm-way-1145471811"],"sourceIds":["openstreetmap-power"],"sourceTypes":["community_mapped"],"valueKind":"reported"},"totalUnitCount":0},"operatingCapacityMw":10.0,"operatingCapacityMwByTechnology":{"solar":10.0},"plannedCapacityCoverage":{"coveragePercent":0.0,"knownUnitCount":0,"method":"unavailable","totalUnitCount":0},"plannedCapacityMw":0.0,"plannedCapacityMwByTechnology":{},"recordCount":1,"recordIds":["wattlas-record-osm-way-1145471811"],"sourceIds":["openstreetmap-power"],"sourceUrl":"https://www.openstreetmap.org/way/1145471811","technologies":["solar"],"technologyMixMw":{"solar":10.0},"unitCount":0,"unitIds":[]},"type":"Feature"},{"geometry":{"coordinates":[31.820731,0.152096],"type":"Point"},"id":"wattlas-plant-wikidata-q25226970","properties":{"aliases":["Kabulasoke Solar Power Station"],"canonicalAnchor":"wikidata:Q25226970","canonicalCountryKey":"UG","capacityMw":20.0,"country":"UG","externalIds":{"osm":"relation/15479784","wikidata":"Q25226970"},"geographyId":"UG-17295835B48340970483027","id":"wattlas-plant-wikidata-q25226970","idAliases":["wattlas-plant-osm-relation-15479784"],"lifecycleCounts":{"operational":1},"locationPrecision":"exact","name":"Kabulasoke Solar Power Station","operatingCapacityCoverage":{"coveragePercent":100.0,"knownUnitCount":0,"method":"plant_aggregate","provenance":{"evidenceCount":0,"recordIds":["wattlas-record-osm-relation-15479784"],"sourceIds":["openstreetmap-power"],"sourceTypes":["community_mapped"],"valueKind":"reported"},"totalUnitCount":0},"operatingCapacityMw":20.0,"operatingCapacityMwByTechnology":{"solar":20.0},"plannedCapacityCoverage":{"coveragePercent":0.0,"knownUnitCount":0,"method":"unavailable","totalUnitCount":0},"plannedCapacityMw":0.0,"plannedCapacityMwByTechnology":{},"recordCount":1,"recordIds":["wattlas-record-osm-relation-15479784"],"sourceIds":["openstreetmap-power"],"sourceUrl":"https://www.openstreetmap.org/relation/15479784","technologies":["solar"],"technologyMixMw":{"solar":20.0},"unitCount":0,"unitIds":[]},"type":"Feature"},{"geometry":{"coordinates":[33.429731,0.489371],"type":"Point"},"id":"wattlas-plant-wikidata-q25226977","properties":{"aliases":["Mayuge Solar Power Station"],"canonicalAnchor":"wikidata:Q25226977","canonicalCountryKey":"UG","capacityMw":10.0,"country":"UG","externalIds":{"osm":"way/1145471810","wikidata":"Q25226977"},"geographyId":"UG-17295835B57878138064711","id":"wattlas-plant-wikidata-q25226977","idAliases":["wattlas-plant-osm-way-1145471810"],"lifecycleCounts":{"operational":1},"locationPrecision":"exact","name":"Mayuge Solar Power Station","operatingCapacityCoverage":{"coveragePercent":100.0,"knownUnitCount":0,"method":"plant_aggregate","provenance":{"evidenceCount":0,"recordIds":["wattlas-record-osm-way-1145471810"],"sourceIds":["openstreetmap-power"],"sourceTypes":["community_mapped"],"valueKind":"reported"},"totalUnitCount":0},"operatingCapacityMw":10.0,"operatingCapacityMwByTechnology":{"solar":10.0},"plannedCapacityCoverage":{"coveragePercent":0.0,"knownUnitCount":0,"method":"unavailable","totalUnitCount":0},"plannedCapacityMw":0.0,"plannedCapacityMwByTechnology":{},"recordCount":1,"recordIds":["wattlas-record-osm-way-1145471810"],"sourceIds":["openstreetmap-power"],"sourceUrl":"https://www.openstreetmap.org/way/1145471810","technologies":["solar"],"technologyMixMw":{"solar":10.0},"unitCount":0,"unitIds":[]},"type":"Feature"},{"geometry":{"coordinates":[32.5175,3.148136],"type":"Point"},"id":"wattlas-plant-wikidata-q39060927","properties":{"aliases":["Achwa 2 Hydropower Station"],"canonicalAnchor":"wikidata:Q39060927","canonicalCountryKey":"UG","capacityMw":41.0,"country":"UG","externalIds":{"osm":"way/993922441","wikidata":"Q39060927"},"geographyId":"UG-17295835B80141219017784","id":"wattlas-plant-wikidata-q39060927","idAliases":["wattlas-plant-osm-way-993922441"],"lifecycleCounts":{"operational":1},"locationPrecision":"exact","name":"Achwa 2 Hydropower Station","operatingCapacityCoverage":{"coveragePercent":100.0,"knownUnitCount":0,"method":"plant_aggregate","provenance":{"evidenceCount":0,"recordIds":["wattlas-record-osm-way-993922441"],"sourceIds":["openstreetmap-power"],"sourceTypes":["community_mapped"],"valueKind":"reported"},"totalUnitCount":0},"operatingCapacityMw":41.0,"operatingCapacityMwByTechnology":{"hydro":41.0},"plannedCapacityCoverage":{"coveragePercent":0.0,"knownUnitCount":0,"method":"unavailable","totalUnitCount":0},"plannedCapacityMw":0.0,"plannedCapacityMwByTechnology":{},"recordCount":1,"recordIds":["wattlas-record-osm-way-993922441"],"sourceIds":["openstreetmap-power"],"sourceUrl":"https://www.openstreetmap.org/way/993922441","technologies":["hydro"],"technologyMixMw":{"hydro":41.0},"unitCount":0,"unitIds":[]},"type":"Feature"},{"geometry":{"coordinates":[29.939713,0.132626],"type":"Point"},"id":"wattlas-plant-wikidata-q48804890","properties":{"aliases":["Nyamagasani I Hydroelectric Power Station"],"canonicalAnchor":"wikidata:Q48804890","canonicalCountryKey":"UG","capacityMw":15.0,"country":"UG","externalIds":{"osm":"way/1145471813","wikidata":"Q48804890"},"geographyId":"UG-17295835B91329899113986","id":"wattlas-plant-wikidata-q48804890","idAliases":["wattlas-plant-osm-way-1145471813"],"lifecycleCounts":{"operational":1},"locationPrecision":"exact","name":"Nyamagasani I Hydroelectric Power Station","operatingCapacityCoverage":{"coveragePercent":100.0,"knownUnitCount":0,"method":"plant_aggregate","provenance":{"evidenceCount":0,"recordIds":["wattlas-record-osm-way-1145471813"],"sourceIds":["openstreetmap-power"],"sourceTypes":["community_mapped"],"valueKind":"reported"},"totalUnitCount":0},"operatingCapacityMw":15.0,"operatingCapacityMwByTechnology":{"hydro":15.0},"plannedCapacityCoverage":{"coveragePercent":0.0,"knownUnitCount":0,"method":"unavailable","totalUnitCount":0},"plannedCapacityMw":0.0,"plannedCapacityMwByTechnology":{},"recordCount":1,"recordIds":["wattlas-record-osm-way-1145471813"],"sourceIds":["openstreetmap-power"],"sourceUrl":"https://www.openstreetmap.org/way/1145471813","technologies":["hydro"],"technologyMixMw":{"hydro":15.0},"unitCount":0,"unitIds":[]},"type":"Feature"},{"geometry":{"coordinates":[29.941356,0.104924],"type":"Point"},"id":"wattlas-plant-wikidata-q48806813","properties":{"aliases":["Nyamagasani II Hydroelectric Power Station"],"canonicalAnchor":"wikidata:Q48806813","canonicalCountryKey":"UG","capacityMw":6.0,"country":"UG","externalIds":{"osm":"way/1145471812","wikidata":"Q48806813"},"geographyId":"UG-17295835B91329899113986","id":"wattlas-plant-wikidata-q48806813","idAliases":["wattlas-plant-osm-way-1145471812"],"lifecycleCounts":{"operational":1},"locationPrecision":"exact","name":"Nyamagasani II Hydroelectric Power Station","operatingCapacityCoverage":{"coveragePercent":100.0,"knownUnitCount":0,"method":"plant_aggregate","provenance":{"evidenceCount":0,"recordIds":["wattlas-record-osm-way-1145471812"],"sourceIds":["openstreetmap-power"],"sourceTypes":["community_mapped"],"valueKind":"reported"},"totalUnitCount":0},"operatingCapacityMw":6.0,"operatingCapacityMwByTechnology":{"hydro":6.0},"plannedCapacityCoverage":{"coveragePercent":0.0,"knownUnitCount":0,"method":"unavailable","totalUnitCount":0},"plannedCapacityMw":0.0,"plannedCapacityMwByTechnology":{},"recordCount":1,"recordIds":["wattlas-record-osm-way-1145471812"],"sourceIds":["openstreetmap-power"],"sourceUrl":"https://www.openstreetmap.org/way/1145471812","technologies":["hydro"],"technologyMixMw":{"hydro":6.0},"unitCount":0,"unitIds":[]},"type":"Feature"},{"geometry":{"coordinates":[33.184757,0.44363],"type":"Point"},"id":"wattlas-plant-wikidata-q488982","properties":{"aliases":["Nalubaale Power Station"],"canonicalAnchor":"wikidata:Q488982","canonicalCountryKey":"UG","capacityMw":180.0,"country":"UG","externalIds":{"osm":"way/506145556","wikidata":"Q488982","wikipedia":"en:Nalubaale Hydroelectric Power Station"},"geographyId":"UG-17295835B48340970483027","id":"wattlas-plant-wikidata-q488982","idAliases":["wattlas-plant-osm-way-506145556","wattlas-plant-wikipedia-en-nalubaale-hydroelectric-power-station"],"lifecycleCounts":{"operational":1},"locationPrecision":"exact","name":"Nalubaale Power Station","operatingCapacityCoverage":{"coveragePercent":100.0,"knownUnitCount":0,"method":"plant_aggregate","provenance":{"evidenceCount":0,"recordIds":["wattlas-record-osm-way-506145556"],"sourceIds":["openstreetmap-power"],"sourceTypes":["community_mapped"],"valueKind":"reported"},"totalUnitCount":0},"operatingCapacityMw":180.0,"operatingCapacityMwByTechnology":{"hydro":180.0},"plannedCapacityCoverage":{"coveragePercent":0.0,"knownUnitCount":0,"method":"unavailable","totalUnitCount":0},"plannedCapacityMw":0.0,"plannedCapacityMwByTechnology":{},"recordCount":1,"recordIds":["wattlas-record-osm-way-506145556"],"sourceIds":["openstreetmap-power"],"sourceUrl":"https://www.openstreetmap.org/way/506145556","technologies":["hydro"],"technologyMixMw":{"hydro":180.0},"unitCount":0,"unitIds":[]},"type":"Feature"},{"geometry":{"coordinates":[32.215,-0.31],"type":"Point"},"id":"wattlas-plant-wikidata-q4986119","properties":{"aliases":["Bugala Power Station"],"canonicalAnchor":"wikidata:Q4986119","canonicalCountryKey":"UG","capacityMw":1.5,"country":"UG","externalIds":{"osm":"node/3813814057","wikidata":"Q4986119","wikipedia":"en:Bugala Thermal Power Station"},"geographyId":"UG-17295835B48340970483027","id":"wattlas-plant-wikidata-q4986119","idAliases":["wattlas-plant-osm-node-3813814057","wattlas-plant-wikipedia-en-bugala-thermal-power-station"],"lifecycleCounts":{"operational":1},"locationPrecision":"exact","name":"Bugala Power Station","operatingCapacityCoverage":{"coveragePercent":100.0,"knownUnitCount":0,"method":"plant_aggregate","provenance":{"evidenceCount":0,"recordIds":["wattlas-record-osm-node-3813814057"],"sourceIds":["openstreetmap-power"],"sourceTypes":["community_mapped"],"valueKind":"reported"},"totalUnitCount":0},"operatingCapacityMw":1.5,"operatingCapacityMwByTechnology":{"other":1.5},"plannedCapacityCoverage":{"coveragePercent":0.0,"knownUnitCount":0,"method":"unavailable","totalUnitCount":0},"plannedCapacityMw":0.0,"plannedCapacityMwByTechnology":{},"recordCount":1,"recordIds":["wattlas-record-osm-node-3813814057"],"sourceIds":["openstreetmap-power"],"sourceUrl":"https://www.openstreetmap.org/node/3813814057","technologies":["other"],"technologyMixMw":{"other":1.5},"unitCount":0,"unitIds":[]},"type":"Feature"},{"geometry":{"coordinates":[30.097919,0.305364],"type":"Point"},"id":"wattlas-plant-wikidata-q4986232","properties":{"aliases":["Bugoye Power Station"],"canonicalAnchor":"wikidata:Q4986232","canonicalCountryKey":"UG","capacityMw":13.0,"country":"UG","externalIds":{"osm":"way/671692171","wikidata":"Q4986232","wikipedia":"en:Bugoye Hydroelectric Power Station"},"geographyId":"UG-17295835B91329899113986","id":"wattlas-plant-wikidata-q4986232","idAliases":["wattlas-plant-osm-way-671692171","wattlas-plant-wikipedia-en-bugoye-hydroelectric-power-station"],"lifecycleCounts":{"operational":1},"locationPrecision":"exact","name":"Bugoye Power Station","operatingCapacityCoverage":{"coveragePercent":100.0,"knownUnitCount":0,"method":"plant_aggregate","provenance":{"evidenceCount":0,"recordIds":["wattlas-record-osm-way-671692171"],"sourceIds":["openstreetmap-power"],"sourceTypes":["community_mapped"],"valueKind":"reported"},"totalUnitCount":0},"operatingCapacityMw":13.0,"operatingCapacityMwByTechnology":{"hydro":13.0},"plannedCapacityCoverage":{"coveragePercent":0.0,"knownUnitCount":0,"method":"unavailable","totalUnitCount":0},"plannedCapacityMw":0.0,"plannedCapacityMwByTechnology":{},"recordCount":1,"recordIds":["wattlas-record-osm-way-671692171"],"sourceIds":["openstreetmap-power"],"sourceUrl":"https://www.openstreetmap.org/way/671692171","technologies":["hydro"],"technologyMixMw":{"hydro":13.0},"unitCount":0,"unitIds":[]},"type":"Feature"},{"geometry":{"coordinates":[33.137176,0.498247],"type":"Point"},"id":"wattlas-plant-wikidata-q4986717","properties":{"aliases":["Bujagali Power Station"],"canonicalAnchor":"wikidata:Q4986717","canonicalCountryKey":"UG","capacityMw":250.0,"country":"UG","externalIds":{"osm":"way/377974430","wikidata":"Q4986717","wikipedia":"en:Bujagali Hydroelectric Power Station"},"geographyId":"UG-17295835B48340970483027","id":"wattlas-plant-wikidata-q4986717","idAliases":["wattlas-plant-osm-way-377974430","wattlas-plant-wikipedia-en-bujagali-hydroelectric-power-station"],"lifecycleCounts":{"operational":1},"locationPrecision":"exact","name":"Bujagali Power Station","operatingCapacityCoverage":{"coveragePercent":100.0,"knownUnitCount":0,"method":"plant_aggregate","provenance":{"evidenceCount":0,"recordIds":["wattlas-record-osm-way-377974430"],"sourceIds":["openstreetmap-power"],"sourceTypes":["community_mapped"],"valueKind":"reported"},"totalUnitCount":0},"operatingCapacityMw":250.0,"operatingCapacityMwByTechnology":{"hydro":250.0},"plannedCapacityCoverage":{"coveragePercent":0.0,"knownUnitCount":0,"method":"unavailable","totalUnitCount":0},"plannedCapacityMw":0.0,"plannedCapacityMwByTechnology":{},"recordCount":1,"recordIds":["wattlas-record-osm-way-377974430"],"sourceIds":["openstreetmap-power"],"sourceUrl":"https://www.openstreetmap.org/way/377974430","technologies":["hydro"],"technologyMixMw":{"hydro":250.0},"unitCount":0,"unitIds":[]},"type":"Feature"},{"geometry":{"coordinates":[31.10469,1.558006],"type":"Point"},"id":"wattlas-plant-wikidata-q5001332","properties":{"aliases":["Kabalega Power Station"],"canonicalAnchor":"wikidata:Q5001332","canonicalCountryKey":"UG","capacityMw":9.0,"country":"UG","externalIds":{"osm":"way/632780737","wikidata":"Q5001332","wikipedia":"en:Kabalega Hydroelectric Power Station"},"geographyId":"UG-17295835B91329899113986","id":"wattlas-plant-wikidata-q5001332","idAliases":["wattlas-plant-osm-way-632780737","wattlas-plant-wikipedia-en-kabalega-hydroelectric-power-station"],"lifecycleCounts":{"operational":1},"locationPrecision":"exact","name":"Kabalega Power Station","operatingCapacityCoverage":{"coveragePercent":100.0,"knownUnitCount":0,"method":"plant_aggregate","provenance":{"evidenceCount":0,"recordIds":["wattlas-record-osm-way-632780737"],"sourceIds":["openstreetmap-power"],"sourceTypes":["community_mapped"],"valueKind":"reported"},"totalUnitCount":0},"operatingCapacityMw":9.0,"operatingCapacityMwByTechnology":{"hydro":9.0},"plannedCapacityCoverage":{"coveragePercent":0.0,"knownUnitCount":0,"method":"unavailable","totalUnitCount":0},"plannedCapacityMw":0.0,"plannedCapacityMwByTechnology":{},"recordCount":1,"recordIds":["wattlas-record-osm-way-632780737"],"sourceIds":["openstreetmap-power"],"sourceUrl":"https://www.openstreetmap.org/way/632780737","technologies":["hydro"],"technologyMixMw":{"hydro":9.0},"unitCount":0,"unitIds":[]},"type":"Feature"},{"geometry":{"coordinates":[32.514453,3.129331],"type":"Point"},"id":"wattlas-plant-wikidata-q55603136","properties":{"aliases":["Achwa 1 Hydropower Station"],"canonicalAnchor":"wikidata:Q55603136","canonicalCountryKey":"UG","capacityMw":42.0,"country":"UG","externalIds":{"osm":"way/1145471819","wikidata":"Q55603136"},"geographyId":"UG-17295835B80141219017784","id":"wattlas-plant-wikidata-q55603136","idAliases":["wattlas-plant-osm-way-1145471819"],"lifecycleCounts":{"operational":1},"locationPrecision":"exact","name":"Achwa 1 Hydropower Station","operatingCapacityCoverage":{"coveragePercent":100.0,"knownUnitCount":0,"method":"plant_aggregate","provenance":{"evidenceCount":0,"recordIds":["wattlas-record-osm-way-1145471819"],"sourceIds":["openstreetmap-power"],"sourceTypes":["community_mapped"],"valueKind":"reported"},"totalUnitCount":0},"operatingCapacityMw":42.0,"operatingCapacityMwByTechnology":{"hydro":42.0},"plannedCapacityCoverage":{"coveragePercent":0.0,"knownUnitCount":0,"method":"unavailable","totalUnitCount":0},"plannedCapacityMw":0.0,"plannedCapacityMwByTechnology":{},"recordCount":1,"recordIds":["wattlas-record-osm-way-1145471819"],"sourceIds":["openstreetmap-power"],"sourceUrl":"https://www.openstreetmap.org/way/1145471819","technologies":["hydro"],"technologyMixMw":{"hydro":42.0},"unitCount":0,"unitIds":[]},"type":"Feature"},{"geometry":{"coordinates":[33.042173,0.771881],"type":"Point"},"id":"wattlas-plant-wikidata-q6081090","properties":{"aliases":["Isimba Hydropower Station"],"canonicalAnchor":"wikidata:Q6081090","canonicalCountryKey":"UG","capacityMw":183.0,"country":"UG","externalIds":{"osm":"way/1145458202","wikidata":"Q6081090"},"geographyId":"UG-17295835B57878138064711","id":"wattlas-plant-wikidata-q6081090","idAliases":["wattlas-plant-osm-way-1145458202"],"lifecycleCounts":{"operational":1},"locationPrecision":"exact","name":"Isimba Hydropower Station","operatingCapacityCoverage":{"coveragePercent":100.0,"knownUnitCount":0,"method":"plant_aggregate","provenance":{"evidenceCount":0,"recordIds":["wattlas-record-osm-way-1145458202"],"sourceIds":["openstreetmap-power"],"sourceTypes":["community_mapped"],"valueKind":"reported"},"totalUnitCount":0},"operatingCapacityMw":183.0,"operatingCapacityMwByTechnology":{"hydro":183.0},"plannedCapacityCoverage":{"coveragePercent":0.0,"knownUnitCount":0,"method":"unavailable","totalUnitCount":0},"plannedCapacityMw":0.0,"plannedCapacityMwByTechnology":{},"recordCount":1,"recordIds":["wattlas-record-osm-way-1145458202"],"sourceIds":["openstreetmap-power"],"sourceUrl":"https://www.openstreetmap.org/way/1145458202","technologies":["hydro"],"technologyMixMw":{"hydro":183.0},"unitCount":0,"unitIds":[]},"type":"Feature"},{"geometry":{"coordinates":[33.290135,0.508677],"type":"Point"},"id":"wattlas-plant-wikidata-q6349473","properties":{"aliases":["Kakira Power Station"],"canonicalAnchor":"wikidata:Q6349473","canonicalCountryKey":"UG","capacityMw":51.1,"country":"UG","externalIds":{"osm":"way/377974432","wikidata":"Q6349473","wikipedia":"en:Kakira Thermal Power Station"},"geographyId":"UG-17295835B57878138064711","id":"wattlas-plant-wikidata-q6349473","idAliases":["wattlas-plant-osm-way-377974432","wattlas-plant-wikipedia-en-kakira-thermal-power-station"],"lifecycleCounts":{"operational":1},"locationPrecision":"exact","name":"Kakira Power Station","operatingCapacityCoverage":{"coveragePercent":100.0,"knownUnitCount":0,"method":"plant_aggregate","provenance":{"evidenceCount":0,"recordIds":["wattlas-record-osm-way-377974432"],"sourceIds":["openstreetmap-power"],"sourceTypes":["community_mapped"],"valueKind":"reported"},"totalUnitCount":0},"operatingCapacityMw":51.1,"operatingCapacityMwByTechnology":{"biomass":51.1},"plannedCapacityCoverage":{"coveragePercent":0.0,"knownUnitCount":0,"method":"unavailable","totalUnitCount":0},"plannedCapacityMw":0.0,"plannedCapacityMwByTechnology":{},"recordCount":1,"recordIds":["wattlas-record-osm-way-377974432"],"sourceIds":["openstreetmap-power"],"sourceUrl":"https://www.openstreetmap.org/way/377974432","technologies":["biomass"],"technologyMixMw":{"biomass":51.1},"unitCount":0,"unitIds":[]},"type":"Feature"},{"geometry":{"coordinates":[32.26702,2.245585],"type":"Point"},"id":"wattlas-plant-wikidata-q6373628","properties":{"aliases":["Karuma Hydro Power Station"],"canonicalAnchor":"wikidata:Q6373628","canonicalCountryKey":"UG","capacityMw":600.0,"country":"UG","externalIds":{"osm":"way/846731378","wikidata":"Q6373628","wikipedia":"en:Karuma Hydroelectric Power Station"},"geographyId":"UG-17295835B80141219017784","id":"wattlas-plant-wikidata-q6373628","idAliases":["wattlas-plant-osm-way-846731378","wattlas-plant-wikipedia-en-karuma-hydroelectric-power-station"],"lifecycleCounts":{"operational":1},"locationPrecision":"exact","name":"Karuma Hydro Power Station","operatingCapacityCoverage":{"coveragePercent":100.0,"knownUnitCount":0,"method":"plant_aggregate","provenance":{"evidenceCount":0,"recordIds":["wattlas-record-osm-way-846731378"],"sourceIds":["openstreetmap-power"],"sourceTypes":["community_mapped"],"valueKind":"reported"},"totalUnitCount":0},"operatingCapacityMw":600.0,"operatingCapacityMwByTechnology":{"hydro":600.0},"plannedCapacityCoverage":{"coveragePercent":0.0,"knownUnitCount":0,"method":"unavailable","totalUnitCount":0},"plannedCapacityMw":0.0,"plannedCapacityMwByTechnology":{},"recordCount":1,"recordIds":["wattlas-record-osm-way-846731378"],"sourceIds":["openstreetmap-power"],"sourceUrl":"https://www.openstreetmap.org/way/846731378","technologies":["hydro"],"technologyMixMw":{"hydro":600.0},"unitCount":0,"unitIds":[]},"type":"Feature"},{"geometry":{"coordinates":[33.185854,0.450452],"type":"Point"},"id":"wattlas-plant-wikidata-q6406092","properties":{"aliases":["Kiira Power Station"],"canonicalAnchor":"wikidata:Q6406092","canonicalCountryKey":"UG","capacityMw":200.0,"country":"UG","externalIds":{"osm":"way/171254362","wikidata":"Q6406092","wikipedia":"en:Kiira Hydroelectric Power Station"},"geographyId":"UG-17295835B48340970483027","id":"wattlas-plant-wikidata-q6406092","idAliases":["wattlas-plant-osm-way-171254362","wattlas-plant-wikipedia-en-kiira-hydroelectric-power-station"],"lifecycleCounts":{"operational":1},"locationPrecision":"exact","name":"Kiira Power Station","operatingCapacityCoverage":{"coveragePercent":100.0,"knownUnitCount":0,"method":"plant_aggregate","provenance":{"evidenceCount":0,"recordIds":["wattlas-record-osm-way-171254362"],"sourceIds":["openstreetmap-power"],"sourceTypes":["community_mapped"],"valueKind":"reported"},"totalUnitCount":0},"operatingCapacityMw":200.0,"operatingCapacityMwByTechnology":{"hydro":200.0},"plannedCapacityCoverage":{"coveragePercent":0.0,"knownUnitCount":0,"method":"unavailable","totalUnitCount":0},"plannedCapacityMw":0.0,"plannedCapacityMwByTechnology":{},"recordCount":1,"recordIds":["wattlas-record-osm-way-171254362"],"sourceIds":["openstreetmap-power"],"sourceUrl":"https://www.openstreetmap.org/way/171254362","technologies":["hydro"],"technologyMixMw":{"hydro":200.0},"unitCount":0,"unitIds":[]},"type":"Feature"},{"geometry":{"coordinates":[31.606365,1.636795],"type":"Point"},"id":"wattlas-plant-wikidata-q6414458","properties":{"aliases":["Kinyara Power Station"],"canonicalAnchor":"wikidata:Q6414458","canonicalCountryKey":"UG","capacityMw":14.5,"country":"UG","externalIds":{"osm":"way/377974433","wikidata":"Q6414458","wikipedia":"en:Kinyara Thermal Power Station"},"geographyId":"UG-17295835B91329899113986","id":"wattlas-plant-wikidata-q6414458","idAliases":["wattlas-plant-osm-way-377974433","wattlas-plant-wikipedia-en-kinyara-thermal-power-station"],"lifecycleCounts":{"operational":1},"locationPrecision":"exact","name":"Kinyara Power Station","operatingCapacityCoverage":{"coveragePercent":100.0,"knownUnitCount":0,"method":"plant_aggregate","provenance":{"evidenceCount":0,"recordIds":["wattlas-record-osm-way-377974433"],"sourceIds":["openstreetmap-power"],"sourceTypes":["community_mapped"],"valueKind":"reported"},"totalUnitCount":0},"operatingCapacityMw":14.5,"operatingCapacityMwByTechnology":{"biomass":14.5},"plannedCapacityCoverage":{"coveragePercent":0.0,"knownUnitCount":0,"method":"unavailable","totalUnitCount":0},"plannedCapacityMw":0.0,"plannedCapacityMwByTechnology":{},"recordCount":1,"recordIds":["wattlas-record-osm-way-377974433"],"sourceIds":["openstreetmap-power"],"sourceUrl":"https://www.openstreetmap.org/way/377974433","technologies":["biomass"],"technologyMixMw":{"biomass":14.5},"unitCount":0,"unitIds":[]},"type":"Feature"},{"geometry":{"coordinates":[32.944699,0.379351],"type":"Point"},"id":"wattlas-plant-wikidata-q6699741","properties":{"aliases":["Lugazi Power Station"],"canonicalAnchor":"wikidata:Q6699741","canonicalCountryKey":"UG","capacityMw":25.0,"country":"UG","externalIds":{"osm":"way/377974437","wikidata":"Q6699741"},"geographyId":"UG-17295835B48340970483027","id":"wattlas-plant-wikidata-q6699741","idAliases":["wattlas-plant-osm-way-377974437"],"lifecycleCounts":{"operational":1},"locationPrecision":"exact","name":"Lugazi Power Station","operatingCapacityCoverage":{"coveragePercent":100.0,"knownUnitCount":0,"method":"plant_aggregate","provenance":{"evidenceCount":0,"recordIds":["wattlas-record-osm-way-377974437"],"sourceIds":["openstreetmap-power"],"sourceTypes":["community_mapped"],"valueKind":"reported"},"totalUnitCount":0},"operatingCapacityMw":25.0,"operatingCapacityMwByTechnology":{"biomass":25.0},"plannedCapacityCoverage":{"coveragePercent":0.0,"knownUnitCount":0,"method":"unavailable","totalUnitCount":0},"plannedCapacityMw":0.0,"plannedCapacityMwByTechnology":{},"recordCount":1,"recordIds":["wattlas-record-osm-way-377974437"],"sourceIds":["openstreetmap-power"],"sourceUrl":"https://www.openstreetmap.org/way/377974437","technologies":["biomass"],"technologyMixMw":{"biomass":25.0},"unitCount":0,"unitIds":[]},"type":"Feature"},{"geometry":{"coordinates":[30.069291,0.327675],"type":"Point"},"id":"wattlas-plant-wikidata-q6930904","properties":{"aliases":["Mubuku I Power Station"],"canonicalAnchor":"wikidata:Q6930904","canonicalCountryKey":"UG","capacityMw":5.0,"country":"UG","externalIds":{"osm":"way/325413399","wikidata":"Q6930904","wikipedia":"en:Mubuku I Hydroelectric Power Station"},"geographyId":"UG-17295835B91329899113986","id":"wattlas-plant-wikidata-q6930904","idAliases":["wattlas-plant-osm-way-325413399","wattlas-plant-wikipedia-en-mubuku-i-hydroelectric-power-station"],"lifecycleCounts":{"operational":1},"locationPrecision":"exact","name":"Mubuku I Power Station","operatingCapacityCoverage":{"coveragePercent":100.0,"knownUnitCount":0,"method":"plant_aggregate","provenance":{"evidenceCount":0,"recordIds":["wattlas-record-osm-way-325413399"],"sourceIds":["openstreetmap-power"],"sourceTypes":["community_mapped"],"valueKind":"reported"},"totalUnitCount":0},"operatingCapacityMw":5.0,"operatingCapacityMwByTechnology":{"hydro":5.0},"plannedCapacityCoverage":{"coveragePercent":0.0,"knownUnitCount":0,"method":"unavailable","totalUnitCount":0},"plannedCapacityMw":0.0,"plannedCapacityMwByTechnology":{},"recordCount":1,"recordIds":["wattlas-record-osm-way-325413399"],"sourceIds":["openstreetmap-power"],"sourceUrl":"https://www.openstreetmap.org/way/325413399","technologies":["hydro"],"technologyMixMw":{"hydro":5.0},"unitCount":0,"unitIds":[]},"type":"Feature"},{"geometry":{"coordinates":[32.678624,0.382066],"type":"Point"},"id":"wattlas-plant-wikidata-q6961293","properties":{"aliases":["Namanve Power Station"],"canonicalAnchor":"wikidata:Q6961293","canonicalCountryKey":"UG","capacityMw":50.0,"country":"UG","externalIds":{"osm":"way/584663038","wikidata":"Q6961293","wikipedia":"en:Namanve Thermal Power Station"},"geographyId":"UG-17295835B48340970483027","id":"wattlas-plant-wikidata-q6961293","idAliases":["wattlas-plant-osm-way-584663038","wattlas-plant-wikipedia-en-namanve-thermal-power-station"],"lifecycleCounts":{"operational":1},"locationPrecision":"exact","name":"Namanve Power Station","operatingCapacityCoverage":{"coveragePercent":100.0,"knownUnitCount":0,"method":"plant_aggregate","provenance":{"evidenceCount":0,"recordIds":["wattlas-record-osm-way-584663038"],"sourceIds":["openstreetmap-power"],"sourceTypes":["community_mapped"],"valueKind":"reported"},"totalUnitCount":0},"operatingCapacityMw":50.0,"operatingCapacityMwByTechnology":{"oil":50.0},"plannedCapacityCoverage":{"coveragePercent":0.0,"knownUnitCount":0,"method":"unavailable","totalUnitCount":0},"plannedCapacityMw":0.0,"plannedCapacityMwByTechnology":{},"recordCount":1,"recordIds":["wattlas-record-osm-way-584663038"],"sourceIds":["openstreetmap-power"],"sourceUrl":"https://www.openstreetmap.org/way/584663038","technologies":["oil"],"technologyMixMw":{"oil":50.0},"unitCount":0,"unitIds":[]},"type":"Feature"},{"geometry":{"coordinates":[30.973228,2.428165],"type":"Point"},"id":"wattlas-plant-wikidata-q7070790","properties":{"aliases":["Nyagak Microhydropower"],"canonicalAnchor":"wikidata:Q7070790","canonicalCountryKey":"UG","capacityMw":3.5,"country":"UG","externalIds":{"osm":"way/189679823","wikidata":"Q7070790","wikipedia":"en:Nyagak Hydroelectric Power Station"},"geographyId":"UG-17295835B80141219017784","id":"wattlas-plant-wikidata-q7070790","idAliases":["wattlas-plant-osm-way-189679823","wattlas-plant-wikipedia-en-nyagak-hydroelectric-power-station"],"lifecycleCounts":{"operational":1},"locationPrecision":"exact","name":"Nyagak Microhydropower","operatingCapacityCoverage":{"coveragePercent":100.0,"knownUnitCount":0,"method":"plant_aggregate","provenance":{"evidenceCount":0,"recordIds":["wattlas-record-osm-way-189679823"],"sourceIds":["openstreetmap-power"],"sourceTypes":["community_mapped"],"valueKind":"reported"},"totalUnitCount":0},"operatingCapacityMw":3.5,"operatingCapacityMwByTechnology":{"hydro":3.5},"plannedCapacityCoverage":{"coveragePercent":0.0,"knownUnitCount":0,"method":"unavailable","totalUnitCount":0},"plannedCapacityMw":0.0,"plannedCapacityMwByTechnology":{},"recordCount":1,"recordIds":["wattlas-record-osm-way-189679823"],"sourceIds":["openstreetmap-power"],"sourceUrl":"https://www.openstreetmap.org/way/189679823","technologies":["hydro"],"technologyMixMw":{"hydro":3.5},"unitCount":0,"unitIds":[]},"type":"Feature"},{"geometry":{"coordinates":[34.116787,0.636869],"type":"Point"},"id":"wattlas-plant-wikidata-q7826695","properties":{"aliases":["Tororo Thermal Power Station"],"canonicalAnchor":"wikidata:Q7826695","canonicalCountryKey":"UG","capacityMw":50.0,"country":"UG","externalIds":{"osm":"way/223475419","wikidata":"Q7826695","wikipedia":"en:Tororo Thermal Power Station"},"geographyId":"UG-17295835B57878138064711","id":"wattlas-plant-wikidata-q7826695","idAliases":["wattlas-plant-osm-way-223475419","wattlas-plant-wikipedia-en-tororo-thermal-power-station"],"lifecycleCounts":{"operational":1},"locationPrecision":"exact","name":"Tororo Thermal Power Station","operatingCapacityCoverage":{"coveragePercent":100.0,"knownUnitCount":0,"method":"plant_aggregate","provenance":{"evidenceCount":0,"recordIds":["wattlas-record-osm-way-223475419"],"sourceIds":["openstreetmap-power"],"sourceTypes":["community_mapped"],"valueKind":"reported"},"totalUnitCount":0},"operatingCapacityMw":50.0,"operatingCapacityMwByTechnology":{"oil":50.0},"plannedCapacityCoverage":{"coveragePercent":0.0,"knownUnitCount":0,"method":"unavailable","totalUnitCount":0},"plannedCapacityMw":0.0,"plannedCapacityMwByTechnology":{},"recordCount":1,"recordIds":["wattlas-record-osm-way-223475419"],"sourceIds":["openstreetmap-power"],"sourceUrl":"https://www.openstreetmap.org/way/223475419","technologies":["oil"],"technologyMixMw":{"oil":50.0},"unitCount":0,"unitIds":[]},"type":"Feature"}],"type":"FeatureCollection"}