{"features":[{"geometry":{"coordinates":[1.4524,42.5327],"type":"Point"},"id":"wattlas-plant-gemplant-l100001009064","properties":{"aliases":["--","Les Valls De Valira Alt Urgell solar project"],"canonicalAnchor":"gemplant:L100001009064","canonicalCountryKey":"AD","capacityMw":1.6,"country":"AD","externalIds":{"gemPlant":"L100001009064","gemUnit":"G100001010434"},"geographyId":"AD-23515209B12259378502884","id":"wattlas-plant-gemplant-l100001009064","lifecycleCounts":{"operational":1},"locationPrecision":"exact","name":"Les Valls De Valira Alt Urgell solar project","operatingCapacityCoverage":{"coveragePercent":100.0,"knownUnitCount":1,"method":"complete_unit_sum","provenance":{"evidenceCount":0,"recordIds":["wattlas-record-gemunit-g100001010434"],"sourceIds":["gem-global-integrated-power-tracker"],"sourceTypes":["research_verified"],"valueKind":"reported"},"totalUnitCount":1},"operatingCapacityMw":1.6,"operatingCapacityMwByTechnology":{"solar":1.6},"plannedCapacityCoverage":{"coveragePercent":0.0,"knownUnitCount":0,"method":"unavailable","totalUnitCount":0},"plannedCapacityMw":0.0,"plannedCapacityMwByTechnology":{},"recordCount":1,"recordIds":["wattlas-record-gemunit-g100001010434"],"sourceIds":["gem-global-integrated-power-tracker"],"technologies":["solar"],"technologyMixMw":{"solar":1.6},"unitCount":1,"unitIds":["gem-unit-G100001010434"]},"type":"Feature"},{"geometry":{"coordinates":[1.4858,42.4562],"type":"Point"},"id":"wattlas-plant-gemplant-l100001052680","properties":{"aliases":["--","Andorra solar project"],"canonicalAnchor":"gemplant:L100001052680","canonicalCountryKey":"AD","capacityMw":1.7,"country":"AD","externalIds":{"gemPlant":"L100001052680","gemUnit":"G100001060474"},"geographyId":"AD-23515209B82836637605816","id":"wattlas-plant-gemplant-l100001052680","lifecycleCounts":{"operational":1},"locationPrecision":"exact","name":"Andorra solar project","operatingCapacityCoverage":{"coveragePercent":100.0,"knownUnitCount":1,"method":"complete_unit_sum","provenance":{"evidenceCount":0,"recordIds":["wattlas-record-gemunit-g100001060474"],"sourceIds":["gem-global-integrated-power-tracker"],"sourceTypes":["research_verified"],"valueKind":"reported"},"totalUnitCount":1},"operatingCapacityMw":1.7,"operatingCapacityMwByTechnology":{"solar":1.7},"plannedCapacityCoverage":{"coveragePercent":0.0,"knownUnitCount":0,"method":"unavailable","totalUnitCount":0},"plannedCapacityMw":0.0,"plannedCapacityMwByTechnology":{},"recordCount":1,"recordIds":["wattlas-record-gemunit-g100001060474"],"sourceIds":["gem-global-integrated-power-tracker"],"technologies":["solar"],"technologyMixMw":{"solar":1.7},"unitCount":1,"unitIds":["gem-unit-G100001060474"]},"type":"Feature"},{"geometry":{"coordinates":[1.452349,42.53274],"type":"Point"},"id":"wattlas-plant-osm-way-995328272","properties":{"aliases":["Mapped power plant · OSM 995328272"],"canonicalAnchor":"osm:way/995328272","canonicalCountryKey":"AD","capacityMw":0.0,"country":"AD","externalIds":{"osm":"way/995328272"},"geographyId":"AD-23515209B12259378502884","id":"wattlas-plant-osm-way-995328272","lifecycleCounts":{"operational":1},"locationPrecision":"exact","name":"Mapped power plant · OSM 995328272","operatingCapacityCoverage":{"coveragePercent":0.0,"knownUnitCount":0,"method":"unavailable","totalUnitCount":0},"operatingCapacityMw":0.0,"operatingCapacityMwByTechnology":{},"plannedCapacityCoverage":{"coveragePercent":0.0,"knownUnitCount":0,"method":"unavailable","totalUnitCount":0},"plannedCapacityMw":0.0,"plannedCapacityMwByTechnology":{},"recordCount":1,"recordIds":["wattlas-record-osm-way-995328272"],"sourceIds":["openstreetmap-power"],"technologies":["solar"],"technologyMixMw":{"solar":0.0},"unitCount":0,"unitIds":[]},"type":"Feature"}],"type":"FeatureCollection"}