{"features":[{"geometry":{"coordinates":[9.817752,3.967229],"type":"Point"},"id":"wattlas-plant-gemplant-l100000409048","properties":{"aliases":["1-1","Dibabmba power station"],"canonicalAnchor":"gemplant:L100000409048","canonicalCountryKey":"CM","capacityMw":88.0,"country":"CM","externalIds":{"gemPlant":"L100000409048","gemUnit":"G100000413540"},"geographyId":"CM-27767025B72594666306589","id":"wattlas-plant-gemplant-l100000409048","lifecycleCounts":{"operational":1},"locationPrecision":"exact","name":"Dibabmba power station","operatingCapacityCoverage":{"coveragePercent":100.0,"knownUnitCount":1,"method":"complete_unit_sum","provenance":{"evidenceCount":0,"recordIds":["wattlas-record-gemunit-g100000413540"],"sourceIds":["gem-global-integrated-power-tracker"],"sourceTypes":["research_verified"],"valueKind":"reported"},"totalUnitCount":1},"operatingCapacityMw":88.0,"operatingCapacityMwByTechnology":{"oil":88.0},"plannedCapacityCoverage":{"coveragePercent":0.0,"knownUnitCount":0,"method":"unavailable","totalUnitCount":0},"plannedCapacityMw":0.0,"plannedCapacityMwByTechnology":{},"recordCount":1,"recordIds":["wattlas-record-gemunit-g100000413540"],"sourceIds":["gem-global-integrated-power-tracker"],"technologies":["oil"],"technologyMixMw":{"oil":88.0},"unitCount":1,"unitIds":["gem-unit-G100000413540"]},"type":"Feature"},{"geometry":{"coordinates":[9.974822,3.033904],"type":"Point"},"id":"wattlas-plant-gemplant-l100000409049","properties":{"aliases":["1-1","Kribi power station"],"canonicalAnchor":"gemplant:L100000409049","canonicalCountryKey":"CM","capacityMw":216.0,"country":"CM","externalIds":{"gemPlant":"L100000409049","gemUnit":"G100000413541"},"geographyId":"CM-27767025B67924123829422","id":"wattlas-plant-gemplant-l100000409049","lifecycleCounts":{"operational":1},"locationPrecision":"exact","name":"Kribi power station","operatingCapacityCoverage":{"coveragePercent":100.0,"knownUnitCount":1,"method":"complete_unit_sum","provenance":{"evidenceCount":0,"recordIds":["wattlas-record-gemunit-g100000413541"],"sourceIds":["gem-global-integrated-power-tracker"],"sourceTypes":["research_verified"],"valueKind":"reported"},"totalUnitCount":1},"operatingCapacityMw":216.0,"operatingCapacityMwByTechnology":{"gas":216.0},"plannedCapacityCoverage":{"coveragePercent":0.0,"knownUnitCount":0,"method":"unavailable","totalUnitCount":0},"plannedCapacityMw":0.0,"plannedCapacityMwByTechnology":{},"recordCount":1,"recordIds":["wattlas-record-gemunit-g100000413541"],"sourceIds":["gem-global-integrated-power-tracker"],"technologies":["gas"],"technologyMixMw":{"gas":216.0},"unitCount":1,"unitIds":["gem-unit-G100000413541"]},"type":"Feature"},{"geometry":{"coordinates":[10.1278,3.8127],"type":"Point"},"id":"wattlas-plant-gemplant-l100000600387","properties":{"aliases":["Edea hydroelectric plant"],"canonicalAnchor":"gemplant:L100000600387","canonicalCountryKey":"CM","capacityMw":276.0,"country":"CM","externalIds":{"gemPlant":"L100000600387","gemUnit":"G100000600388"},"geographyId":"CM-27767025B72594666306589","id":"wattlas-plant-gemplant-l100000600387","lifecycleCounts":{"operational":1},"locationPrecision":"exact","name":"Edea hydroelectric plant","operatingCapacityCoverage":{"coveragePercent":100.0,"knownUnitCount":1,"method":"complete_unit_sum","provenance":{"evidenceCount":0,"recordIds":["wattlas-record-gemunit-g100000600388"],"sourceIds":["gem-global-integrated-power-tracker"],"sourceTypes":["research_verified"],"valueKind":"reported"},"totalUnitCount":1},"operatingCapacityMw":276.0,"operatingCapacityMwByTechnology":{"hydro":276.0},"plannedCapacityCoverage":{"coveragePercent":0.0,"knownUnitCount":0,"method":"unavailable","totalUnitCount":0},"plannedCapacityMw":0.0,"plannedCapacityMwByTechnology":{},"recordCount":1,"recordIds":["wattlas-record-gemunit-g100000600388"],"sourceIds":["gem-global-integrated-power-tracker"],"technologies":["hydro"],"technologyMixMw":{"hydro":276.0},"unitCount":1,"unitIds":["gem-unit-G100000600388"]},"type":"Feature"},{"geometry":{"coordinates":[10.6301,4.0728],"type":"Point"},"id":"wattlas-plant-gemplant-l100000600388","properties":{"aliases":["Grand Eweng hydroelectric plant"],"canonicalAnchor":"gemplant:L100000600388","canonicalCountryKey":"CM","capacityMw":1800.0,"country":"CM","externalIds":{"gemPlant":"L100000600388","gemUnit":"G100000600389"},"geographyId":"CM-27767025B72594666306589","id":"wattlas-plant-gemplant-l100000600388","lifecycleCounts":{"announced":1},"locationPrecision":"exact","name":"Grand Eweng hydroelectric plant","operatingCapacityCoverage":{"coveragePercent":0.0,"knownUnitCount":0,"method":"unavailable","totalUnitCount":0},"operatingCapacityMw":0.0,"operatingCapacityMwByTechnology":{},"plannedCapacityCoverage":{"coveragePercent":100.0,"knownUnitCount":1,"method":"complete_unit_sum","provenance":{"evidenceCount":0,"recordIds":["wattlas-record-gemunit-g100000600389"],"sourceIds":["gem-global-integrated-power-tracker"],"sourceTypes":["research_verified"],"valueKind":"reported"},"totalUnitCount":1},"plannedCapacityMw":1800.0,"plannedCapacityMwByTechnology":{"hydro":1800.0},"recordCount":1,"recordIds":["wattlas-record-gemunit-g100000600389"],"sourceIds":["gem-global-integrated-power-tracker"],"technologies":["hydro"],"technologyMixMw":{"hydro":1800.0},"unitCount":1,"unitIds":["gem-unit-G100000600389"]},"type":"Feature"},{"geometry":{"coordinates":[10.3993,2.3959],"type":"Point"},"id":"wattlas-plant-gemplant-l100000600390","properties":{"aliases":["Memve'ele hydroelectric plant"],"canonicalAnchor":"gemplant:L100000600390","canonicalCountryKey":"CM","capacityMw":211.0,"country":"CM","externalIds":{"gemPlant":"L100000600390","gemUnit":"G100000600391"},"geographyId":"CM-27767025B67924123829422","id":"wattlas-plant-gemplant-l100000600390","lifecycleCounts":{"operational":1},"locationPrecision":"exact","name":"Memve'ele hydroelectric plant","operatingCapacityCoverage":{"coveragePercent":100.0,"knownUnitCount":1,"method":"complete_unit_sum","provenance":{"evidenceCount":0,"recordIds":["wattlas-record-gemunit-g100000600391"],"sourceIds":["gem-global-integrated-power-tracker"],"sourceTypes":["research_verified"],"valueKind":"reported"},"totalUnitCount":1},"operatingCapacityMw":211.0,"operatingCapacityMwByTechnology":{"hydro":211.0},"plannedCapacityCoverage":{"coveragePercent":0.0,"knownUnitCount":0,"method":"unavailable","totalUnitCount":0},"plannedCapacityMw":0.0,"plannedCapacityMwByTechnology":{},"recordCount":1,"recordIds":["wattlas-record-gemunit-g100000600391"],"sourceIds":["gem-global-integrated-power-tracker"],"technologies":["hydro"],"technologyMixMw":{"hydro":211.0},"unitCount":1,"unitIds":["gem-unit-G100000600391"]},"type":"Feature"},{"geometry":{"coordinates":[11.6152,4.3541],"type":"Point"},"id":"wattlas-plant-gemplant-l100000600391","properties":{"aliases":["Nachtigal hydroelectric plant"],"canonicalAnchor":"gemplant:L100000600391","canonicalCountryKey":"CM","capacityMw":420.0,"country":"CM","externalIds":{"gemPlant":"L100000600391","gemUnit":"G100000600392"},"geographyId":"CM-27767025B11866847137657","id":"wattlas-plant-gemplant-l100000600391","lifecycleCounts":{"operational":1},"locationPrecision":"exact","name":"Nachtigal hydroelectric plant","operatingCapacityCoverage":{"coveragePercent":100.0,"knownUnitCount":1,"method":"complete_unit_sum","provenance":{"evidenceCount":0,"recordIds":["wattlas-record-gemunit-g100000600392"],"sourceIds":["gem-global-integrated-power-tracker"],"sourceTypes":["research_verified"],"valueKind":"reported"},"totalUnitCount":1},"operatingCapacityMw":420.0,"operatingCapacityMwByTechnology":{"hydro":420.0},"plannedCapacityCoverage":{"coveragePercent":0.0,"knownUnitCount":0,"method":"unavailable","totalUnitCount":0},"plannedCapacityMw":0.0,"plannedCapacityMwByTechnology":{},"recordCount":1,"recordIds":["wattlas-record-gemunit-g100000600392"],"sourceIds":["gem-global-integrated-power-tracker"],"technologies":["hydro"],"technologyMixMw":{"hydro":420.0},"unitCount":1,"unitIds":["gem-unit-G100000600392"]},"type":"Feature"},{"geometry":{"coordinates":[10.4639,4.0787],"type":"Point"},"id":"wattlas-plant-gemplant-l100000600393","properties":{"aliases":["Song Loulou hydroelectric plant"],"canonicalAnchor":"gemplant:L100000600393","canonicalCountryKey":"CM","capacityMw":396.0,"country":"CM","externalIds":{"gemPlant":"L100000600393","gemUnit":"G100000600394"},"geographyId":"CM-27767025B72594666306589","id":"wattlas-plant-gemplant-l100000600393","lifecycleCounts":{"operational":1},"locationPrecision":"exact","name":"Song Loulou hydroelectric plant","operatingCapacityCoverage":{"coveragePercent":100.0,"knownUnitCount":1,"method":"complete_unit_sum","provenance":{"evidenceCount":0,"recordIds":["wattlas-record-gemunit-g100000600394"],"sourceIds":["gem-global-integrated-power-tracker"],"sourceTypes":["research_verified"],"valueKind":"reported"},"totalUnitCount":1},"operatingCapacityMw":396.0,"operatingCapacityMwByTechnology":{"hydro":396.0},"plannedCapacityCoverage":{"coveragePercent":0.0,"knownUnitCount":0,"method":"unavailable","totalUnitCount":0},"plannedCapacityMw":0.0,"plannedCapacityMwByTechnology":{},"recordCount":1,"recordIds":["wattlas-record-gemunit-g100000600394"],"sourceIds":["gem-global-integrated-power-tracker"],"technologies":["hydro"],"technologyMixMw":{"hydro":396.0},"unitCount":1,"unitIds":["gem-unit-G100000600394"]},"type":"Feature"},{"geometry":{"coordinates":[13.3621,9.3271],"type":"Point"},"id":"wattlas-plant-gemplant-l100000800120","properties":{"aliases":["--","Garoua solar farm"],"canonicalAnchor":"gemplant:L100000800120","canonicalCountryKey":"CM","capacityMw":30.0,"country":"CM","externalIds":{"gemPlant":"L100000800120","gemUnit":"G100000800156"},"geographyId":"CM-27767025B7666404469333","id":"wattlas-plant-gemplant-l100000800120","lifecycleCounts":{"operational":1},"locationPrecision":"exact","name":"Garoua solar farm","operatingCapacityCoverage":{"coveragePercent":100.0,"knownUnitCount":1,"method":"complete_unit_sum","provenance":{"evidenceCount":0,"recordIds":["wattlas-record-gemunit-g100000800156"],"sourceIds":["gem-global-integrated-power-tracker"],"sourceTypes":["research_verified"],"valueKind":"reported"},"totalUnitCount":1},"operatingCapacityMw":30.0,"operatingCapacityMwByTechnology":{"solar":30.0},"plannedCapacityCoverage":{"coveragePercent":0.0,"knownUnitCount":0,"method":"unavailable","totalUnitCount":0},"plannedCapacityMw":0.0,"plannedCapacityMwByTechnology":{},"recordCount":1,"recordIds":["wattlas-record-gemunit-g100000800156"],"sourceIds":["gem-global-integrated-power-tracker"],"technologies":["solar"],"technologyMixMw":{"solar":30.0},"unitCount":1,"unitIds":["gem-unit-G100000800156"]},"type":"Feature"},{"geometry":{"coordinates":[13.9234,9.8804],"type":"Point"},"id":"wattlas-plant-gemplant-l100000811571","properties":{"aliases":["1.0","Guider solar farm","extension"],"canonicalAnchor":"gemplant:L100000811571","canonicalCountryKey":"CM","capacityMw":26.7,"country":"CM","externalIdAliases":{"gemUnit":["G100000814079","G100001021387"]},"externalIds":{"gemPlant":"L100000811571","gemUnit":"G100001021387"},"geographyId":"CM-27767025B7666404469333","id":"wattlas-plant-gemplant-l100000811571","lifecycleCounts":{"operational":1,"under_construction":1},"locationPrecision":"exact","name":"Guider solar farm","operatingCapacityCoverage":{"coveragePercent":100.0,"knownUnitCount":1,"method":"complete_unit_sum","provenance":{"evidenceCount":0,"recordIds":["wattlas-record-gemunit-g100000814079"],"sourceIds":["gem-global-integrated-power-tracker"],"sourceTypes":["research_verified"],"valueKind":"reported"},"totalUnitCount":1},"operatingCapacityMw":17.9,"operatingCapacityMwByTechnology":{"solar":17.9},"plannedCapacityCoverage":{"coveragePercent":100.0,"knownUnitCount":1,"method":"complete_unit_sum","provenance":{"evidenceCount":0,"recordIds":["wattlas-record-gemunit-g100001021387"],"sourceIds":["gem-global-integrated-power-tracker"],"sourceTypes":["research_verified"],"valueKind":"reported"},"totalUnitCount":1},"plannedCapacityMw":8.8,"plannedCapacityMwByTechnology":{"solar":8.8},"recordCount":2,"recordIds":["wattlas-record-gemunit-g100000814079","wattlas-record-gemunit-g100001021387"],"sourceIds":["gem-global-integrated-power-tracker"],"technologies":["solar"],"technologyMixMw":{"solar":26.7},"unitCount":2,"unitIds":["gem-unit-G100000814079","gem-unit-G100001021387"]},"type":"Feature"},{"geometry":{"coordinates":[14.347,10.6448],"type":"Point"},"id":"wattlas-plant-gemplant-l100000811572","properties":{"aliases":["1.0","Extension","Maroua solar farm"],"canonicalAnchor":"gemplant:L100000811572","canonicalCountryKey":"CM","capacityMw":37.7,"country":"CM","externalIdAliases":{"gemUnit":["G100000814080","G100001021389"]},"externalIds":{"gemPlant":"L100000811572","gemUnit":"G100001021389"},"geographyId":"CM-27767025B65184844379073","id":"wattlas-plant-gemplant-l100000811572","lifecycleCounts":{"operational":1,"under_construction":1},"locationPrecision":"exact","name":"Maroua solar farm","operatingCapacityCoverage":{"coveragePercent":100.0,"knownUnitCount":1,"method":"complete_unit_sum","provenance":{"evidenceCount":0,"recordIds":["wattlas-record-gemunit-g100000814080"],"sourceIds":["gem-global-integrated-power-tracker"],"sourceTypes":["research_verified"],"valueKind":"reported"},"totalUnitCount":1},"operatingCapacityMw":17.9,"operatingCapacityMwByTechnology":{"solar":17.9},"plannedCapacityCoverage":{"coveragePercent":100.0,"knownUnitCount":1,"method":"complete_unit_sum","provenance":{"evidenceCount":0,"recordIds":["wattlas-record-gemunit-g100001021389"],"sourceIds":["gem-global-integrated-power-tracker"],"sourceTypes":["research_verified"],"valueKind":"reported"},"totalUnitCount":1},"plannedCapacityMw":19.8,"plannedCapacityMwByTechnology":{"solar":19.8},"recordCount":2,"recordIds":["wattlas-record-gemunit-g100000814080","wattlas-record-gemunit-g100001021389"],"sourceIds":["gem-global-integrated-power-tracker"],"technologies":["solar"],"technologyMixMw":{"solar":37.7},"unitCount":2,"unitIds":["gem-unit-G100000814080","gem-unit-G100001021389"]},"type":"Feature"},{"geometry":{"coordinates":[9.7154,4.016],"type":"Point"},"id":"wattlas-plant-gemplant-l100001020884","properties":{"aliases":["--","Douala Ii Wouri solar project"],"canonicalAnchor":"gemplant:L100001020884","canonicalCountryKey":"CM","capacityMw":1.1,"country":"CM","externalIds":{"gemPlant":"L100001020884","gemUnit":"G100001023853"},"geographyId":"CM-27767025B72594666306589","id":"wattlas-plant-gemplant-l100001020884","lifecycleCounts":{"operational":1},"locationPrecision":"exact","name":"Douala Ii Wouri solar project","operatingCapacityCoverage":{"coveragePercent":100.0,"knownUnitCount":1,"method":"complete_unit_sum","provenance":{"evidenceCount":0,"recordIds":["wattlas-record-gemunit-g100001023853"],"sourceIds":["gem-global-integrated-power-tracker"],"sourceTypes":["research_verified"],"valueKind":"reported"},"totalUnitCount":1},"operatingCapacityMw":1.1,"operatingCapacityMwByTechnology":{"solar":1.1},"plannedCapacityCoverage":{"coveragePercent":0.0,"knownUnitCount":0,"method":"unavailable","totalUnitCount":0},"plannedCapacityMw":0.0,"plannedCapacityMwByTechnology":{},"recordCount":1,"recordIds":["wattlas-record-gemunit-g100001023853"],"sourceIds":["gem-global-integrated-power-tracker"],"technologies":["solar"],"technologyMixMw":{"solar":1.1},"unitCount":1,"unitIds":["gem-unit-G100001023853"]},"type":"Feature"},{"geometry":{"coordinates":[13.6871,9.0607],"type":"Point"},"id":"wattlas-plant-gemplant-l100001046045","properties":{"aliases":["Lagdo hydroelectric plant"],"canonicalAnchor":"gemplant:L100001046045","canonicalCountryKey":"CM","capacityMw":72.0,"country":"CM","externalIds":{"gemPlant":"L100001046045","gemUnit":"G100001051931"},"geographyId":"CM-27767025B7666404469333","id":"wattlas-plant-gemplant-l100001046045","lifecycleCounts":{"operational":1},"locationPrecision":"exact","name":"Lagdo hydroelectric plant","operatingCapacityCoverage":{"coveragePercent":100.0,"knownUnitCount":1,"method":"complete_unit_sum","provenance":{"evidenceCount":0,"recordIds":["wattlas-record-gemunit-g100001051931"],"sourceIds":["gem-global-integrated-power-tracker"],"sourceTypes":["research_verified"],"valueKind":"reported"},"totalUnitCount":1},"operatingCapacityMw":72.0,"operatingCapacityMwByTechnology":{"hydro":72.0},"plannedCapacityCoverage":{"coveragePercent":0.0,"knownUnitCount":0,"method":"unavailable","totalUnitCount":0},"plannedCapacityMw":0.0,"plannedCapacityMwByTechnology":{},"recordCount":1,"recordIds":["wattlas-record-gemunit-g100001051931"],"sourceIds":["gem-global-integrated-power-tracker"],"technologies":["hydro"],"technologyMixMw":{"hydro":72.0},"unitCount":1,"unitIds":["gem-unit-G100001051931"]},"type":"Feature"},{"geometry":{"coordinates":[13.5025,5.382],"type":"Point"},"id":"wattlas-plant-gemplant-l100001081967","properties":{"aliases":["Lom Pangar hydroelectric plant"],"canonicalAnchor":"gemplant:L100001081967","canonicalCountryKey":"CM","capacityMw":30.0,"country":"CM","externalIds":{"gemPlant":"L100001081967","gemUnit":"G100001092292"},"geographyId":"CM-27767025B81519146961984","id":"wattlas-plant-gemplant-l100001081967","lifecycleCounts":{"operational":1},"locationPrecision":"exact","name":"Lom Pangar hydroelectric plant","operatingCapacityCoverage":{"coveragePercent":100.0,"knownUnitCount":1,"method":"complete_unit_sum","provenance":{"evidenceCount":0,"recordIds":["wattlas-record-gemunit-g100001092292"],"sourceIds":["gem-global-integrated-power-tracker"],"sourceTypes":["research_verified"],"valueKind":"reported"},"totalUnitCount":1},"operatingCapacityMw":30.0,"operatingCapacityMwByTechnology":{"hydro":30.0},"plannedCapacityCoverage":{"coveragePercent":0.0,"knownUnitCount":0,"method":"unavailable","totalUnitCount":0},"plannedCapacityMw":0.0,"plannedCapacityMwByTechnology":{},"recordCount":1,"recordIds":["wattlas-record-gemunit-g100001092292"],"sourceIds":["gem-global-integrated-power-tracker"],"technologies":["hydro"],"technologyMixMw":{"hydro":30.0},"unitCount":1,"unitIds":["gem-unit-G100001092292"]},"type":"Feature"},{"geometry":{"coordinates":[12.80853,6.304729],"type":"Point"},"id":"wattlas-plant-osm-node-6208644727","properties":{"aliases":["Mini Centrale Hydro de Mbakaou"],"canonicalAnchor":"osm:node/6208644727","canonicalCountryKey":"CM","capacityMw":1.4,"country":"CM","externalIds":{"osm":"node/6208644727"},"geographyId":"CM-27767025B32580592296844","id":"wattlas-plant-osm-node-6208644727","lifecycleCounts":{"operational":1},"locationPrecision":"exact","name":"Mini Centrale Hydro de Mbakaou","operatingCapacityCoverage":{"coveragePercent":100.0,"knownUnitCount":0,"method":"plant_aggregate","provenance":{"evidenceCount":0,"recordIds":["wattlas-record-osm-node-6208644727"],"sourceIds":["openstreetmap-power"],"sourceTypes":["community_mapped"],"valueKind":"reported"},"totalUnitCount":0},"operatingCapacityMw":1.4,"operatingCapacityMwByTechnology":{"hydro":1.4},"plannedCapacityCoverage":{"coveragePercent":0.0,"knownUnitCount":0,"method":"unavailable","totalUnitCount":0},"plannedCapacityMw":0.0,"plannedCapacityMwByTechnology":{},"recordCount":1,"recordIds":["wattlas-record-osm-node-6208644727"],"sourceIds":["openstreetmap-power"],"technologies":["hydro"],"technologyMixMw":{"hydro":1.4},"unitCount":0,"unitIds":[]},"type":"Feature"},{"geometry":{"coordinates":[13.923566,9.879821],"type":"Point"},"id":"wattlas-plant-osm-way-1153466956","properties":{"aliases":["Centrale Solaire de Guider"],"canonicalAnchor":"osm:way/1153466956","canonicalCountryKey":"CM","capacityMw":18.0,"country":"CM","externalIds":{"osm":"way/1153466956"},"geographyId":"CM-27767025B7666404469333","id":"wattlas-plant-osm-way-1153466956","lifecycleCounts":{"operational":1},"locationPrecision":"exact","name":"Centrale Solaire de Guider","operatingCapacityCoverage":{"coveragePercent":100.0,"knownUnitCount":0,"method":"plant_aggregate","provenance":{"evidenceCount":0,"recordIds":["wattlas-record-osm-way-1153466956"],"sourceIds":["openstreetmap-power"],"sourceTypes":["community_mapped"],"valueKind":"reported"},"totalUnitCount":0},"operatingCapacityMw":18.0,"operatingCapacityMwByTechnology":{"solar":18.0},"plannedCapacityCoverage":{"coveragePercent":0.0,"knownUnitCount":0,"method":"unavailable","totalUnitCount":0},"plannedCapacityMw":0.0,"plannedCapacityMwByTechnology":{},"recordCount":1,"recordIds":["wattlas-record-osm-way-1153466956"],"sourceIds":["openstreetmap-power"],"technologies":["solar"],"technologyMixMw":{"solar":18.0},"unitCount":0,"unitIds":[]},"type":"Feature"},{"geometry":{"coordinates":[14.34654,10.644727],"type":"Point"},"id":"wattlas-plant-osm-way-1284665738","properties":{"aliases":["Centrale Solaire de Maroua"],"canonicalAnchor":"osm:way/1284665738","canonicalCountryKey":"CM","capacityMw":18.0,"country":"CM","externalIds":{"osm":"way/1284665738"},"geographyId":"CM-27767025B65184844379073","id":"wattlas-plant-osm-way-1284665738","lifecycleCounts":{"operational":1},"locationPrecision":"exact","name":"Centrale Solaire de Maroua","operatingCapacityCoverage":{"coveragePercent":100.0,"knownUnitCount":0,"method":"plant_aggregate","provenance":{"evidenceCount":0,"recordIds":["wattlas-record-osm-way-1284665738"],"sourceIds":["openstreetmap-power"],"sourceTypes":["community_mapped"],"valueKind":"reported"},"totalUnitCount":0},"operatingCapacityMw":18.0,"operatingCapacityMwByTechnology":{"solar":18.0},"plannedCapacityCoverage":{"coveragePercent":0.0,"knownUnitCount":0,"method":"unavailable","totalUnitCount":0},"plannedCapacityMw":0.0,"plannedCapacityMwByTechnology":{},"recordCount":1,"recordIds":["wattlas-record-osm-way-1284665738"],"sourceIds":["openstreetmap-power"],"technologies":["solar"],"technologyMixMw":{"solar":18.0},"unitCount":0,"unitIds":[]},"type":"Feature"},{"geometry":{"coordinates":[13.925677,9.879931],"type":"Point"},"id":"wattlas-plant-osm-way-1284667345","properties":{"aliases":["Centrale Thermique Aggreko de Guider"],"canonicalAnchor":"osm:way/1284667345","canonicalCountryKey":"CM","capacityMw":10.0,"country":"CM","externalIds":{"osm":"way/1284667345"},"geographyId":"CM-27767025B7666404469333","id":"wattlas-plant-osm-way-1284667345","lifecycleCounts":{"operational":1},"locationPrecision":"exact","name":"Centrale Thermique Aggreko de Guider","operatingCapacityCoverage":{"coveragePercent":100.0,"knownUnitCount":0,"method":"plant_aggregate","provenance":{"evidenceCount":0,"recordIds":["wattlas-record-osm-way-1284667345"],"sourceIds":["openstreetmap-power"],"sourceTypes":["community_mapped"],"valueKind":"reported"},"totalUnitCount":0},"operatingCapacityMw":10.0,"operatingCapacityMwByTechnology":{"other":10.0},"plannedCapacityCoverage":{"coveragePercent":0.0,"knownUnitCount":0,"method":"unavailable","totalUnitCount":0},"plannedCapacityMw":0.0,"plannedCapacityMwByTechnology":{},"recordCount":1,"recordIds":["wattlas-record-osm-way-1284667345"],"sourceIds":["openstreetmap-power"],"technologies":["other"],"technologyMixMw":{"other":10.0},"unitCount":0,"unitIds":[]},"type":"Feature"},{"geometry":{"coordinates":[13.673625,4.614353],"type":"Point"},"id":"wattlas-plant-osm-way-479560652","properties":{"aliases":["Centrale Thermique de Mokolo 4"],"canonicalAnchor":"osm:way/479560652","canonicalCountryKey":"CM","capacityMw":0.0,"country":"CM","externalIds":{"osm":"way/479560652"},"geographyId":"CM-27767025B81519146961984","id":"wattlas-plant-osm-way-479560652","lifecycleCounts":{"operational":1},"locationPrecision":"exact","name":"Centrale Thermique de Mokolo 4","operatingCapacityCoverage":{"coveragePercent":0.0,"knownUnitCount":0,"method":"unavailable","totalUnitCount":0},"operatingCapacityMw":0.0,"operatingCapacityMwByTechnology":{},"plannedCapacityCoverage":{"coveragePercent":0.0,"knownUnitCount":0,"method":"unavailable","totalUnitCount":0},"plannedCapacityMw":0.0,"plannedCapacityMwByTechnology":{},"recordCount":1,"recordIds":["wattlas-record-osm-way-479560652"],"sourceIds":["openstreetmap-power"],"technologies":["other"],"technologyMixMw":{"other":0.0},"unitCount":0,"unitIds":[]},"type":"Feature"},{"geometry":{"coordinates":[10.454145,3.697499],"type":"Point"},"id":"wattlas-plant-osm-way-647168950","properties":{"aliases":["Ancien site Sonel"],"canonicalAnchor":"osm:way/647168950","canonicalCountryKey":"CM","capacityMw":0.0,"country":"CM","externalIds":{"osm":"way/647168950"},"geographyId":"CM-27767025B11866847137657","id":"wattlas-plant-osm-way-647168950","lifecycleCounts":{"operational":1},"locationPrecision":"exact","name":"Ancien site Sonel","operatingCapacityCoverage":{"coveragePercent":0.0,"knownUnitCount":0,"method":"unavailable","totalUnitCount":0},"operatingCapacityMw":0.0,"operatingCapacityMwByTechnology":{},"plannedCapacityCoverage":{"coveragePercent":0.0,"knownUnitCount":0,"method":"unavailable","totalUnitCount":0},"plannedCapacityMw":0.0,"plannedCapacityMwByTechnology":{},"recordCount":1,"recordIds":["wattlas-record-osm-way-647168950"],"sourceIds":["openstreetmap-power"],"technologies":["other"],"technologyMixMw":{"other":0.0},"unitCount":0,"unitIds":[]},"type":"Feature"},{"geometry":{"coordinates":[14.337428,10.62652],"type":"Point"},"id":"wattlas-plant-osm-way-840712264","properties":{"aliases":["Centrale thermique de Maroua"],"canonicalAnchor":"osm:way/840712264","canonicalCountryKey":"CM","capacityMw":10.0,"country":"CM","externalIds":{"osm":"way/840712264"},"geographyId":"CM-27767025B65184844379073","id":"wattlas-plant-osm-way-840712264","lifecycleCounts":{"operational":1},"locationPrecision":"exact","name":"Centrale thermique de Maroua","operatingCapacityCoverage":{"coveragePercent":100.0,"knownUnitCount":0,"method":"plant_aggregate","provenance":{"evidenceCount":0,"recordIds":["wattlas-record-osm-way-840712264"],"sourceIds":["openstreetmap-power"],"sourceTypes":["community_mapped"],"valueKind":"reported"},"totalUnitCount":0},"operatingCapacityMw":10.0,"operatingCapacityMwByTechnology":{"oil":10.0},"plannedCapacityCoverage":{"coveragePercent":0.0,"knownUnitCount":0,"method":"unavailable","totalUnitCount":0},"plannedCapacityMw":0.0,"plannedCapacityMwByTechnology":{},"recordCount":1,"recordIds":["wattlas-record-osm-way-840712264"],"sourceIds":["openstreetmap-power"],"technologies":["oil"],"technologyMixMw":{"oil":10.0},"unitCount":0,"unitIds":[]},"type":"Feature"},{"geometry":{"coordinates":[9.761327,4.035877],"type":"Point"},"id":"wattlas-plant-osm-way-840726196","properties":{"aliases":["Centrale thermique de Logbaba"],"canonicalAnchor":"osm:way/840726196","canonicalCountryKey":"CM","capacityMw":30.0,"country":"CM","externalIds":{"osm":"way/840726196"},"geographyId":"CM-27767025B72594666306589","id":"wattlas-plant-osm-way-840726196","lifecycleCounts":{"operational":1},"locationPrecision":"exact","name":"Centrale thermique de Logbaba","operatingCapacityCoverage":{"coveragePercent":100.0,"knownUnitCount":0,"method":"plant_aggregate","provenance":{"evidenceCount":0,"recordIds":["wattlas-record-osm-way-840726196"],"sourceIds":["openstreetmap-power"],"sourceTypes":["community_mapped"],"valueKind":"reported"},"totalUnitCount":0},"operatingCapacityMw":30.0,"operatingCapacityMwByTechnology":{"gas":30.0},"plannedCapacityCoverage":{"coveragePercent":0.0,"knownUnitCount":0,"method":"unavailable","totalUnitCount":0},"plannedCapacityMw":0.0,"plannedCapacityMwByTechnology":{},"recordCount":1,"recordIds":["wattlas-record-osm-way-840726196"],"sourceIds":["openstreetmap-power"],"technologies":["gas"],"technologyMixMw":{"gas":30.0},"unitCount":0,"unitIds":[]},"type":"Feature"},{"geometry":{"coordinates":[9.715371,4.015959],"type":"Point"},"id":"wattlas-plant-osm-way-936493148","properties":{"aliases":["Douala International Airport"],"canonicalAnchor":"osm:way/936493148","canonicalCountryKey":"CM","capacityMw":1.2,"country":"CM","externalIds":{"osm":"way/936493148"},"geographyId":"CM-27767025B72594666306589","id":"wattlas-plant-osm-way-936493148","lifecycleCounts":{"operational":1},"locationPrecision":"exact","name":"Douala International Airport","operatingCapacityCoverage":{"coveragePercent":100.0,"knownUnitCount":0,"method":"plant_aggregate","provenance":{"evidenceCount":0,"recordIds":["wattlas-record-osm-way-936493148"],"sourceIds":["openstreetmap-power"],"sourceTypes":["community_mapped"],"valueKind":"reported"},"totalUnitCount":0},"operatingCapacityMw":1.2,"operatingCapacityMwByTechnology":{"solar":1.2},"plannedCapacityCoverage":{"coveragePercent":0.0,"knownUnitCount":0,"method":"unavailable","totalUnitCount":0},"plannedCapacityMw":0.0,"plannedCapacityMwByTechnology":{},"recordCount":1,"recordIds":["wattlas-record-osm-way-936493148"],"sourceIds":["openstreetmap-power"],"technologies":["solar"],"technologyMixMw":{"solar":1.2},"unitCount":0,"unitIds":[]},"type":"Feature"},{"geometry":{"coordinates":[11.716448,4.380198],"type":"Point"},"id":"wattlas-plant-wikidata-q100344657","properties":{"aliases":["Barrage Hydroélectrique de Nachtigal"],"canonicalAnchor":"wikidata:Q100344657","canonicalCountryKey":"CM","capacityMw":420.0,"country":"CM","externalIds":{"osm":"way/944841134","wikidata":"Q100344657"},"geographyId":"CM-27767025B11866847137657","id":"wattlas-plant-wikidata-q100344657","idAliases":["wattlas-plant-osm-way-944841134"],"lifecycleCounts":{"operational":1},"locationPrecision":"exact","name":"Barrage Hydroélectrique de Nachtigal","operatingCapacityCoverage":{"coveragePercent":100.0,"knownUnitCount":0,"method":"plant_aggregate","provenance":{"evidenceCount":0,"recordIds":["wattlas-record-osm-way-944841134"],"sourceIds":["openstreetmap-power"],"sourceTypes":["community_mapped"],"valueKind":"reported"},"totalUnitCount":0},"operatingCapacityMw":420.0,"operatingCapacityMwByTechnology":{"hydro":420.0},"plannedCapacityCoverage":{"coveragePercent":0.0,"knownUnitCount":0,"method":"unavailable","totalUnitCount":0},"plannedCapacityMw":0.0,"plannedCapacityMwByTechnology":{},"recordCount":1,"recordIds":["wattlas-record-osm-way-944841134"],"sourceIds":["openstreetmap-power"],"technologies":["hydro"],"technologyMixMw":{"hydro":420.0},"unitCount":0,"unitIds":[]},"type":"Feature"},{"geometry":{"coordinates":[13.687043,9.060775],"type":"Point"},"id":"wattlas-plant-wikidata-q11982932","properties":{"aliases":["Centrale hydroélectrique de Lagdo"],"canonicalAnchor":"wikidata:Q11982932","canonicalCountryKey":"CM","capacityMw":72.0,"country":"CM","externalIds":{"osm":"way/255606494","wikidata":"Q11982932"},"geographyId":"CM-27767025B7666404469333","id":"wattlas-plant-wikidata-q11982932","idAliases":["wattlas-plant-osm-way-255606494"],"lifecycleCounts":{"operational":1},"locationPrecision":"exact","name":"Centrale hydroélectrique de Lagdo","operatingCapacityCoverage":{"coveragePercent":100.0,"knownUnitCount":0,"method":"plant_aggregate","provenance":{"evidenceCount":0,"recordIds":["wattlas-record-osm-way-255606494"],"sourceIds":["openstreetmap-power"],"sourceTypes":["community_mapped"],"valueKind":"reported"},"totalUnitCount":0},"operatingCapacityMw":72.0,"operatingCapacityMwByTechnology":{"hydro":72.0},"plannedCapacityCoverage":{"coveragePercent":0.0,"knownUnitCount":0,"method":"unavailable","totalUnitCount":0},"plannedCapacityMw":0.0,"plannedCapacityMwByTechnology":{},"recordCount":1,"recordIds":["wattlas-record-osm-way-255606494"],"sourceIds":["openstreetmap-power"],"technologies":["hydro"],"technologyMixMw":{"hydro":72.0},"unitCount":0,"unitIds":[]},"type":"Feature"},{"geometry":{"coordinates":[9.819719,3.996281],"type":"Point"},"id":"wattlas-plant-wikidata-q28040005","properties":{"aliases":["Centrale thermique de Yassa-Dibamba"],"canonicalAnchor":"wikidata:Q28040005","canonicalCountryKey":"CM","capacityMw":86.0,"country":"CM","externalIds":{"osm":"way/454407399","wikidata":"Q28040005","wikipedia":"fr:Centrale thermique de Yassa-Dibamba"},"geographyId":"CM-27767025B72594666306589","id":"wattlas-plant-wikidata-q28040005","idAliases":["wattlas-plant-osm-way-454407399","wattlas-plant-wikipedia-fr-centrale-thermique-de-yassa-dibamba"],"lifecycleCounts":{"operational":1},"locationPrecision":"exact","name":"Centrale thermique de Yassa-Dibamba","operatingCapacityCoverage":{"coveragePercent":100.0,"knownUnitCount":0,"method":"plant_aggregate","provenance":{"evidenceCount":0,"recordIds":["wattlas-record-osm-way-454407399"],"sourceIds":["openstreetmap-power"],"sourceTypes":["community_mapped"],"valueKind":"reported"},"totalUnitCount":0},"operatingCapacityMw":86.0,"operatingCapacityMwByTechnology":{"oil":86.0},"plannedCapacityCoverage":{"coveragePercent":0.0,"knownUnitCount":0,"method":"unavailable","totalUnitCount":0},"plannedCapacityMw":0.0,"plannedCapacityMwByTechnology":{},"recordCount":1,"recordIds":["wattlas-record-osm-way-454407399"],"sourceIds":["openstreetmap-power"],"technologies":["oil"],"technologyMixMw":{"oil":86.0},"unitCount":0,"unitIds":[]},"type":"Feature"},{"geometry":{"coordinates":[10.348759,2.373195],"type":"Point"},"id":"wattlas-plant-wikidata-q28041340","properties":{"aliases":["Centrale hydroélectrique de Memve'ele"],"canonicalAnchor":"wikidata:Q28041340","canonicalCountryKey":"CM","capacityMw":211.0,"country":"CM","externalIds":{"osm":"way/840719533","wikidata":"Q28041340"},"geographyId":"CM-27767025B67924123829422","id":"wattlas-plant-wikidata-q28041340","idAliases":["wattlas-plant-osm-way-840719533"],"lifecycleCounts":{"operational":1},"locationPrecision":"exact","name":"Centrale hydroélectrique de Memve'ele","operatingCapacityCoverage":{"coveragePercent":100.0,"knownUnitCount":0,"method":"plant_aggregate","provenance":{"evidenceCount":0,"recordIds":["wattlas-record-osm-way-840719533"],"sourceIds":["openstreetmap-power"],"sourceTypes":["community_mapped"],"valueKind":"reported"},"totalUnitCount":0},"operatingCapacityMw":211.0,"operatingCapacityMwByTechnology":{"hydro":211.0},"plannedCapacityCoverage":{"coveragePercent":0.0,"knownUnitCount":0,"method":"unavailable","totalUnitCount":0},"plannedCapacityMw":0.0,"plannedCapacityMwByTechnology":{},"recordCount":1,"recordIds":["wattlas-record-osm-way-840719533"],"sourceIds":["openstreetmap-power"],"technologies":["hydro"],"technologyMixMw":{"hydro":211.0},"unitCount":0,"unitIds":[]},"type":"Feature"},{"geometry":{"coordinates":[10.128057,3.813338],"type":"Point"},"id":"wattlas-plant-wikidata-q5336726","properties":{"aliases":["Barrage hydroélectrique d'Édéa"],"canonicalAnchor":"wikidata:Q5336726","canonicalCountryKey":"CM","capacityMw":276.0,"country":"CM","externalIds":{"osm":"way/477145794","wikidata":"Q5336726","wikipedia":"fr:Barrage hydroélectrique d'Édéa"},"geographyId":"CM-27767025B72594666306589","id":"wattlas-plant-wikidata-q5336726","idAliases":["wattlas-plant-osm-way-477145794","wattlas-plant-wikipedia-fr-barrage-hydro-lectrique-d-d-a"],"lifecycleCounts":{"operational":1},"locationPrecision":"exact","name":"Barrage hydroélectrique d'Édéa","operatingCapacityCoverage":{"coveragePercent":100.0,"knownUnitCount":0,"method":"plant_aggregate","provenance":{"evidenceCount":0,"recordIds":["wattlas-record-osm-way-477145794"],"sourceIds":["openstreetmap-power"],"sourceTypes":["community_mapped"],"valueKind":"reported"},"totalUnitCount":0},"operatingCapacityMw":276.0,"operatingCapacityMwByTechnology":{"hydro":276.0},"plannedCapacityCoverage":{"coveragePercent":0.0,"knownUnitCount":0,"method":"unavailable","totalUnitCount":0},"plannedCapacityMw":0.0,"plannedCapacityMwByTechnology":{},"recordCount":1,"recordIds":["wattlas-record-osm-way-477145794"],"sourceIds":["openstreetmap-power"],"technologies":["hydro"],"technologyMixMw":{"hydro":276.0},"unitCount":0,"unitIds":[]},"type":"Feature"},{"geometry":{"coordinates":[12.421777,3.258937],"type":"Point"},"id":"wattlas-plant-wikidata-q60846071","properties":{"aliases":["Centrale hydroélectrique de Mékin"],"canonicalAnchor":"wikidata:Q60846071","canonicalCountryKey":"CM","capacityMw":15.0,"country":"CM","externalIds":{"osm":"relation/12590035","wikidata":"Q60846071"},"geographyId":"CM-27767025B67924123829422","id":"wattlas-plant-wikidata-q60846071","idAliases":["wattlas-plant-osm-relation-12590035"],"lifecycleCounts":{"operational":1},"locationPrecision":"exact","name":"Centrale hydroélectrique de Mékin","operatingCapacityCoverage":{"coveragePercent":100.0,"knownUnitCount":0,"method":"plant_aggregate","provenance":{"evidenceCount":0,"recordIds":["wattlas-record-osm-relation-12590035"],"sourceIds":["openstreetmap-power"],"sourceTypes":["community_mapped"],"valueKind":"reported"},"totalUnitCount":0},"operatingCapacityMw":15.0,"operatingCapacityMwByTechnology":{"hydro":15.0},"plannedCapacityCoverage":{"coveragePercent":0.0,"knownUnitCount":0,"method":"unavailable","totalUnitCount":0},"plannedCapacityMw":0.0,"plannedCapacityMwByTechnology":{},"recordCount":1,"recordIds":["wattlas-record-osm-relation-12590035"],"sourceIds":["openstreetmap-power"],"technologies":["hydro"],"technologyMixMw":{"hydro":15.0},"unitCount":0,"unitIds":[]},"type":"Feature"},{"geometry":{"coordinates":[9.976909,3.025647],"type":"Point"},"id":"wattlas-plant-wikidata-q6436963","properties":{"aliases":["Centrale thermique de Kribi"],"canonicalAnchor":"wikidata:Q6436963","canonicalCountryKey":"CM","capacityMw":216.0,"country":"CM","externalIds":{"osm":"way/840713203","wikidata":"Q6436963","wikipedia":"en:Kribi Power Station"},"geographyId":"CM-27767025B67924123829422","id":"wattlas-plant-wikidata-q6436963","idAliases":["wattlas-plant-osm-way-840713203","wattlas-plant-wikipedia-en-kribi-power-station"],"lifecycleCounts":{"operational":1},"locationPrecision":"exact","name":"Centrale thermique de Kribi","operatingCapacityCoverage":{"coveragePercent":100.0,"knownUnitCount":0,"method":"plant_aggregate","provenance":{"evidenceCount":0,"recordIds":["wattlas-record-osm-way-840713203"],"sourceIds":["openstreetmap-power"],"sourceTypes":["community_mapped"],"valueKind":"reported"},"totalUnitCount":0},"operatingCapacityMw":216.0,"operatingCapacityMwByTechnology":{"gas":216.0},"plannedCapacityCoverage":{"coveragePercent":0.0,"knownUnitCount":0,"method":"unavailable","totalUnitCount":0},"plannedCapacityMw":0.0,"plannedCapacityMwByTechnology":{},"recordCount":1,"recordIds":["wattlas-record-osm-way-840713203"],"sourceIds":["openstreetmap-power"],"technologies":["gas"],"technologyMixMw":{"gas":216.0},"unitCount":0,"unitIds":[]},"type":"Feature"},{"geometry":{"coordinates":[10.464691,4.078478],"type":"Point"},"id":"wattlas-plant-wikidata-q7561017","properties":{"aliases":["Centrale hydroélectrique de Song Loulou"],"canonicalAnchor":"wikidata:Q7561017","canonicalCountryKey":"CM","capacityMw":384.0,"country":"CM","externalIds":{"osm":"way/320679323","wikidata":"Q7561017","wikipedia":"en:Song Loulou Hydroelectric Power Station"},"geographyId":"CM-27767025B72594666306589","id":"wattlas-plant-wikidata-q7561017","idAliases":["wattlas-plant-osm-way-320679323","wattlas-plant-wikipedia-en-song-loulou-hydroelectric-power-station"],"lifecycleCounts":{"operational":1},"locationPrecision":"exact","name":"Centrale hydroélectrique de Song Loulou","operatingCapacityCoverage":{"coveragePercent":100.0,"knownUnitCount":0,"method":"plant_aggregate","provenance":{"evidenceCount":0,"recordIds":["wattlas-record-osm-way-320679323"],"sourceIds":["openstreetmap-power"],"sourceTypes":["community_mapped"],"valueKind":"reported"},"totalUnitCount":0},"operatingCapacityMw":384.0,"operatingCapacityMwByTechnology":{"hydro":384.0},"plannedCapacityCoverage":{"coveragePercent":0.0,"knownUnitCount":0,"method":"unavailable","totalUnitCount":0},"plannedCapacityMw":0.0,"plannedCapacityMwByTechnology":{},"recordCount":1,"recordIds":["wattlas-record-osm-way-320679323"],"sourceIds":["openstreetmap-power"],"technologies":["hydro"],"technologyMixMw":{"hydro":384.0},"unitCount":0,"unitIds":[]},"type":"Feature"}],"type":"FeatureCollection"}