{"features":[{"geometry":{"coordinates":[177.43041,-17.6807],"type":"Point"},"id":"wattlas-plant-gemplant-l100000408984","properties":{"aliases":["1-1","2-1","EFL National Control Centre power plant"],"canonicalAnchor":"gemplant:L100000408984","canonicalCountryKey":"FJ","capacityMw":42.0,"country":"FJ","externalIdAliases":{"gemUnit":["G100000413360","G100000413361"]},"externalIds":{"gemPlant":"L100000408984","gemUnit":"G100000413360"},"geographyId":"FJ-53030831B88292306460023","id":"wattlas-plant-gemplant-l100000408984","lifecycleCounts":{"operational":2},"locationPrecision":"exact","name":"EFL National Control Centre power plant","operatingCapacityCoverage":{"coveragePercent":100.0,"knownUnitCount":2,"method":"complete_unit_sum","provenance":{"evidenceCount":0,"recordIds":["wattlas-record-gemunit-g100000413360","wattlas-record-gemunit-g100000413361"],"sourceIds":["gem-global-integrated-power-tracker"],"sourceTypes":["research_verified"],"valueKind":"reported"},"totalUnitCount":2},"operatingCapacityMw":42.0,"operatingCapacityMwByTechnology":{"gas":42.0},"plannedCapacityCoverage":{"coveragePercent":0.0,"knownUnitCount":0,"method":"unavailable","totalUnitCount":0},"plannedCapacityMw":0.0,"plannedCapacityMwByTechnology":{},"recordCount":2,"recordIds":["wattlas-record-gemunit-g100000413360","wattlas-record-gemunit-g100000413361"],"sourceIds":["gem-global-integrated-power-tracker"],"technologies":["gas"],"technologyMixMw":{"gas":42.0},"unitCount":2,"unitIds":["gem-unit-G100000413360","gem-unit-G100000413361"]},"type":"Feature"},{"geometry":{"coordinates":[178.1018,-17.7362],"type":"Point"},"id":"wattlas-plant-gemplant-l100000601605","properties":{"aliases":["Wailoa hydroelectric plant"],"canonicalAnchor":"gemplant:L100000601605","canonicalCountryKey":"FJ","capacityMw":80.0,"country":"FJ","externalIds":{"gemPlant":"L100000601605","gemUnit":"G100000601624"},"geographyId":"FJ-53030831B39644845067980","id":"wattlas-plant-gemplant-l100000601605","lifecycleCounts":{"operational":1},"locationPrecision":"exact","name":"Wailoa hydroelectric plant","operatingCapacityCoverage":{"coveragePercent":100.0,"knownUnitCount":1,"method":"complete_unit_sum","provenance":{"evidenceCount":0,"recordIds":["wattlas-record-gemunit-g100000601624"],"sourceIds":["gem-global-integrated-power-tracker"],"sourceTypes":["research_verified"],"valueKind":"reported"},"totalUnitCount":1},"operatingCapacityMw":80.0,"operatingCapacityMwByTechnology":{"hydro":80.0},"plannedCapacityCoverage":{"coveragePercent":0.0,"knownUnitCount":0,"method":"unavailable","totalUnitCount":0},"plannedCapacityMw":0.0,"plannedCapacityMwByTechnology":{},"recordCount":1,"recordIds":["wattlas-record-gemunit-g100000601624"],"sourceIds":["gem-global-integrated-power-tracker"],"technologies":["hydro"],"technologyMixMw":{"hydro":80.0},"unitCount":1,"unitIds":["gem-unit-G100000601624"]},"type":"Feature"},{"geometry":{"coordinates":[177.5077,-18.1131],"type":"Point"},"id":"wattlas-plant-gemplant-l100000906043","properties":{"aliases":["--","Butoni wind farm"],"canonicalAnchor":"gemplant:L100000906043","canonicalCountryKey":"FJ","capacityMw":10.0,"country":"FJ","externalIds":{"gemPlant":"L100000906043","gemUnit":"G100000908244"},"geographyId":"FJ-53030831B88292306460023","id":"wattlas-plant-gemplant-l100000906043","lifecycleCounts":{"operational":1},"locationPrecision":"exact","name":"Butoni wind farm","operatingCapacityCoverage":{"coveragePercent":100.0,"knownUnitCount":1,"method":"complete_unit_sum","provenance":{"evidenceCount":0,"recordIds":["wattlas-record-gemunit-g100000908244"],"sourceIds":["gem-global-integrated-power-tracker"],"sourceTypes":["research_verified"],"valueKind":"reported"},"totalUnitCount":1},"operatingCapacityMw":10.0,"operatingCapacityMwByTechnology":{"wind":10.0},"plannedCapacityCoverage":{"coveragePercent":0.0,"knownUnitCount":0,"method":"unavailable","totalUnitCount":0},"plannedCapacityMw":0.0,"plannedCapacityMwByTechnology":{},"recordCount":1,"recordIds":["wattlas-record-gemunit-g100000908244"],"sourceIds":["gem-global-integrated-power-tracker"],"technologies":["wind"],"technologyMixMw":{"wind":10.0},"unitCount":1,"unitIds":["gem-unit-G100000908244"]},"type":"Feature"},{"geometry":{"coordinates":[177.4508,-17.7532],"type":"Point"},"id":"wattlas-plant-gemplant-l100001020609","properties":{"aliases":["1.0","Nadi International Airport solar farm"],"canonicalAnchor":"gemplant:L100001020609","canonicalCountryKey":"FJ","capacityMw":3.5,"country":"FJ","externalIds":{"gemPlant":"L100001020609","gemUnit":"G100001023504"},"geographyId":"FJ-53030831B88292306460023","id":"wattlas-plant-gemplant-l100001020609","lifecycleCounts":{"announced":1},"locationPrecision":"exact","name":"Nadi International Airport solar farm","operatingCapacityCoverage":{"coveragePercent":0.0,"knownUnitCount":0,"method":"unavailable","totalUnitCount":0},"operatingCapacityMw":0.0,"operatingCapacityMwByTechnology":{},"plannedCapacityCoverage":{"coveragePercent":100.0,"knownUnitCount":1,"method":"complete_unit_sum","provenance":{"evidenceCount":0,"recordIds":["wattlas-record-gemunit-g100001023504"],"sourceIds":["gem-global-integrated-power-tracker"],"sourceTypes":["research_verified"],"valueKind":"reported"},"totalUnitCount":1},"plannedCapacityMw":3.5,"plannedCapacityMwByTechnology":{"solar":3.5},"recordCount":1,"recordIds":["wattlas-record-gemunit-g100001023504"],"sourceIds":["gem-global-integrated-power-tracker"],"technologies":["solar"],"technologyMixMw":{"solar":3.5},"unitCount":1,"unitIds":["gem-unit-G100001023504"]},"type":"Feature"},{"geometry":{"coordinates":[177.535496,-17.588933],"type":"Point"},"id":"wattlas-plant-gemplant-l100001046242","properties":{"aliases":["--","Drasa Sawmill power station"],"canonicalAnchor":"gemplant:L100001046242","canonicalCountryKey":"FJ","capacityMw":12.3,"country":"FJ","externalIds":{"gemPlant":"L100001046242","gemUnit":"G100001052186"},"geographyId":"FJ-53030831B88292306460023","id":"wattlas-plant-gemplant-l100001046242","lifecycleCounts":{"operational":1},"locationPrecision":"exact","name":"Drasa Sawmill power station","operatingCapacityCoverage":{"coveragePercent":100.0,"knownUnitCount":1,"method":"complete_unit_sum","provenance":{"evidenceCount":0,"recordIds":["wattlas-record-gemunit-g100001052186"],"sourceIds":["gem-global-integrated-power-tracker"],"sourceTypes":["research_verified"],"valueKind":"reported"},"totalUnitCount":1},"operatingCapacityMw":12.3,"operatingCapacityMwByTechnology":{"biomass":12.3},"plannedCapacityCoverage":{"coveragePercent":0.0,"knownUnitCount":0,"method":"unavailable","totalUnitCount":0},"plannedCapacityMw":0.0,"plannedCapacityMwByTechnology":{},"recordCount":1,"recordIds":["wattlas-record-gemunit-g100001052186"],"sourceIds":["gem-global-integrated-power-tracker"],"technologies":["biomass"],"technologyMixMw":{"biomass":12.3},"unitCount":1,"unitIds":["gem-unit-G100001052186"]},"type":"Feature"},{"geometry":{"coordinates":[179.387847,-16.428929],"type":"Point"},"id":"wattlas-plant-gemplant-l100001046243","properties":{"aliases":["--","Labasa Mill power station"],"canonicalAnchor":"gemplant:L100001046243","canonicalCountryKey":"FJ","capacityMw":10.0,"country":"FJ","externalIds":{"gemPlant":"L100001046243","gemUnit":"G100001052187"},"geographyId":"FJ-53030831B91072554514863","id":"wattlas-plant-gemplant-l100001046243","lifecycleCounts":{"operational":1},"locationPrecision":"exact","name":"Labasa Mill power station","operatingCapacityCoverage":{"coveragePercent":100.0,"knownUnitCount":1,"method":"complete_unit_sum","provenance":{"evidenceCount":0,"recordIds":["wattlas-record-gemunit-g100001052187"],"sourceIds":["gem-global-integrated-power-tracker"],"sourceTypes":["research_verified"],"valueKind":"reported"},"totalUnitCount":1},"operatingCapacityMw":10.0,"operatingCapacityMwByTechnology":{"biomass":10.0},"plannedCapacityCoverage":{"coveragePercent":0.0,"knownUnitCount":0,"method":"unavailable","totalUnitCount":0},"plannedCapacityMw":0.0,"plannedCapacityMwByTechnology":{},"recordCount":1,"recordIds":["wattlas-record-gemunit-g100001052187"],"sourceIds":["gem-global-integrated-power-tracker"],"technologies":["biomass"],"technologyMixMw":{"biomass":10.0},"unitCount":1,"unitIds":["gem-unit-G100001052187"]},"type":"Feature"},{"geometry":{"coordinates":[177.44181,-17.609503],"type":"Point"},"id":"wattlas-plant-gemplant-l100001046244","properties":{"aliases":["--","Lautoka Mill power station"],"canonicalAnchor":"gemplant:L100001046244","canonicalCountryKey":"FJ","capacityMw":5.0,"country":"FJ","externalIds":{"gemPlant":"L100001046244","gemUnit":"G100001052188"},"geographyId":"FJ-53030831B88292306460023","id":"wattlas-plant-gemplant-l100001046244","lifecycleCounts":{"operational":1},"locationPrecision":"exact","name":"Lautoka Mill power station","operatingCapacityCoverage":{"coveragePercent":100.0,"knownUnitCount":1,"method":"complete_unit_sum","provenance":{"evidenceCount":0,"recordIds":["wattlas-record-gemunit-g100001052188"],"sourceIds":["gem-global-integrated-power-tracker"],"sourceTypes":["research_verified"],"valueKind":"reported"},"totalUnitCount":1},"operatingCapacityMw":5.0,"operatingCapacityMwByTechnology":{"biomass":5.0},"plannedCapacityCoverage":{"coveragePercent":0.0,"knownUnitCount":0,"method":"unavailable","totalUnitCount":0},"plannedCapacityMw":0.0,"plannedCapacityMwByTechnology":{},"recordCount":1,"recordIds":["wattlas-record-gemunit-g100001052188"],"sourceIds":["gem-global-integrated-power-tracker"],"technologies":["biomass"],"technologyMixMw":{"biomass":5.0},"unitCount":1,"unitIds":["gem-unit-G100001052188"]},"type":"Feature"},{"geometry":{"coordinates":[177.320761,-18.009319],"type":"Point"},"id":"wattlas-plant-gemplant-l100001046245","properties":{"aliases":["--","Nabou power station"],"canonicalAnchor":"gemplant:L100001046245","canonicalCountryKey":"FJ","capacityMw":12.0,"country":"FJ","externalIds":{"gemPlant":"L100001046245","gemUnit":"G100001052189"},"geographyId":"FJ-53030831B88292306460023","id":"wattlas-plant-gemplant-l100001046245","lifecycleCounts":{"operational":1},"locationPrecision":"exact","name":"Nabou power station","operatingCapacityCoverage":{"coveragePercent":100.0,"knownUnitCount":1,"method":"complete_unit_sum","provenance":{"evidenceCount":0,"recordIds":["wattlas-record-gemunit-g100001052189"],"sourceIds":["gem-global-integrated-power-tracker"],"sourceTypes":["research_verified"],"valueKind":"reported"},"totalUnitCount":1},"operatingCapacityMw":12.0,"operatingCapacityMwByTechnology":{"biomass":12.0},"plannedCapacityCoverage":{"coveragePercent":0.0,"knownUnitCount":0,"method":"unavailable","totalUnitCount":0},"plannedCapacityMw":0.0,"plannedCapacityMwByTechnology":{},"recordCount":1,"recordIds":["wattlas-record-gemunit-g100001052189"],"sourceIds":["gem-global-integrated-power-tracker"],"technologies":["biomass"],"technologyMixMw":{"biomass":12.0},"unitCount":1,"unitIds":["gem-unit-G100001052189"]},"type":"Feature"},{"geometry":{"coordinates":[177.682328,-17.544183],"type":"Point"},"id":"wattlas-plant-gemplant-l100001046246","properties":{"aliases":["1.0","2.0","Rarawai Mill power station"],"canonicalAnchor":"gemplant:L100001046246","canonicalCountryKey":"FJ","capacityMw":9.0,"country":"FJ","externalIdAliases":{"gemUnit":["G100001052190","G100001052191"]},"externalIds":{"gemPlant":"L100001046246","gemUnit":"G100001052191"},"geographyId":"FJ-53030831B88292306460023","id":"wattlas-plant-gemplant-l100001046246","lifecycleCounts":{"operational":2},"locationPrecision":"exact","name":"Rarawai Mill power station","operatingCapacityCoverage":{"coveragePercent":100.0,"knownUnitCount":2,"method":"complete_unit_sum","provenance":{"evidenceCount":0,"recordIds":["wattlas-record-gemunit-g100001052190","wattlas-record-gemunit-g100001052191"],"sourceIds":["gem-global-integrated-power-tracker"],"sourceTypes":["research_verified"],"valueKind":"reported"},"totalUnitCount":2},"operatingCapacityMw":9.0,"operatingCapacityMwByTechnology":{"biomass":9.0},"plannedCapacityCoverage":{"coveragePercent":0.0,"knownUnitCount":0,"method":"unavailable","totalUnitCount":0},"plannedCapacityMw":0.0,"plannedCapacityMwByTechnology":{},"recordCount":2,"recordIds":["wattlas-record-gemunit-g100001052190","wattlas-record-gemunit-g100001052191"],"sourceIds":["gem-global-integrated-power-tracker"],"technologies":["biomass"],"technologyMixMw":{"biomass":9.0},"unitCount":2,"unitIds":["gem-unit-G100001052190","gem-unit-G100001052191"]},"type":"Feature"},{"geometry":{"coordinates":[177.9413,-17.6671],"type":"Point"},"id":"wattlas-plant-gemplant-l100001054680","properties":{"aliases":["Nadarivatu hydroelectric plant"],"canonicalAnchor":"gemplant:L100001054680","canonicalCountryKey":"FJ","capacityMw":40.0,"country":"FJ","externalIds":{"gemPlant":"L100001054680","gemUnit":"G100001062572"},"geographyId":"FJ-53030831B88292306460023","id":"wattlas-plant-gemplant-l100001054680","lifecycleCounts":{"operational":1},"locationPrecision":"exact","name":"Nadarivatu hydroelectric plant","operatingCapacityCoverage":{"coveragePercent":100.0,"knownUnitCount":1,"method":"complete_unit_sum","provenance":{"evidenceCount":0,"recordIds":["wattlas-record-gemunit-g100001062572"],"sourceIds":["gem-global-integrated-power-tracker"],"sourceTypes":["research_verified"],"valueKind":"reported"},"totalUnitCount":1},"operatingCapacityMw":40.0,"operatingCapacityMwByTechnology":{"hydro":40.0},"plannedCapacityCoverage":{"coveragePercent":0.0,"knownUnitCount":0,"method":"unavailable","totalUnitCount":0},"plannedCapacityMw":0.0,"plannedCapacityMwByTechnology":{},"recordCount":1,"recordIds":["wattlas-record-gemunit-g100001062572"],"sourceIds":["gem-global-integrated-power-tracker"],"technologies":["hydro"],"technologyMixMw":{"hydro":40.0},"unitCount":1,"unitIds":["gem-unit-G100001062572"]},"type":"Feature"},{"geometry":{"coordinates":[178.10138,-17.736656],"type":"Point"},"id":"wattlas-plant-osm-way-1018482513","properties":{"aliases":["Wailoa Hydro Power Station"],"canonicalAnchor":"osm:way/1018482513","canonicalCountryKey":"FJ","capacityMw":80.0,"country":"FJ","externalIds":{"osm":"way/1018482513"},"geographyId":"FJ-53030831B39644845067980","id":"wattlas-plant-osm-way-1018482513","lifecycleCounts":{"operational":1},"locationPrecision":"exact","name":"Wailoa Hydro Power Station","operatingCapacityCoverage":{"coveragePercent":100.0,"knownUnitCount":0,"method":"plant_aggregate","provenance":{"evidenceCount":0,"recordIds":["wattlas-record-osm-way-1018482513"],"sourceIds":["openstreetmap-power"],"sourceTypes":["community_mapped"],"valueKind":"reported"},"totalUnitCount":0},"operatingCapacityMw":80.0,"operatingCapacityMwByTechnology":{"hydro":80.0},"plannedCapacityCoverage":{"coveragePercent":0.0,"knownUnitCount":0,"method":"unavailable","totalUnitCount":0},"plannedCapacityMw":0.0,"plannedCapacityMwByTechnology":{},"recordCount":1,"recordIds":["wattlas-record-osm-way-1018482513"],"sourceIds":["openstreetmap-power"],"technologies":["hydro"],"technologyMixMw":{"hydro":80.0},"unitCount":0,"unitIds":[]},"type":"Feature"},{"geometry":{"coordinates":[177.912988,-17.677736],"type":"Point"},"id":"wattlas-plant-osm-way-1018482514","properties":{"aliases":["Nadarivatu Hydroelectric Power Plant"],"canonicalAnchor":"osm:way/1018482514","canonicalCountryKey":"FJ","capacityMw":42.0,"country":"FJ","externalIds":{"osm":"way/1018482514"},"geographyId":"FJ-53030831B88292306460023","id":"wattlas-plant-osm-way-1018482514","lifecycleCounts":{"operational":1},"locationPrecision":"exact","name":"Nadarivatu Hydroelectric Power Plant","operatingCapacityCoverage":{"coveragePercent":100.0,"knownUnitCount":0,"method":"plant_aggregate","provenance":{"evidenceCount":0,"recordIds":["wattlas-record-osm-way-1018482514"],"sourceIds":["openstreetmap-power"],"sourceTypes":["community_mapped"],"valueKind":"reported"},"totalUnitCount":0},"operatingCapacityMw":42.0,"operatingCapacityMwByTechnology":{"hydro":42.0},"plannedCapacityCoverage":{"coveragePercent":0.0,"knownUnitCount":0,"method":"unavailable","totalUnitCount":0},"plannedCapacityMw":0.0,"plannedCapacityMwByTechnology":{},"recordCount":1,"recordIds":["wattlas-record-osm-way-1018482514"],"sourceIds":["openstreetmap-power"],"technologies":["hydro"],"technologyMixMw":{"hydro":42.0},"unitCount":0,"unitIds":[]},"type":"Feature"},{"geometry":{"coordinates":[177.507733,-18.106095],"type":"Point"},"id":"wattlas-plant-osm-way-1049209962","properties":{"aliases":["Butoni Wind Farm"],"canonicalAnchor":"osm:way/1049209962","canonicalCountryKey":"FJ","capacityMw":10.0,"country":"FJ","externalIds":{"osm":"way/1049209962"},"geographyId":"FJ-53030831B88292306460023","id":"wattlas-plant-osm-way-1049209962","lifecycleCounts":{"operational":1},"locationPrecision":"exact","name":"Butoni Wind Farm","operatingCapacityCoverage":{"coveragePercent":100.0,"knownUnitCount":0,"method":"plant_aggregate","provenance":{"evidenceCount":0,"recordIds":["wattlas-record-osm-way-1049209962"],"sourceIds":["openstreetmap-power"],"sourceTypes":["community_mapped"],"valueKind":"reported"},"totalUnitCount":0},"operatingCapacityMw":10.0,"operatingCapacityMwByTechnology":{"wind":10.0},"plannedCapacityCoverage":{"coveragePercent":0.0,"knownUnitCount":0,"method":"unavailable","totalUnitCount":0},"plannedCapacityMw":0.0,"plannedCapacityMwByTechnology":{},"recordCount":1,"recordIds":["wattlas-record-osm-way-1049209962"],"sourceIds":["openstreetmap-power"],"technologies":["wind"],"technologyMixMw":{"wind":10.0},"unitCount":0,"unitIds":[]},"type":"Feature"},{"geometry":{"coordinates":[179.814972,-16.64389],"type":"Point"},"id":"wattlas-plant-osm-way-1271067289","properties":{"aliases":["Buca Hydroelectric Power House"],"canonicalAnchor":"osm:way/1271067289","canonicalCountryKey":"FJ","capacityMw":0.0,"country":"FJ","externalIds":{"osm":"way/1271067289"},"geographyId":"FJ-53030831B91072554514863","id":"wattlas-plant-osm-way-1271067289","lifecycleCounts":{"operational":1},"locationPrecision":"exact","name":"Buca Hydroelectric Power House","operatingCapacityCoverage":{"coveragePercent":0.0,"knownUnitCount":0,"method":"unavailable","totalUnitCount":0},"operatingCapacityMw":0.0,"operatingCapacityMwByTechnology":{},"plannedCapacityCoverage":{"coveragePercent":0.0,"knownUnitCount":0,"method":"unavailable","totalUnitCount":0},"plannedCapacityMw":0.0,"plannedCapacityMwByTechnology":{},"recordCount":1,"recordIds":["wattlas-record-osm-way-1271067289"],"sourceIds":["openstreetmap-power"],"technologies":["hydro"],"technologyMixMw":{"hydro":0.0},"unitCount":0,"unitIds":[]},"type":"Feature"},{"geometry":{"coordinates":[177.435929,-17.622253],"type":"Point"},"id":"wattlas-plant-osm-way-1361264077","properties":{"aliases":["EFL Pineapple Corner  Power Generation"],"canonicalAnchor":"osm:way/1361264077","canonicalCountryKey":"FJ","capacityMw":0.0,"country":"FJ","externalIds":{"osm":"way/1361264077"},"geographyId":"FJ-53030831B88292306460023","id":"wattlas-plant-osm-way-1361264077","lifecycleCounts":{"operational":1},"locationPrecision":"exact","name":"EFL Pineapple Corner  Power Generation","operatingCapacityCoverage":{"coveragePercent":0.0,"knownUnitCount":0,"method":"unavailable","totalUnitCount":0},"operatingCapacityMw":0.0,"operatingCapacityMwByTechnology":{},"plannedCapacityCoverage":{"coveragePercent":0.0,"knownUnitCount":0,"method":"unavailable","totalUnitCount":0},"plannedCapacityMw":0.0,"plannedCapacityMwByTechnology":{},"recordCount":1,"recordIds":["wattlas-record-osm-way-1361264077"],"sourceIds":["openstreetmap-power"],"technologies":["oil"],"technologyMixMw":{"oil":0.0},"unitCount":0,"unitIds":[]},"type":"Feature"},{"geometry":{"coordinates":[177.435739,-17.622738],"type":"Point"},"id":"wattlas-plant-osm-way-1361266109","properties":{"aliases":["Pineapple Corner EFL 33kV Substation"],"canonicalAnchor":"osm:way/1361266109","canonicalCountryKey":"FJ","capacityMw":0.0,"country":"FJ","externalIds":{"osm":"way/1361266109"},"geographyId":"FJ-53030831B88292306460023","id":"wattlas-plant-osm-way-1361266109","lifecycleCounts":{"operational":1},"locationPrecision":"exact","name":"Pineapple Corner EFL 33kV Substation","operatingCapacityCoverage":{"coveragePercent":0.0,"knownUnitCount":0,"method":"unavailable","totalUnitCount":0},"operatingCapacityMw":0.0,"operatingCapacityMwByTechnology":{},"plannedCapacityCoverage":{"coveragePercent":0.0,"knownUnitCount":0,"method":"unavailable","totalUnitCount":0},"plannedCapacityMw":0.0,"plannedCapacityMwByTechnology":{},"recordCount":1,"recordIds":["wattlas-record-osm-way-1361266109"],"sourceIds":["openstreetmap-power"],"technologies":["other"],"technologyMixMw":{"other":0.0},"unitCount":0,"unitIds":[]},"type":"Feature"},{"geometry":{"coordinates":[177.430326,-17.680522],"type":"Point"},"id":"wattlas-plant-osm-way-1361268967","properties":{"aliases":["Vuda EFL Power Station"],"canonicalAnchor":"osm:way/1361268967","canonicalCountryKey":"FJ","capacityMw":20.0,"country":"FJ","externalIds":{"osm":"way/1361268967"},"geographyId":"FJ-53030831B88292306460023","id":"wattlas-plant-osm-way-1361268967","lifecycleCounts":{"operational":1},"locationPrecision":"exact","name":"Vuda EFL Power Station","operatingCapacityCoverage":{"coveragePercent":100.0,"knownUnitCount":0,"method":"plant_aggregate","provenance":{"evidenceCount":0,"recordIds":["wattlas-record-osm-way-1361268967"],"sourceIds":["openstreetmap-power"],"sourceTypes":["community_mapped"],"valueKind":"reported"},"totalUnitCount":0},"operatingCapacityMw":20.0,"operatingCapacityMwByTechnology":{"oil":20.0},"plannedCapacityCoverage":{"coveragePercent":0.0,"knownUnitCount":0,"method":"unavailable","totalUnitCount":0},"plannedCapacityMw":0.0,"plannedCapacityMwByTechnology":{},"recordCount":1,"recordIds":["wattlas-record-osm-way-1361268967"],"sourceIds":["openstreetmap-power"],"technologies":["oil"],"technologyMixMw":{"oil":20.0},"unitCount":0,"unitIds":[]},"type":"Feature"},{"geometry":{"coordinates":[177.456319,-17.74315],"type":"Point"},"id":"wattlas-plant-osm-way-1361278651","properties":{"aliases":["Nasoso EFL 33kV Substation"],"canonicalAnchor":"osm:way/1361278651","canonicalCountryKey":"FJ","capacityMw":0.0,"country":"FJ","externalIds":{"osm":"way/1361278651"},"geographyId":"FJ-53030831B88292306460023","id":"wattlas-plant-osm-way-1361278651","lifecycleCounts":{"operational":1},"locationPrecision":"exact","name":"Nasoso EFL 33kV Substation","operatingCapacityCoverage":{"coveragePercent":0.0,"knownUnitCount":0,"method":"unavailable","totalUnitCount":0},"operatingCapacityMw":0.0,"operatingCapacityMwByTechnology":{},"plannedCapacityCoverage":{"coveragePercent":0.0,"knownUnitCount":0,"method":"unavailable","totalUnitCount":0},"plannedCapacityMw":0.0,"plannedCapacityMwByTechnology":{},"recordCount":1,"recordIds":["wattlas-record-osm-way-1361278651"],"sourceIds":["openstreetmap-power"],"technologies":["other"],"technologyMixMw":{"other":0.0},"unitCount":0,"unitIds":[]},"type":"Feature"},{"geometry":{"coordinates":[179.381133,-16.415766],"type":"Point"},"id":"wattlas-plant-osm-way-1462475680","properties":{"aliases":["Cawaira Power Station"],"canonicalAnchor":"osm:way/1462475680","canonicalCountryKey":"FJ","capacityMw":0.0,"country":"FJ","externalIds":{"osm":"way/1462475680"},"geographyId":"FJ-53030831B91072554514863","id":"wattlas-plant-osm-way-1462475680","lifecycleCounts":{"operational":1},"locationPrecision":"exact","name":"Cawaira Power Station","operatingCapacityCoverage":{"coveragePercent":0.0,"knownUnitCount":0,"method":"unavailable","totalUnitCount":0},"operatingCapacityMw":0.0,"operatingCapacityMwByTechnology":{},"plannedCapacityCoverage":{"coveragePercent":0.0,"knownUnitCount":0,"method":"unavailable","totalUnitCount":0},"plannedCapacityMw":0.0,"plannedCapacityMwByTechnology":{},"recordCount":1,"recordIds":["wattlas-record-osm-way-1462475680"],"sourceIds":["openstreetmap-power"],"technologies":["oil"],"technologyMixMw":{"oil":0.0},"unitCount":0,"unitIds":[]},"type":"Feature"},{"geometry":{"coordinates":[179.32519,-16.779307],"type":"Point"},"id":"wattlas-plant-osm-way-1526860104","properties":{"aliases":["EFL Savusavu Power Station"],"canonicalAnchor":"osm:way/1526860104","canonicalCountryKey":"FJ","capacityMw":0.0,"country":"FJ","externalIds":{"osm":"way/1526860104"},"geographyId":"FJ-53030831B91072554514863","id":"wattlas-plant-osm-way-1526860104","lifecycleCounts":{"operational":1},"locationPrecision":"exact","name":"EFL Savusavu Power Station","operatingCapacityCoverage":{"coveragePercent":0.0,"knownUnitCount":0,"method":"unavailable","totalUnitCount":0},"operatingCapacityMw":0.0,"operatingCapacityMwByTechnology":{},"plannedCapacityCoverage":{"coveragePercent":0.0,"knownUnitCount":0,"method":"unavailable","totalUnitCount":0},"plannedCapacityMw":0.0,"plannedCapacityMwByTechnology":{},"recordCount":1,"recordIds":["wattlas-record-osm-way-1526860104"],"sourceIds":["openstreetmap-power"],"technologies":["other"],"technologyMixMw":{"other":0.0},"unitCount":0,"unitIds":[]},"type":"Feature"},{"geometry":{"coordinates":[177.430411,-17.680697],"type":"Point"},"id":"wattlas-plant-osm-way-182809466","properties":{"aliases":["EFL National Control Centre"],"canonicalAnchor":"osm:way/182809466","canonicalCountryKey":"FJ","capacityMw":40.0,"country":"FJ","externalIds":{"osm":"way/182809466"},"geographyId":"FJ-53030831B88292306460023","id":"wattlas-plant-osm-way-182809466","lifecycleCounts":{"operational":1},"locationPrecision":"exact","name":"EFL National Control Centre","operatingCapacityCoverage":{"coveragePercent":100.0,"knownUnitCount":0,"method":"plant_aggregate","provenance":{"evidenceCount":0,"recordIds":["wattlas-record-osm-way-182809466"],"sourceIds":["openstreetmap-power"],"sourceTypes":["community_mapped"],"valueKind":"reported"},"totalUnitCount":0},"operatingCapacityMw":40.0,"operatingCapacityMwByTechnology":{"other":40.0},"plannedCapacityCoverage":{"coveragePercent":0.0,"knownUnitCount":0,"method":"unavailable","totalUnitCount":0},"plannedCapacityMw":0.0,"plannedCapacityMwByTechnology":{},"recordCount":1,"recordIds":["wattlas-record-osm-way-182809466"],"sourceIds":["openstreetmap-power"],"technologies":["other"],"technologyMixMw":{"other":40.0},"unitCount":0,"unitIds":[]},"type":"Feature"},{"geometry":{"coordinates":[177.431018,-17.681687],"type":"Point"},"id":"wattlas-plant-osm-way-399732661","properties":{"aliases":["EFL NCC"],"canonicalAnchor":"osm:way/399732661","canonicalCountryKey":"FJ","capacityMw":0.0,"country":"FJ","externalIds":{"osm":"way/399732661"},"geographyId":"FJ-53030831B88292306460023","id":"wattlas-plant-osm-way-399732661","lifecycleCounts":{"operational":1},"locationPrecision":"exact","name":"EFL NCC","operatingCapacityCoverage":{"coveragePercent":0.0,"knownUnitCount":0,"method":"unavailable","totalUnitCount":0},"operatingCapacityMw":0.0,"operatingCapacityMwByTechnology":{},"plannedCapacityCoverage":{"coveragePercent":0.0,"knownUnitCount":0,"method":"unavailable","totalUnitCount":0},"plannedCapacityMw":0.0,"plannedCapacityMwByTechnology":{},"recordCount":1,"recordIds":["wattlas-record-osm-way-399732661"],"sourceIds":["openstreetmap-power"],"technologies":["other"],"technologyMixMw":{"other":0.0},"unitCount":0,"unitIds":[]},"type":"Feature"},{"geometry":{"coordinates":[178.47947,-18.112258],"type":"Point"},"id":"wattlas-plant-osm-way-505952740","properties":{"aliases":["Mapped power plant · OSM 505952740"],"canonicalAnchor":"osm:way/505952740","canonicalCountryKey":"FJ","capacityMw":0.0,"country":"FJ","externalIds":{"osm":"way/505952740"},"geographyId":"FJ-53030831B39644845067980","id":"wattlas-plant-osm-way-505952740","lifecycleCounts":{"operational":1},"locationPrecision":"exact","name":"Mapped power plant · OSM 505952740","operatingCapacityCoverage":{"coveragePercent":0.0,"knownUnitCount":0,"method":"unavailable","totalUnitCount":0},"operatingCapacityMw":0.0,"operatingCapacityMwByTechnology":{},"plannedCapacityCoverage":{"coveragePercent":0.0,"knownUnitCount":0,"method":"unavailable","totalUnitCount":0},"plannedCapacityMw":0.0,"plannedCapacityMwByTechnology":{},"recordCount":1,"recordIds":["wattlas-record-osm-way-505952740"],"sourceIds":["openstreetmap-power"],"technologies":["oil"],"technologyMixMw":{"oil":0.0},"unitCount":0,"unitIds":[]},"type":"Feature"},{"geometry":{"coordinates":[178.536296,-17.804475],"type":"Point"},"id":"wattlas-plant-osm-way-619857128","properties":{"aliases":["Korovou Power Station"],"canonicalAnchor":"osm:way/619857128","canonicalCountryKey":"FJ","capacityMw":10.0,"country":"FJ","externalIds":{"osm":"way/619857128"},"geographyId":"FJ-53030831B39644845067980","id":"wattlas-plant-osm-way-619857128","lifecycleCounts":{"operational":1},"locationPrecision":"exact","name":"Korovou Power Station","operatingCapacityCoverage":{"coveragePercent":100.0,"knownUnitCount":0,"method":"plant_aggregate","provenance":{"evidenceCount":0,"recordIds":["wattlas-record-osm-way-619857128"],"sourceIds":["openstreetmap-power"],"sourceTypes":["community_mapped"],"valueKind":"reported"},"totalUnitCount":0},"operatingCapacityMw":10.0,"operatingCapacityMwByTechnology":{"other":10.0},"plannedCapacityCoverage":{"coveragePercent":0.0,"knownUnitCount":0,"method":"unavailable","totalUnitCount":0},"plannedCapacityMw":0.0,"plannedCapacityMwByTechnology":{},"recordCount":1,"recordIds":["wattlas-record-osm-way-619857128"],"sourceIds":["openstreetmap-power"],"technologies":["other"],"technologyMixMw":{"other":10.0},"unitCount":0,"unitIds":[]},"type":"Feature"}],"type":"FeatureCollection"}