{"features":[{"geometry":{"coordinates":[-16.635452,13.293112],"type":"Point"},"id":"wattlas-plant-gemplant-l100000409034","properties":{"aliases":["1-1","Brikama (NAWEC) power plant"],"canonicalAnchor":"gemplant:L100000409034","canonicalCountryKey":"GM","capacityMw":20.0,"country":"GM","externalIds":{"gemPlant":"L100000409034","gemUnit":"G100000413500"},"geographyId":"GM-31243875B88426941804625","id":"wattlas-plant-gemplant-l100000409034","lifecycleCounts":{"operational":1},"locationPrecision":"exact","name":"Brikama (NAWEC) power plant","operatingCapacityCoverage":{"coveragePercent":100.0,"knownUnitCount":1,"method":"complete_unit_sum","provenance":{"evidenceCount":0,"recordIds":["wattlas-record-gemunit-g100000413500"],"sourceIds":["gem-global-integrated-power-tracker"],"sourceTypes":["research_verified"],"valueKind":"reported"},"totalUnitCount":1},"operatingCapacityMw":20.0,"operatingCapacityMwByTechnology":{"gas":20.0},"plannedCapacityCoverage":{"coveragePercent":0.0,"knownUnitCount":0,"method":"unavailable","totalUnitCount":0},"plannedCapacityMw":0.0,"plannedCapacityMwByTechnology":{},"recordCount":1,"recordIds":["wattlas-record-gemunit-g100000413500"],"sourceIds":["gem-global-integrated-power-tracker"],"technologies":["gas"],"technologyMixMw":{"gas":20.0},"unitCount":1,"unitIds":["gem-unit-G100000413500"]},"type":"Feature"},{"geometry":{"coordinates":[-16.63458,13.295627],"type":"Point"},"id":"wattlas-plant-gemplant-l100000409035","properties":{"aliases":["1-1","Brikama (GEG) power plant"],"canonicalAnchor":"gemplant:L100000409035","canonicalCountryKey":"GM","capacityMw":24.0,"country":"GM","externalIds":{"gemPlant":"L100000409035","gemUnit":"G100000413501"},"geographyId":"GM-31243875B88426941804625","id":"wattlas-plant-gemplant-l100000409035","lifecycleCounts":{"operational":1},"locationPrecision":"exact","name":"Brikama (GEG) power plant","operatingCapacityCoverage":{"coveragePercent":100.0,"knownUnitCount":1,"method":"complete_unit_sum","provenance":{"evidenceCount":0,"recordIds":["wattlas-record-gemunit-g100000413501"],"sourceIds":["gem-global-integrated-power-tracker"],"sourceTypes":["research_verified"],"valueKind":"reported"},"totalUnitCount":1},"operatingCapacityMw":24.0,"operatingCapacityMwByTechnology":{"oil":24.0},"plannedCapacityCoverage":{"coveragePercent":0.0,"knownUnitCount":0,"method":"unavailable","totalUnitCount":0},"plannedCapacityMw":0.0,"plannedCapacityMwByTechnology":{},"recordCount":1,"recordIds":["wattlas-record-gemunit-g100000413501"],"sourceIds":["gem-global-integrated-power-tracker"],"technologies":["oil"],"technologyMixMw":{"oil":24.0},"unitCount":1,"unitIds":["gem-unit-G100000413501"]},"type":"Feature"},{"geometry":{"coordinates":[-16.6924,13.3057],"type":"Point"},"id":"wattlas-plant-gemplant-l100000800141","properties":{"aliases":["--","Jambur solar farm"],"canonicalAnchor":"gemplant:L100000800141","canonicalCountryKey":"GM","capacityMw":23.0,"country":"GM","externalIds":{"gemPlant":"L100000800141","gemUnit":"G100000800180"},"geographyId":"GM-31243875B88426941804625","id":"wattlas-plant-gemplant-l100000800141","lifecycleCounts":{"operational":1},"locationPrecision":"exact","name":"Jambur solar farm","operatingCapacityCoverage":{"coveragePercent":100.0,"knownUnitCount":1,"method":"complete_unit_sum","provenance":{"evidenceCount":0,"recordIds":["wattlas-record-gemunit-g100000800180"],"sourceIds":["gem-global-integrated-power-tracker"],"sourceTypes":["research_verified"],"valueKind":"reported"},"totalUnitCount":1},"operatingCapacityMw":23.0,"operatingCapacityMwByTechnology":{"solar":23.0},"plannedCapacityCoverage":{"coveragePercent":0.0,"knownUnitCount":0,"method":"unavailable","totalUnitCount":0},"plannedCapacityMw":0.0,"plannedCapacityMwByTechnology":{},"recordCount":1,"recordIds":["wattlas-record-gemunit-g100000800180"],"sourceIds":["gem-global-integrated-power-tracker"],"technologies":["solar"],"technologyMixMw":{"solar":23.0},"unitCount":1,"unitIds":["gem-unit-G100000800180"]},"type":"Feature"},{"geometry":{"coordinates":[-16.691972,13.303772],"type":"Point"},"id":"wattlas-plant-osm-way-1263428354","properties":{"aliases":["Jambur Solar Power Plant"],"canonicalAnchor":"osm:way/1263428354","canonicalCountryKey":"GM","capacityMw":23.0,"country":"GM","externalIds":{"osm":"way/1263428354"},"geographyId":"GM-31243875B88426941804625","id":"wattlas-plant-osm-way-1263428354","lifecycleCounts":{"operational":1},"locationPrecision":"exact","name":"Jambur Solar Power Plant","operatingCapacityCoverage":{"coveragePercent":100.0,"knownUnitCount":0,"method":"plant_aggregate","provenance":{"evidenceCount":0,"recordIds":["wattlas-record-osm-way-1263428354"],"sourceIds":["openstreetmap-power"],"sourceTypes":["community_mapped"],"valueKind":"reported"},"totalUnitCount":0},"operatingCapacityMw":23.0,"operatingCapacityMwByTechnology":{"solar":23.0},"plannedCapacityCoverage":{"coveragePercent":0.0,"knownUnitCount":0,"method":"unavailable","totalUnitCount":0},"plannedCapacityMw":0.0,"plannedCapacityMwByTechnology":{},"recordCount":1,"recordIds":["wattlas-record-osm-way-1263428354"],"sourceIds":["openstreetmap-power"],"technologies":["solar"],"technologyMixMw":{"solar":23.0},"unitCount":0,"unitIds":[]},"type":"Feature"},{"geometry":{"coordinates":[-16.635615,13.292573],"type":"Point"},"id":"wattlas-plant-wikidata-q1601469-2948ae224f","properties":{"aliases":["Brikama I Power Station"],"canonicalAnchor":"wikidata:Q1601469","canonicalCountryKey":"GM","capacityMw":38.4,"country":"GM","externalIds":{"osm":"way/840358809","wikidata":"Q1601469"},"geographyId":"GM-31243875B88426941804625","id":"wattlas-plant-wikidata-q1601469-2948ae224f","idAliases":["wattlas-plant-osm-way-840358809","wattlas-plant-wikidata-q1601469"],"lifecycleCounts":{"operational":1},"locationPrecision":"exact","name":"Brikama I Power Station","operatingCapacityCoverage":{"coveragePercent":100.0,"knownUnitCount":0,"method":"plant_aggregate","provenance":{"evidenceCount":0,"recordIds":["wattlas-record-osm-way-840358809"],"sourceIds":["openstreetmap-power"],"sourceTypes":["community_mapped"],"valueKind":"reported"},"totalUnitCount":0},"operatingCapacityMw":38.4,"operatingCapacityMwByTechnology":{"oil":38.4},"plannedCapacityCoverage":{"coveragePercent":0.0,"knownUnitCount":0,"method":"unavailable","totalUnitCount":0},"plannedCapacityMw":0.0,"plannedCapacityMwByTechnology":{},"recordCount":1,"recordIds":["wattlas-record-osm-way-840358809"],"sourceIds":["openstreetmap-power"],"technologies":["oil"],"technologyMixMw":{"oil":38.4},"unitCount":0,"unitIds":[]},"type":"Feature"},{"geometry":{"coordinates":[-16.63451,13.295112],"type":"Point"},"id":"wattlas-plant-wikidata-q1601469-3b6e7ef33f","properties":{"aliases":["Brikama II Power Station"],"canonicalAnchor":"wikidata:Q1601469","canonicalCountryKey":"GM","capacityMw":17.8,"country":"GM","externalIds":{"osm":"way/840358807","wikidata":"Q1601469"},"geographyId":"GM-31243875B88426941804625","id":"wattlas-plant-wikidata-q1601469-3b6e7ef33f","idAliases":["wattlas-plant-osm-way-840358807"],"lifecycleCounts":{"operational":1},"locationPrecision":"exact","name":"Brikama II Power Station","operatingCapacityCoverage":{"coveragePercent":100.0,"knownUnitCount":0,"method":"plant_aggregate","provenance":{"evidenceCount":0,"recordIds":["wattlas-record-osm-way-840358807"],"sourceIds":["openstreetmap-power"],"sourceTypes":["community_mapped"],"valueKind":"reported"},"totalUnitCount":0},"operatingCapacityMw":17.8,"operatingCapacityMwByTechnology":{"oil":17.8},"plannedCapacityCoverage":{"coveragePercent":0.0,"knownUnitCount":0,"method":"unavailable","totalUnitCount":0},"plannedCapacityMw":0.0,"plannedCapacityMwByTechnology":{},"recordCount":1,"recordIds":["wattlas-record-osm-way-840358807"],"sourceIds":["openstreetmap-power"],"technologies":["oil"],"technologyMixMw":{"oil":17.8},"unitCount":0,"unitIds":[]},"type":"Feature"},{"geometry":{"coordinates":[-16.69623,13.45394],"type":"Point"},"id":"wattlas-plant-wikidata-q56372896","properties":{"aliases":["1-1","Kotu Power Station","Kotu power station"],"canonicalAnchor":"wikidata:Q56372896","canonicalCountryKey":"GM","capacityMw":41.0,"country":"GM","externalIds":{"gemPlant":"L100000409036","gemUnit":"G100000413502","osm":"way/772877966","wikidata":"Q56372896"},"geographyId":"GM-31243875B42421745591684","id":"wattlas-plant-wikidata-q56372896","idAliases":["wattlas-plant-gemplant-l100000409036","wattlas-plant-osm-way-772877966"],"lifecycleCounts":{"operational":1},"locationPrecision":"exact","name":"Kotu power station","operatingCapacityCoverage":{"coveragePercent":100.0,"knownUnitCount":1,"method":"complete_unit_sum","provenance":{"evidenceCount":0,"recordIds":["wattlas-record-gemunit-g100000413502"],"sourceIds":["gem-global-integrated-power-tracker"],"sourceTypes":["research_verified"],"valueKind":"reported"},"totalUnitCount":1},"operatingCapacityMw":41.0,"operatingCapacityMwByTechnology":{"gas":41.0},"plannedCapacityCoverage":{"coveragePercent":0.0,"knownUnitCount":0,"method":"unavailable","totalUnitCount":0},"plannedCapacityMw":0.0,"plannedCapacityMwByTechnology":{},"recordCount":2,"recordIds":["wattlas-record-gemunit-g100000413502","wattlas-record-osm-way-772877966"],"sourceIds":["gem-global-integrated-power-tracker","openstreetmap-power"],"technologies":["gas"],"technologyMixMw":{"gas":41.0},"unitCount":1,"unitIds":["gem-unit-G100000413502"]},"type":"Feature"}],"type":"FeatureCollection"}