{"features":[{"geometry":{"coordinates":[-77.918276,18.452093],"type":"Point"},"id":"wattlas-plant-gemplant-l100000406600","properties":{"aliases":["1-1","Bogue power station"],"canonicalAnchor":"gemplant:L100000406600","canonicalCountryKey":"JM","capacityMw":120.0,"country":"JM","externalIds":{"gemPlant":"L100000406600","gemUnit":"G100000406671"},"geographyId":"JM-11528761B92267541916078","id":"wattlas-plant-gemplant-l100000406600","lifecycleCounts":{"operational":1},"locationPrecision":"exact","name":"Bogue power station","operatingCapacityCoverage":{"coveragePercent":100.0,"knownUnitCount":1,"method":"complete_unit_sum","provenance":{"evidenceCount":0,"recordIds":["wattlas-record-gemunit-g100000406671"],"sourceIds":["gem-global-integrated-power-tracker"],"sourceTypes":["research_verified"],"valueKind":"reported"},"totalUnitCount":1},"operatingCapacityMw":120.0,"operatingCapacityMwByTechnology":{"gas":120.0},"plannedCapacityCoverage":{"coveragePercent":0.0,"knownUnitCount":0,"method":"unavailable","totalUnitCount":0},"plannedCapacityMw":0.0,"plannedCapacityMwByTechnology":{},"recordCount":1,"recordIds":["wattlas-record-gemunit-g100000406671"],"sourceIds":["gem-global-integrated-power-tracker"],"technologies":["gas"],"technologyMixMw":{"gas":120.0},"unitCount":1,"unitIds":["gem-unit-G100000406671"]},"type":"Feature"},{"geometry":{"coordinates":[-76.809984,17.971789],"type":"Point"},"id":"wattlas-plant-gemplant-l100000407910","properties":{"aliases":["1-1","Hunts Bay power station"],"canonicalAnchor":"gemplant:L100000407910","canonicalCountryKey":"JM","capacityMw":0.0,"country":"JM","externalIds":{"gemPlant":"L100000407910","gemUnit":"G100000411248"},"geographyId":"JM-11528761B58908339710294","id":"wattlas-plant-gemplant-l100000407910","lifecycleCounts":{"paused":1},"locationPrecision":"exact","name":"Hunts Bay power station","operatingCapacityCoverage":{"coveragePercent":0.0,"knownUnitCount":0,"method":"unavailable","totalUnitCount":0},"operatingCapacityMw":0.0,"operatingCapacityMwByTechnology":{},"plannedCapacityCoverage":{"coveragePercent":0.0,"knownUnitCount":0,"method":"unavailable","totalUnitCount":0},"plannedCapacityMw":0.0,"plannedCapacityMwByTechnology":{},"recordCount":1,"recordIds":["wattlas-record-gemunit-g100000411248"],"sourceIds":["gem-global-integrated-power-tracker"],"technologies":["gas"],"technologyMixMw":{"gas":0.0},"unitCount":1,"unitIds":["gem-unit-G100000411248"]},"type":"Feature"},{"geometry":{"coordinates":[-76.805867,17.972434],"type":"Point"},"id":"wattlas-plant-gemplant-l100000408646","properties":{"aliases":["1-1","West Kingston power station"],"canonicalAnchor":"gemplant:L100000408646","canonicalCountryKey":"JM","capacityMw":65.5,"country":"JM","externalIds":{"gemPlant":"L100000408646","gemUnit":"G100000412008"},"geographyId":"JM-11528761B58908339710294","id":"wattlas-plant-gemplant-l100000408646","lifecycleCounts":{"operational":1},"locationPrecision":"exact","name":"West Kingston power station","operatingCapacityCoverage":{"coveragePercent":100.0,"knownUnitCount":1,"method":"complete_unit_sum","provenance":{"evidenceCount":0,"recordIds":["wattlas-record-gemunit-g100000412008"],"sourceIds":["gem-global-integrated-power-tracker"],"sourceTypes":["research_verified"],"valueKind":"reported"},"totalUnitCount":1},"operatingCapacityMw":65.5,"operatingCapacityMwByTechnology":{"oil":65.5},"plannedCapacityCoverage":{"coveragePercent":0.0,"knownUnitCount":0,"method":"unavailable","totalUnitCount":0},"plannedCapacityMw":0.0,"plannedCapacityMwByTechnology":{},"recordCount":1,"recordIds":["wattlas-record-gemunit-g100000412008"],"sourceIds":["gem-global-integrated-power-tracker"],"technologies":["oil"],"technologyMixMw":{"oil":65.5},"unitCount":1,"unitIds":["gem-unit-G100000412008"]},"type":"Feature"},{"geometry":{"coordinates":[-76.752821,17.969722],"type":"Point"},"id":"wattlas-plant-gemplant-l100000408647","properties":{"aliases":["1-1","Rockfort Private power station"],"canonicalAnchor":"gemplant:L100000408647","canonicalCountryKey":"JM","capacityMw":60.0,"country":"JM","externalIds":{"gemPlant":"L100000408647","gemUnit":"G100000412009"},"geographyId":"JM-11528761B95441286388390","id":"wattlas-plant-gemplant-l100000408647","lifecycleCounts":{"operational":1},"locationPrecision":"exact","name":"Rockfort Private power station","operatingCapacityCoverage":{"coveragePercent":100.0,"knownUnitCount":1,"method":"complete_unit_sum","provenance":{"evidenceCount":0,"recordIds":["wattlas-record-gemunit-g100000412009"],"sourceIds":["gem-global-integrated-power-tracker"],"sourceTypes":["research_verified"],"valueKind":"reported"},"totalUnitCount":1},"operatingCapacityMw":60.0,"operatingCapacityMwByTechnology":{"oil":60.0},"plannedCapacityCoverage":{"coveragePercent":0.0,"knownUnitCount":0,"method":"unavailable","totalUnitCount":0},"plannedCapacityMw":0.0,"plannedCapacityMwByTechnology":{},"recordCount":1,"recordIds":["wattlas-record-gemunit-g100000412009"],"sourceIds":["gem-global-integrated-power-tracker"],"technologies":["oil"],"technologyMixMw":{"oil":60.0},"unitCount":1,"unitIds":["gem-unit-G100000412009"]},"type":"Feature"},{"geometry":{"coordinates":[-78.1023,18.2269],"type":"Point"},"id":"wattlas-plant-gemplant-l100000807346","properties":{"aliases":["--","Paradise Park solar farm"],"canonicalAnchor":"gemplant:L100000807346","canonicalCountryKey":"JM","capacityMw":52.0,"country":"JM","externalIds":{"gemPlant":"L100000807346","gemUnit":"G100000808761"},"geographyId":"JM-11528761B78686886241288","id":"wattlas-plant-gemplant-l100000807346","lifecycleCounts":{"operational":1},"locationPrecision":"exact","name":"Paradise Park solar farm","operatingCapacityCoverage":{"coveragePercent":100.0,"knownUnitCount":1,"method":"complete_unit_sum","provenance":{"evidenceCount":0,"recordIds":["wattlas-record-gemunit-g100000808761"],"sourceIds":["gem-global-integrated-power-tracker"],"sourceTypes":["research_verified"],"valueKind":"reported"},"totalUnitCount":1},"operatingCapacityMw":52.0,"operatingCapacityMwByTechnology":{"solar":52.0},"plannedCapacityCoverage":{"coveragePercent":0.0,"knownUnitCount":0,"method":"unavailable","totalUnitCount":0},"plannedCapacityMw":0.0,"plannedCapacityMwByTechnology":{},"recordCount":1,"recordIds":["wattlas-record-gemunit-g100000808761"],"sourceIds":["gem-global-integrated-power-tracker"],"technologies":["solar"],"technologyMixMw":{"solar":52.0},"unitCount":1,"unitIds":["gem-unit-G100000808761"]},"type":"Feature"},{"geometry":{"coordinates":[-77.3091,17.9441],"type":"Point"},"id":"wattlas-plant-gemplant-l100000807586","properties":{"aliases":["--","Content solar farm"],"canonicalAnchor":"gemplant:L100000807586","canonicalCountryKey":"JM","capacityMw":20.0,"country":"JM","externalIds":{"gemPlant":"L100000807586","gemUnit":"G100000809254"},"geographyId":"JM-11528761B12055930952794","id":"wattlas-plant-gemplant-l100000807586","lifecycleCounts":{"operational":1},"locationPrecision":"exact","name":"Content solar farm","operatingCapacityCoverage":{"coveragePercent":100.0,"knownUnitCount":1,"method":"complete_unit_sum","provenance":{"evidenceCount":0,"recordIds":["wattlas-record-gemunit-g100000809254"],"sourceIds":["gem-global-integrated-power-tracker"],"sourceTypes":["research_verified"],"valueKind":"reported"},"totalUnitCount":1},"operatingCapacityMw":20.0,"operatingCapacityMwByTechnology":{"solar":20.0},"plannedCapacityCoverage":{"coveragePercent":0.0,"knownUnitCount":0,"method":"unavailable","totalUnitCount":0},"plannedCapacityMw":0.0,"plannedCapacityMwByTechnology":{},"recordCount":1,"recordIds":["wattlas-record-gemunit-g100000809254"],"sourceIds":["gem-global-integrated-power-tracker"],"technologies":["solar"],"technologyMixMw":{"solar":20.0},"unitCount":1,"unitIds":["gem-unit-G100000809254"]},"type":"Feature"},{"geometry":{"coordinates":[-77.5339,17.9192],"type":"Point"},"id":"wattlas-plant-gemplant-l100000905526","properties":{"aliases":["1.0","2.0","3.0","Wigton wind farm"],"canonicalAnchor":"gemplant:L100000905526","canonicalCountryKey":"JM","capacityMw":63.0,"country":"JM","externalIdAliases":{"gemUnit":["G100000907598","G100000907599","G100000907600"]},"externalIds":{"gemPlant":"L100000905526","gemUnit":"G100000907600"},"geographyId":"JM-11528761B9801814618213","id":"wattlas-plant-gemplant-l100000905526","lifecycleCounts":{"operational":3},"locationPrecision":"exact","name":"Wigton wind farm","operatingCapacityCoverage":{"coveragePercent":100.0,"knownUnitCount":3,"method":"complete_unit_sum","provenance":{"evidenceCount":0,"recordIds":["wattlas-record-gemunit-g100000907598","wattlas-record-gemunit-g100000907599","wattlas-record-gemunit-g100000907600"],"sourceIds":["gem-global-integrated-power-tracker"],"sourceTypes":["research_verified"],"valueKind":"reported"},"totalUnitCount":3},"operatingCapacityMw":63.0,"operatingCapacityMwByTechnology":{"wind":63.0},"plannedCapacityCoverage":{"coveragePercent":0.0,"knownUnitCount":0,"method":"unavailable","totalUnitCount":0},"plannedCapacityMw":0.0,"plannedCapacityMwByTechnology":{},"recordCount":3,"recordIds":["wattlas-record-gemunit-g100000907598","wattlas-record-gemunit-g100000907599","wattlas-record-gemunit-g100000907600"],"sourceIds":["gem-global-integrated-power-tracker"],"technologies":["wind"],"technologyMixMw":{"wind":63.0},"unitCount":3,"unitIds":["gem-unit-G100000907598","gem-unit-G100000907599","gem-unit-G100000907600"]},"type":"Feature"},{"geometry":{"coordinates":[-77.6923,17.9404],"type":"Point"},"id":"wattlas-plant-gemplant-l100001019739","properties":{"aliases":["--","Jamaica wind farm"],"canonicalAnchor":"gemplant:L100001019739","canonicalCountryKey":"JM","capacityMw":36.3,"country":"JM","externalIds":{"gemPlant":"L100001019739","gemUnit":"G100001022368"},"geographyId":"JM-11528761B76244175997364","id":"wattlas-plant-gemplant-l100001019739","lifecycleCounts":{"operational":1},"locationPrecision":"exact","name":"Jamaica wind farm","operatingCapacityCoverage":{"coveragePercent":100.0,"knownUnitCount":1,"method":"complete_unit_sum","provenance":{"evidenceCount":0,"recordIds":["wattlas-record-gemunit-g100001022368"],"sourceIds":["gem-global-integrated-power-tracker"],"sourceTypes":["research_verified"],"valueKind":"reported"},"totalUnitCount":1},"operatingCapacityMw":36.3,"operatingCapacityMwByTechnology":{"wind":36.3},"plannedCapacityCoverage":{"coveragePercent":0.0,"knownUnitCount":0,"method":"unavailable","totalUnitCount":0},"plannedCapacityMw":0.0,"plannedCapacityMwByTechnology":{},"recordCount":1,"recordIds":["wattlas-record-gemunit-g100001022368"],"sourceIds":["gem-global-integrated-power-tracker"],"technologies":["wind"],"technologyMixMw":{"wind":36.3},"unitCount":1,"unitIds":["gem-unit-G100001022368"]},"type":"Feature"},{"geometry":{"coordinates":[-76.7715,17.9395],"type":"Point"},"id":"wattlas-plant-gemplant-l100001065125","properties":{"aliases":["--","Kingston solar project"],"canonicalAnchor":"gemplant:L100001065125","canonicalCountryKey":"JM","capacityMw":2.8,"country":"JM","externalIds":{"gemPlant":"L100001065125","gemUnit":"G100001074911"},"geographyId":"JM-11528761B58908339710294","id":"wattlas-plant-gemplant-l100001065125","lifecycleCounts":{"operational":1},"locationPrecision":"exact","name":"Kingston solar project","operatingCapacityCoverage":{"coveragePercent":100.0,"knownUnitCount":1,"method":"complete_unit_sum","provenance":{"evidenceCount":0,"recordIds":["wattlas-record-gemunit-g100001074911"],"sourceIds":["gem-global-integrated-power-tracker"],"sourceTypes":["research_verified"],"valueKind":"reported"},"totalUnitCount":1},"operatingCapacityMw":2.8,"operatingCapacityMwByTechnology":{"solar":2.8},"plannedCapacityCoverage":{"coveragePercent":0.0,"knownUnitCount":0,"method":"unavailable","totalUnitCount":0},"plannedCapacityMw":0.0,"plannedCapacityMwByTechnology":{},"recordCount":1,"recordIds":["wattlas-record-gemunit-g100001074911"],"sourceIds":["gem-global-integrated-power-tracker"],"technologies":["solar"],"technologyMixMw":{"solar":2.8},"unitCount":1,"unitIds":["gem-unit-G100001074911"]},"type":"Feature"},{"geometry":{"coordinates":[-76.839,18.0095],"type":"Point"},"id":"wattlas-plant-gemplant-l100001065126","properties":{"aliases":["--","Saint Andrew solar project"],"canonicalAnchor":"gemplant:L100001065126","canonicalCountryKey":"JM","capacityMw":1.1,"country":"JM","externalIds":{"gemPlant":"L100001065126","gemUnit":"G100001074912"},"geographyId":"JM-11528761B58908339710294","id":"wattlas-plant-gemplant-l100001065126","lifecycleCounts":{"operational":1},"locationPrecision":"exact","name":"Saint Andrew solar project","operatingCapacityCoverage":{"coveragePercent":100.0,"knownUnitCount":1,"method":"complete_unit_sum","provenance":{"evidenceCount":0,"recordIds":["wattlas-record-gemunit-g100001074912"],"sourceIds":["gem-global-integrated-power-tracker"],"sourceTypes":["research_verified"],"valueKind":"reported"},"totalUnitCount":1},"operatingCapacityMw":1.1,"operatingCapacityMwByTechnology":{"solar":1.1},"plannedCapacityCoverage":{"coveragePercent":0.0,"knownUnitCount":0,"method":"unavailable","totalUnitCount":0},"plannedCapacityMw":0.0,"plannedCapacityMwByTechnology":{},"recordCount":1,"recordIds":["wattlas-record-gemunit-g100001074912"],"sourceIds":["gem-global-integrated-power-tracker"],"technologies":["solar"],"technologyMixMw":{"solar":1.1},"unitCount":1,"unitIds":["gem-unit-G100001074912"]},"type":"Feature"},{"geometry":{"coordinates":[-77.695203,17.939524],"type":"Point"},"id":"wattlas-plant-osm-relation-10854194","properties":{"aliases":["Munro Wind Farm"],"canonicalAnchor":"osm:relation/10854194","canonicalCountryKey":"JM","capacityMw":3.0,"country":"JM","externalIds":{"osm":"relation/10854194"},"geographyId":"JM-11528761B76244175997364","id":"wattlas-plant-osm-relation-10854194","lifecycleCounts":{"operational":1},"locationPrecision":"exact","name":"Munro Wind Farm","operatingCapacityCoverage":{"coveragePercent":100.0,"knownUnitCount":0,"method":"plant_aggregate","provenance":{"evidenceCount":0,"recordIds":["wattlas-record-osm-relation-10854194"],"sourceIds":["openstreetmap-power"],"sourceTypes":["community_mapped"],"valueKind":"reported"},"totalUnitCount":0},"operatingCapacityMw":3.0,"operatingCapacityMwByTechnology":{"wind":3.0},"plannedCapacityCoverage":{"coveragePercent":0.0,"knownUnitCount":0,"method":"unavailable","totalUnitCount":0},"plannedCapacityMw":0.0,"plannedCapacityMwByTechnology":{},"recordCount":1,"recordIds":["wattlas-record-osm-relation-10854194"],"sourceIds":["openstreetmap-power"],"technologies":["wind"],"technologyMixMw":{"wind":3.0},"unitCount":0,"unitIds":[]},"type":"Feature"},{"geometry":{"coordinates":[-77.697969,17.940965],"type":"Point"},"id":"wattlas-plant-osm-relation-10854195","properties":{"aliases":["BMR Jamaica Wind Limited"],"canonicalAnchor":"osm:relation/10854195","canonicalCountryKey":"JM","capacityMw":36.3,"country":"JM","externalIds":{"osm":"relation/10854195"},"geographyId":"JM-11528761B76244175997364","id":"wattlas-plant-osm-relation-10854195","lifecycleCounts":{"operational":1},"locationPrecision":"exact","name":"BMR Jamaica Wind Limited","operatingCapacityCoverage":{"coveragePercent":100.0,"knownUnitCount":0,"method":"plant_aggregate","provenance":{"evidenceCount":0,"recordIds":["wattlas-record-osm-relation-10854195"],"sourceIds":["openstreetmap-power"],"sourceTypes":["community_mapped"],"valueKind":"reported"},"totalUnitCount":0},"operatingCapacityMw":36.3,"operatingCapacityMwByTechnology":{"wind":36.3},"plannedCapacityCoverage":{"coveragePercent":0.0,"knownUnitCount":0,"method":"unavailable","totalUnitCount":0},"plannedCapacityMw":0.0,"plannedCapacityMwByTechnology":{},"recordCount":1,"recordIds":["wattlas-record-osm-relation-10854195"],"sourceIds":["openstreetmap-power"],"technologies":["wind"],"technologyMixMw":{"wind":36.3},"unitCount":0,"unitIds":[]},"type":"Feature"},{"geometry":{"coordinates":[-77.149923,18.421412],"type":"Point"},"id":"wattlas-plant-osm-way-1156837623","properties":{"aliases":["Roaring River Hydro Power Station"],"canonicalAnchor":"osm:way/1156837623","canonicalCountryKey":"JM","capacityMw":0.0,"country":"JM","externalIds":{"osm":"way/1156837623"},"geographyId":"JM-11528761B68421227592850","id":"wattlas-plant-osm-way-1156837623","lifecycleCounts":{"operational":1},"locationPrecision":"exact","name":"Roaring River Hydro Power Station","operatingCapacityCoverage":{"coveragePercent":0.0,"knownUnitCount":0,"method":"unavailable","totalUnitCount":0},"operatingCapacityMw":0.0,"operatingCapacityMwByTechnology":{},"plannedCapacityCoverage":{"coveragePercent":0.0,"knownUnitCount":0,"method":"unavailable","totalUnitCount":0},"plannedCapacityMw":0.0,"plannedCapacityMwByTechnology":{},"recordCount":1,"recordIds":["wattlas-record-osm-way-1156837623"],"sourceIds":["openstreetmap-power"],"technologies":["hydro"],"technologyMixMw":{"hydro":0.0},"unitCount":0,"unitIds":[]},"type":"Feature"},{"geometry":{"coordinates":[-77.051447,18.375252],"type":"Point"},"id":"wattlas-plant-osm-way-748840308","properties":{"aliases":["Mapped power plant · OSM 748840308"],"canonicalAnchor":"osm:way/748840308","canonicalCountryKey":"JM","capacityMw":0.0,"country":"JM","externalIds":{"osm":"way/748840308"},"geographyId":"JM-11528761B1553841374990","id":"wattlas-plant-osm-way-748840308","lifecycleCounts":{"operational":1},"locationPrecision":"exact","name":"Mapped power plant · OSM 748840308","operatingCapacityCoverage":{"coveragePercent":0.0,"knownUnitCount":0,"method":"unavailable","totalUnitCount":0},"operatingCapacityMw":0.0,"operatingCapacityMwByTechnology":{},"plannedCapacityCoverage":{"coveragePercent":0.0,"knownUnitCount":0,"method":"unavailable","totalUnitCount":0},"plannedCapacityMw":0.0,"plannedCapacityMwByTechnology":{},"recordCount":1,"recordIds":["wattlas-record-osm-way-748840308"],"sourceIds":["openstreetmap-power"],"technologies":["hydro"],"technologyMixMw":{"hydro":0.0},"unitCount":0,"unitIds":[]},"type":"Feature"},{"geometry":{"coordinates":[-76.809785,17.971363],"type":"Point"},"id":"wattlas-plant-wikidata-q117247101","properties":{"aliases":["Hunts Bay Power Plant"],"canonicalAnchor":"wikidata:Q117247101","canonicalCountryKey":"JM","capacityMw":171.0,"country":"JM","externalIds":{"osm":"way/942769619","wikidata":"Q117247101"},"geographyId":"JM-11528761B58908339710294","id":"wattlas-plant-wikidata-q117247101","idAliases":["wattlas-plant-osm-way-942769619"],"lifecycleCounts":{"operational":1},"locationPrecision":"exact","name":"Hunts Bay Power Plant","operatingCapacityCoverage":{"coveragePercent":100.0,"knownUnitCount":0,"method":"plant_aggregate","provenance":{"evidenceCount":0,"recordIds":["wattlas-record-osm-way-942769619"],"sourceIds":["openstreetmap-power"],"sourceTypes":["community_mapped"],"valueKind":"reported"},"totalUnitCount":0},"operatingCapacityMw":171.0,"operatingCapacityMwByTechnology":{"oil":171.0},"plannedCapacityCoverage":{"coveragePercent":0.0,"knownUnitCount":0,"method":"unavailable","totalUnitCount":0},"plannedCapacityMw":0.0,"plannedCapacityMwByTechnology":{},"recordCount":1,"recordIds":["wattlas-record-osm-way-942769619"],"sourceIds":["openstreetmap-power"],"technologies":["oil"],"technologyMixMw":{"oil":171.0},"unitCount":0,"unitIds":[]},"type":"Feature"},{"geometry":{"coordinates":[-77.241263,17.897013],"type":"Point"},"id":"wattlas-plant-wikidata-q117247104","properties":{"aliases":["Jamalco Clarendon Power Station"],"canonicalAnchor":"wikidata:Q117247104","canonicalCountryKey":"JM","capacityMw":150.0,"country":"JM","externalIds":{"osm":"way/1128061435","wikidata":"Q117247104"},"geographyId":"JM-11528761B12055930952794","id":"wattlas-plant-wikidata-q117247104","idAliases":["wattlas-plant-osm-way-1128061435"],"lifecycleCounts":{"operational":1},"locationPrecision":"exact","name":"Jamalco Clarendon Power Station","operatingCapacityCoverage":{"coveragePercent":100.0,"knownUnitCount":0,"method":"plant_aggregate","provenance":{"evidenceCount":0,"recordIds":["wattlas-record-osm-way-1128061435"],"sourceIds":["openstreetmap-power"],"sourceTypes":["community_mapped"],"valueKind":"reported"},"totalUnitCount":0},"operatingCapacityMw":150.0,"operatingCapacityMwByTechnology":{"gas":150.0},"plannedCapacityCoverage":{"coveragePercent":0.0,"knownUnitCount":0,"method":"unavailable","totalUnitCount":0},"plannedCapacityMw":0.0,"plannedCapacityMwByTechnology":{},"recordCount":1,"recordIds":["wattlas-record-osm-way-1128061435"],"sourceIds":["openstreetmap-power"],"technologies":["gas"],"technologyMixMw":{"gas":150.0},"unitCount":0,"unitIds":[]},"type":"Feature"},{"geometry":{"coordinates":[-77.532789,17.927446],"type":"Point"},"id":"wattlas-plant-wikidata-q117263013","properties":{"aliases":["Wigton Windfarm"],"canonicalAnchor":"wikidata:Q117263013","canonicalCountryKey":"JM","capacityMw":62.7,"country":"JM","externalIds":{"osm":"relation/10854136","wikidata":"Q117263013"},"geographyId":"JM-11528761B9801814618213","id":"wattlas-plant-wikidata-q117263013","idAliases":["wattlas-plant-osm-relation-10854136"],"lifecycleCounts":{"operational":1},"locationPrecision":"exact","name":"Wigton Windfarm","operatingCapacityCoverage":{"coveragePercent":100.0,"knownUnitCount":0,"method":"plant_aggregate","provenance":{"evidenceCount":0,"recordIds":["wattlas-record-osm-relation-10854136"],"sourceIds":["openstreetmap-power"],"sourceTypes":["community_mapped"],"valueKind":"reported"},"totalUnitCount":0},"operatingCapacityMw":62.7,"operatingCapacityMwByTechnology":{"wind":62.7},"plannedCapacityCoverage":{"coveragePercent":0.0,"knownUnitCount":0,"method":"unavailable","totalUnitCount":0},"plannedCapacityMw":0.0,"plannedCapacityMwByTechnology":{},"recordCount":1,"recordIds":["wattlas-record-osm-relation-10854136"],"sourceIds":["openstreetmap-power"],"technologies":["wind"],"technologyMixMw":{"wind":62.7},"unitCount":0,"unitIds":[]},"type":"Feature"},{"geometry":{"coordinates":[-76.752612,17.970319],"type":"Point"},"id":"wattlas-plant-wikidata-q117270367","properties":{"aliases":["Jamaica Private Power Company"],"canonicalAnchor":"wikidata:Q117270367","canonicalCountryKey":"JM","capacityMw":60.0,"country":"JM","externalIds":{"osm":"way/52069602","wikidata":"Q117270367"},"geographyId":"JM-11528761B95441286388390","id":"wattlas-plant-wikidata-q117270367","idAliases":["wattlas-plant-osm-way-52069602"],"lifecycleCounts":{"operational":1},"locationPrecision":"exact","name":"Jamaica Private Power Company","operatingCapacityCoverage":{"coveragePercent":100.0,"knownUnitCount":0,"method":"plant_aggregate","provenance":{"evidenceCount":0,"recordIds":["wattlas-record-osm-way-52069602"],"sourceIds":["openstreetmap-power"],"sourceTypes":["community_mapped"],"valueKind":"reported"},"totalUnitCount":0},"operatingCapacityMw":60.0,"operatingCapacityMwByTechnology":{"oil":60.0},"plannedCapacityCoverage":{"coveragePercent":0.0,"knownUnitCount":0,"method":"unavailable","totalUnitCount":0},"plannedCapacityMw":0.0,"plannedCapacityMwByTechnology":{},"recordCount":1,"recordIds":["wattlas-record-osm-way-52069602"],"sourceIds":["openstreetmap-power"],"technologies":["oil"],"technologyMixMw":{"oil":60.0},"unitCount":0,"unitIds":[]},"type":"Feature"},{"geometry":{"coordinates":[-76.80568,17.972472],"type":"Point"},"id":"wattlas-plant-wikidata-q117270370","properties":{"aliases":["West Kingston Power Partners"],"canonicalAnchor":"wikidata:Q117270370","canonicalCountryKey":"JM","capacityMw":65.5,"country":"JM","externalIds":{"osm":"way/1156837630","wikidata":"Q117270370"},"geographyId":"JM-11528761B58908339710294","id":"wattlas-plant-wikidata-q117270370","idAliases":["wattlas-plant-osm-way-1156837630"],"lifecycleCounts":{"operational":1},"locationPrecision":"exact","name":"West Kingston Power Partners","operatingCapacityCoverage":{"coveragePercent":100.0,"knownUnitCount":0,"method":"plant_aggregate","provenance":{"evidenceCount":0,"recordIds":["wattlas-record-osm-way-1156837630"],"sourceIds":["openstreetmap-power"],"sourceTypes":["community_mapped"],"valueKind":"reported"},"totalUnitCount":0},"operatingCapacityMw":65.5,"operatingCapacityMwByTechnology":{"oil":65.5},"plannedCapacityCoverage":{"coveragePercent":0.0,"knownUnitCount":0,"method":"unavailable","totalUnitCount":0},"plannedCapacityMw":0.0,"plannedCapacityMwByTechnology":{},"recordCount":1,"recordIds":["wattlas-record-osm-way-1156837630"],"sourceIds":["openstreetmap-power"],"technologies":["oil"],"technologyMixMw":{"oil":65.5},"unitCount":0,"unitIds":[]},"type":"Feature"},{"geometry":{"coordinates":[-77.308968,17.943686],"type":"Point"},"id":"wattlas-plant-wikidata-q117270372","properties":{"aliases":["Content Solar"],"canonicalAnchor":"wikidata:Q117270372","canonicalCountryKey":"JM","capacityMw":20.0,"country":"JM","externalIds":{"osm":"way/530668416","wikidata":"Q117270372"},"geographyId":"JM-11528761B12055930952794","id":"wattlas-plant-wikidata-q117270372","idAliases":["wattlas-plant-osm-way-530668416"],"lifecycleCounts":{"operational":1},"locationPrecision":"exact","name":"Content Solar","operatingCapacityCoverage":{"coveragePercent":100.0,"knownUnitCount":0,"method":"plant_aggregate","provenance":{"evidenceCount":0,"recordIds":["wattlas-record-osm-way-530668416"],"sourceIds":["openstreetmap-power"],"sourceTypes":["community_mapped"],"valueKind":"reported"},"totalUnitCount":0},"operatingCapacityMw":20.0,"operatingCapacityMwByTechnology":{"solar":20.0},"plannedCapacityCoverage":{"coveragePercent":0.0,"knownUnitCount":0,"method":"unavailable","totalUnitCount":0},"plannedCapacityMw":0.0,"plannedCapacityMwByTechnology":{},"recordCount":1,"recordIds":["wattlas-record-osm-way-530668416"],"sourceIds":["openstreetmap-power"],"technologies":["solar"],"technologyMixMw":{"solar":20.0},"unitCount":0,"unitIds":[]},"type":"Feature"},{"geometry":{"coordinates":[-78.104631,18.22787],"type":"Point"},"id":"wattlas-plant-wikidata-q117270382","properties":{"aliases":["Eight Rivers Energy"],"canonicalAnchor":"wikidata:Q117270382","canonicalCountryKey":"JM","capacityMw":37.0,"country":"JM","externalIds":{"osm":"way/1156837638","wikidata":"Q117270382"},"geographyId":"JM-11528761B78686886241288","id":"wattlas-plant-wikidata-q117270382","idAliases":["wattlas-plant-osm-way-1156837638"],"lifecycleCounts":{"operational":1},"locationPrecision":"exact","name":"Eight Rivers Energy","operatingCapacityCoverage":{"coveragePercent":100.0,"knownUnitCount":0,"method":"plant_aggregate","provenance":{"evidenceCount":0,"recordIds":["wattlas-record-osm-way-1156837638"],"sourceIds":["openstreetmap-power"],"sourceTypes":["community_mapped"],"valueKind":"reported"},"totalUnitCount":0},"operatingCapacityMw":37.0,"operatingCapacityMwByTechnology":{"solar":37.0},"plannedCapacityCoverage":{"coveragePercent":0.0,"knownUnitCount":0,"method":"unavailable","totalUnitCount":0},"plannedCapacityMw":0.0,"plannedCapacityMwByTechnology":{},"recordCount":1,"recordIds":["wattlas-record-osm-way-1156837638"],"sourceIds":["openstreetmap-power"],"technologies":["solar"],"technologyMixMw":{"solar":37.0},"unitCount":0,"unitIds":[]},"type":"Feature"},{"geometry":{"coordinates":[-76.967128,17.967437],"type":"Point"},"id":"wattlas-plant-wikidata-q117270719","properties":{"aliases":["The Nest Power Station"],"canonicalAnchor":"wikidata:Q117270719","canonicalCountryKey":"JM","capacityMw":10.0,"country":"JM","externalIds":{"osm":"way/1156837628","wikidata":"Q117270719"},"geographyId":"JM-11528761B17176392015583","id":"wattlas-plant-wikidata-q117270719","idAliases":["wattlas-plant-osm-way-1156837628"],"lifecycleCounts":{"operational":1},"locationPrecision":"exact","name":"The Nest Power Station","operatingCapacityCoverage":{"coveragePercent":100.0,"knownUnitCount":0,"method":"plant_aggregate","provenance":{"evidenceCount":0,"recordIds":["wattlas-record-osm-way-1156837628"],"sourceIds":["openstreetmap-power"],"sourceTypes":["community_mapped"],"valueKind":"reported"},"totalUnitCount":0},"operatingCapacityMw":10.0,"operatingCapacityMwByTechnology":{"gas":10.0},"plannedCapacityCoverage":{"coveragePercent":0.0,"knownUnitCount":0,"method":"unavailable","totalUnitCount":0},"plannedCapacityMw":0.0,"plannedCapacityMwByTechnology":{},"recordCount":1,"recordIds":["wattlas-record-osm-way-1156837628"],"sourceIds":["openstreetmap-power"],"technologies":["gas"],"technologyMixMw":{"gas":10.0},"unitCount":0,"unitIds":[]},"type":"Feature"},{"geometry":{"coordinates":[-77.91829,18.451108],"type":"Point"},"id":"wattlas-plant-wikidata-q11961772","properties":{"aliases":["Bogue Power Station"],"canonicalAnchor":"wikidata:Q11961772","canonicalCountryKey":"JM","capacityMw":140.0,"country":"JM","externalIds":{"osm":"way/196032082","wikidata":"Q11961772"},"geographyId":"JM-11528761B92267541916078","id":"wattlas-plant-wikidata-q11961772","idAliases":["wattlas-plant-osm-way-196032082"],"lifecycleCounts":{"operational":1},"locationPrecision":"exact","name":"Bogue Power Station","operatingCapacityCoverage":{"coveragePercent":100.0,"knownUnitCount":0,"method":"plant_aggregate","provenance":{"evidenceCount":0,"recordIds":["wattlas-record-osm-way-196032082"],"sourceIds":["openstreetmap-power"],"sourceTypes":["community_mapped"],"valueKind":"reported"},"totalUnitCount":0},"operatingCapacityMw":140.0,"operatingCapacityMwByTechnology":{"gas":140.0},"plannedCapacityCoverage":{"coveragePercent":0.0,"knownUnitCount":0,"method":"unavailable","totalUnitCount":0},"plannedCapacityMw":0.0,"plannedCapacityMwByTechnology":{},"recordCount":1,"recordIds":["wattlas-record-osm-way-196032082"],"sourceIds":["openstreetmap-power"],"technologies":["gas"],"technologyMixMw":{"gas":140.0},"unitCount":0,"unitIds":[]},"type":"Feature"},{"geometry":{"coordinates":[-76.751638,17.968551],"type":"Point"},"id":"wattlas-plant-wikidata-q19386746","properties":{"aliases":["Rockfort Power Station"],"canonicalAnchor":"wikidata:Q19386746","canonicalCountryKey":"JM","capacityMw":0.0,"country":"JM","externalIds":{"osm":"way/1156837631","wikidata":"Q19386746"},"geographyId":"JM-11528761B95441286388390","id":"wattlas-plant-wikidata-q19386746","idAliases":["wattlas-plant-osm-way-1156837631"],"lifecycleCounts":{"operational":1},"locationPrecision":"exact","name":"Rockfort Power Station","operatingCapacityCoverage":{"coveragePercent":0.0,"knownUnitCount":0,"method":"unavailable","totalUnitCount":0},"operatingCapacityMw":0.0,"operatingCapacityMwByTechnology":{},"plannedCapacityCoverage":{"coveragePercent":0.0,"knownUnitCount":0,"method":"unavailable","totalUnitCount":0},"plannedCapacityMw":0.0,"plannedCapacityMwByTechnology":{},"recordCount":1,"recordIds":["wattlas-record-osm-way-1156837631"],"sourceIds":["openstreetmap-power"],"technologies":["oil"],"technologyMixMw":{"oil":0.0},"unitCount":0,"unitIds":[]},"type":"Feature"},{"geometry":{"coordinates":[-77.751644,18.138092],"type":"Point"},"id":"wattlas-plant-wikidata-q61448236","properties":{"aliases":["Maggotty Hydro Electric Station"],"canonicalAnchor":"wikidata:Q61448236","canonicalCountryKey":"JM","capacityMw":7.2,"country":"JM","externalIds":{"osm":"way/1156837626","wikidata":"Q61448236"},"geographyId":"JM-11528761B76244175997364","id":"wattlas-plant-wikidata-q61448236","idAliases":["wattlas-plant-osm-way-1156837626"],"lifecycleCounts":{"operational":1},"locationPrecision":"exact","name":"Maggotty Hydro Electric Station","operatingCapacityCoverage":{"coveragePercent":100.0,"knownUnitCount":0,"method":"plant_aggregate","provenance":{"evidenceCount":0,"recordIds":["wattlas-record-osm-way-1156837626"],"sourceIds":["openstreetmap-power"],"sourceTypes":["community_mapped"],"valueKind":"reported"},"totalUnitCount":0},"operatingCapacityMw":7.2,"operatingCapacityMwByTechnology":{"hydro":7.2},"plannedCapacityCoverage":{"coveragePercent":0.0,"knownUnitCount":0,"method":"unavailable","totalUnitCount":0},"plannedCapacityMw":0.0,"plannedCapacityMwByTechnology":{},"recordCount":1,"recordIds":["wattlas-record-osm-way-1156837626"],"sourceIds":["openstreetmap-power"],"technologies":["hydro"],"technologyMixMw":{"hydro":7.2},"unitCount":0,"unitIds":[]},"type":"Feature"}],"type":"FeatureCollection"}