{"features":[{"geometry":{"coordinates":[48.170653,29.564206],"type":"Point"},"id":"wattlas-plant-gemplant-l100000405499","properties":{"aliases":["2-GT1","2-GT2","2-GT3","2-GT4","4-GT1","4-GT2","4-ST1","CC1-1","CC1-2","CC1-3","CC4","CC5","GT1- SBOC-2","GT2- SBOC-2","GT3- SBOC-2","GT4- SBOC-2","GT5- SBOC-2","GT6- SBOC-2","SBOC-8","ST1","ST2","ST3","ST4","ST5","ST6","ST7","ST8","Sabiya power plant"],"canonicalAnchor":"gemplant:L100000405499","canonicalCountryKey":"KW","capacityMw":8203.2,"country":"KW","externalIdAliases":{"gemUnit":["G100000404653","G100000404654","G100000404655","G100000404656","G100000404657","G100000404658","G100000404659","G100000404660","G100000404661","G100000404662","G100000404663","G100000404664","G100000404665","G100000404666","G100000404668","G100000404669","G100000404670","G100000408585","G100000408586","G100000411029","G100000411579","G100001008993","G100001008994","G100001008996","G100001008997","G100001008998","G100001008999"]},"externalIds":{"gemPlant":"L100000405499","gemUnit":"G100000404660"},"geographyId":"KW-60633882B97084514536713","id":"wattlas-plant-gemplant-l100000405499","lifecycleCounts":{"announced":1,"operational":25,"under_construction":1},"locationPrecision":"exact","name":"Sabiya power plant","operatingCapacityCoverage":{"coveragePercent":100.0,"knownUnitCount":25,"method":"complete_unit_sum","provenance":{"evidenceCount":0,"recordIds":["wattlas-record-gemunit-g100000404653","wattlas-record-gemunit-g100000404654","wattlas-record-gemunit-g100000404655","wattlas-record-gemunit-g100000404656","wattlas-record-gemunit-g100000404657","wattlas-record-gemunit-g100000404658","wattlas-record-gemunit-g100000404659","wattlas-record-gemunit-g100000404660","wattlas-record-gemunit-g100000404661","wattlas-record-gemunit-g100000404662","wattlas-record-gemunit-g100000404663","wattlas-record-gemunit-g100000404664","wattlas-record-gemunit-g100000404665","wattlas-record-gemunit-g100000404666","wattlas-record-gemunit-g100000404668","wattlas-record-gemunit-g100000404669","wattlas-record-gemunit-g100000404670","wattlas-record-gemunit-g100000408585","wattlas-record-gemunit-g100000408586","wattlas-record-gemunit-g100001008993","wattlas-record-gemunit-g100001008994","wattlas-record-gemunit-g100001008996","wattlas-record-gemunit-g100001008997","wattlas-record-gemunit-g100001008998","wattlas-record-gemunit-g100001008999"],"sourceIds":["gem-global-integrated-power-tracker"],"sourceTypes":["research_verified"],"valueKind":"reported"},"totalUnitCount":25},"operatingCapacityMw":7053.2,"operatingCapacityMwByTechnology":{"gas":7053.199999999999},"plannedCapacityCoverage":{"coveragePercent":100.0,"knownUnitCount":2,"method":"complete_unit_sum","provenance":{"evidenceCount":0,"recordIds":["wattlas-record-gemunit-g100000411029","wattlas-record-gemunit-g100000411579"],"sourceIds":["gem-global-integrated-power-tracker"],"sourceTypes":["research_verified"],"valueKind":"reported"},"totalUnitCount":2},"plannedCapacityMw":1150.0,"plannedCapacityMwByTechnology":{"gas":1150.0},"recordCount":27,"recordIds":["wattlas-record-gemunit-g100000404653","wattlas-record-gemunit-g100000404654","wattlas-record-gemunit-g100000404655","wattlas-record-gemunit-g100000404656","wattlas-record-gemunit-g100000404657","wattlas-record-gemunit-g100000404658","wattlas-record-gemunit-g100000404659","wattlas-record-gemunit-g100000404660","wattlas-record-gemunit-g100000404661","wattlas-record-gemunit-g100000404662","wattlas-record-gemunit-g100000404663","wattlas-record-gemunit-g100000404664","wattlas-record-gemunit-g100000404665","wattlas-record-gemunit-g100000404666","wattlas-record-gemunit-g100000404668","wattlas-record-gemunit-g100000404669","wattlas-record-gemunit-g100000404670","wattlas-record-gemunit-g100000408585","wattlas-record-gemunit-g100000408586","wattlas-record-gemunit-g100000411029","wattlas-record-gemunit-g100000411579","wattlas-record-gemunit-g100001008993","wattlas-record-gemunit-g100001008994","wattlas-record-gemunit-g100001008996","wattlas-record-gemunit-g100001008997","wattlas-record-gemunit-g100001008998","wattlas-record-gemunit-g100001008999"],"sourceIds":["gem-global-integrated-power-tracker"],"technologies":["gas"],"technologyMixMw":{"gas":8203.199999999999},"unitCount":27,"unitIds":["gem-unit-G100000404653","gem-unit-G100000404654","gem-unit-G100000404655","gem-unit-G100000404656","gem-unit-G100000404657","gem-unit-G100000404658","gem-unit-G100000404659","gem-unit-G100000404660","gem-unit-G100000404661","gem-unit-G100000404662","gem-unit-G100000404663","gem-unit-G100000404664","gem-unit-G100000404665","gem-unit-G100000404666","gem-unit-G100000404668","gem-unit-G100000404669","gem-unit-G100000404670","gem-unit-G100000408585","gem-unit-G100000408586","gem-unit-G100000411029","gem-unit-G100000411579","gem-unit-G100001008993","gem-unit-G100001008994","gem-unit-G100001008996","gem-unit-G100001008997","gem-unit-G100001008998","gem-unit-G100001008999"]},"type":"Feature"},{"geometry":{"coordinates":[48.1536,29.0359],"type":"Point"},"id":"wattlas-plant-gemplant-l100000405500","properties":{"aliases":["1-1","Shuaiba North power plant"],"canonicalAnchor":"gemplant:L100000405500","canonicalCountryKey":"KW","capacityMw":875.5,"country":"KW","externalIds":{"gemPlant":"L100000405500","gemUnit":"G100000404671"},"geographyId":"KW-60633882B84302154961664","id":"wattlas-plant-gemplant-l100000405500","lifecycleCounts":{"operational":1},"locationPrecision":"exact","name":"Shuaiba North power plant","operatingCapacityCoverage":{"coveragePercent":100.0,"knownUnitCount":1,"method":"complete_unit_sum","provenance":{"evidenceCount":0,"recordIds":["wattlas-record-gemunit-g100000404671"],"sourceIds":["gem-global-integrated-power-tracker"],"sourceTypes":["research_verified"],"valueKind":"reported"},"totalUnitCount":1},"operatingCapacityMw":875.5,"operatingCapacityMwByTechnology":{"gas":875.5},"plannedCapacityCoverage":{"coveragePercent":0.0,"knownUnitCount":0,"method":"unavailable","totalUnitCount":0},"plannedCapacityMw":0.0,"plannedCapacityMwByTechnology":{},"recordCount":1,"recordIds":["wattlas-record-gemunit-g100000404671"],"sourceIds":["gem-global-integrated-power-tracker"],"technologies":["gas"],"technologyMixMw":{"gas":875.5},"unitCount":1,"unitIds":["gem-unit-G100000404671"]},"type":"Feature"},{"geometry":{"coordinates":[48.154679,29.032237],"type":"Point"},"id":"wattlas-plant-gemplant-l100000405501","properties":{"aliases":["1-2","ST1","ST2","ST3","ST4","ST5","ST6","Shuaiba South power plant"],"canonicalAnchor":"gemplant:L100000405501","canonicalCountryKey":"KW","capacityMw":2604.0,"country":"KW","externalIdAliases":{"gemUnit":["G100000404672","G100000404673","G100000404674","G100000404675","G100000404676","G100000404677","G100000404678"]},"externalIds":{"gemPlant":"L100000405501","gemUnit":"G100000404677"},"geographyId":"KW-60633882B84302154961664","id":"wattlas-plant-gemplant-l100000405501","lifecycleCounts":{"announced":1,"operational":6},"locationPrecision":"exact","name":"Shuaiba South power plant","operatingCapacityCoverage":{"coveragePercent":100.0,"knownUnitCount":6,"method":"complete_unit_sum","provenance":{"evidenceCount":0,"recordIds":["wattlas-record-gemunit-g100000404672","wattlas-record-gemunit-g100000404673","wattlas-record-gemunit-g100000404674","wattlas-record-gemunit-g100000404675","wattlas-record-gemunit-g100000404676","wattlas-record-gemunit-g100000404677"],"sourceIds":["gem-global-integrated-power-tracker"],"sourceTypes":["research_verified"],"valueKind":"reported"},"totalUnitCount":6},"operatingCapacityMw":804.0,"operatingCapacityMwByTechnology":{"gas":804.0},"plannedCapacityCoverage":{"coveragePercent":100.0,"knownUnitCount":1,"method":"complete_unit_sum","provenance":{"evidenceCount":0,"recordIds":["wattlas-record-gemunit-g100000404678"],"sourceIds":["gem-global-integrated-power-tracker"],"sourceTypes":["research_verified"],"valueKind":"reported"},"totalUnitCount":1},"plannedCapacityMw":1800.0,"plannedCapacityMwByTechnology":{"gas":1800.0},"recordCount":7,"recordIds":["wattlas-record-gemunit-g100000404672","wattlas-record-gemunit-g100000404673","wattlas-record-gemunit-g100000404674","wattlas-record-gemunit-g100000404675","wattlas-record-gemunit-g100000404676","wattlas-record-gemunit-g100000404677","wattlas-record-gemunit-g100000404678"],"sourceIds":["gem-global-integrated-power-tracker"],"technologies":["gas"],"technologyMixMw":{"gas":2604.0},"unitCount":7,"unitIds":["gem-unit-G100000404672","gem-unit-G100000404673","gem-unit-G100000404674","gem-unit-G100000404675","gem-unit-G100000404676","gem-unit-G100000404677","gem-unit-G100000404678"]},"type":"Feature"},{"geometry":{"coordinates":[47.7604,28.825],"type":"Point"},"id":"wattlas-plant-gemplant-l100000804065","properties":{"aliases":["--","Sidrah 500 solar farm"],"canonicalAnchor":"gemplant:L100000804065","canonicalCountryKey":"KW","capacityMw":19.4,"country":"KW","externalIds":{"gemPlant":"L100000804065","gemUnit":"G100000804644"},"geographyId":"KW-60633882B84302154961664","id":"wattlas-plant-gemplant-l100000804065","lifecycleCounts":{"operational":1},"locationPrecision":"exact","name":"Sidrah 500 solar farm","operatingCapacityCoverage":{"coveragePercent":100.0,"knownUnitCount":1,"method":"complete_unit_sum","provenance":{"evidenceCount":0,"recordIds":["wattlas-record-gemunit-g100000804644"],"sourceIds":["gem-global-integrated-power-tracker"],"sourceTypes":["research_verified"],"valueKind":"reported"},"totalUnitCount":1},"operatingCapacityMw":19.4,"operatingCapacityMwByTechnology":{"solar":19.4},"plannedCapacityCoverage":{"coveragePercent":0.0,"knownUnitCount":0,"method":"unavailable","totalUnitCount":0},"plannedCapacityMw":0.0,"plannedCapacityMwByTechnology":{},"recordCount":1,"recordIds":["wattlas-record-gemunit-g100000804644"],"sourceIds":["gem-global-integrated-power-tracker"],"technologies":["solar"],"technologyMixMw":{"solar":19.4},"unitCount":1,"unitIds":["gem-unit-G100000804644"]},"type":"Feature"},{"geometry":{"coordinates":[47.0524,29.2055],"type":"Point"},"id":"wattlas-plant-gemplant-l100000804069-a06bda2206","properties":{"aliases":["1.0","4.0","Al Shagaya Solar Energy Park","Pilot-CSP","Pilot-PV"],"canonicalAnchor":"gemplant:L100000804069","canonicalCountryKey":"KW","capacityMw":2810.0,"country":"KW","externalIdAliases":{"gemUnit":["G100000804648","G100000804715","G100000811434","G100001021172"]},"externalIds":{"gemPlant":"L100000804069","gemUnit":"G100000804715"},"geographyId":"KW-60633882B97084514536713","id":"wattlas-plant-gemplant-l100000804069-a06bda2206","idAliases":["wattlas-plant-gemplant-l100000804069"],"lifecycleCounts":{"announced":2,"operational":1,"paused":1},"locationPrecision":"exact","name":"Al Shagaya Solar Energy Park","operatingCapacityCoverage":{"coveragePercent":100.0,"knownUnitCount":1,"method":"complete_unit_sum","provenance":{"evidenceCount":0,"recordIds":["wattlas-record-gemunit-g100000804715"],"sourceIds":["gem-global-integrated-power-tracker"],"sourceTypes":["research_verified"],"valueKind":"reported"},"totalUnitCount":1},"operatingCapacityMw":10.0,"operatingCapacityMwByTechnology":{"solar":10.0},"plannedCapacityCoverage":{"coveragePercent":100.0,"knownUnitCount":2,"method":"complete_unit_sum","provenance":{"evidenceCount":0,"recordIds":["wattlas-record-gemunit-g100000804648","wattlas-record-gemunit-g100001021172"],"sourceIds":["gem-global-integrated-power-tracker"],"sourceTypes":["research_verified"],"valueKind":"reported"},"totalUnitCount":2},"plannedCapacityMw":2800.0,"plannedCapacityMwByTechnology":{"solar":2800.0},"recordCount":4,"recordIds":["wattlas-record-gemunit-g100000804648","wattlas-record-gemunit-g100000804715","wattlas-record-gemunit-g100000811434","wattlas-record-gemunit-g100001021172"],"sourceIds":["gem-global-integrated-power-tracker"],"technologies":["solar"],"technologyMixMw":{"solar":2810.0},"unitCount":4,"unitIds":["gem-unit-G100000804648","gem-unit-G100000804715","gem-unit-G100000811434","gem-unit-G100001021172"]},"type":"Feature"},{"geometry":{"coordinates":[47.73,29.0449],"type":"Point"},"id":"wattlas-plant-gemplant-l100000830706","properties":{"aliases":["--","Al Abdaliyah solar farm"],"canonicalAnchor":"gemplant:L100000830706","canonicalCountryKey":"KW","capacityMw":60.0,"country":"KW","externalIds":{"gemPlant":"L100000830706","gemUnit":"G100000834567"},"geographyId":"KW-60633882B97084514536713","id":"wattlas-plant-gemplant-l100000830706","lifecycleCounts":{"announced":1},"locationPrecision":"exact","name":"Al Abdaliyah solar farm","operatingCapacityCoverage":{"coveragePercent":0.0,"knownUnitCount":0,"method":"unavailable","totalUnitCount":0},"operatingCapacityMw":0.0,"operatingCapacityMwByTechnology":{},"plannedCapacityCoverage":{"coveragePercent":100.0,"knownUnitCount":1,"method":"complete_unit_sum","provenance":{"evidenceCount":0,"recordIds":["wattlas-record-gemunit-g100000834567"],"sourceIds":["gem-global-integrated-power-tracker"],"sourceTypes":["research_verified"],"valueKind":"reported"},"totalUnitCount":1},"plannedCapacityMw":60.0,"plannedCapacityMwByTechnology":{"solar":60.0},"recordCount":1,"recordIds":["wattlas-record-gemunit-g100000834567"],"sourceIds":["gem-global-integrated-power-tracker"],"technologies":["solar"],"technologyMixMw":{"solar":60.0},"unitCount":1,"unitIds":["gem-unit-G100000834567"]},"type":"Feature"},{"geometry":{"coordinates":[47.063,29.2285],"type":"Point"},"id":"wattlas-plant-gemplant-l100000905923","properties":{"aliases":["1.0","2a","2b","Shagaya Wind Project"],"canonicalAnchor":"gemplant:L100000905923","canonicalCountryKey":"KW","capacityMw":10.0,"country":"KW","externalIdAliases":{"gemUnit":["G100000908102","G100000908159","G100000908160"]},"externalIds":{"gemPlant":"L100000905923","gemUnit":"G100000908160"},"geographyId":"KW-60633882B97084514536713","id":"wattlas-plant-gemplant-l100000905923","lifecycleCounts":{"cancelled":2,"operational":1},"locationPrecision":"exact","name":"Shagaya Wind Project","operatingCapacityCoverage":{"coveragePercent":100.0,"knownUnitCount":1,"method":"complete_unit_sum","provenance":{"evidenceCount":0,"recordIds":["wattlas-record-gemunit-g100000908102"],"sourceIds":["gem-global-integrated-power-tracker"],"sourceTypes":["research_verified"],"valueKind":"reported"},"totalUnitCount":1},"operatingCapacityMw":10.0,"operatingCapacityMwByTechnology":{"wind":10.0},"plannedCapacityCoverage":{"coveragePercent":0.0,"knownUnitCount":0,"method":"unavailable","totalUnitCount":0},"plannedCapacityMw":0.0,"plannedCapacityMwByTechnology":{},"recordCount":3,"recordIds":["wattlas-record-gemunit-g100000908102","wattlas-record-gemunit-g100000908159","wattlas-record-gemunit-g100000908160"],"sourceIds":["gem-global-integrated-power-tracker"],"technologies":["wind"],"technologyMixMw":{"wind":10.0},"unitCount":3,"unitIds":["gem-unit-G100000908102","gem-unit-G100000908159","gem-unit-G100000908160"]},"type":"Feature"},{"geometry":{"coordinates":[47.940029,29.350445],"type":"Point"},"id":"wattlas-plant-gemplant-l100001007697","properties":{"aliases":["GT-1","GT-2","GT-3","GT-4","GT-5","GT-6","Shuwaikh Power Plant"],"canonicalAnchor":"gemplant:L100001007697","canonicalCountryKey":"KW","capacityMw":252.0,"country":"KW","externalIdAliases":{"gemUnit":["G100001008970","G100001008973","G100001008974","G100001008975","G100001008976","G100001008977"]},"externalIds":{"gemPlant":"L100001007697","gemUnit":"G100001008977"},"geographyId":"KW-60633882B15053730070416","id":"wattlas-plant-gemplant-l100001007697","lifecycleCounts":{"operational":6},"locationPrecision":"exact","name":"Shuwaikh Power Plant","operatingCapacityCoverage":{"coveragePercent":100.0,"knownUnitCount":6,"method":"complete_unit_sum","provenance":{"evidenceCount":0,"recordIds":["wattlas-record-gemunit-g100001008970","wattlas-record-gemunit-g100001008973","wattlas-record-gemunit-g100001008974","wattlas-record-gemunit-g100001008975","wattlas-record-gemunit-g100001008976","wattlas-record-gemunit-g100001008977"],"sourceIds":["gem-global-integrated-power-tracker"],"sourceTypes":["research_verified"],"valueKind":"reported"},"totalUnitCount":6},"operatingCapacityMw":252.0,"operatingCapacityMwByTechnology":{"gas":252.0},"plannedCapacityCoverage":{"coveragePercent":0.0,"knownUnitCount":0,"method":"unavailable","totalUnitCount":0},"plannedCapacityMw":0.0,"plannedCapacityMwByTechnology":{},"recordCount":6,"recordIds":["wattlas-record-gemunit-g100001008970","wattlas-record-gemunit-g100001008973","wattlas-record-gemunit-g100001008974","wattlas-record-gemunit-g100001008975","wattlas-record-gemunit-g100001008976","wattlas-record-gemunit-g100001008977"],"sourceIds":["gem-global-integrated-power-tracker"],"technologies":["gas"],"technologyMixMw":{"gas":252.0},"unitCount":6,"unitIds":["gem-unit-G100001008970","gem-unit-G100001008973","gem-unit-G100001008974","gem-unit-G100001008975","gem-unit-G100001008976","gem-unit-G100001008977"]},"type":"Feature"},{"geometry":{"coordinates":[47.6918,29.7618],"type":"Point"},"id":"wattlas-plant-gemplant-l100001069100","properties":{"aliases":["--","Umm Al-Aish solar project"],"canonicalAnchor":"gemplant:L100001069100","canonicalCountryKey":"KW","capacityMw":1.9,"country":"KW","externalIds":{"gemPlant":"L100001069100","gemUnit":"G100001078886"},"geographyId":"KW-60633882B97084514536713","id":"wattlas-plant-gemplant-l100001069100","lifecycleCounts":{"operational":1},"locationPrecision":"exact","name":"Umm Al-Aish solar project","operatingCapacityCoverage":{"coveragePercent":100.0,"knownUnitCount":1,"method":"complete_unit_sum","provenance":{"evidenceCount":0,"recordIds":["wattlas-record-gemunit-g100001078886"],"sourceIds":["gem-global-integrated-power-tracker"],"sourceTypes":["research_verified"],"valueKind":"reported"},"totalUnitCount":1},"operatingCapacityMw":1.9,"operatingCapacityMwByTechnology":{"solar":1.9},"plannedCapacityCoverage":{"coveragePercent":0.0,"knownUnitCount":0,"method":"unavailable","totalUnitCount":0},"plannedCapacityMw":0.0,"plannedCapacityMwByTechnology":{},"recordCount":1,"recordIds":["wattlas-record-gemunit-g100001078886"],"sourceIds":["gem-global-integrated-power-tracker"],"technologies":["solar"],"technologyMixMw":{"solar":1.9},"unitCount":1,"unitIds":["gem-unit-G100001078886"]},"type":"Feature"},{"geometry":{"coordinates":[47.049763,29.226553],"type":"Point"},"id":"wattlas-plant-osm-relation-11315623","properties":{"aliases":["Shagaya Wind Park"],"canonicalAnchor":"osm:relation/11315623","canonicalCountryKey":"KW","capacityMw":10.0,"country":"KW","externalIds":{"osm":"relation/11315623"},"geographyId":"KW-60633882B97084514536713","id":"wattlas-plant-osm-relation-11315623","lifecycleCounts":{"operational":1},"locationPrecision":"exact","name":"Shagaya Wind Park","operatingCapacityCoverage":{"coveragePercent":100.0,"knownUnitCount":0,"method":"plant_aggregate","provenance":{"evidenceCount":0,"recordIds":["wattlas-record-osm-relation-11315623"],"sourceIds":["openstreetmap-power"],"sourceTypes":["community_mapped"],"valueKind":"reported"},"totalUnitCount":0},"operatingCapacityMw":10.0,"operatingCapacityMwByTechnology":{"wind":10.0},"plannedCapacityCoverage":{"coveragePercent":0.0,"knownUnitCount":0,"method":"unavailable","totalUnitCount":0},"plannedCapacityMw":0.0,"plannedCapacityMwByTechnology":{},"recordCount":1,"recordIds":["wattlas-record-osm-relation-11315623"],"sourceIds":["openstreetmap-power"],"technologies":["wind"],"technologyMixMw":{"wind":10.0},"unitCount":0,"unitIds":[]},"type":"Feature"},{"geometry":{"coordinates":[47.808937,29.329162],"type":"Point"},"id":"wattlas-plant-osm-way-552680897","properties":{"aliases":["Mapped power plant · OSM 552680897"],"canonicalAnchor":"osm:way/552680897","canonicalCountryKey":"KW","capacityMw":0.0,"country":"KW","externalIds":{"osm":"way/552680897"},"geographyId":"KW-60633882B97084514536713","id":"wattlas-plant-osm-way-552680897","lifecycleCounts":{"operational":1},"locationPrecision":"exact","name":"Mapped power plant · OSM 552680897","operatingCapacityCoverage":{"coveragePercent":0.0,"knownUnitCount":0,"method":"unavailable","totalUnitCount":0},"operatingCapacityMw":0.0,"operatingCapacityMwByTechnology":{},"plannedCapacityCoverage":{"coveragePercent":0.0,"knownUnitCount":0,"method":"unavailable","totalUnitCount":0},"plannedCapacityMw":0.0,"plannedCapacityMwByTechnology":{},"recordCount":1,"recordIds":["wattlas-record-osm-way-552680897"],"sourceIds":["openstreetmap-power"],"technologies":["other"],"technologyMixMw":{"other":0.0},"unitCount":0,"unitIds":[]},"type":"Feature"},{"geometry":{"coordinates":[48.154232,29.033856],"type":"Point"},"id":"wattlas-plant-osm-way-592748993","properties":{"aliases":["محطة تحويل كهرباء رئيسية الشعيبة"],"canonicalAnchor":"osm:way/592748993","canonicalCountryKey":"KW","capacityMw":1595.5,"country":"KW","externalIds":{"osm":"way/592748993","wikipedia":"ar:محطة تحويل كهرباء رئيسية شعبية"},"geographyId":"KW-60633882B84302154961664","id":"wattlas-plant-osm-way-592748993","idAliases":["wattlas-plant-wikipedia-ar"],"lifecycleCounts":{"operational":1},"locationPrecision":"exact","name":"محطة تحويل كهرباء رئيسية الشعيبة","operatingCapacityCoverage":{"coveragePercent":100.0,"knownUnitCount":0,"method":"plant_aggregate","provenance":{"evidenceCount":0,"recordIds":["wattlas-record-osm-way-592748993"],"sourceIds":["openstreetmap-power"],"sourceTypes":["community_mapped"],"valueKind":"reported"},"totalUnitCount":0},"operatingCapacityMw":1595.5,"operatingCapacityMwByTechnology":{"gas":1595.5},"plannedCapacityCoverage":{"coveragePercent":0.0,"knownUnitCount":0,"method":"unavailable","totalUnitCount":0},"plannedCapacityMw":0.0,"plannedCapacityMwByTechnology":{},"recordCount":1,"recordIds":["wattlas-record-osm-way-592748993"],"sourceIds":["openstreetmap-power"],"technologies":["gas"],"technologyMixMw":{"gas":1595.5},"unitCount":0,"unitIds":[]},"type":"Feature"},{"geometry":{"coordinates":[47.047098,29.19671],"type":"Point"},"id":"wattlas-plant-osm-way-780613290","properties":{"aliases":["Shagaya CSP"],"canonicalAnchor":"osm:way/780613290","canonicalCountryKey":"KW","capacityMw":50.0,"country":"KW","externalIds":{"osm":"way/780613290"},"geographyId":"KW-60633882B97084514536713","id":"wattlas-plant-osm-way-780613290","lifecycleCounts":{"operational":1},"locationPrecision":"exact","name":"Shagaya CSP","operatingCapacityCoverage":{"coveragePercent":100.0,"knownUnitCount":0,"method":"plant_aggregate","provenance":{"evidenceCount":0,"recordIds":["wattlas-record-osm-way-780613290"],"sourceIds":["openstreetmap-power"],"sourceTypes":["community_mapped"],"valueKind":"reported"},"totalUnitCount":0},"operatingCapacityMw":50.0,"operatingCapacityMwByTechnology":{"solar":50.0},"plannedCapacityCoverage":{"coveragePercent":0.0,"knownUnitCount":0,"method":"unavailable","totalUnitCount":0},"plannedCapacityMw":0.0,"plannedCapacityMwByTechnology":{},"recordCount":1,"recordIds":["wattlas-record-osm-way-780613290"],"sourceIds":["openstreetmap-power"],"technologies":["solar"],"technologyMixMw":{"solar":50.0},"unitCount":0,"unitIds":[]},"type":"Feature"},{"geometry":{"coordinates":[47.052349,29.205473],"type":"Point"},"id":"wattlas-plant-osm-way-780613886","properties":{"aliases":["Shagaya Photovoltaic"],"canonicalAnchor":"osm:way/780613886","canonicalCountryKey":"KW","capacityMw":10.0,"country":"KW","externalIds":{"osm":"way/780613886"},"geographyId":"KW-60633882B97084514536713","id":"wattlas-plant-osm-way-780613886","lifecycleCounts":{"operational":1},"locationPrecision":"exact","name":"Shagaya Photovoltaic","operatingCapacityCoverage":{"coveragePercent":100.0,"knownUnitCount":0,"method":"plant_aggregate","provenance":{"evidenceCount":0,"recordIds":["wattlas-record-osm-way-780613886"],"sourceIds":["openstreetmap-power"],"sourceTypes":["community_mapped"],"valueKind":"reported"},"totalUnitCount":0},"operatingCapacityMw":10.0,"operatingCapacityMwByTechnology":{"solar":10.0},"plannedCapacityCoverage":{"coveragePercent":0.0,"knownUnitCount":0,"method":"unavailable","totalUnitCount":0},"plannedCapacityMw":0.0,"plannedCapacityMwByTechnology":{},"recordCount":1,"recordIds":["wattlas-record-osm-way-780613886"],"sourceIds":["openstreetmap-power"],"technologies":["solar"],"technologyMixMw":{"solar":10.0},"unitCount":0,"unitIds":[]},"type":"Feature"},{"geometry":{"coordinates":[47.760532,28.825007],"type":"Point"},"id":"wattlas-plant-osm-way-956941559","properties":{"aliases":["Sidrah 500 solar farm"],"canonicalAnchor":"osm:way/956941559","canonicalCountryKey":"KW","capacityMw":10.0,"country":"KW","externalIds":{"osm":"way/956941559"},"geographyId":"KW-60633882B84302154961664","id":"wattlas-plant-osm-way-956941559","lifecycleCounts":{"operational":1},"locationPrecision":"exact","name":"Sidrah 500 solar farm","operatingCapacityCoverage":{"coveragePercent":100.0,"knownUnitCount":0,"method":"plant_aggregate","provenance":{"evidenceCount":0,"recordIds":["wattlas-record-osm-way-956941559"],"sourceIds":["openstreetmap-power"],"sourceTypes":["community_mapped"],"valueKind":"reported"},"totalUnitCount":0},"operatingCapacityMw":10.0,"operatingCapacityMwByTechnology":{"solar":10.0},"plannedCapacityCoverage":{"coveragePercent":0.0,"knownUnitCount":0,"method":"unavailable","totalUnitCount":0},"plannedCapacityMw":0.0,"plannedCapacityMwByTechnology":{},"recordCount":1,"recordIds":["wattlas-record-osm-way-956941559"],"sourceIds":["openstreetmap-power"],"technologies":["solar"],"technologyMixMw":{"solar":10.0},"unitCount":0,"unitIds":[]},"type":"Feature"},{"geometry":{"coordinates":[48.170119,29.565575],"type":"Point"},"id":"wattlas-plant-wikidata-q22915211","properties":{"aliases":["محطة الصبية لتوليد الطاقة الكهربائية وتقطير المياه"],"canonicalAnchor":"wikidata:Q22915211","canonicalCountryKey":"KW","capacityMw":7046.7,"country":"KW","externalIds":{"osm":"way/694568334","wikidata":"Q22915211"},"geographyId":"KW-60633882B97084514536713","id":"wattlas-plant-wikidata-q22915211","idAliases":["wattlas-plant-osm-way-694568334"],"lifecycleCounts":{"operational":1},"locationPrecision":"exact","name":"محطة الصبية لتوليد الطاقة الكهربائية وتقطير المياه","operatingCapacityCoverage":{"coveragePercent":100.0,"knownUnitCount":0,"method":"plant_aggregate","provenance":{"evidenceCount":0,"recordIds":["wattlas-record-osm-way-694568334"],"sourceIds":["openstreetmap-power"],"sourceTypes":["community_mapped"],"valueKind":"reported"},"totalUnitCount":0},"operatingCapacityMw":7046.7,"operatingCapacityMwByTechnology":{"gas":7046.7},"plannedCapacityCoverage":{"coveragePercent":0.0,"knownUnitCount":0,"method":"unavailable","totalUnitCount":0},"plannedCapacityMw":0.0,"plannedCapacityMwByTechnology":{},"recordCount":1,"recordIds":["wattlas-record-osm-way-694568334"],"sourceIds":["openstreetmap-power"],"technologies":["gas"],"technologyMixMw":{"gas":7046.7},"unitCount":0,"unitIds":[]},"type":"Feature"},{"geometry":{"coordinates":[47.940225,29.351454],"type":"Point"},"id":"wattlas-plant-wikidata-q97877176","properties":{"aliases":["محطة الشويخ لتوليد الطاقة الكهربائية وتقطير المياه"],"canonicalAnchor":"wikidata:Q97877176","canonicalCountryKey":"KW","capacityMw":252.0,"country":"KW","externalIds":{"osm":"way/827417286","wikidata":"Q97877176"},"geographyId":"KW-60633882B15053730070416","id":"wattlas-plant-wikidata-q97877176","idAliases":["wattlas-plant-osm-way-827417286"],"lifecycleCounts":{"operational":1},"locationPrecision":"exact","name":"محطة الشويخ لتوليد الطاقة الكهربائية وتقطير المياه","operatingCapacityCoverage":{"coveragePercent":100.0,"knownUnitCount":0,"method":"plant_aggregate","provenance":{"evidenceCount":0,"recordIds":["wattlas-record-osm-way-827417286"],"sourceIds":["openstreetmap-power"],"sourceTypes":["community_mapped"],"valueKind":"reported"},"totalUnitCount":0},"operatingCapacityMw":252.0,"operatingCapacityMwByTechnology":{"gas":252.0},"plannedCapacityCoverage":{"coveragePercent":0.0,"knownUnitCount":0,"method":"unavailable","totalUnitCount":0},"plannedCapacityMw":0.0,"plannedCapacityMwByTechnology":{},"recordCount":1,"recordIds":["wattlas-record-osm-way-827417286"],"sourceIds":["openstreetmap-power"],"technologies":["gas"],"technologyMixMw":{"gas":252.0},"unitCount":0,"unitIds":[]},"type":"Feature"}],"type":"FeatureCollection"}