{"features":[{"geometry":{"coordinates":[35.603934,33.970651],"type":"Point"},"id":"wattlas-plant-gemplant-l100000406956","properties":{"aliases":["1-1","2-1","3-1","4-1","Expansion-1","IC1","Power Ship","Zouk power plant"],"canonicalAnchor":"gemplant:L100000406956","canonicalCountryKey":"LB","capacityMw":1003.0,"country":"LB","externalIdAliases":{"gemUnit":["G100000407976","G100000411570","G100000411571","G100000411572","G100000411573","G100000414374","G100001006039"]},"externalIds":{"gemPlant":"L100000406956","gemUnit":"G100001006039"},"geographyId":"LB-68408151B4671352582534","id":"wattlas-plant-gemplant-l100000406956","lifecycleCounts":{"operational":6,"paused":1},"locationPrecision":"exact","name":"Zouk power plant","operatingCapacityCoverage":{"coveragePercent":100.0,"knownUnitCount":6,"method":"complete_unit_sum","provenance":{"evidenceCount":0,"recordIds":["wattlas-record-gemunit-g100000407976","wattlas-record-gemunit-g100000411570","wattlas-record-gemunit-g100000411571","wattlas-record-gemunit-g100000411572","wattlas-record-gemunit-g100000411573","wattlas-record-gemunit-g100001006039"],"sourceIds":["gem-global-integrated-power-tracker"],"sourceTypes":["research_verified"],"valueKind":"reported"},"totalUnitCount":6},"operatingCapacityMw":1003.0,"operatingCapacityMwByTechnology":{"gas":198.0,"oil":805.0},"plannedCapacityCoverage":{"coveragePercent":0.0,"knownUnitCount":0,"method":"unavailable","totalUnitCount":0},"plannedCapacityMw":0.0,"plannedCapacityMwByTechnology":{},"recordCount":7,"recordIds":["wattlas-record-gemunit-g100000407976","wattlas-record-gemunit-g100000411570","wattlas-record-gemunit-g100000411571","wattlas-record-gemunit-g100000411572","wattlas-record-gemunit-g100000411573","wattlas-record-gemunit-g100000414374","wattlas-record-gemunit-g100001006039"],"sourceIds":["gem-global-integrated-power-tracker"],"technologies":["gas","oil"],"technologyMixMw":{"gas":198.0,"oil":805.0},"unitCount":7,"unitIds":["gem-unit-G100000407976","gem-unit-G100000411570","gem-unit-G100000411571","gem-unit-G100000411572","gem-unit-G100000411573","gem-unit-G100000414374","gem-unit-G100001006039"]},"type":"Feature"},{"geometry":{"coordinates":[35.601906,33.972152],"type":"Point"},"id":"wattlas-plant-gemplant-l100000406957","properties":{"aliases":["IC1","Karpowership (Lebanon) Fatmagül Sultan power station"],"canonicalAnchor":"gemplant:L100000406957","canonicalCountryKey":"LB","capacityMw":0.0,"country":"LB","externalIds":{"gemPlant":"L100000406957","gemUnit":"G100000407977"},"geographyId":"LB-68408151B4671352582534","id":"wattlas-plant-gemplant-l100000406957","lifecycleCounts":{"cancelled":1},"locationPrecision":"exact","name":"Karpowership (Lebanon) Fatmagül Sultan power station","operatingCapacityCoverage":{"coveragePercent":0.0,"knownUnitCount":0,"method":"unavailable","totalUnitCount":0},"operatingCapacityMw":0.0,"operatingCapacityMwByTechnology":{},"plannedCapacityCoverage":{"coveragePercent":0.0,"knownUnitCount":0,"method":"unavailable","totalUnitCount":0},"plannedCapacityMw":0.0,"plannedCapacityMwByTechnology":{},"recordCount":1,"recordIds":["wattlas-record-gemunit-g100000407977"],"sourceIds":["gem-global-integrated-power-tracker"],"technologies":["gas"],"technologyMixMw":{"gas":0.0},"unitCount":1,"unitIds":["gem-unit-G100000407977"]},"type":"Feature"},{"geometry":{"coordinates":[35.338219,33.496081],"type":"Point"},"id":"wattlas-plant-gemplant-l100000406960","properties":{"aliases":["Unit 1, timepoint 1","Unit 1, timepoint 2","Zahrani power plant"],"canonicalAnchor":"gemplant:L100000406960","canonicalCountryKey":"LB","capacityMw":465.0,"country":"LB","externalIdAliases":{"gemUnit":["G100000407982","G100000414383"]},"externalIds":{"gemPlant":"L100000406960","gemUnit":"G100000414383"},"geographyId":"LB-68408151B17317068268844","id":"wattlas-plant-gemplant-l100000406960","lifecycleCounts":{"operational":1,"paused":1},"locationPrecision":"exact","name":"Zahrani power plant","operatingCapacityCoverage":{"coveragePercent":100.0,"knownUnitCount":1,"method":"complete_unit_sum","provenance":{"evidenceCount":0,"recordIds":["wattlas-record-gemunit-g100000407982"],"sourceIds":["gem-global-integrated-power-tracker"],"sourceTypes":["research_verified"],"valueKind":"reported"},"totalUnitCount":1},"operatingCapacityMw":465.0,"operatingCapacityMwByTechnology":{"gas":465.0},"plannedCapacityCoverage":{"coveragePercent":0.0,"knownUnitCount":0,"method":"unavailable","totalUnitCount":0},"plannedCapacityMw":0.0,"plannedCapacityMwByTechnology":{},"recordCount":2,"recordIds":["wattlas-record-gemunit-g100000407982","wattlas-record-gemunit-g100000414383"],"sourceIds":["gem-global-integrated-power-tracker"],"technologies":["gas"],"technologyMixMw":{"gas":465.0},"unitCount":2,"unitIds":["gem-unit-G100000407982","gem-unit-G100000414383"]},"type":"Feature"},{"geometry":{"coordinates":[36.191803,34.020884],"type":"Point"},"id":"wattlas-plant-gemplant-l100000409291","properties":{"aliases":["1-1","2-1","Baalback power plant"],"canonicalAnchor":"gemplant:L100000409291","canonicalCountryKey":"LB","capacityMw":70.0,"country":"LB","externalIdAliases":{"gemUnit":["G100000414411","G100000414412"]},"externalIds":{"gemPlant":"L100000409291","gemUnit":"G100000414411"},"geographyId":"LB-68408151B19672163648714","id":"wattlas-plant-gemplant-l100000409291","lifecycleCounts":{"operational":2},"locationPrecision":"exact","name":"Baalback power plant","operatingCapacityCoverage":{"coveragePercent":100.0,"knownUnitCount":2,"method":"complete_unit_sum","provenance":{"evidenceCount":0,"recordIds":["wattlas-record-gemunit-g100000414411","wattlas-record-gemunit-g100000414412"],"sourceIds":["gem-global-integrated-power-tracker"],"sourceTypes":["research_verified"],"valueKind":"reported"},"totalUnitCount":2},"operatingCapacityMw":70.0,"operatingCapacityMwByTechnology":{"gas":70.0},"plannedCapacityCoverage":{"coveragePercent":0.0,"knownUnitCount":0,"method":"unavailable","totalUnitCount":0},"plannedCapacityMw":0.0,"plannedCapacityMwByTechnology":{},"recordCount":2,"recordIds":["wattlas-record-gemunit-g100000414411","wattlas-record-gemunit-g100000414412"],"sourceIds":["gem-global-integrated-power-tracker"],"technologies":["gas"],"technologyMixMw":{"gas":70.0},"unitCount":2,"unitIds":["gem-unit-G100000414411","gem-unit-G100000414412"]},"type":"Feature"},{"geometry":{"coordinates":[35.229213,33.276494],"type":"Point"},"id":"wattlas-plant-gemplant-l100000409293","properties":{"aliases":["1-1","2-1","Tyr power plant"],"canonicalAnchor":"gemplant:L100000409293","canonicalCountryKey":"LB","capacityMw":70.0,"country":"LB","externalIdAliases":{"gemUnit":["G100000414384","G100000414385"]},"externalIds":{"gemPlant":"L100000409293","gemUnit":"G100000414384"},"geographyId":"LB-68408151B17317068268844","id":"wattlas-plant-gemplant-l100000409293","lifecycleCounts":{"operational":2},"locationPrecision":"exact","name":"Tyr power plant","operatingCapacityCoverage":{"coveragePercent":100.0,"knownUnitCount":2,"method":"complete_unit_sum","provenance":{"evidenceCount":0,"recordIds":["wattlas-record-gemunit-g100000414384","wattlas-record-gemunit-g100000414385"],"sourceIds":["gem-global-integrated-power-tracker"],"sourceTypes":["research_verified"],"valueKind":"reported"},"totalUnitCount":2},"operatingCapacityMw":70.0,"operatingCapacityMwByTechnology":{"gas":70.0},"plannedCapacityCoverage":{"coveragePercent":0.0,"knownUnitCount":0,"method":"unavailable","totalUnitCount":0},"plannedCapacityMw":0.0,"plannedCapacityMwByTechnology":{},"recordCount":2,"recordIds":["wattlas-record-gemunit-g100000414384","wattlas-record-gemunit-g100000414385"],"sourceIds":["gem-global-integrated-power-tracker"],"technologies":["gas"],"technologyMixMw":{"gas":70.0},"unitCount":2,"unitIds":["gem-unit-G100000414384","gem-unit-G100000414385"]},"type":"Feature"},{"geometry":{"coordinates":[35.5056,33.5753],"type":"Point"},"id":"wattlas-plant-gemplant-l100000602417","properties":{"aliases":["Boulous Arqash hydroelectric plant"],"canonicalAnchor":"gemplant:L100000602417","canonicalCountryKey":"LB","capacityMw":108.0,"country":"LB","externalIds":{"gemPlant":"L100000602417","gemUnit":"G100000602447"},"geographyId":"LB-68408151B17317068268844","id":"wattlas-plant-gemplant-l100000602417","lifecycleCounts":{"operational":1},"locationPrecision":"exact","name":"Boulous Arqash hydroelectric plant","operatingCapacityCoverage":{"coveragePercent":100.0,"knownUnitCount":1,"method":"complete_unit_sum","provenance":{"evidenceCount":0,"recordIds":["wattlas-record-gemunit-g100000602447"],"sourceIds":["gem-global-integrated-power-tracker"],"sourceTypes":["research_verified"],"valueKind":"reported"},"totalUnitCount":1},"operatingCapacityMw":108.0,"operatingCapacityMwByTechnology":{"hydro":108.0},"plannedCapacityCoverage":{"coveragePercent":0.0,"knownUnitCount":0,"method":"unavailable","totalUnitCount":0},"plannedCapacityMw":0.0,"plannedCapacityMwByTechnology":{},"recordCount":1,"recordIds":["wattlas-record-gemunit-g100000602447"],"sourceIds":["gem-global-integrated-power-tracker"],"technologies":["hydro"],"technologyMixMw":{"hydro":108.0},"unitCount":1,"unitIds":["gem-unit-G100000602447"]},"type":"Feature"},{"geometry":{"coordinates":[35.900337,33.82046],"type":"Point"},"id":"wattlas-plant-gemplant-l100001004543","properties":{"aliases":["1-1","Zahle Power Plant"],"canonicalAnchor":"gemplant:L100001004543","canonicalCountryKey":"LB","capacityMw":60.0,"country":"LB","externalIds":{"gemPlant":"L100001004543","gemUnit":"G100001005332"},"geographyId":"LB-68408151B59549752014872","id":"wattlas-plant-gemplant-l100001004543","lifecycleCounts":{"operational":1},"locationPrecision":"exact","name":"Zahle Power Plant","operatingCapacityCoverage":{"coveragePercent":100.0,"knownUnitCount":1,"method":"complete_unit_sum","provenance":{"evidenceCount":0,"recordIds":["wattlas-record-gemunit-g100001005332"],"sourceIds":["gem-global-integrated-power-tracker"],"sourceTypes":["research_verified"],"valueKind":"reported"},"totalUnitCount":1},"operatingCapacityMw":60.0,"operatingCapacityMwByTechnology":{"gas":60.0},"plannedCapacityCoverage":{"coveragePercent":0.0,"knownUnitCount":0,"method":"unavailable","totalUnitCount":0},"plannedCapacityMw":0.0,"plannedCapacityMwByTechnology":{},"recordCount":1,"recordIds":["wattlas-record-gemunit-g100001005332"],"sourceIds":["gem-global-integrated-power-tracker"],"technologies":["gas"],"technologyMixMw":{"gas":60.0},"unitCount":1,"unitIds":["gem-unit-G100001005332"]},"type":"Feature"},{"geometry":{"coordinates":[35.6655,33.4999],"type":"Point"},"id":"wattlas-plant-gemplant-l100001063479","properties":{"aliases":["Ibrahim Abdel Aal hydroelectric plant"],"canonicalAnchor":"gemplant:L100001063479","canonicalCountryKey":"LB","capacityMw":34.0,"country":"LB","externalIds":{"gemPlant":"L100001063479","gemUnit":"G100001072947"},"geographyId":"LB-68408151B59549752014872","id":"wattlas-plant-gemplant-l100001063479","lifecycleCounts":{"operational":1},"locationPrecision":"exact","name":"Ibrahim Abdel Aal hydroelectric plant","operatingCapacityCoverage":{"coveragePercent":100.0,"knownUnitCount":1,"method":"complete_unit_sum","provenance":{"evidenceCount":0,"recordIds":["wattlas-record-gemunit-g100001072947"],"sourceIds":["gem-global-integrated-power-tracker"],"sourceTypes":["research_verified"],"valueKind":"reported"},"totalUnitCount":1},"operatingCapacityMw":34.0,"operatingCapacityMwByTechnology":{"hydro":34.0},"plannedCapacityCoverage":{"coveragePercent":0.0,"knownUnitCount":0,"method":"unavailable","totalUnitCount":0},"plannedCapacityMw":0.0,"plannedCapacityMwByTechnology":{},"recordCount":1,"recordIds":["wattlas-record-gemunit-g100001072947"],"sourceIds":["gem-global-integrated-power-tracker"],"technologies":["hydro"],"technologyMixMw":{"hydro":34.0},"unitCount":1,"unitIds":["gem-unit-G100001072947"]},"type":"Feature"},{"geometry":{"coordinates":[35.9442,33.8547],"type":"Point"},"id":"wattlas-plant-gemplant-l100001069101","properties":{"aliases":["--","Beqaa Governorate solar project I"],"canonicalAnchor":"gemplant:L100001069101","canonicalCountryKey":"LB","capacityMw":1.7,"country":"LB","externalIds":{"gemPlant":"L100001069101","gemUnit":"G100001078887"},"geographyId":"LB-68408151B59549752014872","id":"wattlas-plant-gemplant-l100001069101","lifecycleCounts":{"operational":1},"locationPrecision":"exact","name":"Beqaa Governorate solar project I","operatingCapacityCoverage":{"coveragePercent":100.0,"knownUnitCount":1,"method":"complete_unit_sum","provenance":{"evidenceCount":0,"recordIds":["wattlas-record-gemunit-g100001078887"],"sourceIds":["gem-global-integrated-power-tracker"],"sourceTypes":["research_verified"],"valueKind":"reported"},"totalUnitCount":1},"operatingCapacityMw":1.7,"operatingCapacityMwByTechnology":{"solar":1.7},"plannedCapacityCoverage":{"coveragePercent":0.0,"knownUnitCount":0,"method":"unavailable","totalUnitCount":0},"plannedCapacityMw":0.0,"plannedCapacityMwByTechnology":{},"recordCount":1,"recordIds":["wattlas-record-gemunit-g100001078887"],"sourceIds":["gem-global-integrated-power-tracker"],"technologies":["solar"],"technologyMixMw":{"solar":1.7},"unitCount":1,"unitIds":["gem-unit-G100001078887"]},"type":"Feature"},{"geometry":{"coordinates":[35.9014,33.818],"type":"Point"},"id":"wattlas-plant-gemplant-l100001069102","properties":{"aliases":["--","Beqaa Governorate solar project II"],"canonicalAnchor":"gemplant:L100001069102","canonicalCountryKey":"LB","capacityMw":1.3,"country":"LB","externalIds":{"gemPlant":"L100001069102","gemUnit":"G100001078888"},"geographyId":"LB-68408151B59549752014872","id":"wattlas-plant-gemplant-l100001069102","lifecycleCounts":{"operational":1},"locationPrecision":"exact","name":"Beqaa Governorate solar project II","operatingCapacityCoverage":{"coveragePercent":100.0,"knownUnitCount":1,"method":"complete_unit_sum","provenance":{"evidenceCount":0,"recordIds":["wattlas-record-gemunit-g100001078888"],"sourceIds":["gem-global-integrated-power-tracker"],"sourceTypes":["research_verified"],"valueKind":"reported"},"totalUnitCount":1},"operatingCapacityMw":1.3,"operatingCapacityMwByTechnology":{"solar":1.3},"plannedCapacityCoverage":{"coveragePercent":0.0,"knownUnitCount":0,"method":"unavailable","totalUnitCount":0},"plannedCapacityMw":0.0,"plannedCapacityMwByTechnology":{},"recordCount":1,"recordIds":["wattlas-record-gemunit-g100001078888"],"sourceIds":["gem-global-integrated-power-tracker"],"technologies":["solar"],"technologyMixMw":{"solar":1.3},"unitCount":1,"unitIds":["gem-unit-G100001078888"]},"type":"Feature"},{"geometry":{"coordinates":[35.7341,34.3418],"type":"Point"},"id":"wattlas-plant-gemplant-l100001069103","properties":{"aliases":["--","North Governorate solar project"],"canonicalAnchor":"gemplant:L100001069103","canonicalCountryKey":"LB","capacityMw":1.0,"country":"LB","externalIds":{"gemPlant":"L100001069103","gemUnit":"G100001078889"},"geographyId":"LB-68408151B65529488220063","id":"wattlas-plant-gemplant-l100001069103","lifecycleCounts":{"operational":1},"locationPrecision":"exact","name":"North Governorate solar project","operatingCapacityCoverage":{"coveragePercent":100.0,"knownUnitCount":1,"method":"complete_unit_sum","provenance":{"evidenceCount":0,"recordIds":["wattlas-record-gemunit-g100001078889"],"sourceIds":["gem-global-integrated-power-tracker"],"sourceTypes":["research_verified"],"valueKind":"reported"},"totalUnitCount":1},"operatingCapacityMw":1.0,"operatingCapacityMwByTechnology":{"solar":1.0},"plannedCapacityCoverage":{"coveragePercent":0.0,"knownUnitCount":0,"method":"unavailable","totalUnitCount":0},"plannedCapacityMw":0.0,"plannedCapacityMwByTechnology":{},"recordCount":1,"recordIds":["wattlas-record-gemunit-g100001078889"],"sourceIds":["gem-global-integrated-power-tracker"],"technologies":["solar"],"technologyMixMw":{"solar":1.0},"unitCount":1,"unitIds":["gem-unit-G100001078889"]},"type":"Feature"},{"geometry":{"coordinates":[35.6821,34.1081],"type":"Point"},"id":"wattlas-plant-gemplant-l100001069104","properties":{"aliases":["--","Keserwan-Jbeil Governorate solar project"],"canonicalAnchor":"gemplant:L100001069104","canonicalCountryKey":"LB","capacityMw":1.1,"country":"LB","externalIds":{"gemPlant":"L100001069104","gemUnit":"G100001078890"},"geographyId":"LB-68408151B4671352582534","id":"wattlas-plant-gemplant-l100001069104","lifecycleCounts":{"operational":1},"locationPrecision":"exact","name":"Keserwan-Jbeil Governorate solar project","operatingCapacityCoverage":{"coveragePercent":100.0,"knownUnitCount":1,"method":"complete_unit_sum","provenance":{"evidenceCount":0,"recordIds":["wattlas-record-gemunit-g100001078890"],"sourceIds":["gem-global-integrated-power-tracker"],"sourceTypes":["research_verified"],"valueKind":"reported"},"totalUnitCount":1},"operatingCapacityMw":1.1,"operatingCapacityMwByTechnology":{"solar":1.1},"plannedCapacityCoverage":{"coveragePercent":0.0,"knownUnitCount":0,"method":"unavailable","totalUnitCount":0},"plannedCapacityMw":0.0,"plannedCapacityMwByTechnology":{},"recordCount":1,"recordIds":["wattlas-record-gemunit-g100001078890"],"sourceIds":["gem-global-integrated-power-tracker"],"technologies":["solar"],"technologyMixMw":{"solar":1.1},"unitCount":1,"unitIds":["gem-unit-G100001078890"]},"type":"Feature"},{"geometry":{"coordinates":[36.191448,34.021051],"type":"Point"},"id":"wattlas-plant-osm-way-141655500","properties":{"aliases":["Baalbek Thermal Power Plant"],"canonicalAnchor":"osm:way/141655500","canonicalCountryKey":"LB","capacityMw":70.0,"country":"LB","externalIds":{"osm":"way/141655500"},"geographyId":"LB-68408151B19672163648714","id":"wattlas-plant-osm-way-141655500","lifecycleCounts":{"operational":1},"locationPrecision":"exact","name":"Baalbek Thermal Power Plant","operatingCapacityCoverage":{"coveragePercent":100.0,"knownUnitCount":0,"method":"plant_aggregate","provenance":{"evidenceCount":0,"recordIds":["wattlas-record-osm-way-141655500"],"sourceIds":["openstreetmap-power"],"sourceTypes":["community_mapped"],"valueKind":"reported"},"totalUnitCount":0},"operatingCapacityMw":70.0,"operatingCapacityMwByTechnology":{"oil":70.0},"plannedCapacityCoverage":{"coveragePercent":0.0,"knownUnitCount":0,"method":"unavailable","totalUnitCount":0},"plannedCapacityMw":0.0,"plannedCapacityMwByTechnology":{},"recordCount":1,"recordIds":["wattlas-record-osm-way-141655500"],"sourceIds":["openstreetmap-power"],"technologies":["oil"],"technologyMixMw":{"oil":70.0},"unitCount":0,"unitIds":[]},"type":"Feature"},{"geometry":{"coordinates":[35.603992,33.969334],"type":"Point"},"id":"wattlas-plant-osm-way-25897598","properties":{"aliases":["Zouk Power Plant"],"canonicalAnchor":"osm:way/25897598","canonicalCountryKey":"LB","capacityMw":600.0,"country":"LB","externalIds":{"osm":"way/25897598"},"geographyId":"LB-68408151B4671352582534","id":"wattlas-plant-osm-way-25897598","lifecycleCounts":{"operational":1},"locationPrecision":"exact","name":"Zouk Power Plant","operatingCapacityCoverage":{"coveragePercent":100.0,"knownUnitCount":0,"method":"plant_aggregate","provenance":{"evidenceCount":0,"recordIds":["wattlas-record-osm-way-25897598"],"sourceIds":["openstreetmap-power"],"sourceTypes":["community_mapped"],"valueKind":"reported"},"totalUnitCount":0},"operatingCapacityMw":600.0,"operatingCapacityMwByTechnology":{"oil":600.0},"plannedCapacityCoverage":{"coveragePercent":0.0,"knownUnitCount":0,"method":"unavailable","totalUnitCount":0},"plannedCapacityMw":0.0,"plannedCapacityMwByTechnology":{},"recordCount":1,"recordIds":["wattlas-record-osm-way-25897598"],"sourceIds":["openstreetmap-power"],"technologies":["oil"],"technologyMixMw":{"oil":600.0},"unitCount":0,"unitIds":[]},"type":"Feature"},{"geometry":{"coordinates":[35.759063,34.37969],"type":"Point"},"id":"wattlas-plant-osm-way-713163823","properties":{"aliases":["Hreisheh Power Plant"],"canonicalAnchor":"osm:way/713163823","canonicalCountryKey":"LB","capacityMw":75.0,"country":"LB","externalIds":{"osm":"way/713163823"},"geographyId":"LB-68408151B65529488220063","id":"wattlas-plant-osm-way-713163823","lifecycleCounts":{"operational":1},"locationPrecision":"exact","name":"Hreisheh Power Plant","operatingCapacityCoverage":{"coveragePercent":100.0,"knownUnitCount":0,"method":"plant_aggregate","provenance":{"evidenceCount":0,"recordIds":["wattlas-record-osm-way-713163823"],"sourceIds":["openstreetmap-power"],"sourceTypes":["community_mapped"],"valueKind":"reported"},"totalUnitCount":0},"operatingCapacityMw":75.0,"operatingCapacityMwByTechnology":{"oil":75.0},"plannedCapacityCoverage":{"coveragePercent":0.0,"knownUnitCount":0,"method":"unavailable","totalUnitCount":0},"plannedCapacityMw":0.0,"plannedCapacityMwByTechnology":{},"recordCount":1,"recordIds":["wattlas-record-osm-way-713163823"],"sourceIds":["openstreetmap-power"],"technologies":["oil"],"technologyMixMw":{"oil":75.0},"unitCount":0,"unitIds":[]},"type":"Feature"},{"geometry":{"coordinates":[35.431557,33.57648],"type":"Point"},"id":"wattlas-plant-osm-way-737818378","properties":{"aliases":["Mapped power plant · OSM 737818378"],"canonicalAnchor":"osm:way/737818378","canonicalCountryKey":"LB","capacityMw":48.0,"country":"LB","externalIds":{"osm":"way/737818378"},"geographyId":"LB-68408151B17317068268844","id":"wattlas-plant-osm-way-737818378","lifecycleCounts":{"operational":1},"locationPrecision":"exact","name":"Mapped power plant · OSM 737818378","operatingCapacityCoverage":{"coveragePercent":100.0,"knownUnitCount":0,"method":"plant_aggregate","provenance":{"evidenceCount":0,"recordIds":["wattlas-record-osm-way-737818378"],"sourceIds":["openstreetmap-power"],"sourceTypes":["community_mapped"],"valueKind":"reported"},"totalUnitCount":0},"operatingCapacityMw":48.0,"operatingCapacityMwByTechnology":{"hydro":48.0},"plannedCapacityCoverage":{"coveragePercent":0.0,"knownUnitCount":0,"method":"unavailable","totalUnitCount":0},"plannedCapacityMw":0.0,"plannedCapacityMwByTechnology":{},"recordCount":1,"recordIds":["wattlas-record-osm-way-737818378"],"sourceIds":["openstreetmap-power"],"technologies":["hydro"],"technologyMixMw":{"hydro":48.0},"unitCount":0,"unitIds":[]},"type":"Feature"},{"geometry":{"coordinates":[35.66086,33.495851],"type":"Point"},"id":"wattlas-plant-osm-way-737819334","properties":{"aliases":["Mapped power plant · OSM 737819334"],"canonicalAnchor":"osm:way/737819334","canonicalCountryKey":"LB","capacityMw":34.0,"country":"LB","externalIds":{"osm":"way/737819334"},"geographyId":"LB-68408151B59549752014872","id":"wattlas-plant-osm-way-737819334","lifecycleCounts":{"operational":1},"locationPrecision":"exact","name":"Mapped power plant · OSM 737819334","operatingCapacityCoverage":{"coveragePercent":100.0,"knownUnitCount":0,"method":"plant_aggregate","provenance":{"evidenceCount":0,"recordIds":["wattlas-record-osm-way-737819334"],"sourceIds":["openstreetmap-power"],"sourceTypes":["community_mapped"],"valueKind":"reported"},"totalUnitCount":0},"operatingCapacityMw":34.0,"operatingCapacityMwByTechnology":{"hydro":34.0},"plannedCapacityCoverage":{"coveragePercent":0.0,"knownUnitCount":0,"method":"unavailable","totalUnitCount":0},"plannedCapacityMw":0.0,"plannedCapacityMwByTechnology":{},"recordCount":1,"recordIds":["wattlas-record-osm-way-737819334"],"sourceIds":["openstreetmap-power"],"technologies":["hydro"],"technologyMixMw":{"hydro":34.0},"unitCount":0,"unitIds":[]},"type":"Feature"},{"geometry":{"coordinates":[36.008519,34.440345],"type":"Point"},"id":"wattlas-plant-osm-way-737821134","properties":{"aliases":["Mapped power plant · OSM 737821134"],"canonicalAnchor":"osm:way/737821134","canonicalCountryKey":"LB","capacityMw":13.0,"country":"LB","externalIds":{"osm":"way/737821134"},"geographyId":"LB-68408151B65529488220063","id":"wattlas-plant-osm-way-737821134","lifecycleCounts":{"operational":1},"locationPrecision":"exact","name":"Mapped power plant · OSM 737821134","operatingCapacityCoverage":{"coveragePercent":100.0,"knownUnitCount":0,"method":"plant_aggregate","provenance":{"evidenceCount":0,"recordIds":["wattlas-record-osm-way-737821134"],"sourceIds":["openstreetmap-power"],"sourceTypes":["community_mapped"],"valueKind":"reported"},"totalUnitCount":0},"operatingCapacityMw":13.0,"operatingCapacityMwByTechnology":{"hydro":13.0},"plannedCapacityCoverage":{"coveragePercent":0.0,"knownUnitCount":0,"method":"unavailable","totalUnitCount":0},"plannedCapacityMw":0.0,"plannedCapacityMwByTechnology":{},"recordCount":1,"recordIds":["wattlas-record-osm-way-737821134"],"sourceIds":["openstreetmap-power"],"technologies":["hydro"],"technologyMixMw":{"hydro":13.0},"unitCount":0,"unitIds":[]},"type":"Feature"},{"geometry":{"coordinates":[35.22867,33.276375],"type":"Point"},"id":"wattlas-plant-osm-way-94755181","properties":{"aliases":["محطة توليد كهرباء صور الحرارية"],"canonicalAnchor":"osm:way/94755181","canonicalCountryKey":"LB","capacityMw":70.0,"country":"LB","externalIds":{"osm":"way/94755181"},"geographyId":"LB-68408151B17317068268844","id":"wattlas-plant-osm-way-94755181","lifecycleCounts":{"operational":1},"locationPrecision":"exact","name":"محطة توليد كهرباء صور الحرارية","operatingCapacityCoverage":{"coveragePercent":100.0,"knownUnitCount":0,"method":"plant_aggregate","provenance":{"evidenceCount":0,"recordIds":["wattlas-record-osm-way-94755181"],"sourceIds":["openstreetmap-power"],"sourceTypes":["community_mapped"],"valueKind":"reported"},"totalUnitCount":0},"operatingCapacityMw":70.0,"operatingCapacityMwByTechnology":{"oil":70.0},"plannedCapacityCoverage":{"coveragePercent":0.0,"knownUnitCount":0,"method":"unavailable","totalUnitCount":0},"plannedCapacityMw":0.0,"plannedCapacityMwByTechnology":{},"recordCount":1,"recordIds":["wattlas-record-osm-way-94755181"],"sourceIds":["openstreetmap-power"],"technologies":["oil"],"technologyMixMw":{"oil":70.0},"unitCount":0,"unitIds":[]},"type":"Feature"},{"geometry":{"coordinates":[35.898398,33.821787],"type":"Point"},"id":"wattlas-plant-osm-way-991519425","properties":{"aliases":["Zahle Power Plant"],"canonicalAnchor":"osm:way/991519425","canonicalCountryKey":"LB","capacityMw":0.0,"country":"LB","externalIds":{"osm":"way/991519425"},"geographyId":"LB-68408151B59549752014872","id":"wattlas-plant-osm-way-991519425","lifecycleCounts":{"operational":1},"locationPrecision":"exact","name":"Zahle Power Plant","operatingCapacityCoverage":{"coveragePercent":0.0,"knownUnitCount":0,"method":"unavailable","totalUnitCount":0},"operatingCapacityMw":0.0,"operatingCapacityMwByTechnology":{},"plannedCapacityCoverage":{"coveragePercent":0.0,"knownUnitCount":0,"method":"unavailable","totalUnitCount":0},"plannedCapacityMw":0.0,"plannedCapacityMwByTechnology":{},"recordCount":1,"recordIds":["wattlas-record-osm-way-991519425"],"sourceIds":["openstreetmap-power"],"technologies":["other"],"technologyMixMw":{"other":0.0},"unitCount":0,"unitIds":[]},"type":"Feature"},{"geometry":{"coordinates":[35.989399,34.474276],"type":"Point"},"id":"wattlas-plant-wikidata-q21581306","properties":{"aliases":["Mapped power plant · OSM 108283887"],"canonicalAnchor":"wikidata:Q21581306","canonicalCountryKey":"LB","capacityMw":3.7,"country":"LB","externalIds":{"osm":"way/108283887","wikidata":"Q21581306"},"geographyId":"LB-68408151B85296590469481","id":"wattlas-plant-wikidata-q21581306","idAliases":["wattlas-plant-osm-way-108283887"],"lifecycleCounts":{"operational":1},"locationPrecision":"exact","name":"Mapped power plant · OSM 108283887","operatingCapacityCoverage":{"coveragePercent":100.0,"knownUnitCount":0,"method":"plant_aggregate","provenance":{"evidenceCount":0,"recordIds":["wattlas-record-osm-way-108283887"],"sourceIds":["openstreetmap-power"],"sourceTypes":["community_mapped"],"valueKind":"reported"},"totalUnitCount":0},"operatingCapacityMw":3.7,"operatingCapacityMwByTechnology":{"hydro":3.7},"plannedCapacityCoverage":{"coveragePercent":0.0,"knownUnitCount":0,"method":"unavailable","totalUnitCount":0},"plannedCapacityMw":0.0,"plannedCapacityMwByTechnology":{},"recordCount":1,"recordIds":["wattlas-record-osm-way-108283887"],"sourceIds":["openstreetmap-power"],"technologies":["hydro"],"technologyMixMw":{"hydro":3.7},"unitCount":0,"unitIds":[]},"type":"Feature"},{"geometry":{"coordinates":[35.34227,33.500732],"type":"Point"},"id":"wattlas-plant-wikidata-q97177456","properties":{"aliases":["معمل الزهراني - شركة كهرباء لبنان"],"canonicalAnchor":"wikidata:Q97177456","canonicalCountryKey":"LB","capacityMw":470.0,"country":"LB","externalIds":{"osm":"way/94667658","wikidata":"Q97177456"},"geographyId":"LB-68408151B17317068268844","id":"wattlas-plant-wikidata-q97177456","idAliases":["wattlas-plant-osm-way-94667658"],"lifecycleCounts":{"operational":1},"locationPrecision":"exact","name":"معمل الزهراني - شركة كهرباء لبنان","operatingCapacityCoverage":{"coveragePercent":100.0,"knownUnitCount":0,"method":"plant_aggregate","provenance":{"evidenceCount":0,"recordIds":["wattlas-record-osm-way-94667658"],"sourceIds":["openstreetmap-power"],"sourceTypes":["community_mapped"],"valueKind":"reported"},"totalUnitCount":0},"operatingCapacityMw":470.0,"operatingCapacityMwByTechnology":{"oil":470.0},"plannedCapacityCoverage":{"coveragePercent":0.0,"knownUnitCount":0,"method":"unavailable","totalUnitCount":0},"plannedCapacityMw":0.0,"plannedCapacityMwByTechnology":{},"recordCount":1,"recordIds":["wattlas-record-osm-way-94667658"],"sourceIds":["openstreetmap-power"],"technologies":["oil"],"technologyMixMw":{"oil":470.0},"unitCount":0,"unitIds":[]},"type":"Feature"}],"type":"FeatureCollection"}