{"features":[{"geometry":{"coordinates":[-15.529067,20.540573],"type":"Point"},"id":"wattlas-plant-gemplant-l100000408667","properties":{"aliases":["Phase 2","Tasiast Mine power plant"],"canonicalAnchor":"gemplant:L100000408667","canonicalCountryKey":"MR","capacityMw":60.0,"country":"MR","externalIds":{"gemPlant":"L100000408667","gemUnit":"G100000412249"},"geographyId":"MR-64602211B38857826595310","id":"wattlas-plant-gemplant-l100000408667","lifecycleCounts":{"operational":1},"locationPrecision":"exact","name":"Tasiast Mine power plant","operatingCapacityCoverage":{"coveragePercent":100.0,"knownUnitCount":1,"method":"complete_unit_sum","provenance":{"evidenceCount":0,"recordIds":["wattlas-record-gemunit-g100000412249"],"sourceIds":["gem-global-integrated-power-tracker"],"sourceTypes":["research_verified"],"valueKind":"reported"},"totalUnitCount":1},"operatingCapacityMw":60.0,"operatingCapacityMwByTechnology":{"oil":60.0},"plannedCapacityCoverage":{"coveragePercent":0.0,"knownUnitCount":0,"method":"unavailable","totalUnitCount":0},"plannedCapacityMw":0.0,"plannedCapacityMwByTechnology":{},"recordCount":1,"recordIds":["wattlas-record-gemunit-g100000412249"],"sourceIds":["gem-global-integrated-power-tracker"],"technologies":["oil"],"technologyMixMw":{"oil":60.0},"unitCount":1,"unitIds":["gem-unit-G100000412249"]},"type":"Feature"},{"geometry":{"coordinates":[-15.8907,18.093],"type":"Point"},"id":"wattlas-plant-gemplant-l100000800334","properties":{"aliases":["--","Toujounine solar farm"],"canonicalAnchor":"gemplant:L100000800334","canonicalCountryKey":"MR","capacityMw":50.0,"country":"MR","externalIds":{"gemPlant":"L100000800334","gemUnit":"G100000800406"},"geographyId":"MR-64602211B45475199809733","id":"wattlas-plant-gemplant-l100000800334","lifecycleCounts":{"operational":1},"locationPrecision":"exact","name":"Toujounine solar farm","operatingCapacityCoverage":{"coveragePercent":100.0,"knownUnitCount":1,"method":"complete_unit_sum","provenance":{"evidenceCount":0,"recordIds":["wattlas-record-gemunit-g100000800406"],"sourceIds":["gem-global-integrated-power-tracker"],"sourceTypes":["research_verified"],"valueKind":"reported"},"totalUnitCount":1},"operatingCapacityMw":50.0,"operatingCapacityMwByTechnology":{"solar":50.0},"plannedCapacityCoverage":{"coveragePercent":0.0,"knownUnitCount":0,"method":"unavailable","totalUnitCount":0},"plannedCapacityMw":0.0,"plannedCapacityMwByTechnology":{},"recordCount":1,"recordIds":["wattlas-record-gemunit-g100000800406"],"sourceIds":["gem-global-integrated-power-tracker"],"technologies":["solar"],"technologyMixMw":{"solar":50.0},"unitCount":1,"unitIds":["gem-unit-G100000800406"]},"type":"Feature"},{"geometry":{"coordinates":[-15.5416,20.5416],"type":"Point"},"id":"wattlas-plant-gemplant-l100000811619","properties":{"aliases":["--","Tasiast mine solar farm"],"canonicalAnchor":"gemplant:L100000811619","canonicalCountryKey":"MR","capacityMw":34.0,"country":"MR","externalIds":{"gemPlant":"L100000811619","gemUnit":"G100000814157"},"geographyId":"MR-64602211B38857826595310","id":"wattlas-plant-gemplant-l100000811619","lifecycleCounts":{"operational":1},"locationPrecision":"exact","name":"Tasiast mine solar farm","operatingCapacityCoverage":{"coveragePercent":100.0,"knownUnitCount":1,"method":"complete_unit_sum","provenance":{"evidenceCount":0,"recordIds":["wattlas-record-gemunit-g100000814157"],"sourceIds":["gem-global-integrated-power-tracker"],"sourceTypes":["research_verified"],"valueKind":"reported"},"totalUnitCount":1},"operatingCapacityMw":34.0,"operatingCapacityMwByTechnology":{"solar":34.0},"plannedCapacityCoverage":{"coveragePercent":0.0,"knownUnitCount":0,"method":"unavailable","totalUnitCount":0},"plannedCapacityMw":0.0,"plannedCapacityMwByTechnology":{},"recordCount":1,"recordIds":["wattlas-record-gemunit-g100000814157"],"sourceIds":["gem-global-integrated-power-tracker"],"technologies":["solar"],"technologyMixMw":{"solar":34.0},"unitCount":1,"unitIds":["gem-unit-G100000814157"]},"type":"Feature"},{"geometry":{"coordinates":[-14.707,17.5326],"type":"Point"},"id":"wattlas-plant-gemplant-l100000827662","properties":{"aliases":["1.0","2.0","3.0","4.0","5.0","6.0","7.0","Seven 12MW solar farm"],"canonicalAnchor":"gemplant:L100000827662","canonicalCountryKey":"MR","capacityMw":12.0,"country":"MR","externalIdAliases":{"gemUnit":["G100000831195","G100000831196","G100000831197","G100000831198","G100000831199","G100000831200","G100000831201"]},"externalIds":{"gemPlant":"L100000827662","gemUnit":"G100000831201"},"geographyId":"MR-64602211B44145471606678","id":"wattlas-plant-gemplant-l100000827662","lifecycleCounts":{"operational":7},"locationPrecision":"exact","name":"Seven 12MW solar farm","operatingCapacityCoverage":{"coveragePercent":100.0,"knownUnitCount":7,"method":"complete_unit_sum","provenance":{"evidenceCount":0,"recordIds":["wattlas-record-gemunit-g100000831195","wattlas-record-gemunit-g100000831196","wattlas-record-gemunit-g100000831197","wattlas-record-gemunit-g100000831198","wattlas-record-gemunit-g100000831199","wattlas-record-gemunit-g100000831200","wattlas-record-gemunit-g100000831201"],"sourceIds":["gem-global-integrated-power-tracker"],"sourceTypes":["research_verified"],"valueKind":"reported"},"totalUnitCount":7},"operatingCapacityMw":12.0,"operatingCapacityMwByTechnology":{"solar":12.0},"plannedCapacityCoverage":{"coveragePercent":0.0,"knownUnitCount":0,"method":"unavailable","totalUnitCount":0},"plannedCapacityMw":0.0,"plannedCapacityMwByTechnology":{},"recordCount":7,"recordIds":["wattlas-record-gemunit-g100000831195","wattlas-record-gemunit-g100000831196","wattlas-record-gemunit-g100000831197","wattlas-record-gemunit-g100000831198","wattlas-record-gemunit-g100000831199","wattlas-record-gemunit-g100000831200","wattlas-record-gemunit-g100000831201"],"sourceIds":["gem-global-integrated-power-tracker"],"technologies":["solar"],"technologyMixMw":{"solar":12.0},"unitCount":7,"unitIds":["gem-unit-G100000831195","gem-unit-G100000831196","gem-unit-G100000831197","gem-unit-G100000831198","gem-unit-G100000831199","gem-unit-G100000831200","gem-unit-G100000831201"]},"type":"Feature"},{"geometry":{"coordinates":[-16.6976,21.2663],"type":"Point"},"id":"wattlas-plant-gemplant-l100000900016","properties":{"aliases":["--","Boulenouar wind farm"],"canonicalAnchor":"gemplant:L100000900016","canonicalCountryKey":"MR","capacityMw":100.0,"country":"MR","externalIds":{"gemPlant":"L100000900016","gemUnit":"G100000900018"},"geographyId":"MR-64602211B42879511039945","id":"wattlas-plant-gemplant-l100000900016","lifecycleCounts":{"operational":1},"locationPrecision":"exact","name":"Boulenouar wind farm","operatingCapacityCoverage":{"coveragePercent":100.0,"knownUnitCount":1,"method":"complete_unit_sum","provenance":{"evidenceCount":0,"recordIds":["wattlas-record-gemunit-g100000900018"],"sourceIds":["gem-global-integrated-power-tracker"],"sourceTypes":["research_verified"],"valueKind":"reported"},"totalUnitCount":1},"operatingCapacityMw":100.0,"operatingCapacityMwByTechnology":{"wind":100.0},"plannedCapacityCoverage":{"coveragePercent":0.0,"knownUnitCount":0,"method":"unavailable","totalUnitCount":0},"plannedCapacityMw":0.0,"plannedCapacityMwByTechnology":{},"recordCount":1,"recordIds":["wattlas-record-gemunit-g100000900018"],"sourceIds":["gem-global-integrated-power-tracker"],"technologies":["wind"],"technologyMixMw":{"wind":100.0},"unitCount":1,"unitIds":["gem-unit-G100000900018"]},"type":"Feature"},{"geometry":{"coordinates":[-15.9851,17.9651],"type":"Point"},"id":"wattlas-plant-gemplant-l100000900125","properties":{"aliases":["--","Nouakchott wind farm"],"canonicalAnchor":"gemplant:L100000900125","canonicalCountryKey":"MR","capacityMw":30.0,"country":"MR","externalIds":{"gemPlant":"L100000900125","gemUnit":"G100000900163"},"geographyId":"MR-64602211B45475199809733","id":"wattlas-plant-gemplant-l100000900125","lifecycleCounts":{"operational":1},"locationPrecision":"exact","name":"Nouakchott wind farm","operatingCapacityCoverage":{"coveragePercent":100.0,"knownUnitCount":1,"method":"complete_unit_sum","provenance":{"evidenceCount":0,"recordIds":["wattlas-record-gemunit-g100000900163"],"sourceIds":["gem-global-integrated-power-tracker"],"sourceTypes":["research_verified"],"valueKind":"reported"},"totalUnitCount":1},"operatingCapacityMw":30.0,"operatingCapacityMwByTechnology":{"wind":30.0},"plannedCapacityCoverage":{"coveragePercent":0.0,"knownUnitCount":0,"method":"unavailable","totalUnitCount":0},"plannedCapacityMw":0.0,"plannedCapacityMwByTechnology":{},"recordCount":1,"recordIds":["wattlas-record-gemunit-g100000900163"],"sourceIds":["gem-global-integrated-power-tracker"],"technologies":["wind"],"technologyMixMw":{"wind":30.0},"unitCount":1,"unitIds":["gem-unit-G100000900163"]},"type":"Feature"},{"geometry":{"coordinates":[-16.3343,19.2341],"type":"Point"},"id":"wattlas-plant-gemplant-l100000922001","properties":{"aliases":["1.0","Future Phases","Project Nour hybrid wind farm"],"canonicalAnchor":"gemplant:L100000922001","canonicalCountryKey":"MR","capacityMw":5000.0,"country":"MR","externalIdAliases":{"gemUnit":["G100000927412","G100001020551"]},"externalIds":{"gemPlant":"L100000922001","gemUnit":"G100001020551"},"geographyId":"MR-64602211B38857826595310","id":"wattlas-plant-gemplant-l100000922001","lifecycleCounts":{"announced":2},"locationPrecision":"exact","name":"Project Nour hybrid wind farm","operatingCapacityCoverage":{"coveragePercent":0.0,"knownUnitCount":0,"method":"unavailable","totalUnitCount":0},"operatingCapacityMw":0.0,"operatingCapacityMwByTechnology":{},"plannedCapacityCoverage":{"coveragePercent":100.0,"knownUnitCount":2,"method":"complete_unit_sum","provenance":{"evidenceCount":0,"recordIds":["wattlas-record-gemunit-g100000927412","wattlas-record-gemunit-g100001020551"],"sourceIds":["gem-global-integrated-power-tracker"],"sourceTypes":["research_verified"],"valueKind":"reported"},"totalUnitCount":2},"plannedCapacityMw":5000.0,"plannedCapacityMwByTechnology":{"wind":5000.0},"recordCount":2,"recordIds":["wattlas-record-gemunit-g100000927412","wattlas-record-gemunit-g100001020551"],"sourceIds":["gem-global-integrated-power-tracker"],"technologies":["wind"],"technologyMixMw":{"wind":5000.0},"unitCount":2,"unitIds":["gem-unit-G100000927412","gem-unit-G100001020551"]},"type":"Feature"},{"geometry":{"coordinates":[-16.5333,21.2953],"type":"Point"},"id":"wattlas-plant-gemplant-l100001020902","properties":{"aliases":["--","Dakhlet Nouadhibou solar project I"],"canonicalAnchor":"gemplant:L100001020902","canonicalCountryKey":"MR","capacityMw":2.5,"country":"MR","externalIds":{"gemPlant":"L100001020902","gemUnit":"G100001023871"},"geographyId":"MR-64602211B42879511039945","id":"wattlas-plant-gemplant-l100001020902","lifecycleCounts":{"operational":1},"locationPrecision":"exact","name":"Dakhlet Nouadhibou solar project I","operatingCapacityCoverage":{"coveragePercent":100.0,"knownUnitCount":1,"method":"complete_unit_sum","provenance":{"evidenceCount":0,"recordIds":["wattlas-record-gemunit-g100001023871"],"sourceIds":["gem-global-integrated-power-tracker"],"sourceTypes":["research_verified"],"valueKind":"reported"},"totalUnitCount":1},"operatingCapacityMw":2.5,"operatingCapacityMwByTechnology":{"solar":2.5},"plannedCapacityCoverage":{"coveragePercent":0.0,"knownUnitCount":0,"method":"unavailable","totalUnitCount":0},"plannedCapacityMw":0.0,"plannedCapacityMwByTechnology":{},"recordCount":1,"recordIds":["wattlas-record-gemunit-g100001023871"],"sourceIds":["gem-global-integrated-power-tracker"],"technologies":["solar"],"technologyMixMw":{"solar":2.5},"unitCount":1,"unitIds":["gem-unit-G100001023871"]},"type":"Feature"},{"geometry":{"coordinates":[-12.4577,22.7221],"type":"Point"},"id":"wattlas-plant-gemplant-l100001020903","properties":{"aliases":["--","Zouérat solar project"],"canonicalAnchor":"gemplant:L100001020903","canonicalCountryKey":"MR","capacityMw":13.5,"country":"MR","externalIds":{"gemPlant":"L100001020903","gemUnit":"G100001023872"},"geographyId":"MR-64602211B50097143527370","id":"wattlas-plant-gemplant-l100001020903","lifecycleCounts":{"operational":1},"locationPrecision":"exact","name":"Zouérat solar project","operatingCapacityCoverage":{"coveragePercent":100.0,"knownUnitCount":1,"method":"complete_unit_sum","provenance":{"evidenceCount":0,"recordIds":["wattlas-record-gemunit-g100001023872"],"sourceIds":["gem-global-integrated-power-tracker"],"sourceTypes":["research_verified"],"valueKind":"reported"},"totalUnitCount":1},"operatingCapacityMw":13.5,"operatingCapacityMwByTechnology":{"solar":13.5},"plannedCapacityCoverage":{"coveragePercent":0.0,"knownUnitCount":0,"method":"unavailable","totalUnitCount":0},"plannedCapacityMw":0.0,"plannedCapacityMwByTechnology":{},"recordCount":1,"recordIds":["wattlas-record-gemunit-g100001023872"],"sourceIds":["gem-global-integrated-power-tracker"],"technologies":["solar"],"technologyMixMw":{"solar":13.5},"unitCount":1,"unitIds":["gem-unit-G100001023872"]},"type":"Feature"},{"geometry":{"coordinates":[-13.901,17.0556],"type":"Point"},"id":"wattlas-plant-gemplant-l100001020904","properties":{"aliases":["--","Aleg solar project"],"canonicalAnchor":"gemplant:L100001020904","canonicalCountryKey":"MR","capacityMw":3.0,"country":"MR","externalIds":{"gemPlant":"L100001020904","gemUnit":"G100001023873"},"geographyId":"MR-64602211B32818049823770","id":"wattlas-plant-gemplant-l100001020904","lifecycleCounts":{"operational":1},"locationPrecision":"exact","name":"Aleg solar project","operatingCapacityCoverage":{"coveragePercent":100.0,"knownUnitCount":1,"method":"complete_unit_sum","provenance":{"evidenceCount":0,"recordIds":["wattlas-record-gemunit-g100001023873"],"sourceIds":["gem-global-integrated-power-tracker"],"sourceTypes":["research_verified"],"valueKind":"reported"},"totalUnitCount":1},"operatingCapacityMw":3.0,"operatingCapacityMwByTechnology":{"solar":3.0},"plannedCapacityCoverage":{"coveragePercent":0.0,"knownUnitCount":0,"method":"unavailable","totalUnitCount":0},"plannedCapacityMw":0.0,"plannedCapacityMwByTechnology":{},"recordCount":1,"recordIds":["wattlas-record-gemunit-g100001023873"],"sourceIds":["gem-global-integrated-power-tracker"],"technologies":["solar"],"technologyMixMw":{"solar":3.0},"unitCount":1,"unitIds":["gem-unit-G100001023873"]},"type":"Feature"},{"geometry":{"coordinates":[-11.5075,16.6669],"type":"Point"},"id":"wattlas-plant-gemplant-l100001020905","properties":{"aliases":["--","Assaba solar project"],"canonicalAnchor":"gemplant:L100001020905","canonicalCountryKey":"MR","capacityMw":3.9,"country":"MR","externalIds":{"gemPlant":"L100001020905","gemUnit":"G100001023874"},"geographyId":"MR-64602211B24757493091095","id":"wattlas-plant-gemplant-l100001020905","lifecycleCounts":{"operational":1},"locationPrecision":"exact","name":"Assaba solar project","operatingCapacityCoverage":{"coveragePercent":100.0,"knownUnitCount":1,"method":"complete_unit_sum","provenance":{"evidenceCount":0,"recordIds":["wattlas-record-gemunit-g100001023874"],"sourceIds":["gem-global-integrated-power-tracker"],"sourceTypes":["research_verified"],"valueKind":"reported"},"totalUnitCount":1},"operatingCapacityMw":3.9,"operatingCapacityMwByTechnology":{"solar":3.9},"plannedCapacityCoverage":{"coveragePercent":0.0,"knownUnitCount":0,"method":"unavailable","totalUnitCount":0},"plannedCapacityMw":0.0,"plannedCapacityMwByTechnology":{},"recordCount":1,"recordIds":["wattlas-record-gemunit-g100001023874"],"sourceIds":["gem-global-integrated-power-tracker"],"technologies":["solar"],"technologyMixMw":{"solar":3.9},"unitCount":1,"unitIds":["gem-unit-G100001023874"]},"type":"Feature"},{"geometry":{"coordinates":[-9.5428,16.6522],"type":"Point"},"id":"wattlas-plant-gemplant-l100001020906","properties":{"aliases":["--","Ayoun El Atrous solar project"],"canonicalAnchor":"gemplant:L100001020906","canonicalCountryKey":"MR","capacityMw":2.3,"country":"MR","externalIds":{"gemPlant":"L100001020906","gemUnit":"G100001023875"},"geographyId":"MR-64602211B52393032227980","id":"wattlas-plant-gemplant-l100001020906","lifecycleCounts":{"operational":1},"locationPrecision":"exact","name":"Ayoun El Atrous solar project","operatingCapacityCoverage":{"coveragePercent":100.0,"knownUnitCount":1,"method":"complete_unit_sum","provenance":{"evidenceCount":0,"recordIds":["wattlas-record-gemunit-g100001023875"],"sourceIds":["gem-global-integrated-power-tracker"],"sourceTypes":["research_verified"],"valueKind":"reported"},"totalUnitCount":1},"operatingCapacityMw":2.3,"operatingCapacityMwByTechnology":{"solar":2.3},"plannedCapacityCoverage":{"coveragePercent":0.0,"knownUnitCount":0,"method":"unavailable","totalUnitCount":0},"plannedCapacityMw":0.0,"plannedCapacityMwByTechnology":{},"recordCount":1,"recordIds":["wattlas-record-gemunit-g100001023875"],"sourceIds":["gem-global-integrated-power-tracker"],"technologies":["solar"],"technologyMixMw":{"solar":2.3},"unitCount":1,"unitIds":["gem-unit-G100001023875"]},"type":"Feature"},{"geometry":{"coordinates":[-15.4016,19.3878],"type":"Point"},"id":"wattlas-plant-gemplant-l100001020907","properties":{"aliases":["--","Inchiri solar project"],"canonicalAnchor":"gemplant:L100001020907","canonicalCountryKey":"MR","capacityMw":2.3,"country":"MR","externalIds":{"gemPlant":"L100001020907","gemUnit":"G100001023876"},"geographyId":"MR-64602211B38857826595310","id":"wattlas-plant-gemplant-l100001020907","lifecycleCounts":{"operational":1},"locationPrecision":"exact","name":"Inchiri solar project","operatingCapacityCoverage":{"coveragePercent":100.0,"knownUnitCount":1,"method":"complete_unit_sum","provenance":{"evidenceCount":0,"recordIds":["wattlas-record-gemunit-g100001023876"],"sourceIds":["gem-global-integrated-power-tracker"],"sourceTypes":["research_verified"],"valueKind":"reported"},"totalUnitCount":1},"operatingCapacityMw":2.3,"operatingCapacityMwByTechnology":{"solar":2.3},"plannedCapacityCoverage":{"coveragePercent":0.0,"knownUnitCount":0,"method":"unavailable","totalUnitCount":0},"plannedCapacityMw":0.0,"plannedCapacityMwByTechnology":{},"recordCount":1,"recordIds":["wattlas-record-gemunit-g100001023876"],"sourceIds":["gem-global-integrated-power-tracker"],"technologies":["solar"],"technologyMixMw":{"solar":2.3},"unitCount":1,"unitIds":["gem-unit-G100001023876"]},"type":"Feature"},{"geometry":{"coordinates":[-15.9734,18.2934],"type":"Point"},"id":"wattlas-plant-gemplant-l100001020908","properties":{"aliases":["--","Trarza solar project II"],"canonicalAnchor":"gemplant:L100001020908","canonicalCountryKey":"MR","capacityMw":3.8,"country":"MR","externalIds":{"gemPlant":"L100001020908","gemUnit":"G100001023877"},"geographyId":"MR-64602211B45475199809733","id":"wattlas-plant-gemplant-l100001020908","lifecycleCounts":{"operational":1},"locationPrecision":"exact","name":"Trarza solar project II","operatingCapacityCoverage":{"coveragePercent":100.0,"knownUnitCount":1,"method":"complete_unit_sum","provenance":{"evidenceCount":0,"recordIds":["wattlas-record-gemunit-g100001023877"],"sourceIds":["gem-global-integrated-power-tracker"],"sourceTypes":["research_verified"],"valueKind":"reported"},"totalUnitCount":1},"operatingCapacityMw":3.8,"operatingCapacityMwByTechnology":{"solar":3.8},"plannedCapacityCoverage":{"coveragePercent":0.0,"knownUnitCount":0,"method":"unavailable","totalUnitCount":0},"plannedCapacityMw":0.0,"plannedCapacityMwByTechnology":{},"recordCount":1,"recordIds":["wattlas-record-gemunit-g100001023877"],"sourceIds":["gem-global-integrated-power-tracker"],"technologies":["solar"],"technologyMixMw":{"solar":3.8},"unitCount":1,"unitIds":["gem-unit-G100001023877"]},"type":"Feature"},{"geometry":{"coordinates":[-15.9902,20.1697],"type":"Point"},"id":"wattlas-plant-gemplant-l100001020909","properties":{"aliases":["--","Dakhlet Nouadhibou solar project II"],"canonicalAnchor":"gemplant:L100001020909","canonicalCountryKey":"MR","capacityMw":2.6,"country":"MR","externalIds":{"gemPlant":"L100001020909","gemUnit":"G100001023878"},"geographyId":"MR-64602211B42879511039945","id":"wattlas-plant-gemplant-l100001020909","lifecycleCounts":{"operational":1},"locationPrecision":"exact","name":"Dakhlet Nouadhibou solar project II","operatingCapacityCoverage":{"coveragePercent":100.0,"knownUnitCount":1,"method":"complete_unit_sum","provenance":{"evidenceCount":0,"recordIds":["wattlas-record-gemunit-g100001023878"],"sourceIds":["gem-global-integrated-power-tracker"],"sourceTypes":["research_verified"],"valueKind":"reported"},"totalUnitCount":1},"operatingCapacityMw":2.6,"operatingCapacityMwByTechnology":{"solar":2.6},"plannedCapacityCoverage":{"coveragePercent":0.0,"knownUnitCount":0,"method":"unavailable","totalUnitCount":0},"plannedCapacityMw":0.0,"plannedCapacityMwByTechnology":{},"recordCount":1,"recordIds":["wattlas-record-gemunit-g100001023878"],"sourceIds":["gem-global-integrated-power-tracker"],"technologies":["solar"],"technologyMixMw":{"solar":2.6},"unitCount":1,"unitIds":["gem-unit-G100001023878"]},"type":"Feature"},{"geometry":{"coordinates":[-15.990718,17.940205],"type":"Point"},"id":"wattlas-plant-osm-relation-11538672","properties":{"aliases":["Parc éolien de Nouakchott"],"canonicalAnchor":"osm:relation/11538672","canonicalCountryKey":"MR","capacityMw":30.0,"country":"MR","externalIds":{"osm":"relation/11538672"},"geographyId":"MR-64602211B45475199809733","id":"wattlas-plant-osm-relation-11538672","lifecycleCounts":{"operational":1},"locationPrecision":"exact","name":"Parc éolien de Nouakchott","operatingCapacityCoverage":{"coveragePercent":100.0,"knownUnitCount":0,"method":"plant_aggregate","provenance":{"evidenceCount":0,"recordIds":["wattlas-record-osm-relation-11538672"],"sourceIds":["openstreetmap-power"],"sourceTypes":["community_mapped"],"valueKind":"reported"},"totalUnitCount":0},"operatingCapacityMw":30.0,"operatingCapacityMwByTechnology":{"wind":30.0},"plannedCapacityCoverage":{"coveragePercent":0.0,"knownUnitCount":0,"method":"unavailable","totalUnitCount":0},"plannedCapacityMw":0.0,"plannedCapacityMwByTechnology":{},"recordCount":1,"recordIds":["wattlas-record-osm-relation-11538672"],"sourceIds":["openstreetmap-power"],"technologies":["wind"],"technologyMixMw":{"wind":30.0},"unitCount":0,"unitIds":[]},"type":"Feature"},{"geometry":{"coordinates":[-15.995833,18.071156],"type":"Point"},"id":"wattlas-plant-osm-relation-5498224","properties":{"aliases":["سونيلك السبخة"],"canonicalAnchor":"osm:relation/5498224","canonicalCountryKey":"MR","capacityMw":0.0,"country":"MR","externalIds":{"osm":"relation/5498224"},"geographyId":"MR-64602211B45475199809733","id":"wattlas-plant-osm-relation-5498224","lifecycleCounts":{"operational":1},"locationPrecision":"exact","name":"سونيلك السبخة","operatingCapacityCoverage":{"coveragePercent":0.0,"knownUnitCount":0,"method":"unavailable","totalUnitCount":0},"operatingCapacityMw":0.0,"operatingCapacityMwByTechnology":{},"plannedCapacityCoverage":{"coveragePercent":0.0,"knownUnitCount":0,"method":"unavailable","totalUnitCount":0},"plannedCapacityMw":0.0,"plannedCapacityMwByTechnology":{},"recordCount":1,"recordIds":["wattlas-record-osm-relation-5498224"],"sourceIds":["openstreetmap-power"],"technologies":["other"],"technologyMixMw":{"other":0.0},"unitCount":0,"unitIds":[]},"type":"Feature"},{"geometry":{"coordinates":[-7.287323,16.598667],"type":"Point"},"id":"wattlas-plant-osm-way-1215001079","properties":{"aliases":["Centrale hybride de Néma en Mauritanie"],"canonicalAnchor":"osm:way/1215001079","canonicalCountryKey":"MR","capacityMw":0.0,"country":"MR","externalIds":{"osm":"way/1215001079"},"geographyId":"MR-64602211B22115476481884","id":"wattlas-plant-osm-way-1215001079","lifecycleCounts":{"operational":1},"locationPrecision":"exact","name":"Centrale hybride de Néma en Mauritanie","operatingCapacityCoverage":{"coveragePercent":0.0,"knownUnitCount":0,"method":"unavailable","totalUnitCount":0},"operatingCapacityMw":0.0,"operatingCapacityMwByTechnology":{},"plannedCapacityCoverage":{"coveragePercent":0.0,"knownUnitCount":0,"method":"unavailable","totalUnitCount":0},"plannedCapacityMw":0.0,"plannedCapacityMwByTechnology":{},"recordCount":1,"recordIds":["wattlas-record-osm-way-1215001079"],"sourceIds":["openstreetmap-power"],"technologies":["solar"],"technologyMixMw":{"solar":0.0},"unitCount":0,"unitIds":[]},"type":"Feature"},{"geometry":{"coordinates":[-13.055627,20.513476],"type":"Point"},"id":"wattlas-plant-osm-way-221471951","properties":{"aliases":["Société Mauritanienne d'Électricité مركز الشركة الموريتـ ـانية للكهربـاء"],"canonicalAnchor":"osm:way/221471951","canonicalCountryKey":"MR","capacityMw":0.0,"country":"MR","externalIds":{"osm":"way/221471951"},"geographyId":"MR-64602211B19416274064143","id":"wattlas-plant-osm-way-221471951","lifecycleCounts":{"operational":1},"locationPrecision":"exact","name":"Société Mauritanienne d'Électricité مركز الشركة الموريتـ ـانية للكهربـاء","operatingCapacityCoverage":{"coveragePercent":0.0,"knownUnitCount":0,"method":"unavailable","totalUnitCount":0},"operatingCapacityMw":0.0,"operatingCapacityMwByTechnology":{},"plannedCapacityCoverage":{"coveragePercent":0.0,"knownUnitCount":0,"method":"unavailable","totalUnitCount":0},"plannedCapacityMw":0.0,"plannedCapacityMwByTechnology":{},"recordCount":1,"recordIds":["wattlas-record-osm-way-221471951"],"sourceIds":["openstreetmap-power"],"technologies":["oil"],"technologyMixMw":{"oil":0.0},"unitCount":0,"unitIds":[]},"type":"Feature"},{"geometry":{"coordinates":[-16.020408,18.046508],"type":"Point"},"id":"wattlas-plant-osm-way-229167777","properties":{"aliases":["Centrale du Wharf محطة توليد الطاقة في الرصيف"],"canonicalAnchor":"osm:way/229167777","canonicalCountryKey":"MR","capacityMw":36.0,"country":"MR","externalIds":{"osm":"way/229167777"},"geographyId":"MR-64602211B45475199809733","id":"wattlas-plant-osm-way-229167777","lifecycleCounts":{"operational":1},"locationPrecision":"exact","name":"Centrale du Wharf محطة توليد الطاقة في الرصيف","operatingCapacityCoverage":{"coveragePercent":100.0,"knownUnitCount":0,"method":"plant_aggregate","provenance":{"evidenceCount":0,"recordIds":["wattlas-record-osm-way-229167777"],"sourceIds":["openstreetmap-power"],"sourceTypes":["community_mapped"],"valueKind":"reported"},"totalUnitCount":0},"operatingCapacityMw":36.0,"operatingCapacityMwByTechnology":{"oil":36.0},"plannedCapacityCoverage":{"coveragePercent":0.0,"knownUnitCount":0,"method":"unavailable","totalUnitCount":0},"plannedCapacityMw":0.0,"plannedCapacityMwByTechnology":{},"recordCount":1,"recordIds":["wattlas-record-osm-way-229167777"],"sourceIds":["openstreetmap-power"],"technologies":["oil"],"technologyMixMw":{"oil":36.0},"unitCount":0,"unitIds":[]},"type":"Feature"},{"geometry":{"coordinates":[-15.982987,18.152983],"type":"Point"},"id":"wattlas-plant-osm-way-325509417","properties":{"aliases":["Centrale Solaire de Sheikh Zayed محطة للطاقة الشمسية"],"canonicalAnchor":"osm:way/325509417","canonicalCountryKey":"MR","capacityMw":15.0,"country":"MR","externalIds":{"osm":"way/325509417"},"geographyId":"MR-64602211B45475199809733","id":"wattlas-plant-osm-way-325509417","lifecycleCounts":{"operational":1},"locationPrecision":"exact","name":"Centrale Solaire de Sheikh Zayed محطة للطاقة الشمسية","operatingCapacityCoverage":{"coveragePercent":100.0,"knownUnitCount":0,"method":"plant_aggregate","provenance":{"evidenceCount":0,"recordIds":["wattlas-record-osm-way-325509417"],"sourceIds":["openstreetmap-power"],"sourceTypes":["community_mapped"],"valueKind":"reported"},"totalUnitCount":0},"operatingCapacityMw":15.0,"operatingCapacityMwByTechnology":{"solar":15.0},"plannedCapacityCoverage":{"coveragePercent":0.0,"knownUnitCount":0,"method":"unavailable","totalUnitCount":0},"plannedCapacityMw":0.0,"plannedCapacityMwByTechnology":{},"recordCount":1,"recordIds":["wattlas-record-osm-way-325509417"],"sourceIds":["openstreetmap-power"],"technologies":["solar"],"technologyMixMw":{"solar":15.0},"unitCount":0,"unitIds":[]},"type":"Feature"},{"geometry":{"coordinates":[-16.533202,21.295313],"type":"Point"},"id":"wattlas-plant-osm-way-552928639","properties":{"aliases":["la station éolienne de Boulenouar محطة بولنوار لطاقة الرياح"],"canonicalAnchor":"osm:way/552928639","canonicalCountryKey":"MR","capacityMw":0.0,"country":"MR","externalIds":{"osm":"way/552928639"},"geographyId":"MR-64602211B42879511039945","id":"wattlas-plant-osm-way-552928639","lifecycleCounts":{"operational":1},"locationPrecision":"exact","name":"la station éolienne de Boulenouar محطة بولنوار لطاقة الرياح","operatingCapacityCoverage":{"coveragePercent":0.0,"knownUnitCount":0,"method":"unavailable","totalUnitCount":0},"operatingCapacityMw":0.0,"operatingCapacityMwByTechnology":{},"plannedCapacityCoverage":{"coveragePercent":0.0,"knownUnitCount":0,"method":"unavailable","totalUnitCount":0},"plannedCapacityMw":0.0,"plannedCapacityMwByTechnology":{},"recordCount":1,"recordIds":["wattlas-record-osm-way-552928639"],"sourceIds":["openstreetmap-power"],"technologies":["solar"],"technologyMixMw":{"solar":0.0},"unitCount":0,"unitIds":[]},"type":"Feature"},{"geometry":{"coordinates":[-15.889919,18.092458],"type":"Point"},"id":"wattlas-plant-osm-way-695860166","properties":{"aliases":["Centrale Solaire de Toujounine محطة الطاقة الشمسية في توجونين"],"canonicalAnchor":"osm:way/695860166","canonicalCountryKey":"MR","capacityMw":50.0,"country":"MR","externalIds":{"osm":"way/695860166"},"geographyId":"MR-64602211B45475199809733","id":"wattlas-plant-osm-way-695860166","lifecycleCounts":{"operational":1},"locationPrecision":"exact","name":"Centrale Solaire de Toujounine محطة الطاقة الشمسية في توجونين","operatingCapacityCoverage":{"coveragePercent":100.0,"knownUnitCount":0,"method":"plant_aggregate","provenance":{"evidenceCount":0,"recordIds":["wattlas-record-osm-way-695860166"],"sourceIds":["openstreetmap-power"],"sourceTypes":["community_mapped"],"valueKind":"reported"},"totalUnitCount":0},"operatingCapacityMw":50.0,"operatingCapacityMwByTechnology":{"solar":50.0},"plannedCapacityCoverage":{"coveragePercent":0.0,"knownUnitCount":0,"method":"unavailable","totalUnitCount":0},"plannedCapacityMw":0.0,"plannedCapacityMwByTechnology":{},"recordCount":1,"recordIds":["wattlas-record-osm-way-695860166"],"sourceIds":["openstreetmap-power"],"technologies":["solar"],"technologyMixMw":{"solar":50.0},"unitCount":0,"unitIds":[]},"type":"Feature"},{"geometry":{"coordinates":[-14.40051,19.746442],"type":"Point"},"id":"wattlas-plant-osm-way-973102288","properties":{"aliases":["Akjoujt"],"canonicalAnchor":"osm:way/973102288","canonicalCountryKey":"MR","capacityMw":0.0,"country":"MR","externalIds":{"osm":"way/973102288"},"geographyId":"MR-64602211B38857826595310","id":"wattlas-plant-osm-way-973102288","lifecycleCounts":{"operational":1},"locationPrecision":"exact","name":"Akjoujt","operatingCapacityCoverage":{"coveragePercent":0.0,"knownUnitCount":0,"method":"unavailable","totalUnitCount":0},"operatingCapacityMw":0.0,"operatingCapacityMwByTechnology":{},"plannedCapacityCoverage":{"coveragePercent":0.0,"knownUnitCount":0,"method":"unavailable","totalUnitCount":0},"plannedCapacityMw":0.0,"plannedCapacityMwByTechnology":{},"recordCount":1,"recordIds":["wattlas-record-osm-way-973102288"],"sourceIds":["openstreetmap-power"],"technologies":["solar"],"technologyMixMw":{"solar":0.0},"unitCount":0,"unitIds":[]},"type":"Feature"},{"geometry":{"coordinates":[-16.697617,21.266252],"type":"Point"},"id":"wattlas-plant-wikidata-q104858943","properties":{"aliases":["مزرعة الرياح بو انوار"],"canonicalAnchor":"wikidata:Q104858943","canonicalCountryKey":"MR","capacityMw":102.375,"country":"MR","externalIds":{"osm":"relation/13371312","wikidata":"Q104858943"},"geographyId":"MR-64602211B42879511039945","id":"wattlas-plant-wikidata-q104858943","idAliases":["wattlas-plant-osm-relation-13371312"],"lifecycleCounts":{"operational":1},"locationPrecision":"exact","name":"مزرعة الرياح بو انوار","operatingCapacityCoverage":{"coveragePercent":100.0,"knownUnitCount":0,"method":"plant_aggregate","provenance":{"evidenceCount":0,"recordIds":["wattlas-record-osm-relation-13371312"],"sourceIds":["openstreetmap-power"],"sourceTypes":["community_mapped"],"valueKind":"reported"},"totalUnitCount":0},"operatingCapacityMw":102.375,"operatingCapacityMwByTechnology":{"wind":102.375},"plannedCapacityCoverage":{"coveragePercent":0.0,"knownUnitCount":0,"method":"unavailable","totalUnitCount":0},"plannedCapacityMw":0.0,"plannedCapacityMwByTechnology":{},"recordCount":1,"recordIds":["wattlas-record-osm-relation-13371312"],"sourceIds":["openstreetmap-power"],"technologies":["wind"],"technologyMixMw":{"wind":102.375},"unitCount":0,"unitIds":[]},"type":"Feature"},{"geometry":{"coordinates":[-15.975187,18.046073],"type":"Point"},"id":"wattlas-plant-wikidata-q56372898","properties":{"aliases":["Centrale d'Arafat مقر صوملك"],"canonicalAnchor":"wikidata:Q56372898","canonicalCountryKey":"MR","capacityMw":37.0,"country":"MR","externalIds":{"osm":"way/840217566","wikidata":"Q56372898"},"geographyId":"MR-64602211B45475199809733","id":"wattlas-plant-wikidata-q56372898","idAliases":["wattlas-plant-osm-way-840217566"],"lifecycleCounts":{"operational":1},"locationPrecision":"exact","name":"Centrale d'Arafat مقر صوملك","operatingCapacityCoverage":{"coveragePercent":100.0,"knownUnitCount":0,"method":"plant_aggregate","provenance":{"evidenceCount":0,"recordIds":["wattlas-record-osm-way-840217566"],"sourceIds":["openstreetmap-power"],"sourceTypes":["community_mapped"],"valueKind":"reported"},"totalUnitCount":0},"operatingCapacityMw":37.0,"operatingCapacityMwByTechnology":{"oil":37.0},"plannedCapacityCoverage":{"coveragePercent":0.0,"knownUnitCount":0,"method":"unavailable","totalUnitCount":0},"plannedCapacityMw":0.0,"plannedCapacityMwByTechnology":{},"recordCount":1,"recordIds":["wattlas-record-osm-way-840217566"],"sourceIds":["openstreetmap-power"],"technologies":["oil"],"technologyMixMw":{"oil":37.0},"unitCount":0,"unitIds":[]},"type":"Feature"},{"geometry":{"coordinates":[-15.972103,18.178601],"type":"Point"},"id":"wattlas-plant-wikidata-q56372899","properties":{"aliases":["Centrale Hybride de Nouakchott الهجين نواكشوط المركزية"],"canonicalAnchor":"wikidata:Q56372899","canonicalCountryKey":"MR","capacityMw":180.0,"country":"MR","externalIds":{"osm":"way/427806561","wikidata":"Q56372899"},"geographyId":"MR-64602211B45475199809733","id":"wattlas-plant-wikidata-q56372899","idAliases":["wattlas-plant-osm-way-427806561"],"lifecycleCounts":{"operational":1},"locationPrecision":"exact","name":"Centrale Hybride de Nouakchott الهجين نواكشوط المركزية","operatingCapacityCoverage":{"coveragePercent":100.0,"knownUnitCount":0,"method":"plant_aggregate","provenance":{"evidenceCount":0,"recordIds":["wattlas-record-osm-way-427806561"],"sourceIds":["openstreetmap-power"],"sourceTypes":["community_mapped"],"valueKind":"reported"},"totalUnitCount":0},"operatingCapacityMw":180.0,"operatingCapacityMwByTechnology":{"gas":180.0},"plannedCapacityCoverage":{"coveragePercent":0.0,"knownUnitCount":0,"method":"unavailable","totalUnitCount":0},"plannedCapacityMw":0.0,"plannedCapacityMwByTechnology":{},"recordCount":1,"recordIds":["wattlas-record-osm-way-427806561"],"sourceIds":["openstreetmap-power"],"technologies":["gas"],"technologyMixMw":{"gas":180.0},"unitCount":0,"unitIds":[]},"type":"Feature"}],"type":"FeatureCollection"}