{"features":[{"geometry":{"coordinates":[59.0695,22.3903],"type":"Point"},"id":"wattlas-plant-gemplant-l100000405503","properties":{"aliases":["Al Kamil power plant","GT1","GT2","GT3"],"canonicalAnchor":"gemplant:L100000405503","canonicalCountryKey":"OM","capacityMw":285.0,"country":"OM","externalIdAliases":{"gemUnit":["G100000404682","G100000404683","G100000404684"]},"externalIds":{"gemPlant":"L100000405503","gemUnit":"G100000404684"},"geographyId":"OM-34121849B48568874604869","id":"wattlas-plant-gemplant-l100000405503","lifecycleCounts":{"operational":3},"locationPrecision":"exact","name":"Al Kamil power plant","operatingCapacityCoverage":{"coveragePercent":100.0,"knownUnitCount":3,"method":"complete_unit_sum","provenance":{"evidenceCount":0,"recordIds":["wattlas-record-gemunit-g100000404682","wattlas-record-gemunit-g100000404683","wattlas-record-gemunit-g100000404684"],"sourceIds":["gem-global-integrated-power-tracker"],"sourceTypes":["research_verified"],"valueKind":"reported"},"totalUnitCount":3},"operatingCapacityMw":285.0,"operatingCapacityMwByTechnology":{"gas":285.0},"plannedCapacityCoverage":{"coveragePercent":0.0,"knownUnitCount":0,"method":"unavailable","totalUnitCount":0},"plannedCapacityMw":0.0,"plannedCapacityMwByTechnology":{},"recordCount":3,"recordIds":["wattlas-record-gemunit-g100000404682","wattlas-record-gemunit-g100000404683","wattlas-record-gemunit-g100000404684"],"sourceIds":["gem-global-integrated-power-tracker"],"technologies":["gas"],"technologyMixMw":{"gas":285.0},"unitCount":3,"unitIds":["gem-unit-G100000404682","gem-unit-G100000404683","gem-unit-G100000404684"]},"type":"Feature"},{"geometry":{"coordinates":[55.68432,18.333796],"type":"Point"},"id":"wattlas-plant-gemplant-l100000405504","properties":{"aliases":["1-1","2-1","3-1","Amal power plant"],"canonicalAnchor":"gemplant:L100000405504","canonicalCountryKey":"OM","capacityMw":252.0,"country":"OM","externalIdAliases":{"gemUnit":["G100000404708","G100000404709","G100000404710"]},"externalIds":{"gemPlant":"L100000405504","gemUnit":"G100000404710"},"geographyId":"OM-34121849B8854015950868","id":"wattlas-plant-gemplant-l100000405504","lifecycleCounts":{"operational":2,"paused":1},"locationPrecision":"exact","name":"Amal power plant","operatingCapacityCoverage":{"coveragePercent":100.0,"knownUnitCount":2,"method":"complete_unit_sum","provenance":{"evidenceCount":0,"recordIds":["wattlas-record-gemunit-g100000404708","wattlas-record-gemunit-g100000404709"],"sourceIds":["gem-global-integrated-power-tracker"],"sourceTypes":["research_verified"],"valueKind":"reported"},"totalUnitCount":2},"operatingCapacityMw":252.0,"operatingCapacityMwByTechnology":{"gas":252.0},"plannedCapacityCoverage":{"coveragePercent":0.0,"knownUnitCount":0,"method":"unavailable","totalUnitCount":0},"plannedCapacityMw":0.0,"plannedCapacityMwByTechnology":{},"recordCount":3,"recordIds":["wattlas-record-gemunit-g100000404708","wattlas-record-gemunit-g100000404709","wattlas-record-gemunit-g100000404710"],"sourceIds":["gem-global-integrated-power-tracker"],"technologies":["gas"],"technologyMixMw":{"gas":252.0},"unitCount":3,"unitIds":["gem-unit-G100000404708","gem-unit-G100000404709","gem-unit-G100000404710"]},"type":"Feature"},{"geometry":{"coordinates":[57.9845,23.7073],"type":"Point"},"id":"wattlas-plant-gemplant-l100000405505","properties":{"aliases":["1-1","Barka I Independent Water and power plant"],"canonicalAnchor":"gemplant:L100000405505","canonicalCountryKey":"OM","capacityMw":456.0,"country":"OM","externalIds":{"gemPlant":"L100000405505","gemUnit":"G100000404685"},"geographyId":"OM-34121849B71010913728332","id":"wattlas-plant-gemplant-l100000405505","lifecycleCounts":{"operational":1},"locationPrecision":"exact","name":"Barka I Independent Water and power plant","operatingCapacityCoverage":{"coveragePercent":100.0,"knownUnitCount":1,"method":"complete_unit_sum","provenance":{"evidenceCount":0,"recordIds":["wattlas-record-gemunit-g100000404685"],"sourceIds":["gem-global-integrated-power-tracker"],"sourceTypes":["research_verified"],"valueKind":"reported"},"totalUnitCount":1},"operatingCapacityMw":456.0,"operatingCapacityMwByTechnology":{"gas":456.0},"plannedCapacityCoverage":{"coveragePercent":0.0,"knownUnitCount":0,"method":"unavailable","totalUnitCount":0},"plannedCapacityMw":0.0,"plannedCapacityMwByTechnology":{},"recordCount":1,"recordIds":["wattlas-record-gemunit-g100000404685"],"sourceIds":["gem-global-integrated-power-tracker"],"technologies":["gas"],"technologyMixMw":{"gas":456.0},"unitCount":1,"unitIds":["gem-unit-G100000404685"]},"type":"Feature"},{"geometry":{"coordinates":[57.977055,23.707375],"type":"Point"},"id":"wattlas-plant-gemplant-l100000405506","properties":{"aliases":["1-1","Barka III Independent power plant"],"canonicalAnchor":"gemplant:L100000405506","canonicalCountryKey":"OM","capacityMw":766.0,"country":"OM","externalIds":{"gemPlant":"L100000405506","gemUnit":"G100000404687"},"geographyId":"OM-34121849B71010913728332","id":"wattlas-plant-gemplant-l100000405506","lifecycleCounts":{"operational":1},"locationPrecision":"exact","name":"Barka III Independent power plant","operatingCapacityCoverage":{"coveragePercent":100.0,"knownUnitCount":1,"method":"complete_unit_sum","provenance":{"evidenceCount":0,"recordIds":["wattlas-record-gemunit-g100000404687"],"sourceIds":["gem-global-integrated-power-tracker"],"sourceTypes":["research_verified"],"valueKind":"reported"},"totalUnitCount":1},"operatingCapacityMw":766.0,"operatingCapacityMwByTechnology":{"gas":766.0},"plannedCapacityCoverage":{"coveragePercent":0.0,"knownUnitCount":0,"method":"unavailable","totalUnitCount":0},"plannedCapacityMw":0.0,"plannedCapacityMwByTechnology":{},"recordCount":1,"recordIds":["wattlas-record-gemunit-g100000404687"],"sourceIds":["gem-global-integrated-power-tracker"],"technologies":["gas"],"technologyMixMw":{"gas":766.0},"unitCount":1,"unitIds":["gem-unit-G100000404687"]},"type":"Feature"},{"geometry":{"coordinates":[56.283718,23.365562],"type":"Point"},"id":"wattlas-plant-gemplant-l100000405508","properties":{"aliases":["1-1","Ibri Independent power plant"],"canonicalAnchor":"gemplant:L100000405508","canonicalCountryKey":"OM","capacityMw":1539.0,"country":"OM","externalIds":{"gemPlant":"L100000405508","gemUnit":"G100000404688"},"geographyId":"OM-34121849B37717587073732","id":"wattlas-plant-gemplant-l100000405508","lifecycleCounts":{"operational":1},"locationPrecision":"exact","name":"Ibri Independent power plant","operatingCapacityCoverage":{"coveragePercent":100.0,"knownUnitCount":1,"method":"complete_unit_sum","provenance":{"evidenceCount":0,"recordIds":["wattlas-record-gemunit-g100000404688"],"sourceIds":["gem-global-integrated-power-tracker"],"sourceTypes":["research_verified"],"valueKind":"reported"},"totalUnitCount":1},"operatingCapacityMw":1539.0,"operatingCapacityMwByTechnology":{"gas":1539.0},"plannedCapacityCoverage":{"coveragePercent":0.0,"knownUnitCount":0,"method":"unavailable","totalUnitCount":0},"plannedCapacityMw":0.0,"plannedCapacityMwByTechnology":{},"recordCount":1,"recordIds":["wattlas-record-gemunit-g100000404688"],"sourceIds":["gem-global-integrated-power-tracker"],"technologies":["gas"],"technologyMixMw":{"gas":1539.0},"unitCount":1,"unitIds":["gem-unit-G100000404688"]},"type":"Feature"},{"geometry":{"coordinates":[55.4021,22.842128],"type":"Point"},"id":"wattlas-plant-gemplant-l100000405509","properties":{"aliases":["CC1","Lekhwair power station"],"canonicalAnchor":"gemplant:L100000405509","canonicalCountryKey":"OM","capacityMw":110.0,"country":"OM","externalIds":{"gemPlant":"L100000405509","gemUnit":"G100000404714"},"geographyId":"OM-34121849B37717587073732","id":"wattlas-plant-gemplant-l100000405509","lifecycleCounts":{"operational":1},"locationPrecision":"exact","name":"Lekhwair power station","operatingCapacityCoverage":{"coveragePercent":100.0,"knownUnitCount":1,"method":"complete_unit_sum","provenance":{"evidenceCount":0,"recordIds":["wattlas-record-gemunit-g100000404714"],"sourceIds":["gem-global-integrated-power-tracker"],"sourceTypes":["research_verified"],"valueKind":"reported"},"totalUnitCount":1},"operatingCapacityMw":110.0,"operatingCapacityMwByTechnology":{"gas":110.0},"plannedCapacityCoverage":{"coveragePercent":0.0,"knownUnitCount":0,"method":"unavailable","totalUnitCount":0},"plannedCapacityMw":0.0,"plannedCapacityMwByTechnology":{},"recordCount":1,"recordIds":["wattlas-record-gemunit-g100000404714"],"sourceIds":["gem-global-integrated-power-tracker"],"technologies":["gas"],"technologyMixMw":{"gas":110.0},"unitCount":1,"unitIds":["gem-unit-G100000404714"]},"type":"Feature"},{"geometry":{"coordinates":[57.5779,22.7067],"type":"Point"},"id":"wattlas-plant-gemplant-l100000405510","properties":{"aliases":["1-2","2-2","3-1","4-1","5-1","Manah power plant"],"canonicalAnchor":"gemplant:L100000405510","canonicalCountryKey":"OM","capacityMw":261.0,"country":"OM","externalIdAliases":{"gemUnit":["G100000404689","G100000404690","G100001028098","G100001028099","G100001028100"]},"externalIds":{"gemPlant":"L100000405510","gemUnit":"G100001028100"},"geographyId":"OM-34121849B25434331600406","id":"wattlas-plant-gemplant-l100000405510","lifecycleCounts":{"operational":5},"locationPrecision":"exact","name":"Manah power plant","operatingCapacityCoverage":{"coveragePercent":100.0,"knownUnitCount":5,"method":"complete_unit_sum","provenance":{"evidenceCount":0,"recordIds":["wattlas-record-gemunit-g100000404689","wattlas-record-gemunit-g100000404690","wattlas-record-gemunit-g100001028098","wattlas-record-gemunit-g100001028099","wattlas-record-gemunit-g100001028100"],"sourceIds":["gem-global-integrated-power-tracker"],"sourceTypes":["research_verified"],"valueKind":"reported"},"totalUnitCount":5},"operatingCapacityMw":261.0,"operatingCapacityMwByTechnology":{"gas":261.0},"plannedCapacityCoverage":{"coveragePercent":0.0,"knownUnitCount":0,"method":"unavailable","totalUnitCount":0},"plannedCapacityMw":0.0,"plannedCapacityMwByTechnology":{},"recordCount":5,"recordIds":["wattlas-record-gemunit-g100000404689","wattlas-record-gemunit-g100000404690","wattlas-record-gemunit-g100001028098","wattlas-record-gemunit-g100001028099","wattlas-record-gemunit-g100001028100"],"sourceIds":["gem-global-integrated-power-tracker"],"technologies":["gas"],"technologyMixMw":{"gas":261.0},"unitCount":5,"unitIds":["gem-unit-G100000404689","gem-unit-G100000404690","gem-unit-G100001028098","gem-unit-G100001028099","gem-unit-G100001028100"]},"type":"Feature"},{"geometry":{"coordinates":[56.461109,19.3422],"type":"Point"},"id":"wattlas-plant-gemplant-l100000405512","properties":{"aliases":["1-1","2-1","Mukhaizna power plant"],"canonicalAnchor":"gemplant:L100000405512","canonicalCountryKey":"OM","capacityMw":252.0,"country":"OM","externalIdAliases":{"gemUnit":["G100000404715","G100000404716"]},"externalIds":{"gemPlant":"L100000405512","gemUnit":"G100000404716"},"geographyId":"OM-34121849B130430185889","id":"wattlas-plant-gemplant-l100000405512","lifecycleCounts":{"operational":2},"locationPrecision":"exact","name":"Mukhaizna power plant","operatingCapacityCoverage":{"coveragePercent":100.0,"knownUnitCount":2,"method":"complete_unit_sum","provenance":{"evidenceCount":0,"recordIds":["wattlas-record-gemunit-g100000404715","wattlas-record-gemunit-g100000404716"],"sourceIds":["gem-global-integrated-power-tracker"],"sourceTypes":["research_verified"],"valueKind":"reported"},"totalUnitCount":2},"operatingCapacityMw":252.0,"operatingCapacityMwByTechnology":{"gas":252.0},"plannedCapacityCoverage":{"coveragePercent":0.0,"knownUnitCount":0,"method":"unavailable","totalUnitCount":0},"plannedCapacityMw":0.0,"plannedCapacityMwByTechnology":{},"recordCount":2,"recordIds":["wattlas-record-gemunit-g100000404715","wattlas-record-gemunit-g100000404716"],"sourceIds":["gem-global-integrated-power-tracker"],"technologies":["gas"],"technologyMixMw":{"gas":252.0},"unitCount":2,"unitIds":["gem-unit-G100000404715","gem-unit-G100000404716"]},"type":"Feature"},{"geometry":{"coordinates":[57.098022,21.297364],"type":"Point"},"id":"wattlas-plant-gemplant-l100000405515","properties":{"aliases":["1-1","2-1","3-1","4-1","5-1","Qarn Alam power plant"],"canonicalAnchor":"gemplant:L100000405515","canonicalCountryKey":"OM","capacityMw":523.0,"country":"OM","externalIdAliases":{"gemUnit":["G100000404717","G100000404718","G100000404719","G100000404720","G100000404721"]},"externalIds":{"gemPlant":"L100000405515","gemUnit":"G100000404721"},"geographyId":"OM-34121849B25434331600406","id":"wattlas-plant-gemplant-l100000405515","lifecycleCounts":{"operational":5},"locationPrecision":"exact","name":"Qarn Alam power plant","operatingCapacityCoverage":{"coveragePercent":100.0,"knownUnitCount":5,"method":"complete_unit_sum","provenance":{"evidenceCount":0,"recordIds":["wattlas-record-gemunit-g100000404717","wattlas-record-gemunit-g100000404718","wattlas-record-gemunit-g100000404719","wattlas-record-gemunit-g100000404720","wattlas-record-gemunit-g100000404721"],"sourceIds":["gem-global-integrated-power-tracker"],"sourceTypes":["research_verified"],"valueKind":"reported"},"totalUnitCount":5},"operatingCapacityMw":523.0,"operatingCapacityMwByTechnology":{"gas":523.0},"plannedCapacityCoverage":{"coveragePercent":0.0,"knownUnitCount":0,"method":"unavailable","totalUnitCount":0},"plannedCapacityMw":0.0,"plannedCapacityMwByTechnology":{},"recordCount":5,"recordIds":["wattlas-record-gemunit-g100000404717","wattlas-record-gemunit-g100000404718","wattlas-record-gemunit-g100000404719","wattlas-record-gemunit-g100000404720","wattlas-record-gemunit-g100000404721"],"sourceIds":["gem-global-integrated-power-tracker"],"technologies":["gas"],"technologyMixMw":{"gas":523.0},"unitCount":5,"unitIds":["gem-unit-G100000404717","gem-unit-G100000404718","gem-unit-G100000404719","gem-unit-G100000404720","gem-unit-G100000404721"]},"type":"Feature"},{"geometry":{"coordinates":[54.640978,18.028623],"type":"Point"},"id":"wattlas-plant-gemplant-l100000405516","properties":{"aliases":["1-1","2-1","Rabab Harweel Project power plant"],"canonicalAnchor":"gemplant:L100000405516","canonicalCountryKey":"OM","capacityMw":150.0,"country":"OM","externalIdAliases":{"gemUnit":["G100000404723","G100000404724"]},"externalIds":{"gemPlant":"L100000405516","gemUnit":"G100000404724"},"geographyId":"OM-34121849B8854015950868","id":"wattlas-plant-gemplant-l100000405516","lifecycleCounts":{"operational":2},"locationPrecision":"exact","name":"Rabab Harweel Project power plant","operatingCapacityCoverage":{"coveragePercent":100.0,"knownUnitCount":2,"method":"complete_unit_sum","provenance":{"evidenceCount":0,"recordIds":["wattlas-record-gemunit-g100000404723","wattlas-record-gemunit-g100000404724"],"sourceIds":["gem-global-integrated-power-tracker"],"sourceTypes":["research_verified"],"valueKind":"reported"},"totalUnitCount":2},"operatingCapacityMw":150.0,"operatingCapacityMwByTechnology":{"gas":150.0},"plannedCapacityCoverage":{"coveragePercent":0.0,"knownUnitCount":0,"method":"unavailable","totalUnitCount":0},"plannedCapacityMw":0.0,"plannedCapacityMwByTechnology":{},"recordCount":2,"recordIds":["wattlas-record-gemunit-g100000404723","wattlas-record-gemunit-g100000404724"],"sourceIds":["gem-global-integrated-power-tracker"],"technologies":["gas"],"technologyMixMw":{"gas":150.0},"unitCount":2,"unitIds":["gem-unit-G100000404723","gem-unit-G100000404724"]},"type":"Feature"},{"geometry":{"coordinates":[58.1993,23.5542],"type":"Point"},"id":"wattlas-plant-gemplant-l100000405517","properties":{"aliases":["1-1","2-1","3-1","4-1","5-1","6-1","7-1","8-1","Rusail power plant"],"canonicalAnchor":"gemplant:L100000405517","canonicalCountryKey":"OM","capacityMw":186.0,"country":"OM","externalIdAliases":{"gemUnit":["G100000404692","G100000404693","G100000404694","G100000404695","G100000404696","G100000404697","G100000404698","G100000404699"]},"externalIds":{"gemPlant":"L100000405517","gemUnit":"G100000404699"},"geographyId":"OM-34121849B74132742221768","id":"wattlas-plant-gemplant-l100000405517","lifecycleCounts":{"cancelled":6,"operational":2},"locationPrecision":"exact","name":"Rusail power plant","operatingCapacityCoverage":{"coveragePercent":100.0,"knownUnitCount":2,"method":"complete_unit_sum","provenance":{"evidenceCount":0,"recordIds":["wattlas-record-gemunit-g100000404698","wattlas-record-gemunit-g100000404699"],"sourceIds":["gem-global-integrated-power-tracker"],"sourceTypes":["research_verified"],"valueKind":"reported"},"totalUnitCount":2},"operatingCapacityMw":186.0,"operatingCapacityMwByTechnology":{"gas":186.0},"plannedCapacityCoverage":{"coveragePercent":0.0,"knownUnitCount":0,"method":"unavailable","totalUnitCount":0},"plannedCapacityMw":0.0,"plannedCapacityMwByTechnology":{},"recordCount":8,"recordIds":["wattlas-record-gemunit-g100000404692","wattlas-record-gemunit-g100000404693","wattlas-record-gemunit-g100000404694","wattlas-record-gemunit-g100000404695","wattlas-record-gemunit-g100000404696","wattlas-record-gemunit-g100000404697","wattlas-record-gemunit-g100000404698","wattlas-record-gemunit-g100000404699"],"sourceIds":["gem-global-integrated-power-tracker"],"technologies":["gas"],"technologyMixMw":{"gas":186.0},"unitCount":8,"unitIds":["gem-unit-G100000404692","gem-unit-G100000404693","gem-unit-G100000404694","gem-unit-G100000404695","gem-unit-G100000404696","gem-unit-G100000404697","gem-unit-G100000404698","gem-unit-G100000404699"]},"type":"Feature"},{"geometry":{"coordinates":[57.9816,23.707],"type":"Point"},"id":"wattlas-plant-gemplant-l100000405518","properties":{"aliases":["1-1","Barka II Independent Water and power plant"],"canonicalAnchor":"gemplant:L100000405518","canonicalCountryKey":"OM","capacityMw":688.0,"country":"OM","externalIds":{"gemPlant":"L100000405518","gemUnit":"G100000404686"},"geographyId":"OM-34121849B71010913728332","id":"wattlas-plant-gemplant-l100000405518","lifecycleCounts":{"operational":1},"locationPrecision":"exact","name":"Barka II Independent Water and power plant","operatingCapacityCoverage":{"coveragePercent":100.0,"knownUnitCount":1,"method":"complete_unit_sum","provenance":{"evidenceCount":0,"recordIds":["wattlas-record-gemunit-g100000404686"],"sourceIds":["gem-global-integrated-power-tracker"],"sourceTypes":["research_verified"],"valueKind":"reported"},"totalUnitCount":1},"operatingCapacityMw":688.0,"operatingCapacityMwByTechnology":{"gas":688.0},"plannedCapacityCoverage":{"coveragePercent":0.0,"knownUnitCount":0,"method":"unavailable","totalUnitCount":0},"plannedCapacityMw":0.0,"plannedCapacityMwByTechnology":{},"recordCount":1,"recordIds":["wattlas-record-gemunit-g100000404686"],"sourceIds":["gem-global-integrated-power-tracker"],"technologies":["gas"],"technologyMixMw":{"gas":688.0},"unitCount":1,"unitIds":["gem-unit-G100000404686"]},"type":"Feature"},{"geometry":{"coordinates":[56.731778,21.359443],"type":"Point"},"id":"wattlas-plant-gemplant-l100000405519","properties":{"aliases":["CC1","Saih Rawl power plant"],"canonicalAnchor":"gemplant:L100000405519","canonicalCountryKey":"OM","capacityMw":185.0,"country":"OM","externalIds":{"gemPlant":"L100000405519","gemUnit":"G100000404722"},"geographyId":"OM-34121849B25434331600406","id":"wattlas-plant-gemplant-l100000405519","lifecycleCounts":{"operational":1},"locationPrecision":"exact","name":"Saih Rawl power plant","operatingCapacityCoverage":{"coveragePercent":100.0,"knownUnitCount":1,"method":"complete_unit_sum","provenance":{"evidenceCount":0,"recordIds":["wattlas-record-gemunit-g100000404722"],"sourceIds":["gem-global-integrated-power-tracker"],"sourceTypes":["research_verified"],"valueKind":"reported"},"totalUnitCount":1},"operatingCapacityMw":185.0,"operatingCapacityMwByTechnology":{"gas":185.0},"plannedCapacityCoverage":{"coveragePercent":0.0,"knownUnitCount":0,"method":"unavailable","totalUnitCount":0},"plannedCapacityMw":0.0,"plannedCapacityMwByTechnology":{},"recordCount":1,"recordIds":["wattlas-record-gemunit-g100000404722"],"sourceIds":["gem-global-integrated-power-tracker"],"technologies":["gas"],"technologyMixMw":{"gas":185.0},"unitCount":1,"unitIds":["gem-unit-G100000404722"]},"type":"Feature"},{"geometry":{"coordinates":[54.490113,17.038657],"type":"Point"},"id":"wattlas-plant-gemplant-l100000405521","properties":{"aliases":["CC1","Salalah Independent Water and power plant"],"canonicalAnchor":"gemplant:L100000405521","canonicalCountryKey":"OM","capacityMw":445.0,"country":"OM","externalIds":{"gemPlant":"L100000405521","gemUnit":"G100000404700"},"geographyId":"OM-34121849B8854015950868","id":"wattlas-plant-gemplant-l100000405521","lifecycleCounts":{"operational":1},"locationPrecision":"exact","name":"Salalah Independent Water and power plant","operatingCapacityCoverage":{"coveragePercent":100.0,"knownUnitCount":1,"method":"complete_unit_sum","provenance":{"evidenceCount":0,"recordIds":["wattlas-record-gemunit-g100000404700"],"sourceIds":["gem-global-integrated-power-tracker"],"sourceTypes":["research_verified"],"valueKind":"reported"},"totalUnitCount":1},"operatingCapacityMw":445.0,"operatingCapacityMwByTechnology":{"gas":445.0},"plannedCapacityCoverage":{"coveragePercent":0.0,"knownUnitCount":0,"method":"unavailable","totalUnitCount":0},"plannedCapacityMw":0.0,"plannedCapacityMwByTechnology":{},"recordCount":1,"recordIds":["wattlas-record-gemunit-g100000404700"],"sourceIds":["gem-global-integrated-power-tracker"],"technologies":["gas"],"technologyMixMw":{"gas":445.0},"unitCount":1,"unitIds":["gem-unit-G100000404700"]},"type":"Feature"},{"geometry":{"coordinates":[59.416961,22.655898],"type":"Point"},"id":"wattlas-plant-gemplant-l100000405526","properties":{"aliases":["1-1","2-1","3-1","Sur Independent power plant"],"canonicalAnchor":"gemplant:L100000405526","canonicalCountryKey":"OM","capacityMw":2000.0,"country":"OM","externalIdAliases":{"gemUnit":["G100000404707","G100000411165","G100000411166"]},"externalIds":{"gemPlant":"L100000405526","gemUnit":"G100000411165"},"geographyId":"OM-34121849B48568874604869","id":"wattlas-plant-gemplant-l100000405526","lifecycleCounts":{"operational":3},"locationPrecision":"exact","name":"Sur Independent power plant","operatingCapacityCoverage":{"coveragePercent":100.0,"knownUnitCount":3,"method":"complete_unit_sum","provenance":{"evidenceCount":0,"recordIds":["wattlas-record-gemunit-g100000404707","wattlas-record-gemunit-g100000411165","wattlas-record-gemunit-g100000411166"],"sourceIds":["gem-global-integrated-power-tracker"],"sourceTypes":["research_verified"],"valueKind":"reported"},"totalUnitCount":3},"operatingCapacityMw":2000.0,"operatingCapacityMwByTechnology":{"gas":2000.0},"plannedCapacityCoverage":{"coveragePercent":0.0,"knownUnitCount":0,"method":"unavailable","totalUnitCount":0},"plannedCapacityMw":0.0,"plannedCapacityMwByTechnology":{},"recordCount":3,"recordIds":["wattlas-record-gemunit-g100000404707","wattlas-record-gemunit-g100000411165","wattlas-record-gemunit-g100000411166"],"sourceIds":["gem-global-integrated-power-tracker"],"technologies":["gas"],"technologyMixMw":{"gas":2000.0},"unitCount":3,"unitIds":["gem-unit-G100000404707","gem-unit-G100000411165","gem-unit-G100000411166"]},"type":"Feature"},{"geometry":{"coordinates":[59.405567,22.65971],"type":"Point"},"id":"wattlas-plant-gemplant-l100000407694","properties":{"aliases":["1-1","Qalhat LNG power station"],"canonicalAnchor":"gemplant:L100000407694","canonicalCountryKey":"OM","capacityMw":280.0,"country":"OM","externalIds":{"gemPlant":"L100000407694","gemUnit":"G100000410072"},"geographyId":"OM-34121849B48568874604869","id":"wattlas-plant-gemplant-l100000407694","lifecycleCounts":{"operational":1},"locationPrecision":"exact","name":"Qalhat LNG power station","operatingCapacityCoverage":{"coveragePercent":100.0,"knownUnitCount":1,"method":"complete_unit_sum","provenance":{"evidenceCount":0,"recordIds":["wattlas-record-gemunit-g100000410072"],"sourceIds":["gem-global-integrated-power-tracker"],"sourceTypes":["research_verified"],"valueKind":"reported"},"totalUnitCount":1},"operatingCapacityMw":280.0,"operatingCapacityMwByTechnology":{"gas":280.0},"plannedCapacityCoverage":{"coveragePercent":0.0,"knownUnitCount":0,"method":"unavailable","totalUnitCount":0},"plannedCapacityMw":0.0,"plannedCapacityMwByTechnology":{},"recordCount":1,"recordIds":["wattlas-record-gemunit-g100000410072"],"sourceIds":["gem-global-integrated-power-tracker"],"technologies":["gas"],"technologyMixMw":{"gas":280.0},"unitCount":1,"unitIds":["gem-unit-G100000410072"]},"type":"Feature"},{"geometry":{"coordinates":[56.089118,26.056121],"type":"Point"},"id":"wattlas-plant-gemplant-l100000407856","properties":{"aliases":["1-1","Musandam power plant"],"canonicalAnchor":"gemplant:L100000407856","canonicalCountryKey":"OM","capacityMw":120.0,"country":"OM","externalIds":{"gemPlant":"L100000407856","gemUnit":"G100000410539"},"geographyId":"OM-34121849B37717587073732","id":"wattlas-plant-gemplant-l100000407856","lifecycleCounts":{"operational":1},"locationPrecision":"exact","name":"Musandam power plant","operatingCapacityCoverage":{"coveragePercent":100.0,"knownUnitCount":1,"method":"complete_unit_sum","provenance":{"evidenceCount":0,"recordIds":["wattlas-record-gemunit-g100000410539"],"sourceIds":["gem-global-integrated-power-tracker"],"sourceTypes":["research_verified"],"valueKind":"reported"},"totalUnitCount":1},"operatingCapacityMw":120.0,"operatingCapacityMwByTechnology":{"gas":120.0},"plannedCapacityCoverage":{"coveragePercent":0.0,"knownUnitCount":0,"method":"unavailable","totalUnitCount":0},"plannedCapacityMw":0.0,"plannedCapacityMwByTechnology":{},"recordCount":1,"recordIds":["wattlas-record-gemunit-g100000410539"],"sourceIds":["gem-global-integrated-power-tracker"],"technologies":["gas"],"technologyMixMw":{"gas":120.0},"unitCount":1,"unitIds":["gem-unit-G100000410539"]},"type":"Feature"},{"geometry":{"coordinates":[59.405567,22.65971],"type":"Point"},"id":"wattlas-plant-gemplant-l100000408234","properties":{"aliases":["1-1","New Qalhat LNG power station"],"canonicalAnchor":"gemplant:L100000408234","canonicalCountryKey":"OM","capacityMw":119.7,"country":"OM","externalIds":{"gemPlant":"L100000408234","gemUnit":"G100000411532"},"geographyId":"OM-34121849B48568874604869","id":"wattlas-plant-gemplant-l100000408234","lifecycleCounts":{"operational":1},"locationPrecision":"exact","name":"New Qalhat LNG power station","operatingCapacityCoverage":{"coveragePercent":100.0,"knownUnitCount":1,"method":"complete_unit_sum","provenance":{"evidenceCount":0,"recordIds":["wattlas-record-gemunit-g100000411532"],"sourceIds":["gem-global-integrated-power-tracker"],"sourceTypes":["research_verified"],"valueKind":"reported"},"totalUnitCount":1},"operatingCapacityMw":119.7,"operatingCapacityMwByTechnology":{"gas":119.7},"plannedCapacityCoverage":{"coveragePercent":0.0,"knownUnitCount":0,"method":"unavailable","totalUnitCount":0},"plannedCapacityMw":0.0,"plannedCapacityMwByTechnology":{},"recordCount":1,"recordIds":["wattlas-record-gemunit-g100000411532"],"sourceIds":["gem-global-integrated-power-tracker"],"technologies":["gas"],"technologyMixMw":{"gas":119.7},"unitCount":1,"unitIds":["gem-unit-G100000411532"]},"type":"Feature"},{"geometry":{"coordinates":[58.801624,20.467862],"type":"Point"},"id":"wattlas-plant-gemplant-l100000408235","properties":{"aliases":["1-1","Masirah New power plant"],"canonicalAnchor":"gemplant:L100000408235","canonicalCountryKey":"OM","capacityMw":57.6,"country":"OM","externalIds":{"gemPlant":"L100000408235","gemUnit":"G100000411533"},"geographyId":"OM-34121849B37717587073732","id":"wattlas-plant-gemplant-l100000408235","lifecycleCounts":{"operational":1},"locationPrecision":"exact","name":"Masirah New power plant","operatingCapacityCoverage":{"coveragePercent":100.0,"knownUnitCount":1,"method":"complete_unit_sum","provenance":{"evidenceCount":0,"recordIds":["wattlas-record-gemunit-g100000411533"],"sourceIds":["gem-global-integrated-power-tracker"],"sourceTypes":["research_verified"],"valueKind":"reported"},"totalUnitCount":1},"operatingCapacityMw":57.6,"operatingCapacityMwByTechnology":{"oil":57.6},"plannedCapacityCoverage":{"coveragePercent":0.0,"knownUnitCount":0,"method":"unavailable","totalUnitCount":0},"plannedCapacityMw":0.0,"plannedCapacityMwByTechnology":{},"recordCount":1,"recordIds":["wattlas-record-gemunit-g100000411533"],"sourceIds":["gem-global-integrated-power-tracker"],"technologies":["oil"],"technologyMixMw":{"oil":57.6},"unitCount":1,"unitIds":["gem-unit-G100000411533"]},"type":"Feature"},{"geometry":{"coordinates":[56.23274,26.0883],"type":"Point"},"id":"wattlas-plant-gemplant-l100000408238","properties":{"aliases":["1-1","Khasab New power plant"],"canonicalAnchor":"gemplant:L100000408238","canonicalCountryKey":"OM","capacityMw":84.0,"country":"OM","externalIds":{"gemPlant":"L100000408238","gemUnit":"G100000411534"},"geographyId":"OM-34121849B37717587073732","id":"wattlas-plant-gemplant-l100000408238","lifecycleCounts":{"operational":1},"locationPrecision":"exact","name":"Khasab New power plant","operatingCapacityCoverage":{"coveragePercent":100.0,"knownUnitCount":1,"method":"complete_unit_sum","provenance":{"evidenceCount":0,"recordIds":["wattlas-record-gemunit-g100000411534"],"sourceIds":["gem-global-integrated-power-tracker"],"sourceTypes":["research_verified"],"valueKind":"reported"},"totalUnitCount":1},"operatingCapacityMw":84.0,"operatingCapacityMwByTechnology":{"gas":84.0},"plannedCapacityCoverage":{"coveragePercent":0.0,"knownUnitCount":0,"method":"unavailable","totalUnitCount":0},"plannedCapacityMw":0.0,"plannedCapacityMwByTechnology":{},"recordCount":1,"recordIds":["wattlas-record-gemunit-g100000411534"],"sourceIds":["gem-global-integrated-power-tracker"],"technologies":["gas"],"technologyMixMw":{"gas":84.0},"unitCount":1,"unitIds":["gem-unit-G100000411534"]},"type":"Feature"},{"geometry":{"coordinates":[58.8489,23.0821],"type":"Point"},"id":"wattlas-plant-gemplant-l100000604387","properties":{"aliases":["Wadi Dayqah Dam hydroelectric plant"],"canonicalAnchor":"gemplant:L100000604387","canonicalCountryKey":"OM","capacityMw":0.0,"country":"OM","externalIds":{"gemPlant":"L100000604387","gemUnit":"G100000604938"},"geographyId":"OM-34121849B74132742221768","id":"wattlas-plant-gemplant-l100000604387","lifecycleCounts":{"cancelled":1},"locationPrecision":"exact","name":"Wadi Dayqah Dam hydroelectric plant","operatingCapacityCoverage":{"coveragePercent":0.0,"knownUnitCount":0,"method":"unavailable","totalUnitCount":0},"operatingCapacityMw":0.0,"operatingCapacityMwByTechnology":{},"plannedCapacityCoverage":{"coveragePercent":0.0,"knownUnitCount":0,"method":"unavailable","totalUnitCount":0},"plannedCapacityMw":0.0,"plannedCapacityMwByTechnology":{},"recordCount":1,"recordIds":["wattlas-record-gemunit-g100000604938"],"sourceIds":["gem-global-integrated-power-tracker"],"technologies":["hydro"],"technologyMixMw":{"hydro":0.0},"unitCount":1,"unitIds":["gem-unit-G100000604938"]},"type":"Feature"},{"geometry":{"coordinates":[55.808,18.496],"type":"Point"},"id":"wattlas-plant-gemplant-l100000804048","properties":{"aliases":["--","Amin Solar PV Power Plant"],"canonicalAnchor":"gemplant:L100000804048","canonicalCountryKey":"OM","capacityMw":105.0,"country":"OM","externalIds":{"gemPlant":"L100000804048","gemUnit":"G100000804621"},"geographyId":"OM-34121849B8854015950868","id":"wattlas-plant-gemplant-l100000804048","lifecycleCounts":{"operational":1},"locationPrecision":"exact","name":"Amin Solar PV Power Plant","operatingCapacityCoverage":{"coveragePercent":100.0,"knownUnitCount":1,"method":"complete_unit_sum","provenance":{"evidenceCount":0,"recordIds":["wattlas-record-gemunit-g100000804621"],"sourceIds":["gem-global-integrated-power-tracker"],"sourceTypes":["research_verified"],"valueKind":"reported"},"totalUnitCount":1},"operatingCapacityMw":105.0,"operatingCapacityMwByTechnology":{"solar":105.0},"plannedCapacityCoverage":{"coveragePercent":0.0,"knownUnitCount":0,"method":"unavailable","totalUnitCount":0},"plannedCapacityMw":0.0,"plannedCapacityMwByTechnology":{},"recordCount":1,"recordIds":["wattlas-record-gemunit-g100000804621"],"sourceIds":["gem-global-integrated-power-tracker"],"technologies":["solar"],"technologyMixMw":{"solar":105.0},"unitCount":1,"unitIds":["gem-unit-G100000804621"]},"type":"Feature"},{"geometry":{"coordinates":[56.2313,23.3683],"type":"Point"},"id":"wattlas-plant-gemplant-l100000804088","properties":{"aliases":["--","Ibri 2 Solar"],"canonicalAnchor":"gemplant:L100000804088","canonicalCountryKey":"OM","capacityMw":500.0,"country":"OM","externalIds":{"gemPlant":"L100000804088","gemUnit":"G100000804670"},"geographyId":"OM-34121849B37717587073732","id":"wattlas-plant-gemplant-l100000804088","lifecycleCounts":{"operational":1},"locationPrecision":"exact","name":"Ibri 2 Solar","operatingCapacityCoverage":{"coveragePercent":100.0,"knownUnitCount":1,"method":"complete_unit_sum","provenance":{"evidenceCount":0,"recordIds":["wattlas-record-gemunit-g100000804670"],"sourceIds":["gem-global-integrated-power-tracker"],"sourceTypes":["research_verified"],"valueKind":"reported"},"totalUnitCount":1},"operatingCapacityMw":500.0,"operatingCapacityMwByTechnology":{"solar":500.0},"plannedCapacityCoverage":{"coveragePercent":0.0,"knownUnitCount":0,"method":"unavailable","totalUnitCount":0},"plannedCapacityMw":0.0,"plannedCapacityMwByTechnology":{},"recordCount":1,"recordIds":["wattlas-record-gemunit-g100000804670"],"sourceIds":["gem-global-integrated-power-tracker"],"technologies":["solar"],"technologyMixMw":{"solar":500.0},"unitCount":1,"unitIds":["gem-unit-G100000804670"]},"type":"Feature"},{"geometry":{"coordinates":[56.531,24.446],"type":"Point"},"id":"wattlas-plant-gemplant-l100000804133","properties":{"aliases":["--","Sohar Solar Qabas"],"canonicalAnchor":"gemplant:L100000804133","canonicalCountryKey":"OM","capacityMw":25.0,"country":"OM","externalIds":{"gemPlant":"L100000804133","gemUnit":"G100000804725"},"geographyId":"OM-34121849B71010913728332","id":"wattlas-plant-gemplant-l100000804133","lifecycleCounts":{"operational":1},"locationPrecision":"exact","name":"Sohar Solar Qabas","operatingCapacityCoverage":{"coveragePercent":100.0,"knownUnitCount":1,"method":"complete_unit_sum","provenance":{"evidenceCount":0,"recordIds":["wattlas-record-gemunit-g100000804725"],"sourceIds":["gem-global-integrated-power-tracker"],"sourceTypes":["research_verified"],"valueKind":"reported"},"totalUnitCount":1},"operatingCapacityMw":25.0,"operatingCapacityMwByTechnology":{"solar":25.0},"plannedCapacityCoverage":{"coveragePercent":0.0,"knownUnitCount":0,"method":"unavailable","totalUnitCount":0},"plannedCapacityMw":0.0,"plannedCapacityMwByTechnology":{},"recordCount":1,"recordIds":["wattlas-record-gemunit-g100000804725"],"sourceIds":["gem-global-integrated-power-tracker"],"technologies":["solar"],"technologyMixMw":{"solar":25.0},"unitCount":1,"unitIds":["gem-unit-G100000804725"]},"type":"Feature"},{"geometry":{"coordinates":[57.6639,22.6043],"type":"Point"},"id":"wattlas-plant-gemplant-l100000804136","properties":{"aliases":["1.0","2.0","Manah solar farm"],"canonicalAnchor":"gemplant:L100000804136","canonicalCountryKey":"OM","capacityMw":1000.0,"country":"OM","externalIdAliases":{"gemUnit":["G100000804728","G100000804729"]},"externalIds":{"gemPlant":"L100000804136","gemUnit":"G100000804729"},"geographyId":"OM-34121849B25434331600406","id":"wattlas-plant-gemplant-l100000804136","lifecycleCounts":{"operational":2},"locationPrecision":"exact","name":"Manah solar farm","operatingCapacityCoverage":{"coveragePercent":100.0,"knownUnitCount":2,"method":"complete_unit_sum","provenance":{"evidenceCount":0,"recordIds":["wattlas-record-gemunit-g100000804728","wattlas-record-gemunit-g100000804729"],"sourceIds":["gem-global-integrated-power-tracker"],"sourceTypes":["research_verified"],"valueKind":"reported"},"totalUnitCount":2},"operatingCapacityMw":1000.0,"operatingCapacityMwByTechnology":{"solar":1000.0},"plannedCapacityCoverage":{"coveragePercent":0.0,"knownUnitCount":0,"method":"unavailable","totalUnitCount":0},"plannedCapacityMw":0.0,"plannedCapacityMwByTechnology":{},"recordCount":2,"recordIds":["wattlas-record-gemunit-g100000804728","wattlas-record-gemunit-g100000804729"],"sourceIds":["gem-global-integrated-power-tracker"],"technologies":["solar"],"technologyMixMw":{"solar":1000.0},"unitCount":2,"unitIds":["gem-unit-G100000804728","gem-unit-G100000804729"]},"type":"Feature"},{"geometry":{"coordinates":[57.5236,22.3862],"type":"Point"},"id":"wattlas-plant-gemplant-l100000809119","properties":{"aliases":["--","Adam solar farm"],"canonicalAnchor":"gemplant:L100000809119","canonicalCountryKey":"OM","capacityMw":500.0,"country":"OM","externalIds":{"gemPlant":"L100000809119","gemUnit":"G100000811447"},"geographyId":"OM-34121849B25434331600406","id":"wattlas-plant-gemplant-l100000809119","lifecycleCounts":{"announced":1},"locationPrecision":"exact","name":"Adam solar farm","operatingCapacityCoverage":{"coveragePercent":0.0,"knownUnitCount":0,"method":"unavailable","totalUnitCount":0},"operatingCapacityMw":0.0,"operatingCapacityMwByTechnology":{},"plannedCapacityCoverage":{"coveragePercent":100.0,"knownUnitCount":1,"method":"complete_unit_sum","provenance":{"evidenceCount":0,"recordIds":["wattlas-record-gemunit-g100000811447"],"sourceIds":["gem-global-integrated-power-tracker"],"sourceTypes":["research_verified"],"valueKind":"reported"},"totalUnitCount":1},"plannedCapacityMw":500.0,"plannedCapacityMwByTechnology":{"solar":500.0},"recordCount":1,"recordIds":["wattlas-record-gemunit-g100000811447"],"sourceIds":["gem-global-integrated-power-tracker"],"technologies":["solar"],"technologyMixMw":{"solar":500.0},"unitCount":1,"unitIds":["gem-unit-G100000811447"]},"type":"Feature"},{"geometry":{"coordinates":[58.236,23.6056],"type":"Point"},"id":"wattlas-plant-gemplant-l100000809124","properties":{"aliases":["1.0","2.0","3.0","Miraah solar farm"],"canonicalAnchor":"gemplant:L100000809124","canonicalCountryKey":"OM","capacityMw":1021.0,"country":"OM","externalIdAliases":{"gemUnit":["G100000811452","G100000811453","G100000811454"]},"externalIds":{"gemPlant":"L100000809124","gemUnit":"G100000811454"},"geographyId":"OM-34121849B74132742221768","id":"wattlas-plant-gemplant-l100000809124","lifecycleCounts":{"operational":3},"locationPrecision":"exact","name":"Miraah solar farm","operatingCapacityCoverage":{"coveragePercent":100.0,"knownUnitCount":3,"method":"complete_unit_sum","provenance":{"evidenceCount":0,"recordIds":["wattlas-record-gemunit-g100000811452","wattlas-record-gemunit-g100000811453","wattlas-record-gemunit-g100000811454"],"sourceIds":["gem-global-integrated-power-tracker"],"sourceTypes":["research_verified"],"valueKind":"reported"},"totalUnitCount":3},"operatingCapacityMw":1021.0,"operatingCapacityMwByTechnology":{"solar":1021.0},"plannedCapacityCoverage":{"coveragePercent":0.0,"knownUnitCount":0,"method":"unavailable","totalUnitCount":0},"plannedCapacityMw":0.0,"plannedCapacityMwByTechnology":{},"recordCount":3,"recordIds":["wattlas-record-gemunit-g100000811452","wattlas-record-gemunit-g100000811453","wattlas-record-gemunit-g100000811454"],"sourceIds":["gem-global-integrated-power-tracker"],"technologies":["solar"],"technologyMixMw":{"solar":1021.0},"unitCount":3,"unitIds":["gem-unit-G100000811452","gem-unit-G100000811453","gem-unit-G100000811454"]},"type":"Feature"},{"geometry":{"coordinates":[59.4495,22.6247],"type":"Point"},"id":"wattlas-plant-gemplant-l100000809126","properties":{"aliases":["--","Sur solar farm"],"canonicalAnchor":"gemplant:L100000809126","canonicalCountryKey":"OM","capacityMw":17.0,"country":"OM","externalIds":{"gemPlant":"L100000809126","gemUnit":"G100000811456"},"geographyId":"OM-34121849B48568874604869","id":"wattlas-plant-gemplant-l100000809126","lifecycleCounts":{"operational":1},"locationPrecision":"exact","name":"Sur solar farm","operatingCapacityCoverage":{"coveragePercent":100.0,"knownUnitCount":1,"method":"complete_unit_sum","provenance":{"evidenceCount":0,"recordIds":["wattlas-record-gemunit-g100000811456"],"sourceIds":["gem-global-integrated-power-tracker"],"sourceTypes":["research_verified"],"valueKind":"reported"},"totalUnitCount":1},"operatingCapacityMw":17.0,"operatingCapacityMwByTechnology":{"solar":17.0},"plannedCapacityCoverage":{"coveragePercent":0.0,"knownUnitCount":0,"method":"unavailable","totalUnitCount":0},"plannedCapacityMw":0.0,"plannedCapacityMwByTechnology":{},"recordCount":1,"recordIds":["wattlas-record-gemunit-g100000811456"],"sourceIds":["gem-global-integrated-power-tracker"],"technologies":["solar"],"technologyMixMw":{"solar":17.0},"unitCount":1,"unitIds":["gem-unit-G100000811456"]},"type":"Feature"},{"geometry":{"coordinates":[58.3456,23.5844],"type":"Point"},"id":"wattlas-plant-gemplant-l100000809127","properties":{"aliases":["--","Tanweer solar farm"],"canonicalAnchor":"gemplant:L100000809127","canonicalCountryKey":"OM","capacityMw":46.0,"country":"OM","externalIds":{"gemPlant":"L100000809127","gemUnit":"G100000811457"},"geographyId":"OM-34121849B74132742221768","id":"wattlas-plant-gemplant-l100000809127","lifecycleCounts":{"announced":1},"locationPrecision":"exact","name":"Tanweer solar farm","operatingCapacityCoverage":{"coveragePercent":0.0,"knownUnitCount":0,"method":"unavailable","totalUnitCount":0},"operatingCapacityMw":0.0,"operatingCapacityMwByTechnology":{},"plannedCapacityCoverage":{"coveragePercent":100.0,"knownUnitCount":1,"method":"complete_unit_sum","provenance":{"evidenceCount":0,"recordIds":["wattlas-record-gemunit-g100000811457"],"sourceIds":["gem-global-integrated-power-tracker"],"sourceTypes":["research_verified"],"valueKind":"reported"},"totalUnitCount":1},"plannedCapacityMw":46.0,"plannedCapacityMwByTechnology":{"solar":46.0},"recordCount":1,"recordIds":["wattlas-record-gemunit-g100000811457"],"sourceIds":["gem-global-integrated-power-tracker"],"technologies":["solar"],"technologyMixMw":{"solar":46.0},"unitCount":1,"unitIds":["gem-unit-G100000811457"]},"type":"Feature"},{"geometry":{"coordinates":[58.5172,23.6279],"type":"Point"},"id":"wattlas-plant-gemplant-l100000830752","properties":{"aliases":["--","Mina Al Fahal solar project"],"canonicalAnchor":"gemplant:L100000830752","canonicalCountryKey":"OM","capacityMw":9.9,"country":"OM","externalIds":{"gemPlant":"L100000830752","gemUnit":"G100000834620"},"geographyId":"OM-34121849B74132742221768","id":"wattlas-plant-gemplant-l100000830752","lifecycleCounts":{"operational":1},"locationPrecision":"exact","name":"Mina Al Fahal solar project","operatingCapacityCoverage":{"coveragePercent":100.0,"knownUnitCount":1,"method":"complete_unit_sum","provenance":{"evidenceCount":0,"recordIds":["wattlas-record-gemunit-g100000834620"],"sourceIds":["gem-global-integrated-power-tracker"],"sourceTypes":["research_verified"],"valueKind":"reported"},"totalUnitCount":1},"operatingCapacityMw":9.9,"operatingCapacityMwByTechnology":{"solar":9.9},"plannedCapacityCoverage":{"coveragePercent":0.0,"knownUnitCount":0,"method":"unavailable","totalUnitCount":0},"plannedCapacityMw":0.0,"plannedCapacityMwByTechnology":{},"recordCount":1,"recordIds":["wattlas-record-gemunit-g100000834620"],"sourceIds":["gem-global-integrated-power-tracker"],"technologies":["solar"],"technologyMixMw":{"solar":9.9},"unitCount":1,"unitIds":["gem-unit-G100000834620"]},"type":"Feature"},{"geometry":{"coordinates":[53.954976,18.28483],"type":"Point"},"id":"wattlas-plant-gemplant-l100001007584","properties":{"aliases":["1-1","Saih Al-Khairat New Power Station"],"canonicalAnchor":"gemplant:L100001007584","canonicalCountryKey":"OM","capacityMw":48.0,"country":"OM","externalIds":{"gemPlant":"L100001007584","gemUnit":"G100001008754"},"geographyId":"OM-34121849B8854015950868","id":"wattlas-plant-gemplant-l100001007584","lifecycleCounts":{"operational":1},"locationPrecision":"exact","name":"Saih Al-Khairat New Power Station","operatingCapacityCoverage":{"coveragePercent":100.0,"knownUnitCount":1,"method":"complete_unit_sum","provenance":{"evidenceCount":0,"recordIds":["wattlas-record-gemunit-g100001008754"],"sourceIds":["gem-global-integrated-power-tracker"],"sourceTypes":["research_verified"],"valueKind":"reported"},"totalUnitCount":1},"operatingCapacityMw":48.0,"operatingCapacityMwByTechnology":{"oil":48.0},"plannedCapacityCoverage":{"coveragePercent":0.0,"knownUnitCount":0,"method":"unavailable","totalUnitCount":0},"plannedCapacityMw":0.0,"plannedCapacityMwByTechnology":{},"recordCount":1,"recordIds":["wattlas-record-gemunit-g100001008754"],"sourceIds":["gem-global-integrated-power-tracker"],"technologies":["oil"],"technologyMixMw":{"oil":48.0},"unitCount":1,"unitIds":["gem-unit-G100001008754"]},"type":"Feature"},{"geometry":{"coordinates":[56.034047,22.158053],"type":"Point"},"id":"wattlas-plant-gemplant-l100001007630","properties":{"aliases":["1-1","2-1","3-1","4-1","5-1","ST","Yibal Khuff Power Plant"],"canonicalAnchor":"gemplant:L100001007630","canonicalCountryKey":"OM","capacityMw":92.8,"country":"OM","externalIdAliases":{"gemUnit":["G100001008826","G100001008827","G100001008828","G100001008829","G100001008830","G100001028096"]},"externalIds":{"gemPlant":"L100001007630","gemUnit":"G100001028096"},"geographyId":"OM-34121849B37717587073732","id":"wattlas-plant-gemplant-l100001007630","lifecycleCounts":{"operational":6},"locationPrecision":"exact","name":"Yibal Khuff Power Plant","operatingCapacityCoverage":{"coveragePercent":100.0,"knownUnitCount":6,"method":"complete_unit_sum","provenance":{"evidenceCount":0,"recordIds":["wattlas-record-gemunit-g100001008826","wattlas-record-gemunit-g100001008827","wattlas-record-gemunit-g100001008828","wattlas-record-gemunit-g100001008829","wattlas-record-gemunit-g100001008830","wattlas-record-gemunit-g100001028096"],"sourceIds":["gem-global-integrated-power-tracker"],"sourceTypes":["research_verified"],"valueKind":"reported"},"totalUnitCount":6},"operatingCapacityMw":92.8,"operatingCapacityMwByTechnology":{"gas":92.8},"plannedCapacityCoverage":{"coveragePercent":0.0,"knownUnitCount":0,"method":"unavailable","totalUnitCount":0},"plannedCapacityMw":0.0,"plannedCapacityMwByTechnology":{},"recordCount":6,"recordIds":["wattlas-record-gemunit-g100001008826","wattlas-record-gemunit-g100001008827","wattlas-record-gemunit-g100001008828","wattlas-record-gemunit-g100001008829","wattlas-record-gemunit-g100001008830","wattlas-record-gemunit-g100001028096"],"sourceIds":["gem-global-integrated-power-tracker"],"technologies":["gas"],"technologyMixMw":{"gas":92.8},"unitCount":6,"unitIds":["gem-unit-G100001008826","gem-unit-G100001008827","gem-unit-G100001008828","gem-unit-G100001008829","gem-unit-G100001008830","gem-unit-G100001028096"]},"type":"Feature"},{"geometry":{"coordinates":[58.0256,22.5078],"type":"Point"},"id":"wattlas-plant-gemplant-l100001045673","properties":{"aliases":["--","Sinaw solar farm"],"canonicalAnchor":"gemplant:L100001045673","canonicalCountryKey":"OM","capacityMw":300.0,"country":"OM","externalIds":{"gemPlant":"L100001045673","gemUnit":"G100001051441"},"geographyId":"OM-34121849B48568874604869","id":"wattlas-plant-gemplant-l100001045673","lifecycleCounts":{"announced":1},"locationPrecision":"exact","name":"Sinaw solar farm","operatingCapacityCoverage":{"coveragePercent":0.0,"knownUnitCount":0,"method":"unavailable","totalUnitCount":0},"operatingCapacityMw":0.0,"operatingCapacityMwByTechnology":{},"plannedCapacityCoverage":{"coveragePercent":100.0,"knownUnitCount":1,"method":"complete_unit_sum","provenance":{"evidenceCount":0,"recordIds":["wattlas-record-gemunit-g100001051441"],"sourceIds":["gem-global-integrated-power-tracker"],"sourceTypes":["research_verified"],"valueKind":"reported"},"totalUnitCount":1},"plannedCapacityMw":300.0,"plannedCapacityMwByTechnology":{"solar":300.0},"recordCount":1,"recordIds":["wattlas-record-gemunit-g100001051441"],"sourceIds":["gem-global-integrated-power-tracker"],"technologies":["solar"],"technologyMixMw":{"solar":300.0},"unitCount":1,"unitIds":["gem-unit-G100001051441"]},"type":"Feature"},{"geometry":{"coordinates":[56.5296,24.5588],"type":"Point"},"id":"wattlas-plant-gemplant-l100001069105","properties":{"aliases":["--","Al Batinah North Governorate solar project"],"canonicalAnchor":"gemplant:L100001069105","canonicalCountryKey":"OM","capacityMw":1.4,"country":"OM","externalIds":{"gemPlant":"L100001069105","gemUnit":"G100001078891"},"geographyId":"OM-34121849B71010913728332","id":"wattlas-plant-gemplant-l100001069105","lifecycleCounts":{"operational":1},"locationPrecision":"exact","name":"Al Batinah North Governorate solar project","operatingCapacityCoverage":{"coveragePercent":100.0,"knownUnitCount":1,"method":"complete_unit_sum","provenance":{"evidenceCount":0,"recordIds":["wattlas-record-gemunit-g100001078891"],"sourceIds":["gem-global-integrated-power-tracker"],"sourceTypes":["research_verified"],"valueKind":"reported"},"totalUnitCount":1},"operatingCapacityMw":1.4,"operatingCapacityMwByTechnology":{"solar":1.4},"plannedCapacityCoverage":{"coveragePercent":0.0,"knownUnitCount":0,"method":"unavailable","totalUnitCount":0},"plannedCapacityMw":0.0,"plannedCapacityMwByTechnology":{},"recordCount":1,"recordIds":["wattlas-record-gemunit-g100001078891"],"sourceIds":["gem-global-integrated-power-tracker"],"technologies":["solar"],"technologyMixMw":{"solar":1.4},"unitCount":1,"unitIds":["gem-unit-G100001078891"]},"type":"Feature"},{"geometry":{"coordinates":[55.7606,18.6611],"type":"Point"},"id":"wattlas-plant-gemplant-l100001069106","properties":{"aliases":["--","Dhofar Governorate solar project I"],"canonicalAnchor":"gemplant:L100001069106","canonicalCountryKey":"OM","capacityMw":2.2,"country":"OM","externalIds":{"gemPlant":"L100001069106","gemUnit":"G100001078892"},"geographyId":"OM-34121849B8854015950868","id":"wattlas-plant-gemplant-l100001069106","lifecycleCounts":{"operational":1},"locationPrecision":"exact","name":"Dhofar Governorate solar project I","operatingCapacityCoverage":{"coveragePercent":100.0,"knownUnitCount":1,"method":"complete_unit_sum","provenance":{"evidenceCount":0,"recordIds":["wattlas-record-gemunit-g100001078892"],"sourceIds":["gem-global-integrated-power-tracker"],"sourceTypes":["research_verified"],"valueKind":"reported"},"totalUnitCount":1},"operatingCapacityMw":2.2,"operatingCapacityMwByTechnology":{"solar":2.2},"plannedCapacityCoverage":{"coveragePercent":0.0,"knownUnitCount":0,"method":"unavailable","totalUnitCount":0},"plannedCapacityMw":0.0,"plannedCapacityMwByTechnology":{},"recordCount":1,"recordIds":["wattlas-record-gemunit-g100001078892"],"sourceIds":["gem-global-integrated-power-tracker"],"technologies":["solar"],"technologyMixMw":{"solar":2.2},"unitCount":1,"unitIds":["gem-unit-G100001078892"]},"type":"Feature"},{"geometry":{"coordinates":[58.1325,23.5571],"type":"Point"},"id":"wattlas-plant-gemplant-l100001069107","properties":{"aliases":["--","Seeb Province solar project I"],"canonicalAnchor":"gemplant:L100001069107","canonicalCountryKey":"OM","capacityMw":4.0,"country":"OM","externalIds":{"gemPlant":"L100001069107","gemUnit":"G100001078893"},"geographyId":"OM-34121849B74132742221768","id":"wattlas-plant-gemplant-l100001069107","lifecycleCounts":{"operational":1},"locationPrecision":"exact","name":"Seeb Province solar project I","operatingCapacityCoverage":{"coveragePercent":100.0,"knownUnitCount":1,"method":"complete_unit_sum","provenance":{"evidenceCount":0,"recordIds":["wattlas-record-gemunit-g100001078893"],"sourceIds":["gem-global-integrated-power-tracker"],"sourceTypes":["research_verified"],"valueKind":"reported"},"totalUnitCount":1},"operatingCapacityMw":4.0,"operatingCapacityMwByTechnology":{"solar":4.0},"plannedCapacityCoverage":{"coveragePercent":0.0,"knownUnitCount":0,"method":"unavailable","totalUnitCount":0},"plannedCapacityMw":0.0,"plannedCapacityMwByTechnology":{},"recordCount":1,"recordIds":["wattlas-record-gemunit-g100001078893"],"sourceIds":["gem-global-integrated-power-tracker"],"technologies":["solar"],"technologyMixMw":{"solar":4.0},"unitCount":1,"unitIds":["gem-unit-G100001078893"]},"type":"Feature"},{"geometry":{"coordinates":[58.4672,23.5964],"type":"Point"},"id":"wattlas-plant-gemplant-l100001069108","properties":{"aliases":["--","Bawshar Province solar project"],"canonicalAnchor":"gemplant:L100001069108","canonicalCountryKey":"OM","capacityMw":2.3,"country":"OM","externalIds":{"gemPlant":"L100001069108","gemUnit":"G100001078894"},"geographyId":"OM-34121849B74132742221768","id":"wattlas-plant-gemplant-l100001069108","lifecycleCounts":{"operational":1},"locationPrecision":"exact","name":"Bawshar Province solar project","operatingCapacityCoverage":{"coveragePercent":100.0,"knownUnitCount":1,"method":"complete_unit_sum","provenance":{"evidenceCount":0,"recordIds":["wattlas-record-gemunit-g100001078894"],"sourceIds":["gem-global-integrated-power-tracker"],"sourceTypes":["research_verified"],"valueKind":"reported"},"totalUnitCount":1},"operatingCapacityMw":2.3,"operatingCapacityMwByTechnology":{"solar":2.3},"plannedCapacityCoverage":{"coveragePercent":0.0,"knownUnitCount":0,"method":"unavailable","totalUnitCount":0},"plannedCapacityMw":0.0,"plannedCapacityMwByTechnology":{},"recordCount":1,"recordIds":["wattlas-record-gemunit-g100001078894"],"sourceIds":["gem-global-integrated-power-tracker"],"technologies":["solar"],"technologyMixMw":{"solar":2.3},"unitCount":1,"unitIds":["gem-unit-G100001078894"]},"type":"Feature"},{"geometry":{"coordinates":[58.2105,22.0126],"type":"Point"},"id":"wattlas-plant-gemplant-l100001069109","properties":{"aliases":["--","Ash Sharqiyah North Governorate solar project"],"canonicalAnchor":"gemplant:L100001069109","canonicalCountryKey":"OM","capacityMw":2.9,"country":"OM","externalIds":{"gemPlant":"L100001069109","gemUnit":"G100001078895"},"geographyId":"OM-34121849B48568874604869","id":"wattlas-plant-gemplant-l100001069109","lifecycleCounts":{"operational":1},"locationPrecision":"exact","name":"Ash Sharqiyah North Governorate solar project","operatingCapacityCoverage":{"coveragePercent":100.0,"knownUnitCount":1,"method":"complete_unit_sum","provenance":{"evidenceCount":0,"recordIds":["wattlas-record-gemunit-g100001078895"],"sourceIds":["gem-global-integrated-power-tracker"],"sourceTypes":["research_verified"],"valueKind":"reported"},"totalUnitCount":1},"operatingCapacityMw":2.9,"operatingCapacityMwByTechnology":{"solar":2.9},"plannedCapacityCoverage":{"coveragePercent":0.0,"knownUnitCount":0,"method":"unavailable","totalUnitCount":0},"plannedCapacityMw":0.0,"plannedCapacityMwByTechnology":{},"recordCount":1,"recordIds":["wattlas-record-gemunit-g100001078895"],"sourceIds":["gem-global-integrated-power-tracker"],"technologies":["solar"],"technologyMixMw":{"solar":2.9},"unitCount":1,"unitIds":["gem-unit-G100001078895"]},"type":"Feature"},{"geometry":{"coordinates":[57.8783,23.4921],"type":"Point"},"id":"wattlas-plant-gemplant-l100001069110","properties":{"aliases":["--","Al Batinah South Governorate solar project"],"canonicalAnchor":"gemplant:L100001069110","canonicalCountryKey":"OM","capacityMw":1.6,"country":"OM","externalIds":{"gemPlant":"L100001069110","gemUnit":"G100001078896"},"geographyId":"OM-34121849B71010913728332","id":"wattlas-plant-gemplant-l100001069110","lifecycleCounts":{"operational":1},"locationPrecision":"exact","name":"Al Batinah South Governorate solar project","operatingCapacityCoverage":{"coveragePercent":100.0,"knownUnitCount":1,"method":"complete_unit_sum","provenance":{"evidenceCount":0,"recordIds":["wattlas-record-gemunit-g100001078896"],"sourceIds":["gem-global-integrated-power-tracker"],"sourceTypes":["research_verified"],"valueKind":"reported"},"totalUnitCount":1},"operatingCapacityMw":1.6,"operatingCapacityMwByTechnology":{"solar":1.6},"plannedCapacityCoverage":{"coveragePercent":0.0,"knownUnitCount":0,"method":"unavailable","totalUnitCount":0},"plannedCapacityMw":0.0,"plannedCapacityMwByTechnology":{},"recordCount":1,"recordIds":["wattlas-record-gemunit-g100001078896"],"sourceIds":["gem-global-integrated-power-tracker"],"technologies":["solar"],"technologyMixMw":{"solar":1.6},"unitCount":1,"unitIds":["gem-unit-G100001078896"]},"type":"Feature"},{"geometry":{"coordinates":[58.3257,23.5666],"type":"Point"},"id":"wattlas-plant-gemplant-l100001069111","properties":{"aliases":["--","Bawshar solar project"],"canonicalAnchor":"gemplant:L100001069111","canonicalCountryKey":"OM","capacityMw":2.2,"country":"OM","externalIds":{"gemPlant":"L100001069111","gemUnit":"G100001078897"},"geographyId":"OM-34121849B74132742221768","id":"wattlas-plant-gemplant-l100001069111","lifecycleCounts":{"operational":1},"locationPrecision":"exact","name":"Bawshar solar project","operatingCapacityCoverage":{"coveragePercent":100.0,"knownUnitCount":1,"method":"complete_unit_sum","provenance":{"evidenceCount":0,"recordIds":["wattlas-record-gemunit-g100001078897"],"sourceIds":["gem-global-integrated-power-tracker"],"sourceTypes":["research_verified"],"valueKind":"reported"},"totalUnitCount":1},"operatingCapacityMw":2.2,"operatingCapacityMwByTechnology":{"solar":2.2},"plannedCapacityCoverage":{"coveragePercent":0.0,"knownUnitCount":0,"method":"unavailable","totalUnitCount":0},"plannedCapacityMw":0.0,"plannedCapacityMwByTechnology":{},"recordCount":1,"recordIds":["wattlas-record-gemunit-g100001078897"],"sourceIds":["gem-global-integrated-power-tracker"],"technologies":["solar"],"technologyMixMw":{"solar":2.2},"unitCount":1,"unitIds":["gem-unit-G100001078897"]},"type":"Feature"},{"geometry":{"coordinates":[55.7855,18.6505],"type":"Point"},"id":"wattlas-plant-gemplant-l100001069112","properties":{"aliases":["--","Dhofar Governorate solar project II"],"canonicalAnchor":"gemplant:L100001069112","canonicalCountryKey":"OM","capacityMw":1.8,"country":"OM","externalIds":{"gemPlant":"L100001069112","gemUnit":"G100001078898"},"geographyId":"OM-34121849B8854015950868","id":"wattlas-plant-gemplant-l100001069112","lifecycleCounts":{"operational":1},"locationPrecision":"exact","name":"Dhofar Governorate solar project II","operatingCapacityCoverage":{"coveragePercent":100.0,"knownUnitCount":1,"method":"complete_unit_sum","provenance":{"evidenceCount":0,"recordIds":["wattlas-record-gemunit-g100001078898"],"sourceIds":["gem-global-integrated-power-tracker"],"sourceTypes":["research_verified"],"valueKind":"reported"},"totalUnitCount":1},"operatingCapacityMw":1.8,"operatingCapacityMwByTechnology":{"solar":1.8},"plannedCapacityCoverage":{"coveragePercent":0.0,"knownUnitCount":0,"method":"unavailable","totalUnitCount":0},"plannedCapacityMw":0.0,"plannedCapacityMwByTechnology":{},"recordCount":1,"recordIds":["wattlas-record-gemunit-g100001078898"],"sourceIds":["gem-global-integrated-power-tracker"],"technologies":["solar"],"technologyMixMw":{"solar":1.8},"unitCount":1,"unitIds":["gem-unit-G100001078898"]},"type":"Feature"},{"geometry":{"coordinates":[54.0784,17.8953],"type":"Point"},"id":"wattlas-plant-gemplant-l100001069113","properties":{"aliases":["--","Dhofar Governorate solar project III"],"canonicalAnchor":"gemplant:L100001069113","canonicalCountryKey":"OM","capacityMw":3.9,"country":"OM","externalIds":{"gemPlant":"L100001069113","gemUnit":"G100001078899"},"geographyId":"OM-34121849B8854015950868","id":"wattlas-plant-gemplant-l100001069113","lifecycleCounts":{"operational":1},"locationPrecision":"exact","name":"Dhofar Governorate solar project III","operatingCapacityCoverage":{"coveragePercent":100.0,"knownUnitCount":1,"method":"complete_unit_sum","provenance":{"evidenceCount":0,"recordIds":["wattlas-record-gemunit-g100001078899"],"sourceIds":["gem-global-integrated-power-tracker"],"sourceTypes":["research_verified"],"valueKind":"reported"},"totalUnitCount":1},"operatingCapacityMw":3.9,"operatingCapacityMwByTechnology":{"solar":3.9},"plannedCapacityCoverage":{"coveragePercent":0.0,"knownUnitCount":0,"method":"unavailable","totalUnitCount":0},"plannedCapacityMw":0.0,"plannedCapacityMwByTechnology":{},"recordCount":1,"recordIds":["wattlas-record-gemunit-g100001078899"],"sourceIds":["gem-global-integrated-power-tracker"],"technologies":["solar"],"technologyMixMw":{"solar":3.9},"unitCount":1,"unitIds":["gem-unit-G100001078899"]},"type":"Feature"},{"geometry":{"coordinates":[54.1104,17.8878],"type":"Point"},"id":"wattlas-plant-gemplant-l100001069114","properties":{"aliases":["--","Dhofar Governorate solar project IV"],"canonicalAnchor":"gemplant:L100001069114","canonicalCountryKey":"OM","capacityMw":2.8,"country":"OM","externalIds":{"gemPlant":"L100001069114","gemUnit":"G100001078900"},"geographyId":"OM-34121849B8854015950868","id":"wattlas-plant-gemplant-l100001069114","lifecycleCounts":{"operational":1},"locationPrecision":"exact","name":"Dhofar Governorate solar project IV","operatingCapacityCoverage":{"coveragePercent":100.0,"knownUnitCount":1,"method":"complete_unit_sum","provenance":{"evidenceCount":0,"recordIds":["wattlas-record-gemunit-g100001078900"],"sourceIds":["gem-global-integrated-power-tracker"],"sourceTypes":["research_verified"],"valueKind":"reported"},"totalUnitCount":1},"operatingCapacityMw":2.8,"operatingCapacityMwByTechnology":{"solar":2.8},"plannedCapacityCoverage":{"coveragePercent":0.0,"knownUnitCount":0,"method":"unavailable","totalUnitCount":0},"plannedCapacityMw":0.0,"plannedCapacityMwByTechnology":{},"recordCount":1,"recordIds":["wattlas-record-gemunit-g100001078900"],"sourceIds":["gem-global-integrated-power-tracker"],"technologies":["solar"],"technologyMixMw":{"solar":2.8},"unitCount":1,"unitIds":["gem-unit-G100001078900"]},"type":"Feature"},{"geometry":{"coordinates":[58.2989,23.5892],"type":"Point"},"id":"wattlas-plant-gemplant-l100001069115","properties":{"aliases":["--","Seeb Province solar project II"],"canonicalAnchor":"gemplant:L100001069115","canonicalCountryKey":"OM","capacityMw":1.2,"country":"OM","externalIds":{"gemPlant":"L100001069115","gemUnit":"G100001078901"},"geographyId":"OM-34121849B74132742221768","id":"wattlas-plant-gemplant-l100001069115","lifecycleCounts":{"operational":1},"locationPrecision":"exact","name":"Seeb Province solar project II","operatingCapacityCoverage":{"coveragePercent":100.0,"knownUnitCount":1,"method":"complete_unit_sum","provenance":{"evidenceCount":0,"recordIds":["wattlas-record-gemunit-g100001078901"],"sourceIds":["gem-global-integrated-power-tracker"],"sourceTypes":["research_verified"],"valueKind":"reported"},"totalUnitCount":1},"operatingCapacityMw":1.2,"operatingCapacityMwByTechnology":{"solar":1.2},"plannedCapacityCoverage":{"coveragePercent":0.0,"knownUnitCount":0,"method":"unavailable","totalUnitCount":0},"plannedCapacityMw":0.0,"plannedCapacityMwByTechnology":{},"recordCount":1,"recordIds":["wattlas-record-gemunit-g100001078901"],"sourceIds":["gem-global-integrated-power-tracker"],"technologies":["solar"],"technologyMixMw":{"solar":1.2},"unitCount":1,"unitIds":["gem-unit-G100001078901"]},"type":"Feature"},{"geometry":{"coordinates":[55.807946,18.495759],"type":"Point"},"id":"wattlas-plant-osm-way-1022417509","properties":{"aliases":["Amin Solar Power Plant"],"canonicalAnchor":"osm:way/1022417509","canonicalCountryKey":"OM","capacityMw":100.0,"country":"OM","externalIds":{"osm":"way/1022417509"},"geographyId":"OM-34121849B8854015950868","id":"wattlas-plant-osm-way-1022417509","lifecycleCounts":{"operational":1},"locationPrecision":"exact","name":"Amin Solar Power Plant","operatingCapacityCoverage":{"coveragePercent":100.0,"knownUnitCount":0,"method":"plant_aggregate","provenance":{"evidenceCount":0,"recordIds":["wattlas-record-osm-way-1022417509"],"sourceIds":["openstreetmap-power"],"sourceTypes":["community_mapped"],"valueKind":"reported"},"totalUnitCount":0},"operatingCapacityMw":100.0,"operatingCapacityMwByTechnology":{"solar":100.0},"plannedCapacityCoverage":{"coveragePercent":0.0,"knownUnitCount":0,"method":"unavailable","totalUnitCount":0},"plannedCapacityMw":0.0,"plannedCapacityMwByTechnology":{},"recordCount":1,"recordIds":["wattlas-record-osm-way-1022417509"],"sourceIds":["openstreetmap-power"],"technologies":["solar"],"technologyMixMw":{"solar":100.0},"unitCount":0,"unitIds":[]},"type":"Feature"},{"geometry":{"coordinates":[55.4021,22.842308],"type":"Point"},"id":"wattlas-plant-osm-way-1083301632","properties":{"aliases":["محطة الخويرللطاقة الكهربائية"],"canonicalAnchor":"osm:way/1083301632","canonicalCountryKey":"OM","capacityMw":110.0,"country":"OM","externalIds":{"osm":"way/1083301632"},"geographyId":"OM-34121849B37717587073732","id":"wattlas-plant-osm-way-1083301632","lifecycleCounts":{"operational":1},"locationPrecision":"exact","name":"محطة الخويرللطاقة الكهربائية","operatingCapacityCoverage":{"coveragePercent":100.0,"knownUnitCount":0,"method":"plant_aggregate","provenance":{"evidenceCount":0,"recordIds":["wattlas-record-osm-way-1083301632"],"sourceIds":["openstreetmap-power"],"sourceTypes":["community_mapped"],"valueKind":"reported"},"totalUnitCount":0},"operatingCapacityMw":110.0,"operatingCapacityMwByTechnology":{"gas":110.0},"plannedCapacityCoverage":{"coveragePercent":0.0,"knownUnitCount":0,"method":"unavailable","totalUnitCount":0},"plannedCapacityMw":0.0,"plannedCapacityMwByTechnology":{},"recordCount":1,"recordIds":["wattlas-record-osm-way-1083301632"],"sourceIds":["openstreetmap-power"],"technologies":["gas"],"technologyMixMw":{"gas":110.0},"unitCount":0,"unitIds":[]},"type":"Feature"},{"geometry":{"coordinates":[56.530486,24.445551],"type":"Point"},"id":"wattlas-plant-osm-way-1099348165","properties":{"aliases":["Sohar Solar Qabas"],"canonicalAnchor":"osm:way/1099348165","canonicalCountryKey":"OM","capacityMw":25.0,"country":"OM","externalIds":{"osm":"way/1099348165"},"geographyId":"OM-34121849B71010913728332","id":"wattlas-plant-osm-way-1099348165","lifecycleCounts":{"operational":1},"locationPrecision":"exact","name":"Sohar Solar Qabas","operatingCapacityCoverage":{"coveragePercent":100.0,"knownUnitCount":0,"method":"plant_aggregate","provenance":{"evidenceCount":0,"recordIds":["wattlas-record-osm-way-1099348165"],"sourceIds":["openstreetmap-power"],"sourceTypes":["community_mapped"],"valueKind":"reported"},"totalUnitCount":0},"operatingCapacityMw":25.0,"operatingCapacityMwByTechnology":{"solar":25.0},"plannedCapacityCoverage":{"coveragePercent":0.0,"knownUnitCount":0,"method":"unavailable","totalUnitCount":0},"plannedCapacityMw":0.0,"plannedCapacityMwByTechnology":{},"recordCount":1,"recordIds":["wattlas-record-osm-way-1099348165"],"sourceIds":["openstreetmap-power"],"technologies":["solar"],"technologyMixMw":{"solar":25.0},"unitCount":0,"unitIds":[]},"type":"Feature"},{"geometry":{"coordinates":[56.232906,26.088245],"type":"Point"},"id":"wattlas-plant-osm-way-1100731213","properties":{"aliases":["New Khasab Power Plant"],"canonicalAnchor":"osm:way/1100731213","canonicalCountryKey":"OM","capacityMw":80.0,"country":"OM","externalIds":{"osm":"way/1100731213"},"geographyId":"OM-34121849B37717587073732","id":"wattlas-plant-osm-way-1100731213","lifecycleCounts":{"operational":1},"locationPrecision":"exact","name":"New Khasab Power Plant","operatingCapacityCoverage":{"coveragePercent":100.0,"knownUnitCount":0,"method":"plant_aggregate","provenance":{"evidenceCount":0,"recordIds":["wattlas-record-osm-way-1100731213"],"sourceIds":["openstreetmap-power"],"sourceTypes":["community_mapped"],"valueKind":"reported"},"totalUnitCount":0},"operatingCapacityMw":80.0,"operatingCapacityMwByTechnology":{"gas":80.0},"plannedCapacityCoverage":{"coveragePercent":0.0,"knownUnitCount":0,"method":"unavailable","totalUnitCount":0},"plannedCapacityMw":0.0,"plannedCapacityMwByTechnology":{},"recordCount":1,"recordIds":["wattlas-record-osm-way-1100731213"],"sourceIds":["openstreetmap-power"],"technologies":["gas"],"technologyMixMw":{"gas":80.0},"unitCount":0,"unitIds":[]},"type":"Feature"},{"geometry":{"coordinates":[56.731949,21.360063],"type":"Point"},"id":"wattlas-plant-osm-way-303315253","properties":{"aliases":["محطة سيح الرول للكهرباء"],"canonicalAnchor":"osm:way/303315253","canonicalCountryKey":"OM","capacityMw":120.0,"country":"OM","externalIds":{"osm":"way/303315253"},"geographyId":"OM-34121849B25434331600406","id":"wattlas-plant-osm-way-303315253","lifecycleCounts":{"operational":1},"locationPrecision":"exact","name":"محطة سيح الرول للكهرباء","operatingCapacityCoverage":{"coveragePercent":100.0,"knownUnitCount":0,"method":"plant_aggregate","provenance":{"evidenceCount":0,"recordIds":["wattlas-record-osm-way-303315253"],"sourceIds":["openstreetmap-power"],"sourceTypes":["community_mapped"],"valueKind":"reported"},"totalUnitCount":0},"operatingCapacityMw":120.0,"operatingCapacityMwByTechnology":{"gas":120.0},"plannedCapacityCoverage":{"coveragePercent":0.0,"knownUnitCount":0,"method":"unavailable","totalUnitCount":0},"plannedCapacityMw":0.0,"plannedCapacityMwByTechnology":{},"recordCount":1,"recordIds":["wattlas-record-osm-way-303315253"],"sourceIds":["openstreetmap-power"],"technologies":["gas"],"technologyMixMw":{"gas":120.0},"unitCount":0,"unitIds":[]},"type":"Feature"},{"geometry":{"coordinates":[56.162078,19.119793],"type":"Point"},"id":"wattlas-plant-osm-way-321169163","properties":{"aliases":["Hubara Power Station"],"canonicalAnchor":"osm:way/321169163","canonicalCountryKey":"OM","capacityMw":90.0,"country":"OM","externalIds":{"osm":"way/321169163"},"geographyId":"OM-34121849B130430185889","id":"wattlas-plant-osm-way-321169163","lifecycleCounts":{"operational":1},"locationPrecision":"exact","name":"Hubara Power Station","operatingCapacityCoverage":{"coveragePercent":100.0,"knownUnitCount":0,"method":"plant_aggregate","provenance":{"evidenceCount":0,"recordIds":["wattlas-record-osm-way-321169163"],"sourceIds":["openstreetmap-power"],"sourceTypes":["community_mapped"],"valueKind":"reported"},"totalUnitCount":0},"operatingCapacityMw":90.0,"operatingCapacityMwByTechnology":{"gas":90.0},"plannedCapacityCoverage":{"coveragePercent":0.0,"knownUnitCount":0,"method":"unavailable","totalUnitCount":0},"plannedCapacityMw":0.0,"plannedCapacityMwByTechnology":{},"recordCount":1,"recordIds":["wattlas-record-osm-way-321169163"],"sourceIds":["openstreetmap-power"],"technologies":["gas"],"technologyMixMw":{"gas":90.0},"unitCount":0,"unitIds":[]},"type":"Feature"},{"geometry":{"coordinates":[55.861568,18.556396],"type":"Point"},"id":"wattlas-plant-osm-way-384698028","properties":{"aliases":["Mapped power plant · OSM 384698028"],"canonicalAnchor":"osm:way/384698028","canonicalCountryKey":"OM","capacityMw":73.8,"country":"OM","externalIds":{"osm":"way/384698028"},"geographyId":"OM-34121849B8854015950868","id":"wattlas-plant-osm-way-384698028","lifecycleCounts":{"operational":1},"locationPrecision":"exact","name":"Mapped power plant · OSM 384698028","operatingCapacityCoverage":{"coveragePercent":100.0,"knownUnitCount":0,"method":"plant_aggregate","provenance":{"evidenceCount":0,"recordIds":["wattlas-record-osm-way-384698028"],"sourceIds":["openstreetmap-power"],"sourceTypes":["community_mapped"],"valueKind":"reported"},"totalUnitCount":0},"operatingCapacityMw":73.8,"operatingCapacityMwByTechnology":{"gas":73.8},"plannedCapacityCoverage":{"coveragePercent":0.0,"knownUnitCount":0,"method":"unavailable","totalUnitCount":0},"plannedCapacityMw":0.0,"plannedCapacityMwByTechnology":{},"recordCount":1,"recordIds":["wattlas-record-osm-way-384698028"],"sourceIds":["openstreetmap-power"],"technologies":["gas"],"technologyMixMw":{"gas":73.8},"unitCount":0,"unitIds":[]},"type":"Feature"},{"geometry":{"coordinates":[56.032192,22.156974],"type":"Point"},"id":"wattlas-plant-osm-way-384902261","properties":{"aliases":["Yibal Power Plant"],"canonicalAnchor":"osm:way/384902261","canonicalCountryKey":"OM","capacityMw":0.0,"country":"OM","externalIds":{"osm":"way/384902261"},"geographyId":"OM-34121849B37717587073732","id":"wattlas-plant-osm-way-384902261","lifecycleCounts":{"operational":1},"locationPrecision":"exact","name":"Yibal Power Plant","operatingCapacityCoverage":{"coveragePercent":0.0,"knownUnitCount":0,"method":"unavailable","totalUnitCount":0},"operatingCapacityMw":0.0,"operatingCapacityMwByTechnology":{},"plannedCapacityCoverage":{"coveragePercent":0.0,"knownUnitCount":0,"method":"unavailable","totalUnitCount":0},"plannedCapacityMw":0.0,"plannedCapacityMwByTechnology":{},"recordCount":1,"recordIds":["wattlas-record-osm-way-384902261"],"sourceIds":["openstreetmap-power"],"technologies":["gas"],"technologyMixMw":{"gas":0.0},"unitCount":0,"unitIds":[]},"type":"Feature"},{"geometry":{"coordinates":[58.413721,23.6019],"type":"Point"},"id":"wattlas-plant-osm-way-386838289","properties":{"aliases":["محطة تحلية المياة والطاقة بالغبرة"],"canonicalAnchor":"osm:way/386838289","canonicalCountryKey":"OM","capacityMw":190.0,"country":"OM","externalIds":{"osm":"way/386838289"},"geographyId":"OM-34121849B74132742221768","id":"wattlas-plant-osm-way-386838289","lifecycleCounts":{"operational":1},"locationPrecision":"exact","name":"محطة تحلية المياة والطاقة بالغبرة","operatingCapacityCoverage":{"coveragePercent":100.0,"knownUnitCount":0,"method":"plant_aggregate","provenance":{"evidenceCount":0,"recordIds":["wattlas-record-osm-way-386838289"],"sourceIds":["openstreetmap-power"],"sourceTypes":["community_mapped"],"valueKind":"reported"},"totalUnitCount":0},"operatingCapacityMw":190.0,"operatingCapacityMwByTechnology":{"gas":190.0},"plannedCapacityCoverage":{"coveragePercent":0.0,"knownUnitCount":0,"method":"unavailable","totalUnitCount":0},"plannedCapacityMw":0.0,"plannedCapacityMwByTechnology":{},"recordCount":1,"recordIds":["wattlas-record-osm-way-386838289"],"sourceIds":["openstreetmap-power"],"technologies":["gas"],"technologyMixMw":{"gas":190.0},"unitCount":0,"unitIds":[]},"type":"Feature"},{"geometry":{"coordinates":[59.405204,22.659483],"type":"Point"},"id":"wattlas-plant-osm-way-943363067","properties":{"aliases":["Qalhat LNG Power Plant"],"canonicalAnchor":"osm:way/943363067","canonicalCountryKey":"OM","capacityMw":0.0,"country":"OM","externalIds":{"osm":"way/943363067"},"geographyId":"OM-34121849B48568874604869","id":"wattlas-plant-osm-way-943363067","lifecycleCounts":{"operational":1},"locationPrecision":"exact","name":"Qalhat LNG Power Plant","operatingCapacityCoverage":{"coveragePercent":0.0,"knownUnitCount":0,"method":"unavailable","totalUnitCount":0},"operatingCapacityMw":0.0,"operatingCapacityMwByTechnology":{},"plannedCapacityCoverage":{"coveragePercent":0.0,"knownUnitCount":0,"method":"unavailable","totalUnitCount":0},"plannedCapacityMw":0.0,"plannedCapacityMwByTechnology":{},"recordCount":1,"recordIds":["wattlas-record-osm-way-943363067"],"sourceIds":["openstreetmap-power"],"technologies":["gas"],"technologyMixMw":{"gas":0.0},"unitCount":0,"unitIds":[]},"type":"Feature"},{"geometry":{"coordinates":[57.678723,19.736131],"type":"Point"},"id":"wattlas-plant-osm-way-964275930","properties":{"aliases":["Duqm Integrated Power and Water Plant (DIPWP)"],"canonicalAnchor":"osm:way/964275930","canonicalCountryKey":"OM","capacityMw":0.0,"country":"OM","externalIds":{"osm":"way/964275930"},"geographyId":"OM-34121849B130430185889","id":"wattlas-plant-osm-way-964275930","lifecycleCounts":{"operational":1},"locationPrecision":"exact","name":"Duqm Integrated Power and Water Plant (DIPWP)","operatingCapacityCoverage":{"coveragePercent":0.0,"knownUnitCount":0,"method":"unavailable","totalUnitCount":0},"operatingCapacityMw":0.0,"operatingCapacityMwByTechnology":{},"plannedCapacityCoverage":{"coveragePercent":0.0,"knownUnitCount":0,"method":"unavailable","totalUnitCount":0},"plannedCapacityMw":0.0,"plannedCapacityMwByTechnology":{},"recordCount":1,"recordIds":["wattlas-record-osm-way-964275930"],"sourceIds":["openstreetmap-power"],"technologies":["gas"],"technologyMixMw":{"gas":0.0},"unitCount":0,"unitIds":[]},"type":"Feature"},{"geometry":{"coordinates":[55.684507,18.349148],"type":"Point"},"id":"wattlas-plant-osm-way-965919569","properties":{"aliases":["Miraah Solar Farm"],"canonicalAnchor":"osm:way/965919569","canonicalCountryKey":"OM","capacityMw":0.0,"country":"OM","externalIds":{"osm":"way/965919569"},"geographyId":"OM-34121849B8854015950868","id":"wattlas-plant-osm-way-965919569","lifecycleCounts":{"operational":1},"locationPrecision":"exact","name":"Miraah Solar Farm","operatingCapacityCoverage":{"coveragePercent":0.0,"knownUnitCount":0,"method":"unavailable","totalUnitCount":0},"operatingCapacityMw":0.0,"operatingCapacityMwByTechnology":{},"plannedCapacityCoverage":{"coveragePercent":0.0,"knownUnitCount":0,"method":"unavailable","totalUnitCount":0},"plannedCapacityMw":0.0,"plannedCapacityMwByTechnology":{},"recordCount":1,"recordIds":["wattlas-record-osm-way-965919569"],"sourceIds":["openstreetmap-power"],"technologies":["solar"],"technologyMixMw":{"solar":0.0},"unitCount":0,"unitIds":[]},"type":"Feature"},{"geometry":{"coordinates":[56.23774,23.3691],"type":"Point"},"id":"wattlas-plant-wikidata-q114356180","properties":{"aliases":["محطة عبري 2 للطاقة الشمسية الكهروضوئية"],"canonicalAnchor":"wikidata:Q114356180","canonicalCountryKey":"OM","capacityMw":500.0,"country":"OM","externalIds":{"osm":"way/1100731219","wikidata":"Q114356180"},"geographyId":"OM-34121849B37717587073732","id":"wattlas-plant-wikidata-q114356180","idAliases":["wattlas-plant-osm-way-1100731219"],"lifecycleCounts":{"operational":1},"locationPrecision":"exact","name":"محطة عبري 2 للطاقة الشمسية الكهروضوئية","operatingCapacityCoverage":{"coveragePercent":100.0,"knownUnitCount":0,"method":"plant_aggregate","provenance":{"evidenceCount":0,"recordIds":["wattlas-record-osm-way-1100731219"],"sourceIds":["openstreetmap-power"],"sourceTypes":["community_mapped"],"valueKind":"reported"},"totalUnitCount":0},"operatingCapacityMw":500.0,"operatingCapacityMwByTechnology":{"solar":500.0},"plannedCapacityCoverage":{"coveragePercent":0.0,"knownUnitCount":0,"method":"unavailable","totalUnitCount":0},"plannedCapacityMw":0.0,"plannedCapacityMwByTechnology":{},"recordCount":1,"recordIds":["wattlas-record-osm-way-1100731219"],"sourceIds":["openstreetmap-power"],"technologies":["solar"],"technologyMixMw":{"solar":500.0},"unitCount":0,"unitIds":[]},"type":"Feature"},{"geometry":{"coordinates":[57.981442,23.707937],"type":"Point"},"id":"wattlas-plant-wikidata-q114358771","properties":{"aliases":["محطة بركاء II"],"canonicalAnchor":"wikidata:Q114358771","canonicalCountryKey":"OM","capacityMw":688.0,"country":"OM","externalIds":{"osm":"way/115677409","wikidata":"Q114358771"},"geographyId":"OM-34121849B71010913728332","id":"wattlas-plant-wikidata-q114358771","idAliases":["wattlas-plant-osm-way-115677409"],"lifecycleCounts":{"operational":1},"locationPrecision":"exact","name":"محطة بركاء II","operatingCapacityCoverage":{"coveragePercent":100.0,"knownUnitCount":0,"method":"plant_aggregate","provenance":{"evidenceCount":0,"recordIds":["wattlas-record-osm-way-115677409"],"sourceIds":["openstreetmap-power"],"sourceTypes":["community_mapped"],"valueKind":"reported"},"totalUnitCount":0},"operatingCapacityMw":688.0,"operatingCapacityMwByTechnology":{"gas":688.0},"plannedCapacityCoverage":{"coveragePercent":0.0,"knownUnitCount":0,"method":"unavailable","totalUnitCount":0},"plannedCapacityMw":0.0,"plannedCapacityMwByTechnology":{},"recordCount":1,"recordIds":["wattlas-record-osm-way-115677409"],"sourceIds":["openstreetmap-power"],"technologies":["gas"],"technologyMixMw":{"gas":688.0},"unitCount":0,"unitIds":[]},"type":"Feature"},{"geometry":{"coordinates":[57.976908,23.707624],"type":"Point"},"id":"wattlas-plant-wikidata-q114358928","properties":{"aliases":["محطة بركاء III"],"canonicalAnchor":"wikidata:Q114358928","canonicalCountryKey":"OM","capacityMw":766.0,"country":"OM","externalIds":{"osm":"way/386199505","wikidata":"Q114358928"},"geographyId":"OM-34121849B71010913728332","id":"wattlas-plant-wikidata-q114358928","idAliases":["wattlas-plant-osm-way-386199505"],"lifecycleCounts":{"operational":1},"locationPrecision":"exact","name":"محطة بركاء III","operatingCapacityCoverage":{"coveragePercent":100.0,"knownUnitCount":0,"method":"plant_aggregate","provenance":{"evidenceCount":0,"recordIds":["wattlas-record-osm-way-386199505"],"sourceIds":["openstreetmap-power"],"sourceTypes":["community_mapped"],"valueKind":"reported"},"totalUnitCount":0},"operatingCapacityMw":766.0,"operatingCapacityMwByTechnology":{"gas":766.0},"plannedCapacityCoverage":{"coveragePercent":0.0,"knownUnitCount":0,"method":"unavailable","totalUnitCount":0},"plannedCapacityMw":0.0,"plannedCapacityMwByTechnology":{},"recordCount":1,"recordIds":["wattlas-record-osm-way-386199505"],"sourceIds":["openstreetmap-power"],"technologies":["gas"],"technologyMixMw":{"gas":766.0},"unitCount":0,"unitIds":[]},"type":"Feature"},{"geometry":{"coordinates":[54.590421,17.80738],"type":"Point"},"id":"wattlas-plant-wikidata-q114359009","properties":{"aliases":["محطة ظفار لتوليد الطاقه"],"canonicalAnchor":"wikidata:Q114359009","canonicalCountryKey":"OM","capacityMw":49.4,"country":"OM","externalIds":{"osm":"relation/15713174","wikidata":"Q114359009"},"geographyId":"OM-34121849B8854015950868","id":"wattlas-plant-wikidata-q114359009","idAliases":["wattlas-plant-osm-relation-15713174"],"lifecycleCounts":{"operational":1},"locationPrecision":"exact","name":"محطة ظفار لتوليد الطاقه","operatingCapacityCoverage":{"coveragePercent":100.0,"knownUnitCount":0,"method":"plant_aggregate","provenance":{"evidenceCount":0,"recordIds":["wattlas-record-osm-relation-15713174"],"sourceIds":["openstreetmap-power"],"sourceTypes":["community_mapped"],"valueKind":"reported"},"totalUnitCount":0},"operatingCapacityMw":49.4,"operatingCapacityMwByTechnology":{"wind":49.4},"plannedCapacityCoverage":{"coveragePercent":0.0,"knownUnitCount":0,"method":"unavailable","totalUnitCount":0},"plannedCapacityMw":0.0,"plannedCapacityMwByTechnology":{},"recordCount":1,"recordIds":["wattlas-record-osm-relation-15713174"],"sourceIds":["openstreetmap-power"],"technologies":["wind"],"technologyMixMw":{"wind":49.4},"unitCount":0,"unitIds":[]},"type":"Feature"},{"geometry":{"coordinates":[54.491375,17.037769],"type":"Point"},"id":"wattlas-plant-wikidata-q114359144","properties":{"aliases":["شركة سيمبكورب صلالة للمياه والكهرباء"],"canonicalAnchor":"wikidata:Q114359144","canonicalCountryKey":"OM","capacityMw":445.0,"country":"OM","externalIds":{"osm":"way/830305287","wikidata":"Q114359144"},"geographyId":"OM-34121849B8854015950868","id":"wattlas-plant-wikidata-q114359144","idAliases":["wattlas-plant-osm-way-830305287"],"lifecycleCounts":{"operational":1},"locationPrecision":"exact","name":"شركة سيمبكورب صلالة للمياه والكهرباء","operatingCapacityCoverage":{"coveragePercent":100.0,"knownUnitCount":0,"method":"plant_aggregate","provenance":{"evidenceCount":0,"recordIds":["wattlas-record-osm-way-830305287"],"sourceIds":["openstreetmap-power"],"sourceTypes":["community_mapped"],"valueKind":"reported"},"totalUnitCount":0},"operatingCapacityMw":445.0,"operatingCapacityMwByTechnology":{"gas":445.0},"plannedCapacityCoverage":{"coveragePercent":0.0,"knownUnitCount":0,"method":"unavailable","totalUnitCount":0},"plannedCapacityMw":0.0,"plannedCapacityMwByTechnology":{},"recordCount":1,"recordIds":["wattlas-record-osm-way-830305287"],"sourceIds":["openstreetmap-power"],"technologies":["gas"],"technologyMixMw":{"gas":445.0},"unitCount":0,"unitIds":[]},"type":"Feature"},{"geometry":{"coordinates":[57.984127,23.708154],"type":"Point"},"id":"wattlas-plant-wikidata-q11956637","properties":{"aliases":["بركاء 1 المستقل لإنتاج الماء والكهرباء"],"canonicalAnchor":"wikidata:Q11956637","canonicalCountryKey":"OM","capacityMw":427.0,"country":"OM","externalIds":{"osm":"way/830305314","wikidata":"Q11956637"},"geographyId":"OM-34121849B71010913728332","id":"wattlas-plant-wikidata-q11956637","idAliases":["wattlas-plant-osm-way-830305314"],"lifecycleCounts":{"operational":1},"locationPrecision":"exact","name":"بركاء 1 المستقل لإنتاج الماء والكهرباء","operatingCapacityCoverage":{"coveragePercent":100.0,"knownUnitCount":0,"method":"plant_aggregate","provenance":{"evidenceCount":0,"recordIds":["wattlas-record-osm-way-830305314"],"sourceIds":["openstreetmap-power"],"sourceTypes":["community_mapped"],"valueKind":"reported"},"totalUnitCount":0},"operatingCapacityMw":427.0,"operatingCapacityMwByTechnology":{"gas":427.0},"plannedCapacityCoverage":{"coveragePercent":0.0,"knownUnitCount":0,"method":"unavailable","totalUnitCount":0},"plannedCapacityMw":0.0,"plannedCapacityMwByTechnology":{},"recordCount":1,"recordIds":["wattlas-record-osm-way-830305314"],"sourceIds":["openstreetmap-power"],"technologies":["gas"],"technologyMixMw":{"gas":427.0},"unitCount":0,"unitIds":[]},"type":"Feature"},{"geometry":{"coordinates":[58.198645,23.554398],"type":"Point"},"id":"wattlas-plant-wikidata-q11998681","properties":{"aliases":["محطة الرسيل"],"canonicalAnchor":"wikidata:Q11998681","canonicalCountryKey":"OM","capacityMw":694.0,"country":"OM","externalIds":{"osm":"way/115677372","wikidata":"Q11998681"},"geographyId":"OM-34121849B74132742221768","id":"wattlas-plant-wikidata-q11998681","idAliases":["wattlas-plant-osm-way-115677372"],"lifecycleCounts":{"operational":1},"locationPrecision":"exact","name":"محطة الرسيل","operatingCapacityCoverage":{"coveragePercent":100.0,"knownUnitCount":0,"method":"plant_aggregate","provenance":{"evidenceCount":0,"recordIds":["wattlas-record-osm-way-115677372"],"sourceIds":["openstreetmap-power"],"sourceTypes":["community_mapped"],"valueKind":"reported"},"totalUnitCount":0},"operatingCapacityMw":694.0,"operatingCapacityMwByTechnology":{"gas":694.0},"plannedCapacityCoverage":{"coveragePercent":0.0,"knownUnitCount":0,"method":"unavailable","totalUnitCount":0},"plannedCapacityMw":0.0,"plannedCapacityMwByTechnology":{},"recordCount":1,"recordIds":["wattlas-record-osm-way-115677372"],"sourceIds":["openstreetmap-power"],"technologies":["gas"],"technologyMixMw":{"gas":694.0},"unitCount":0,"unitIds":[]},"type":"Feature"},{"geometry":{"coordinates":[56.282594,23.366767],"type":"Point"},"id":"wattlas-plant-wikidata-q97177395","properties":{"aliases":["محطة عبري"],"canonicalAnchor":"wikidata:Q97177395","canonicalCountryKey":"OM","capacityMw":1539.0,"country":"OM","externalIds":{"osm":"way/830305309","wikidata":"Q97177395"},"geographyId":"OM-34121849B37717587073732","id":"wattlas-plant-wikidata-q97177395","idAliases":["wattlas-plant-osm-way-830305309"],"lifecycleCounts":{"operational":1},"locationPrecision":"exact","name":"محطة عبري","operatingCapacityCoverage":{"coveragePercent":100.0,"knownUnitCount":0,"method":"plant_aggregate","provenance":{"evidenceCount":0,"recordIds":["wattlas-record-osm-way-830305309"],"sourceIds":["openstreetmap-power"],"sourceTypes":["community_mapped"],"valueKind":"reported"},"totalUnitCount":0},"operatingCapacityMw":1539.0,"operatingCapacityMwByTechnology":{"gas":1539.0},"plannedCapacityCoverage":{"coveragePercent":0.0,"knownUnitCount":0,"method":"unavailable","totalUnitCount":0},"plannedCapacityMw":0.0,"plannedCapacityMwByTechnology":{},"recordCount":1,"recordIds":["wattlas-record-osm-way-830305309"],"sourceIds":["openstreetmap-power"],"technologies":["gas"],"technologyMixMw":{"gas":1539.0},"unitCount":0,"unitIds":[]},"type":"Feature"},{"geometry":{"coordinates":[55.686049,18.333509],"type":"Point"},"id":"wattlas-plant-wikidata-q97177428","properties":{"aliases":["Amal PDO Power Plant"],"canonicalAnchor":"wikidata:Q97177428","canonicalCountryKey":"OM","capacityMw":252.0,"country":"OM","externalIds":{"osm":"way/384684173","wikidata":"Q97177428"},"geographyId":"OM-34121849B8854015950868","id":"wattlas-plant-wikidata-q97177428","idAliases":["wattlas-plant-osm-way-384684173"],"lifecycleCounts":{"operational":1},"locationPrecision":"exact","name":"Amal PDO Power Plant","operatingCapacityCoverage":{"coveragePercent":100.0,"knownUnitCount":0,"method":"plant_aggregate","provenance":{"evidenceCount":0,"recordIds":["wattlas-record-osm-way-384684173"],"sourceIds":["openstreetmap-power"],"sourceTypes":["community_mapped"],"valueKind":"reported"},"totalUnitCount":0},"operatingCapacityMw":252.0,"operatingCapacityMwByTechnology":{"gas":252.0},"plannedCapacityCoverage":{"coveragePercent":0.0,"knownUnitCount":0,"method":"unavailable","totalUnitCount":0},"plannedCapacityMw":0.0,"plannedCapacityMwByTechnology":{},"recordCount":1,"recordIds":["wattlas-record-osm-way-384684173"],"sourceIds":["openstreetmap-power"],"technologies":["gas"],"technologyMixMw":{"gas":252.0},"unitCount":0,"unitIds":[]},"type":"Feature"},{"geometry":{"coordinates":[57.098484,21.295848],"type":"Point"},"id":"wattlas-plant-wikidata-q97177476","properties":{"aliases":["Qarn Alam Power Plant"],"canonicalAnchor":"wikidata:Q97177476","canonicalCountryKey":"OM","capacityMw":392.0,"country":"OM","externalIds":{"osm":"way/239581958","wikidata":"Q97177476"},"geographyId":"OM-34121849B25434331600406","id":"wattlas-plant-wikidata-q97177476","idAliases":["wattlas-plant-osm-way-239581958"],"lifecycleCounts":{"operational":1},"locationPrecision":"exact","name":"Qarn Alam Power Plant","operatingCapacityCoverage":{"coveragePercent":100.0,"knownUnitCount":0,"method":"plant_aggregate","provenance":{"evidenceCount":0,"recordIds":["wattlas-record-osm-way-239581958"],"sourceIds":["openstreetmap-power"],"sourceTypes":["community_mapped"],"valueKind":"reported"},"totalUnitCount":0},"operatingCapacityMw":392.0,"operatingCapacityMwByTechnology":{"gas":392.0},"plannedCapacityCoverage":{"coveragePercent":0.0,"knownUnitCount":0,"method":"unavailable","totalUnitCount":0},"plannedCapacityMw":0.0,"plannedCapacityMwByTechnology":{},"recordCount":1,"recordIds":["wattlas-record-osm-way-239581958"],"sourceIds":["openstreetmap-power"],"technologies":["gas"],"technologyMixMw":{"gas":392.0},"unitCount":0,"unitIds":[]},"type":"Feature"},{"geometry":{"coordinates":[56.0892,26.056347],"type":"Point"},"id":"wattlas-plant-wikidata-q97177484","properties":{"aliases":["Musandam Power Plant"],"canonicalAnchor":"wikidata:Q97177484","canonicalCountryKey":"OM","capacityMw":121.0,"country":"OM","externalIds":{"osm":"way/830305288","wikidata":"Q97177484"},"geographyId":"OM-34121849B37717587073732","id":"wattlas-plant-wikidata-q97177484","idAliases":["wattlas-plant-osm-way-830305288"],"lifecycleCounts":{"operational":1},"locationPrecision":"exact","name":"Musandam Power Plant","operatingCapacityCoverage":{"coveragePercent":100.0,"knownUnitCount":0,"method":"plant_aggregate","provenance":{"evidenceCount":0,"recordIds":["wattlas-record-osm-way-830305288"],"sourceIds":["openstreetmap-power"],"sourceTypes":["community_mapped"],"valueKind":"reported"},"totalUnitCount":0},"operatingCapacityMw":121.0,"operatingCapacityMwByTechnology":{"gas":121.0},"plannedCapacityCoverage":{"coveragePercent":0.0,"knownUnitCount":0,"method":"unavailable","totalUnitCount":0},"plannedCapacityMw":0.0,"plannedCapacityMwByTechnology":{},"recordCount":1,"recordIds":["wattlas-record-osm-way-830305288"],"sourceIds":["openstreetmap-power"],"technologies":["gas"],"technologyMixMw":{"gas":121.0},"unitCount":0,"unitIds":[]},"type":"Feature"},{"geometry":{"coordinates":[56.461308,19.342288],"type":"Point"},"id":"wattlas-plant-wikidata-q97177494","properties":{"aliases":["Mukhaizna Oil Field Power Plant"],"canonicalAnchor":"wikidata:Q97177494","canonicalCountryKey":"OM","capacityMw":252.0,"country":"OM","externalIds":{"osm":"way/239435499","wikidata":"Q97177494"},"geographyId":"OM-34121849B130430185889","id":"wattlas-plant-wikidata-q97177494","idAliases":["wattlas-plant-osm-way-239435499"],"lifecycleCounts":{"operational":1},"locationPrecision":"exact","name":"Mukhaizna Oil Field Power Plant","operatingCapacityCoverage":{"coveragePercent":100.0,"knownUnitCount":0,"method":"plant_aggregate","provenance":{"evidenceCount":0,"recordIds":["wattlas-record-osm-way-239435499"],"sourceIds":["openstreetmap-power"],"sourceTypes":["community_mapped"],"valueKind":"reported"},"totalUnitCount":0},"operatingCapacityMw":252.0,"operatingCapacityMwByTechnology":{"gas":252.0},"plannedCapacityCoverage":{"coveragePercent":0.0,"knownUnitCount":0,"method":"unavailable","totalUnitCount":0},"plannedCapacityMw":0.0,"plannedCapacityMwByTechnology":{},"recordCount":1,"recordIds":["wattlas-record-osm-way-239435499"],"sourceIds":["openstreetmap-power"],"technologies":["gas"],"technologyMixMw":{"gas":252.0},"unitCount":0,"unitIds":[]},"type":"Feature"},{"geometry":{"coordinates":[56.722113,21.370318],"type":"Point"},"id":"wattlas-plant-wikidata-q97177516","properties":{"aliases":["Mapped power plant · OSM 303315258"],"canonicalAnchor":"wikidata:Q97177516","canonicalCountryKey":"OM","capacityMw":60.0,"country":"OM","externalIds":{"osm":"way/303315258","wikidata":"Q97177516"},"geographyId":"OM-34121849B25434331600406","id":"wattlas-plant-wikidata-q97177516","idAliases":["wattlas-plant-osm-way-303315258"],"lifecycleCounts":{"operational":1},"locationPrecision":"exact","name":"Mapped power plant · OSM 303315258","operatingCapacityCoverage":{"coveragePercent":100.0,"knownUnitCount":0,"method":"plant_aggregate","provenance":{"evidenceCount":0,"recordIds":["wattlas-record-osm-way-303315258"],"sourceIds":["openstreetmap-power"],"sourceTypes":["community_mapped"],"valueKind":"reported"},"totalUnitCount":0},"operatingCapacityMw":60.0,"operatingCapacityMwByTechnology":{"gas":60.0},"plannedCapacityCoverage":{"coveragePercent":0.0,"knownUnitCount":0,"method":"unavailable","totalUnitCount":0},"plannedCapacityMw":0.0,"plannedCapacityMwByTechnology":{},"recordCount":1,"recordIds":["wattlas-record-osm-way-303315258"],"sourceIds":["openstreetmap-power"],"technologies":["gas"],"technologyMixMw":{"gas":60.0},"unitCount":0,"unitIds":[]},"type":"Feature"},{"geometry":{"coordinates":[59.069892,22.390472],"type":"Point"},"id":"wattlas-plant-wikidata-q97305545","properties":{"aliases":["محطة الكامل"],"canonicalAnchor":"wikidata:Q97305545","canonicalCountryKey":"OM","capacityMw":291.0,"country":"OM","externalIds":{"osm":"way/115717277","wikidata":"Q97305545"},"geographyId":"OM-34121849B48568874604869","id":"wattlas-plant-wikidata-q97305545","idAliases":["wattlas-plant-osm-way-115717277"],"lifecycleCounts":{"operational":1},"locationPrecision":"exact","name":"محطة الكامل","operatingCapacityCoverage":{"coveragePercent":100.0,"knownUnitCount":0,"method":"plant_aggregate","provenance":{"evidenceCount":0,"recordIds":["wattlas-record-osm-way-115717277"],"sourceIds":["openstreetmap-power"],"sourceTypes":["community_mapped"],"valueKind":"reported"},"totalUnitCount":0},"operatingCapacityMw":291.0,"operatingCapacityMwByTechnology":{"gas":291.0},"plannedCapacityCoverage":{"coveragePercent":0.0,"knownUnitCount":0,"method":"unavailable","totalUnitCount":0},"plannedCapacityMw":0.0,"plannedCapacityMwByTechnology":{},"recordCount":1,"recordIds":["wattlas-record-osm-way-115717277"],"sourceIds":["openstreetmap-power"],"technologies":["gas"],"technologyMixMw":{"gas":291.0},"unitCount":0,"unitIds":[]},"type":"Feature"},{"geometry":{"coordinates":[57.577782,22.70677],"type":"Point"},"id":"wattlas-plant-wikidata-q97305547","properties":{"aliases":["محطة منــــــــــح"],"canonicalAnchor":"wikidata:Q97305547","canonicalCountryKey":"OM","capacityMw":254.0,"country":"OM","externalIds":{"osm":"way/115792105","wikidata":"Q97305547"},"geographyId":"OM-34121849B25434331600406","id":"wattlas-plant-wikidata-q97305547","idAliases":["wattlas-plant-osm-way-115792105"],"lifecycleCounts":{"operational":1},"locationPrecision":"exact","name":"محطة منــــــــــح","operatingCapacityCoverage":{"coveragePercent":100.0,"knownUnitCount":0,"method":"plant_aggregate","provenance":{"evidenceCount":0,"recordIds":["wattlas-record-osm-way-115792105"],"sourceIds":["openstreetmap-power"],"sourceTypes":["community_mapped"],"valueKind":"reported"},"totalUnitCount":0},"operatingCapacityMw":254.0,"operatingCapacityMwByTechnology":{"gas":254.0},"plannedCapacityCoverage":{"coveragePercent":0.0,"knownUnitCount":0,"method":"unavailable","totalUnitCount":0},"plannedCapacityMw":0.0,"plannedCapacityMwByTechnology":{},"recordCount":1,"recordIds":["wattlas-record-osm-way-115792105"],"sourceIds":["openstreetmap-power"],"technologies":["gas"],"technologyMixMw":{"gas":254.0},"unitCount":0,"unitIds":[]},"type":"Feature"},{"geometry":{"coordinates":[59.416946,22.655403],"type":"Point"},"id":"wattlas-plant-wikidata-q97305549","properties":{"aliases":["محطة صور"],"canonicalAnchor":"wikidata:Q97305549","canonicalCountryKey":"OM","capacityMw":2018.0,"country":"OM","externalIds":{"osm":"way/570225831","wikidata":"Q97305549"},"geographyId":"OM-34121849B48568874604869","id":"wattlas-plant-wikidata-q97305549","idAliases":["wattlas-plant-osm-way-570225831"],"lifecycleCounts":{"operational":1},"locationPrecision":"exact","name":"محطة صور","operatingCapacityCoverage":{"coveragePercent":100.0,"knownUnitCount":0,"method":"plant_aggregate","provenance":{"evidenceCount":0,"recordIds":["wattlas-record-osm-way-570225831"],"sourceIds":["openstreetmap-power"],"sourceTypes":["community_mapped"],"valueKind":"reported"},"totalUnitCount":0},"operatingCapacityMw":2018.0,"operatingCapacityMwByTechnology":{"gas":2018.0},"plannedCapacityCoverage":{"coveragePercent":0.0,"knownUnitCount":0,"method":"unavailable","totalUnitCount":0},"plannedCapacityMw":0.0,"plannedCapacityMwByTechnology":{},"recordCount":1,"recordIds":["wattlas-record-osm-way-570225831"],"sourceIds":["openstreetmap-power"],"technologies":["gas"],"technologyMixMw":{"gas":2018.0},"unitCount":0,"unitIds":[]},"type":"Feature"}],"type":"FeatureCollection"}