{"features":[{"geometry":{"coordinates":[34.399538,31.455398],"type":"Point"},"id":"wattlas-plant-gemplant-l100000405528","properties":{"aliases":["1-1","Nusseirat power station"],"canonicalAnchor":"gemplant:L100000405528","canonicalCountryKey":"PS","capacityMw":140.0,"country":"PS","externalIds":{"gemPlant":"L100000405528","gemUnit":"G100000405152"},"geographyId":"PS-83478781B7121896376882","id":"wattlas-plant-gemplant-l100000405528","lifecycleCounts":{"operational":1},"locationPrecision":"exact","name":"Nusseirat power station","operatingCapacityCoverage":{"coveragePercent":100.0,"knownUnitCount":1,"method":"complete_unit_sum","provenance":{"evidenceCount":0,"recordIds":["wattlas-record-gemunit-g100000405152"],"sourceIds":["gem-global-integrated-power-tracker"],"sourceTypes":["research_verified"],"valueKind":"reported"},"totalUnitCount":1},"operatingCapacityMw":140.0,"operatingCapacityMwByTechnology":{"gas":140.0},"plannedCapacityCoverage":{"coveragePercent":0.0,"knownUnitCount":0,"method":"unavailable","totalUnitCount":0},"plannedCapacityMw":0.0,"plannedCapacityMwByTechnology":{},"recordCount":1,"recordIds":["wattlas-record-gemunit-g100000405152"],"sourceIds":["gem-global-integrated-power-tracker"],"technologies":["gas"],"technologyMixMw":{"gas":140.0},"unitCount":1,"unitIds":["gem-unit-G100000405152"]},"type":"Feature"},{"geometry":{"coordinates":[35.014817,31.578333],"type":"Point"},"id":"wattlas-plant-gemplant-l100000409294","properties":{"aliases":["1-1","2-1","Al Khalil power plant"],"canonicalAnchor":"gemplant:L100000409294","canonicalCountryKey":"PS","capacityMw":170.0,"country":"PS","externalIdAliases":{"gemUnit":["G100000414363","G100000414364"]},"externalIds":{"gemPlant":"L100000409294","gemUnit":"G100000414363"},"geographyId":"PS-83478781B28849486138516","id":"wattlas-plant-gemplant-l100000409294","lifecycleCounts":{"announced":2},"locationPrecision":"exact","name":"Al Khalil power plant","operatingCapacityCoverage":{"coveragePercent":0.0,"knownUnitCount":0,"method":"unavailable","totalUnitCount":0},"operatingCapacityMw":0.0,"operatingCapacityMwByTechnology":{},"plannedCapacityCoverage":{"coveragePercent":100.0,"knownUnitCount":2,"method":"complete_unit_sum","provenance":{"evidenceCount":0,"recordIds":["wattlas-record-gemunit-g100000414363","wattlas-record-gemunit-g100000414364"],"sourceIds":["gem-global-integrated-power-tracker"],"sourceTypes":["research_verified"],"valueKind":"reported"},"totalUnitCount":2},"plannedCapacityMw":170.0,"plannedCapacityMwByTechnology":{"gas":170.0},"recordCount":2,"recordIds":["wattlas-record-gemunit-g100000414363","wattlas-record-gemunit-g100000414364"],"sourceIds":["gem-global-integrated-power-tracker"],"technologies":["gas"],"technologyMixMw":{"gas":170.0},"unitCount":2,"unitIds":["gem-unit-G100000414363","gem-unit-G100000414364"]},"type":"Feature"},{"geometry":{"coordinates":[35.5341,32.3425],"type":"Point"},"id":"wattlas-plant-gemplant-l100001025384","properties":{"aliases":["--","Arvot Hayarden Regional Council Area C solar project I"],"canonicalAnchor":"gemplant:L100001025384","canonicalCountryKey":"PS","capacityMw":4.0,"country":"PS","externalIds":{"gemPlant":"L100001025384","gemUnit":"G100001030065"},"geographyId":"PS-83478781B28849486138516","id":"wattlas-plant-gemplant-l100001025384","lifecycleCounts":{"operational":1},"locationPrecision":"exact","name":"Arvot Hayarden Regional Council Area C solar project I","operatingCapacityCoverage":{"coveragePercent":100.0,"knownUnitCount":1,"method":"complete_unit_sum","provenance":{"evidenceCount":0,"recordIds":["wattlas-record-gemunit-g100001030065"],"sourceIds":["gem-global-integrated-power-tracker"],"sourceTypes":["research_verified"],"valueKind":"reported"},"totalUnitCount":1},"operatingCapacityMw":4.0,"operatingCapacityMwByTechnology":{"solar":4.0},"plannedCapacityCoverage":{"coveragePercent":0.0,"knownUnitCount":0,"method":"unavailable","totalUnitCount":0},"plannedCapacityMw":0.0,"plannedCapacityMwByTechnology":{},"recordCount":1,"recordIds":["wattlas-record-gemunit-g100001030065"],"sourceIds":["gem-global-integrated-power-tracker"],"technologies":["solar"],"technologyMixMw":{"solar":4.0},"unitCount":1,"unitIds":["gem-unit-G100001030065"]},"type":"Feature"},{"geometry":{"coordinates":[35.494,31.84],"type":"Point"},"id":"wattlas-plant-gemplant-l100001025407","properties":{"aliases":["--","Area A solar project I"],"canonicalAnchor":"gemplant:L100001025407","canonicalCountryKey":"PS","capacityMw":2.3,"country":"PS","externalIds":{"gemPlant":"L100001025407","gemUnit":"G100001030088"},"geographyId":"PS-83478781B28849486138516","id":"wattlas-plant-gemplant-l100001025407","lifecycleCounts":{"operational":1},"locationPrecision":"exact","name":"Area A solar project I","operatingCapacityCoverage":{"coveragePercent":100.0,"knownUnitCount":1,"method":"complete_unit_sum","provenance":{"evidenceCount":0,"recordIds":["wattlas-record-gemunit-g100001030088"],"sourceIds":["gem-global-integrated-power-tracker"],"sourceTypes":["research_verified"],"valueKind":"reported"},"totalUnitCount":1},"operatingCapacityMw":2.3,"operatingCapacityMwByTechnology":{"solar":2.3},"plannedCapacityCoverage":{"coveragePercent":0.0,"knownUnitCount":0,"method":"unavailable","totalUnitCount":0},"plannedCapacityMw":0.0,"plannedCapacityMwByTechnology":{},"recordCount":1,"recordIds":["wattlas-record-gemunit-g100001030088"],"sourceIds":["gem-global-integrated-power-tracker"],"technologies":["solar"],"technologyMixMw":{"solar":2.3},"unitCount":1,"unitIds":["gem-unit-G100001030088"]},"type":"Feature"},{"geometry":{"coordinates":[35.4734,31.7486],"type":"Point"},"id":"wattlas-plant-gemplant-l100001025410","properties":{"aliases":["--","Megilot Yam Hamelakh Regional Council Area C solar project"],"canonicalAnchor":"gemplant:L100001025410","canonicalCountryKey":"PS","capacityMw":8.8,"country":"PS","externalIds":{"gemPlant":"L100001025410","gemUnit":"G100001030091"},"geographyId":"PS-83478781B28849486138516","id":"wattlas-plant-gemplant-l100001025410","lifecycleCounts":{"operational":1},"locationPrecision":"exact","name":"Megilot Yam Hamelakh Regional Council Area C solar project","operatingCapacityCoverage":{"coveragePercent":100.0,"knownUnitCount":1,"method":"complete_unit_sum","provenance":{"evidenceCount":0,"recordIds":["wattlas-record-gemunit-g100001030091"],"sourceIds":["gem-global-integrated-power-tracker"],"sourceTypes":["research_verified"],"valueKind":"reported"},"totalUnitCount":1},"operatingCapacityMw":8.8,"operatingCapacityMwByTechnology":{"solar":8.8},"plannedCapacityCoverage":{"coveragePercent":0.0,"knownUnitCount":0,"method":"unavailable","totalUnitCount":0},"plannedCapacityMw":0.0,"plannedCapacityMwByTechnology":{},"recordCount":1,"recordIds":["wattlas-record-gemunit-g100001030091"],"sourceIds":["gem-global-integrated-power-tracker"],"technologies":["solar"],"technologyMixMw":{"solar":8.8},"unitCount":1,"unitIds":["gem-unit-G100001030091"]},"type":"Feature"},{"geometry":{"coordinates":[35.1995,32.3714],"type":"Point"},"id":"wattlas-plant-gemplant-l100001025412","properties":{"aliases":["--","Area B solar project I"],"canonicalAnchor":"gemplant:L100001025412","canonicalCountryKey":"PS","capacityMw":1.2,"country":"PS","externalIds":{"gemPlant":"L100001025412","gemUnit":"G100001030093"},"geographyId":"PS-83478781B28849486138516","id":"wattlas-plant-gemplant-l100001025412","lifecycleCounts":{"operational":1},"locationPrecision":"exact","name":"Area B solar project I","operatingCapacityCoverage":{"coveragePercent":100.0,"knownUnitCount":1,"method":"complete_unit_sum","provenance":{"evidenceCount":0,"recordIds":["wattlas-record-gemunit-g100001030093"],"sourceIds":["gem-global-integrated-power-tracker"],"sourceTypes":["research_verified"],"valueKind":"reported"},"totalUnitCount":1},"operatingCapacityMw":1.2,"operatingCapacityMwByTechnology":{"solar":1.2},"plannedCapacityCoverage":{"coveragePercent":0.0,"knownUnitCount":0,"method":"unavailable","totalUnitCount":0},"plannedCapacityMw":0.0,"plannedCapacityMwByTechnology":{},"recordCount":1,"recordIds":["wattlas-record-gemunit-g100001030093"],"sourceIds":["gem-global-integrated-power-tracker"],"technologies":["solar"],"technologyMixMw":{"solar":1.2},"unitCount":1,"unitIds":["gem-unit-G100001030093"]},"type":"Feature"},{"geometry":{"coordinates":[35.349,32.2981],"type":"Point"},"id":"wattlas-plant-gemplant-l100001025415","properties":{"aliases":["--","Area A solar project II"],"canonicalAnchor":"gemplant:L100001025415","canonicalCountryKey":"PS","capacityMw":3.3,"country":"PS","externalIds":{"gemPlant":"L100001025415","gemUnit":"G100001030096"},"geographyId":"PS-83478781B28849486138516","id":"wattlas-plant-gemplant-l100001025415","lifecycleCounts":{"operational":1},"locationPrecision":"exact","name":"Area A solar project II","operatingCapacityCoverage":{"coveragePercent":100.0,"knownUnitCount":1,"method":"complete_unit_sum","provenance":{"evidenceCount":0,"recordIds":["wattlas-record-gemunit-g100001030096"],"sourceIds":["gem-global-integrated-power-tracker"],"sourceTypes":["research_verified"],"valueKind":"reported"},"totalUnitCount":1},"operatingCapacityMw":3.3,"operatingCapacityMwByTechnology":{"solar":3.3},"plannedCapacityCoverage":{"coveragePercent":0.0,"knownUnitCount":0,"method":"unavailable","totalUnitCount":0},"plannedCapacityMw":0.0,"plannedCapacityMwByTechnology":{},"recordCount":1,"recordIds":["wattlas-record-gemunit-g100001030096"],"sourceIds":["gem-global-integrated-power-tracker"],"technologies":["solar"],"technologyMixMw":{"solar":3.3},"unitCount":1,"unitIds":["gem-unit-G100001030096"]},"type":"Feature"},{"geometry":{"coordinates":[35.4046,32.2464],"type":"Point"},"id":"wattlas-plant-gemplant-l100001025416","properties":{"aliases":["--","Area B solar project III"],"canonicalAnchor":"gemplant:L100001025416","canonicalCountryKey":"PS","capacityMw":1.2,"country":"PS","externalIds":{"gemPlant":"L100001025416","gemUnit":"G100001030097"},"geographyId":"PS-83478781B28849486138516","id":"wattlas-plant-gemplant-l100001025416","lifecycleCounts":{"operational":1},"locationPrecision":"exact","name":"Area B solar project III","operatingCapacityCoverage":{"coveragePercent":100.0,"knownUnitCount":1,"method":"complete_unit_sum","provenance":{"evidenceCount":0,"recordIds":["wattlas-record-gemunit-g100001030097"],"sourceIds":["gem-global-integrated-power-tracker"],"sourceTypes":["research_verified"],"valueKind":"reported"},"totalUnitCount":1},"operatingCapacityMw":1.2,"operatingCapacityMwByTechnology":{"solar":1.2},"plannedCapacityCoverage":{"coveragePercent":0.0,"knownUnitCount":0,"method":"unavailable","totalUnitCount":0},"plannedCapacityMw":0.0,"plannedCapacityMwByTechnology":{},"recordCount":1,"recordIds":["wattlas-record-gemunit-g100001030097"],"sourceIds":["gem-global-integrated-power-tracker"],"technologies":["solar"],"technologyMixMw":{"solar":1.2},"unitCount":1,"unitIds":["gem-unit-G100001030097"]},"type":"Feature"},{"geometry":{"coordinates":[35.0046,31.3661],"type":"Point"},"id":"wattlas-plant-gemplant-l100001025417","properties":{"aliases":["--","Area C solar project I"],"canonicalAnchor":"gemplant:L100001025417","canonicalCountryKey":"PS","capacityMw":7.2,"country":"PS","externalIds":{"gemPlant":"L100001025417","gemUnit":"G100001030098"},"geographyId":"PS-83478781B28849486138516","id":"wattlas-plant-gemplant-l100001025417","lifecycleCounts":{"operational":1},"locationPrecision":"exact","name":"Area C solar project I","operatingCapacityCoverage":{"coveragePercent":100.0,"knownUnitCount":1,"method":"complete_unit_sum","provenance":{"evidenceCount":0,"recordIds":["wattlas-record-gemunit-g100001030098"],"sourceIds":["gem-global-integrated-power-tracker"],"sourceTypes":["research_verified"],"valueKind":"reported"},"totalUnitCount":1},"operatingCapacityMw":7.2,"operatingCapacityMwByTechnology":{"solar":7.2},"plannedCapacityCoverage":{"coveragePercent":0.0,"knownUnitCount":0,"method":"unavailable","totalUnitCount":0},"plannedCapacityMw":0.0,"plannedCapacityMwByTechnology":{},"recordCount":1,"recordIds":["wattlas-record-gemunit-g100001030098"],"sourceIds":["gem-global-integrated-power-tracker"],"technologies":["solar"],"technologyMixMw":{"solar":7.2},"unitCount":1,"unitIds":["gem-unit-G100001030098"]},"type":"Feature"},{"geometry":{"coordinates":[35.3879,32.3009],"type":"Point"},"id":"wattlas-plant-gemplant-l100001025418","properties":{"aliases":["--","Area A solar project III"],"canonicalAnchor":"gemplant:L100001025418","canonicalCountryKey":"PS","capacityMw":8.7,"country":"PS","externalIds":{"gemPlant":"L100001025418","gemUnit":"G100001030099"},"geographyId":"PS-83478781B28849486138516","id":"wattlas-plant-gemplant-l100001025418","lifecycleCounts":{"operational":1},"locationPrecision":"exact","name":"Area A solar project III","operatingCapacityCoverage":{"coveragePercent":100.0,"knownUnitCount":1,"method":"complete_unit_sum","provenance":{"evidenceCount":0,"recordIds":["wattlas-record-gemunit-g100001030099"],"sourceIds":["gem-global-integrated-power-tracker"],"sourceTypes":["research_verified"],"valueKind":"reported"},"totalUnitCount":1},"operatingCapacityMw":8.7,"operatingCapacityMwByTechnology":{"solar":8.7},"plannedCapacityCoverage":{"coveragePercent":0.0,"knownUnitCount":0,"method":"unavailable","totalUnitCount":0},"plannedCapacityMw":0.0,"plannedCapacityMwByTechnology":{},"recordCount":1,"recordIds":["wattlas-record-gemunit-g100001030099"],"sourceIds":["gem-global-integrated-power-tracker"],"technologies":["solar"],"technologyMixMw":{"solar":8.7},"unitCount":1,"unitIds":["gem-unit-G100001030099"]},"type":"Feature"},{"geometry":{"coordinates":[35.304,32.3469],"type":"Point"},"id":"wattlas-plant-gemplant-l100001025419","properties":{"aliases":["--","Area A solar project IV"],"canonicalAnchor":"gemplant:L100001025419","canonicalCountryKey":"PS","capacityMw":1.7,"country":"PS","externalIds":{"gemPlant":"L100001025419","gemUnit":"G100001030100"},"geographyId":"PS-83478781B28849486138516","id":"wattlas-plant-gemplant-l100001025419","lifecycleCounts":{"operational":1},"locationPrecision":"exact","name":"Area A solar project IV","operatingCapacityCoverage":{"coveragePercent":100.0,"knownUnitCount":1,"method":"complete_unit_sum","provenance":{"evidenceCount":0,"recordIds":["wattlas-record-gemunit-g100001030100"],"sourceIds":["gem-global-integrated-power-tracker"],"sourceTypes":["research_verified"],"valueKind":"reported"},"totalUnitCount":1},"operatingCapacityMw":1.7,"operatingCapacityMwByTechnology":{"solar":1.7},"plannedCapacityCoverage":{"coveragePercent":0.0,"knownUnitCount":0,"method":"unavailable","totalUnitCount":0},"plannedCapacityMw":0.0,"plannedCapacityMwByTechnology":{},"recordCount":1,"recordIds":["wattlas-record-gemunit-g100001030100"],"sourceIds":["gem-global-integrated-power-tracker"],"technologies":["solar"],"technologyMixMw":{"solar":1.7},"unitCount":1,"unitIds":["gem-unit-G100001030100"]},"type":"Feature"},{"geometry":{"coordinates":[35.5177,31.9976],"type":"Point"},"id":"wattlas-plant-gemplant-l100001025427","properties":{"aliases":["--","Area C solar project II"],"canonicalAnchor":"gemplant:L100001025427","canonicalCountryKey":"PS","capacityMw":3.9,"country":"PS","externalIds":{"gemPlant":"L100001025427","gemUnit":"G100001030108"},"geographyId":"PS-83478781B28849486138516","id":"wattlas-plant-gemplant-l100001025427","lifecycleCounts":{"operational":1},"locationPrecision":"exact","name":"Area C solar project II","operatingCapacityCoverage":{"coveragePercent":100.0,"knownUnitCount":1,"method":"complete_unit_sum","provenance":{"evidenceCount":0,"recordIds":["wattlas-record-gemunit-g100001030108"],"sourceIds":["gem-global-integrated-power-tracker"],"sourceTypes":["research_verified"],"valueKind":"reported"},"totalUnitCount":1},"operatingCapacityMw":3.9,"operatingCapacityMwByTechnology":{"solar":3.9},"plannedCapacityCoverage":{"coveragePercent":0.0,"knownUnitCount":0,"method":"unavailable","totalUnitCount":0},"plannedCapacityMw":0.0,"plannedCapacityMwByTechnology":{},"recordCount":1,"recordIds":["wattlas-record-gemunit-g100001030108"],"sourceIds":["gem-global-integrated-power-tracker"],"technologies":["solar"],"technologyMixMw":{"solar":3.9},"unitCount":1,"unitIds":["gem-unit-G100001030108"]},"type":"Feature"},{"geometry":{"coordinates":[35.4795,31.9311],"type":"Point"},"id":"wattlas-plant-gemplant-l100001025428","properties":{"aliases":["--","Area C solar project III"],"canonicalAnchor":"gemplant:L100001025428","canonicalCountryKey":"PS","capacityMw":3.2,"country":"PS","externalIds":{"gemPlant":"L100001025428","gemUnit":"G100001030109"},"geographyId":"PS-83478781B28849486138516","id":"wattlas-plant-gemplant-l100001025428","lifecycleCounts":{"operational":1},"locationPrecision":"exact","name":"Area C solar project III","operatingCapacityCoverage":{"coveragePercent":100.0,"knownUnitCount":1,"method":"complete_unit_sum","provenance":{"evidenceCount":0,"recordIds":["wattlas-record-gemunit-g100001030109"],"sourceIds":["gem-global-integrated-power-tracker"],"sourceTypes":["research_verified"],"valueKind":"reported"},"totalUnitCount":1},"operatingCapacityMw":3.2,"operatingCapacityMwByTechnology":{"solar":3.2},"plannedCapacityCoverage":{"coveragePercent":0.0,"knownUnitCount":0,"method":"unavailable","totalUnitCount":0},"plannedCapacityMw":0.0,"plannedCapacityMwByTechnology":{},"recordCount":1,"recordIds":["wattlas-record-gemunit-g100001030109"],"sourceIds":["gem-global-integrated-power-tracker"],"technologies":["solar"],"technologyMixMw":{"solar":3.2},"unitCount":1,"unitIds":["gem-unit-G100001030109"]},"type":"Feature"},{"geometry":{"coordinates":[35.5168,31.9849],"type":"Point"},"id":"wattlas-plant-gemplant-l100001025429","properties":{"aliases":["--","Area C solar project IV"],"canonicalAnchor":"gemplant:L100001025429","canonicalCountryKey":"PS","capacityMw":4.0,"country":"PS","externalIds":{"gemPlant":"L100001025429","gemUnit":"G100001030110"},"geographyId":"PS-83478781B28849486138516","id":"wattlas-plant-gemplant-l100001025429","lifecycleCounts":{"operational":1},"locationPrecision":"exact","name":"Area C solar project IV","operatingCapacityCoverage":{"coveragePercent":100.0,"knownUnitCount":1,"method":"complete_unit_sum","provenance":{"evidenceCount":0,"recordIds":["wattlas-record-gemunit-g100001030110"],"sourceIds":["gem-global-integrated-power-tracker"],"sourceTypes":["research_verified"],"valueKind":"reported"},"totalUnitCount":1},"operatingCapacityMw":4.0,"operatingCapacityMwByTechnology":{"solar":4.0},"plannedCapacityCoverage":{"coveragePercent":0.0,"knownUnitCount":0,"method":"unavailable","totalUnitCount":0},"plannedCapacityMw":0.0,"plannedCapacityMwByTechnology":{},"recordCount":1,"recordIds":["wattlas-record-gemunit-g100001030110"],"sourceIds":["gem-global-integrated-power-tracker"],"technologies":["solar"],"technologyMixMw":{"solar":4.0},"unitCount":1,"unitIds":["gem-unit-G100001030110"]},"type":"Feature"},{"geometry":{"coordinates":[35.4416,31.9117],"type":"Point"},"id":"wattlas-plant-gemplant-l100001025437","properties":{"aliases":["--","Area A solar project V"],"canonicalAnchor":"gemplant:L100001025437","canonicalCountryKey":"PS","capacityMw":6.2,"country":"PS","externalIds":{"gemPlant":"L100001025437","gemUnit":"G100001030118"},"geographyId":"PS-83478781B28849486138516","id":"wattlas-plant-gemplant-l100001025437","lifecycleCounts":{"operational":1},"locationPrecision":"exact","name":"Area A solar project V","operatingCapacityCoverage":{"coveragePercent":100.0,"knownUnitCount":1,"method":"complete_unit_sum","provenance":{"evidenceCount":0,"recordIds":["wattlas-record-gemunit-g100001030118"],"sourceIds":["gem-global-integrated-power-tracker"],"sourceTypes":["research_verified"],"valueKind":"reported"},"totalUnitCount":1},"operatingCapacityMw":6.2,"operatingCapacityMwByTechnology":{"solar":6.2},"plannedCapacityCoverage":{"coveragePercent":0.0,"knownUnitCount":0,"method":"unavailable","totalUnitCount":0},"plannedCapacityMw":0.0,"plannedCapacityMwByTechnology":{},"recordCount":1,"recordIds":["wattlas-record-gemunit-g100001030118"],"sourceIds":["gem-global-integrated-power-tracker"],"technologies":["solar"],"technologyMixMw":{"solar":6.2},"unitCount":1,"unitIds":["gem-unit-G100001030118"]},"type":"Feature"},{"geometry":{"coordinates":[35.057,32.0001],"type":"Point"},"id":"wattlas-plant-gemplant-l100001025441","properties":{"aliases":["--","Area B solar project IV"],"canonicalAnchor":"gemplant:L100001025441","canonicalCountryKey":"PS","capacityMw":7.3,"country":"PS","externalIds":{"gemPlant":"L100001025441","gemUnit":"G100001030122"},"geographyId":"PS-83478781B28849486138516","id":"wattlas-plant-gemplant-l100001025441","lifecycleCounts":{"operational":1},"locationPrecision":"exact","name":"Area B solar project IV","operatingCapacityCoverage":{"coveragePercent":100.0,"knownUnitCount":1,"method":"complete_unit_sum","provenance":{"evidenceCount":0,"recordIds":["wattlas-record-gemunit-g100001030122"],"sourceIds":["gem-global-integrated-power-tracker"],"sourceTypes":["research_verified"],"valueKind":"reported"},"totalUnitCount":1},"operatingCapacityMw":7.3,"operatingCapacityMwByTechnology":{"solar":7.3},"plannedCapacityCoverage":{"coveragePercent":0.0,"knownUnitCount":0,"method":"unavailable","totalUnitCount":0},"plannedCapacityMw":0.0,"plannedCapacityMwByTechnology":{},"recordCount":1,"recordIds":["wattlas-record-gemunit-g100001030122"],"sourceIds":["gem-global-integrated-power-tracker"],"technologies":["solar"],"technologyMixMw":{"solar":7.3},"unitCount":1,"unitIds":["gem-unit-G100001030122"]},"type":"Feature"},{"geometry":{"coordinates":[35.1852,32.35],"type":"Point"},"id":"wattlas-plant-gemplant-l100001025447","properties":{"aliases":["--","Area A solar project VI"],"canonicalAnchor":"gemplant:L100001025447","canonicalCountryKey":"PS","capacityMw":1.7,"country":"PS","externalIds":{"gemPlant":"L100001025447","gemUnit":"G100001030128"},"geographyId":"PS-83478781B28849486138516","id":"wattlas-plant-gemplant-l100001025447","lifecycleCounts":{"operational":1},"locationPrecision":"exact","name":"Area A solar project VI","operatingCapacityCoverage":{"coveragePercent":100.0,"knownUnitCount":1,"method":"complete_unit_sum","provenance":{"evidenceCount":0,"recordIds":["wattlas-record-gemunit-g100001030128"],"sourceIds":["gem-global-integrated-power-tracker"],"sourceTypes":["research_verified"],"valueKind":"reported"},"totalUnitCount":1},"operatingCapacityMw":1.7,"operatingCapacityMwByTechnology":{"solar":1.7},"plannedCapacityCoverage":{"coveragePercent":0.0,"knownUnitCount":0,"method":"unavailable","totalUnitCount":0},"plannedCapacityMw":0.0,"plannedCapacityMwByTechnology":{},"recordCount":1,"recordIds":["wattlas-record-gemunit-g100001030128"],"sourceIds":["gem-global-integrated-power-tracker"],"technologies":["solar"],"technologyMixMw":{"solar":1.7},"unitCount":1,"unitIds":["gem-unit-G100001030128"]},"type":"Feature"},{"geometry":{"coordinates":[35.216,31.6198],"type":"Point"},"id":"wattlas-plant-gemplant-l100001025448","properties":{"aliases":["--","Area C solar project V"],"canonicalAnchor":"gemplant:L100001025448","canonicalCountryKey":"PS","capacityMw":5.7,"country":"PS","externalIds":{"gemPlant":"L100001025448","gemUnit":"G100001030129"},"geographyId":"PS-83478781B28849486138516","id":"wattlas-plant-gemplant-l100001025448","lifecycleCounts":{"operational":1},"locationPrecision":"exact","name":"Area C solar project V","operatingCapacityCoverage":{"coveragePercent":100.0,"knownUnitCount":1,"method":"complete_unit_sum","provenance":{"evidenceCount":0,"recordIds":["wattlas-record-gemunit-g100001030129"],"sourceIds":["gem-global-integrated-power-tracker"],"sourceTypes":["research_verified"],"valueKind":"reported"},"totalUnitCount":1},"operatingCapacityMw":5.7,"operatingCapacityMwByTechnology":{"solar":5.7},"plannedCapacityCoverage":{"coveragePercent":0.0,"knownUnitCount":0,"method":"unavailable","totalUnitCount":0},"plannedCapacityMw":0.0,"plannedCapacityMwByTechnology":{},"recordCount":1,"recordIds":["wattlas-record-gemunit-g100001030129"],"sourceIds":["gem-global-integrated-power-tracker"],"technologies":["solar"],"technologyMixMw":{"solar":5.7},"unitCount":1,"unitIds":["gem-unit-G100001030129"]},"type":"Feature"},{"geometry":{"coordinates":[35.2637,32.4738],"type":"Point"},"id":"wattlas-plant-gemplant-l100001025449","properties":{"aliases":["--","Area A solar project VII"],"canonicalAnchor":"gemplant:L100001025449","canonicalCountryKey":"PS","capacityMw":3.8,"country":"PS","externalIds":{"gemPlant":"L100001025449","gemUnit":"G100001030130"},"geographyId":"PS-83478781B28849486138516","id":"wattlas-plant-gemplant-l100001025449","lifecycleCounts":{"operational":1},"locationPrecision":"exact","name":"Area A solar project VII","operatingCapacityCoverage":{"coveragePercent":100.0,"knownUnitCount":1,"method":"complete_unit_sum","provenance":{"evidenceCount":0,"recordIds":["wattlas-record-gemunit-g100001030130"],"sourceIds":["gem-global-integrated-power-tracker"],"sourceTypes":["research_verified"],"valueKind":"reported"},"totalUnitCount":1},"operatingCapacityMw":3.8,"operatingCapacityMwByTechnology":{"solar":3.8},"plannedCapacityCoverage":{"coveragePercent":0.0,"knownUnitCount":0,"method":"unavailable","totalUnitCount":0},"plannedCapacityMw":0.0,"plannedCapacityMwByTechnology":{},"recordCount":1,"recordIds":["wattlas-record-gemunit-g100001030130"],"sourceIds":["gem-global-integrated-power-tracker"],"technologies":["solar"],"technologyMixMw":{"solar":3.8},"unitCount":1,"unitIds":["gem-unit-G100001030130"]},"type":"Feature"},{"geometry":{"coordinates":[35.4604,31.9163],"type":"Point"},"id":"wattlas-plant-gemplant-l100001025453","properties":{"aliases":["--","Arvot Hayarden Regional Council Area C solar project III"],"canonicalAnchor":"gemplant:L100001025453","canonicalCountryKey":"PS","capacityMw":10.7,"country":"PS","externalIds":{"gemPlant":"L100001025453","gemUnit":"G100001030134"},"geographyId":"PS-83478781B28849486138516","id":"wattlas-plant-gemplant-l100001025453","lifecycleCounts":{"operational":1},"locationPrecision":"exact","name":"Arvot Hayarden Regional Council Area C solar project III","operatingCapacityCoverage":{"coveragePercent":100.0,"knownUnitCount":1,"method":"complete_unit_sum","provenance":{"evidenceCount":0,"recordIds":["wattlas-record-gemunit-g100001030134"],"sourceIds":["gem-global-integrated-power-tracker"],"sourceTypes":["research_verified"],"valueKind":"reported"},"totalUnitCount":1},"operatingCapacityMw":10.7,"operatingCapacityMwByTechnology":{"solar":10.7},"plannedCapacityCoverage":{"coveragePercent":0.0,"knownUnitCount":0,"method":"unavailable","totalUnitCount":0},"plannedCapacityMw":0.0,"plannedCapacityMwByTechnology":{},"recordCount":1,"recordIds":["wattlas-record-gemunit-g100001030134"],"sourceIds":["gem-global-integrated-power-tracker"],"technologies":["solar"],"technologyMixMw":{"solar":10.7},"unitCount":1,"unitIds":["gem-unit-G100001030134"]},"type":"Feature"},{"geometry":{"coordinates":[35.3892,32.0924],"type":"Point"},"id":"wattlas-plant-gemplant-l100001025457","properties":{"aliases":["--","Arvot Hayarden Regional Council Area C solar project IV"],"canonicalAnchor":"gemplant:L100001025457","canonicalCountryKey":"PS","capacityMw":3.4,"country":"PS","externalIds":{"gemPlant":"L100001025457","gemUnit":"G100001030138"},"geographyId":"PS-83478781B28849486138516","id":"wattlas-plant-gemplant-l100001025457","lifecycleCounts":{"operational":1},"locationPrecision":"exact","name":"Arvot Hayarden Regional Council Area C solar project IV","operatingCapacityCoverage":{"coveragePercent":100.0,"knownUnitCount":1,"method":"complete_unit_sum","provenance":{"evidenceCount":0,"recordIds":["wattlas-record-gemunit-g100001030138"],"sourceIds":["gem-global-integrated-power-tracker"],"sourceTypes":["research_verified"],"valueKind":"reported"},"totalUnitCount":1},"operatingCapacityMw":3.4,"operatingCapacityMwByTechnology":{"solar":3.4},"plannedCapacityCoverage":{"coveragePercent":0.0,"knownUnitCount":0,"method":"unavailable","totalUnitCount":0},"plannedCapacityMw":0.0,"plannedCapacityMwByTechnology":{},"recordCount":1,"recordIds":["wattlas-record-gemunit-g100001030138"],"sourceIds":["gem-global-integrated-power-tracker"],"technologies":["solar"],"technologyMixMw":{"solar":3.4},"unitCount":1,"unitIds":["gem-unit-G100001030138"]},"type":"Feature"},{"geometry":{"coordinates":[35.3706,32.3033],"type":"Point"},"id":"wattlas-plant-gemplant-l100001025458","properties":{"aliases":["--","Area A solar project VIII"],"canonicalAnchor":"gemplant:L100001025458","canonicalCountryKey":"PS","capacityMw":2.9,"country":"PS","externalIds":{"gemPlant":"L100001025458","gemUnit":"G100001030139"},"geographyId":"PS-83478781B28849486138516","id":"wattlas-plant-gemplant-l100001025458","lifecycleCounts":{"operational":1},"locationPrecision":"exact","name":"Area A solar project VIII","operatingCapacityCoverage":{"coveragePercent":100.0,"knownUnitCount":1,"method":"complete_unit_sum","provenance":{"evidenceCount":0,"recordIds":["wattlas-record-gemunit-g100001030139"],"sourceIds":["gem-global-integrated-power-tracker"],"sourceTypes":["research_verified"],"valueKind":"reported"},"totalUnitCount":1},"operatingCapacityMw":2.9,"operatingCapacityMwByTechnology":{"solar":2.9},"plannedCapacityCoverage":{"coveragePercent":0.0,"knownUnitCount":0,"method":"unavailable","totalUnitCount":0},"plannedCapacityMw":0.0,"plannedCapacityMwByTechnology":{},"recordCount":1,"recordIds":["wattlas-record-gemunit-g100001030139"],"sourceIds":["gem-global-integrated-power-tracker"],"technologies":["solar"],"technologyMixMw":{"solar":2.9},"unitCount":1,"unitIds":["gem-unit-G100001030139"]},"type":"Feature"},{"geometry":{"coordinates":[35.3893,32.0984],"type":"Point"},"id":"wattlas-plant-gemplant-l100001025469","properties":{"aliases":["--","Arvot Hayarden Regional Council Area C solar project V"],"canonicalAnchor":"gemplant:L100001025469","canonicalCountryKey":"PS","capacityMw":1.9,"country":"PS","externalIds":{"gemPlant":"L100001025469","gemUnit":"G100001030150"},"geographyId":"PS-83478781B28849486138516","id":"wattlas-plant-gemplant-l100001025469","lifecycleCounts":{"operational":1},"locationPrecision":"exact","name":"Arvot Hayarden Regional Council Area C solar project V","operatingCapacityCoverage":{"coveragePercent":100.0,"knownUnitCount":1,"method":"complete_unit_sum","provenance":{"evidenceCount":0,"recordIds":["wattlas-record-gemunit-g100001030150"],"sourceIds":["gem-global-integrated-power-tracker"],"sourceTypes":["research_verified"],"valueKind":"reported"},"totalUnitCount":1},"operatingCapacityMw":1.9,"operatingCapacityMwByTechnology":{"solar":1.9},"plannedCapacityCoverage":{"coveragePercent":0.0,"knownUnitCount":0,"method":"unavailable","totalUnitCount":0},"plannedCapacityMw":0.0,"plannedCapacityMwByTechnology":{},"recordCount":1,"recordIds":["wattlas-record-gemunit-g100001030150"],"sourceIds":["gem-global-integrated-power-tracker"],"technologies":["solar"],"technologyMixMw":{"solar":1.9},"unitCount":1,"unitIds":["gem-unit-G100001030150"]},"type":"Feature"},{"geometry":{"coordinates":[34.5058,31.5091],"type":"Point"},"id":"wattlas-plant-gemplant-l100001025477","properties":{"aliases":["--","Gaza solar project II"],"canonicalAnchor":"gemplant:L100001025477","canonicalCountryKey":"PS","capacityMw":1.4,"country":"PS","externalIds":{"gemPlant":"L100001025477","gemUnit":"G100001030158"},"geographyId":"PS-83478781B7121896376882","id":"wattlas-plant-gemplant-l100001025477","lifecycleCounts":{"operational":1},"locationPrecision":"exact","name":"Gaza solar project II","operatingCapacityCoverage":{"coveragePercent":100.0,"knownUnitCount":1,"method":"complete_unit_sum","provenance":{"evidenceCount":0,"recordIds":["wattlas-record-gemunit-g100001030158"],"sourceIds":["gem-global-integrated-power-tracker"],"sourceTypes":["research_verified"],"valueKind":"reported"},"totalUnitCount":1},"operatingCapacityMw":1.4,"operatingCapacityMwByTechnology":{"solar":1.4},"plannedCapacityCoverage":{"coveragePercent":0.0,"knownUnitCount":0,"method":"unavailable","totalUnitCount":0},"plannedCapacityMw":0.0,"plannedCapacityMwByTechnology":{},"recordCount":1,"recordIds":["wattlas-record-gemunit-g100001030158"],"sourceIds":["gem-global-integrated-power-tracker"],"technologies":["solar"],"technologyMixMw":{"solar":1.4},"unitCount":1,"unitIds":["gem-unit-G100001030158"]},"type":"Feature"},{"geometry":{"coordinates":[34.4723,31.4768],"type":"Point"},"id":"wattlas-plant-gemplant-l100001025480","properties":{"aliases":["--","Gaza solar project III"],"canonicalAnchor":"gemplant:L100001025480","canonicalCountryKey":"PS","capacityMw":7.0,"country":"PS","externalIds":{"gemPlant":"L100001025480","gemUnit":"G100001030161"},"geographyId":"PS-83478781B7121896376882","id":"wattlas-plant-gemplant-l100001025480","lifecycleCounts":{"operational":1},"locationPrecision":"exact","name":"Gaza solar project III","operatingCapacityCoverage":{"coveragePercent":100.0,"knownUnitCount":1,"method":"complete_unit_sum","provenance":{"evidenceCount":0,"recordIds":["wattlas-record-gemunit-g100001030161"],"sourceIds":["gem-global-integrated-power-tracker"],"sourceTypes":["research_verified"],"valueKind":"reported"},"totalUnitCount":1},"operatingCapacityMw":7.0,"operatingCapacityMwByTechnology":{"solar":7.0},"plannedCapacityCoverage":{"coveragePercent":0.0,"knownUnitCount":0,"method":"unavailable","totalUnitCount":0},"plannedCapacityMw":0.0,"plannedCapacityMwByTechnology":{},"recordCount":1,"recordIds":["wattlas-record-gemunit-g100001030161"],"sourceIds":["gem-global-integrated-power-tracker"],"technologies":["solar"],"technologyMixMw":{"solar":7.0},"unitCount":1,"unitIds":["gem-unit-G100001030161"]},"type":"Feature"},{"geometry":{"coordinates":[34.4181,31.4256],"type":"Point"},"id":"wattlas-plant-gemplant-l100001025481","properties":{"aliases":["--","Palestine solar project II"],"canonicalAnchor":"gemplant:L100001025481","canonicalCountryKey":"PS","capacityMw":2.1,"country":"PS","externalIds":{"gemPlant":"L100001025481","gemUnit":"G100001030162"},"geographyId":"PS-83478781B7121896376882","id":"wattlas-plant-gemplant-l100001025481","lifecycleCounts":{"operational":1},"locationPrecision":"exact","name":"Palestine solar project II","operatingCapacityCoverage":{"coveragePercent":100.0,"knownUnitCount":1,"method":"complete_unit_sum","provenance":{"evidenceCount":0,"recordIds":["wattlas-record-gemunit-g100001030162"],"sourceIds":["gem-global-integrated-power-tracker"],"sourceTypes":["research_verified"],"valueKind":"reported"},"totalUnitCount":1},"operatingCapacityMw":2.1,"operatingCapacityMwByTechnology":{"solar":2.1},"plannedCapacityCoverage":{"coveragePercent":0.0,"knownUnitCount":0,"method":"unavailable","totalUnitCount":0},"plannedCapacityMw":0.0,"plannedCapacityMwByTechnology":{},"recordCount":1,"recordIds":["wattlas-record-gemunit-g100001030162"],"sourceIds":["gem-global-integrated-power-tracker"],"technologies":["solar"],"technologyMixMw":{"solar":2.1},"unitCount":1,"unitIds":["gem-unit-G100001030162"]},"type":"Feature"},{"geometry":{"coordinates":[34.3909,31.3784],"type":"Point"},"id":"wattlas-plant-gemplant-l100001068994","properties":{"aliases":["--","Eshkol Regional Council solar project XII"],"canonicalAnchor":"gemplant:L100001068994","canonicalCountryKey":"PS","capacityMw":10.1,"country":"PS","externalIds":{"gemPlant":"L100001068994","gemUnit":"G100001078780"},"geographyId":"PS-83478781B7121896376882","id":"wattlas-plant-gemplant-l100001068994","lifecycleCounts":{"operational":1},"locationPrecision":"exact","name":"Eshkol Regional Council solar project XII","operatingCapacityCoverage":{"coveragePercent":100.0,"knownUnitCount":1,"method":"complete_unit_sum","provenance":{"evidenceCount":0,"recordIds":["wattlas-record-gemunit-g100001078780"],"sourceIds":["gem-global-integrated-power-tracker"],"sourceTypes":["research_verified"],"valueKind":"reported"},"totalUnitCount":1},"operatingCapacityMw":10.1,"operatingCapacityMwByTechnology":{"solar":10.1},"plannedCapacityCoverage":{"coveragePercent":0.0,"knownUnitCount":0,"method":"unavailable","totalUnitCount":0},"plannedCapacityMw":0.0,"plannedCapacityMwByTechnology":{},"recordCount":1,"recordIds":["wattlas-record-gemunit-g100001078780"],"sourceIds":["gem-global-integrated-power-tracker"],"technologies":["solar"],"technologyMixMw":{"solar":10.1},"unitCount":1,"unitIds":["gem-unit-G100001078780"]},"type":"Feature"},{"geometry":{"coordinates":[35.2851,31.92],"type":"Point"},"id":"wattlas-plant-gemplant-l100001069032","properties":{"aliases":["--","Area B solar project V"],"canonicalAnchor":"gemplant:L100001069032","canonicalCountryKey":"PS","capacityMw":2.7,"country":"PS","externalIds":{"gemPlant":"L100001069032","gemUnit":"G100001078818"},"geographyId":"PS-83478781B28849486138516","id":"wattlas-plant-gemplant-l100001069032","lifecycleCounts":{"operational":1},"locationPrecision":"exact","name":"Area B solar project V","operatingCapacityCoverage":{"coveragePercent":100.0,"knownUnitCount":1,"method":"complete_unit_sum","provenance":{"evidenceCount":0,"recordIds":["wattlas-record-gemunit-g100001078818"],"sourceIds":["gem-global-integrated-power-tracker"],"sourceTypes":["research_verified"],"valueKind":"reported"},"totalUnitCount":1},"operatingCapacityMw":2.7,"operatingCapacityMwByTechnology":{"solar":2.7},"plannedCapacityCoverage":{"coveragePercent":0.0,"knownUnitCount":0,"method":"unavailable","totalUnitCount":0},"plannedCapacityMw":0.0,"plannedCapacityMwByTechnology":{},"recordCount":1,"recordIds":["wattlas-record-gemunit-g100001078818"],"sourceIds":["gem-global-integrated-power-tracker"],"technologies":["solar"],"technologyMixMw":{"solar":2.7},"unitCount":1,"unitIds":["gem-unit-G100001078818"]},"type":"Feature"},{"geometry":{"coordinates":[35.2375,32.249],"type":"Point"},"id":"wattlas-plant-gemplant-l100001069034","properties":{"aliases":["--","Area C solar project VI"],"canonicalAnchor":"gemplant:L100001069034","canonicalCountryKey":"PS","capacityMw":2.1,"country":"PS","externalIds":{"gemPlant":"L100001069034","gemUnit":"G100001078820"},"geographyId":"PS-83478781B28849486138516","id":"wattlas-plant-gemplant-l100001069034","lifecycleCounts":{"operational":1},"locationPrecision":"exact","name":"Area C solar project VI","operatingCapacityCoverage":{"coveragePercent":100.0,"knownUnitCount":1,"method":"complete_unit_sum","provenance":{"evidenceCount":0,"recordIds":["wattlas-record-gemunit-g100001078820"],"sourceIds":["gem-global-integrated-power-tracker"],"sourceTypes":["research_verified"],"valueKind":"reported"},"totalUnitCount":1},"operatingCapacityMw":2.1,"operatingCapacityMwByTechnology":{"solar":2.1},"plannedCapacityCoverage":{"coveragePercent":0.0,"knownUnitCount":0,"method":"unavailable","totalUnitCount":0},"plannedCapacityMw":0.0,"plannedCapacityMwByTechnology":{},"recordCount":1,"recordIds":["wattlas-record-gemunit-g100001078820"],"sourceIds":["gem-global-integrated-power-tracker"],"technologies":["solar"],"technologyMixMw":{"solar":2.1},"unitCount":1,"unitIds":["gem-unit-G100001078820"]},"type":"Feature"},{"geometry":{"coordinates":[35.5181,32.3642],"type":"Point"},"id":"wattlas-plant-gemplant-l100001069037","properties":{"aliases":["--","Arvot Hayarden Regional Council Area C solar project VI"],"canonicalAnchor":"gemplant:L100001069037","canonicalCountryKey":"PS","capacityMw":2.6,"country":"PS","externalIds":{"gemPlant":"L100001069037","gemUnit":"G100001078823"},"geographyId":"PS-83478781B28849486138516","id":"wattlas-plant-gemplant-l100001069037","lifecycleCounts":{"operational":1},"locationPrecision":"exact","name":"Arvot Hayarden Regional Council Area C solar project VI","operatingCapacityCoverage":{"coveragePercent":100.0,"knownUnitCount":1,"method":"complete_unit_sum","provenance":{"evidenceCount":0,"recordIds":["wattlas-record-gemunit-g100001078823"],"sourceIds":["gem-global-integrated-power-tracker"],"sourceTypes":["research_verified"],"valueKind":"reported"},"totalUnitCount":1},"operatingCapacityMw":2.6,"operatingCapacityMwByTechnology":{"solar":2.6},"plannedCapacityCoverage":{"coveragePercent":0.0,"knownUnitCount":0,"method":"unavailable","totalUnitCount":0},"plannedCapacityMw":0.0,"plannedCapacityMwByTechnology":{},"recordCount":1,"recordIds":["wattlas-record-gemunit-g100001078823"],"sourceIds":["gem-global-integrated-power-tracker"],"technologies":["solar"],"technologyMixMw":{"solar":2.6},"unitCount":1,"unitIds":["gem-unit-G100001078823"]},"type":"Feature"},{"geometry":{"coordinates":[35.2965,32.0999],"type":"Point"},"id":"wattlas-plant-gemplant-l100001069043","properties":{"aliases":["--","Area B solar project VI"],"canonicalAnchor":"gemplant:L100001069043","canonicalCountryKey":"PS","capacityMw":1.4,"country":"PS","externalIds":{"gemPlant":"L100001069043","gemUnit":"G100001078829"},"geographyId":"PS-83478781B28849486138516","id":"wattlas-plant-gemplant-l100001069043","lifecycleCounts":{"operational":1},"locationPrecision":"exact","name":"Area B solar project VI","operatingCapacityCoverage":{"coveragePercent":100.0,"knownUnitCount":1,"method":"complete_unit_sum","provenance":{"evidenceCount":0,"recordIds":["wattlas-record-gemunit-g100001078829"],"sourceIds":["gem-global-integrated-power-tracker"],"sourceTypes":["research_verified"],"valueKind":"reported"},"totalUnitCount":1},"operatingCapacityMw":1.4,"operatingCapacityMwByTechnology":{"solar":1.4},"plannedCapacityCoverage":{"coveragePercent":0.0,"knownUnitCount":0,"method":"unavailable","totalUnitCount":0},"plannedCapacityMw":0.0,"plannedCapacityMwByTechnology":{},"recordCount":1,"recordIds":["wattlas-record-gemunit-g100001078829"],"sourceIds":["gem-global-integrated-power-tracker"],"technologies":["solar"],"technologyMixMw":{"solar":1.4},"unitCount":1,"unitIds":["gem-unit-G100001078829"]},"type":"Feature"},{"geometry":{"coordinates":[35.4687,31.8173],"type":"Point"},"id":"wattlas-plant-gemplant-l100001069050","properties":{"aliases":["--","Area A solar project IX"],"canonicalAnchor":"gemplant:L100001069050","canonicalCountryKey":"PS","capacityMw":3.3,"country":"PS","externalIds":{"gemPlant":"L100001069050","gemUnit":"G100001078836"},"geographyId":"PS-83478781B28849486138516","id":"wattlas-plant-gemplant-l100001069050","lifecycleCounts":{"operational":1},"locationPrecision":"exact","name":"Area A solar project IX","operatingCapacityCoverage":{"coveragePercent":100.0,"knownUnitCount":1,"method":"complete_unit_sum","provenance":{"evidenceCount":0,"recordIds":["wattlas-record-gemunit-g100001078836"],"sourceIds":["gem-global-integrated-power-tracker"],"sourceTypes":["research_verified"],"valueKind":"reported"},"totalUnitCount":1},"operatingCapacityMw":3.3,"operatingCapacityMwByTechnology":{"solar":3.3},"plannedCapacityCoverage":{"coveragePercent":0.0,"knownUnitCount":0,"method":"unavailable","totalUnitCount":0},"plannedCapacityMw":0.0,"plannedCapacityMwByTechnology":{},"recordCount":1,"recordIds":["wattlas-record-gemunit-g100001078836"],"sourceIds":["gem-global-integrated-power-tracker"],"technologies":["solar"],"technologyMixMw":{"solar":3.3},"unitCount":1,"unitIds":["gem-unit-G100001078836"]},"type":"Feature"},{"geometry":{"coordinates":[35.4255,32.1619],"type":"Point"},"id":"wattlas-plant-gemplant-l100001069052","properties":{"aliases":["--","Arvot Hayarden Regional Council Area C solar project VII"],"canonicalAnchor":"gemplant:L100001069052","canonicalCountryKey":"PS","capacityMw":1.7,"country":"PS","externalIds":{"gemPlant":"L100001069052","gemUnit":"G100001078838"},"geographyId":"PS-83478781B28849486138516","id":"wattlas-plant-gemplant-l100001069052","lifecycleCounts":{"operational":1},"locationPrecision":"exact","name":"Arvot Hayarden Regional Council Area C solar project VII","operatingCapacityCoverage":{"coveragePercent":100.0,"knownUnitCount":1,"method":"complete_unit_sum","provenance":{"evidenceCount":0,"recordIds":["wattlas-record-gemunit-g100001078838"],"sourceIds":["gem-global-integrated-power-tracker"],"sourceTypes":["research_verified"],"valueKind":"reported"},"totalUnitCount":1},"operatingCapacityMw":1.7,"operatingCapacityMwByTechnology":{"solar":1.7},"plannedCapacityCoverage":{"coveragePercent":0.0,"knownUnitCount":0,"method":"unavailable","totalUnitCount":0},"plannedCapacityMw":0.0,"plannedCapacityMwByTechnology":{},"recordCount":1,"recordIds":["wattlas-record-gemunit-g100001078838"],"sourceIds":["gem-global-integrated-power-tracker"],"technologies":["solar"],"technologyMixMw":{"solar":1.7},"unitCount":1,"unitIds":["gem-unit-G100001078838"]},"type":"Feature"},{"geometry":{"coordinates":[35.318,32.1563],"type":"Point"},"id":"wattlas-plant-gemplant-l100001069057","properties":{"aliases":["--","Area C solar project VII"],"canonicalAnchor":"gemplant:L100001069057","canonicalCountryKey":"PS","capacityMw":1.0,"country":"PS","externalIds":{"gemPlant":"L100001069057","gemUnit":"G100001078843"},"geographyId":"PS-83478781B28849486138516","id":"wattlas-plant-gemplant-l100001069057","lifecycleCounts":{"operational":1},"locationPrecision":"exact","name":"Area C solar project VII","operatingCapacityCoverage":{"coveragePercent":100.0,"knownUnitCount":1,"method":"complete_unit_sum","provenance":{"evidenceCount":0,"recordIds":["wattlas-record-gemunit-g100001078843"],"sourceIds":["gem-global-integrated-power-tracker"],"sourceTypes":["research_verified"],"valueKind":"reported"},"totalUnitCount":1},"operatingCapacityMw":1.0,"operatingCapacityMwByTechnology":{"solar":1.0},"plannedCapacityCoverage":{"coveragePercent":0.0,"knownUnitCount":0,"method":"unavailable","totalUnitCount":0},"plannedCapacityMw":0.0,"plannedCapacityMwByTechnology":{},"recordCount":1,"recordIds":["wattlas-record-gemunit-g100001078843"],"sourceIds":["gem-global-integrated-power-tracker"],"technologies":["solar"],"technologyMixMw":{"solar":1.0},"unitCount":1,"unitIds":["gem-unit-G100001078843"]},"type":"Feature"},{"geometry":{"coordinates":[34.9826,31.398],"type":"Point"},"id":"wattlas-plant-gemplant-l100001069058","properties":{"aliases":["--","Area A solar project X"],"canonicalAnchor":"gemplant:L100001069058","canonicalCountryKey":"PS","capacityMw":1.3,"country":"PS","externalIds":{"gemPlant":"L100001069058","gemUnit":"G100001078844"},"geographyId":"PS-83478781B28849486138516","id":"wattlas-plant-gemplant-l100001069058","lifecycleCounts":{"operational":1},"locationPrecision":"exact","name":"Area A solar project X","operatingCapacityCoverage":{"coveragePercent":100.0,"knownUnitCount":1,"method":"complete_unit_sum","provenance":{"evidenceCount":0,"recordIds":["wattlas-record-gemunit-g100001078844"],"sourceIds":["gem-global-integrated-power-tracker"],"sourceTypes":["research_verified"],"valueKind":"reported"},"totalUnitCount":1},"operatingCapacityMw":1.3,"operatingCapacityMwByTechnology":{"solar":1.3},"plannedCapacityCoverage":{"coveragePercent":0.0,"knownUnitCount":0,"method":"unavailable","totalUnitCount":0},"plannedCapacityMw":0.0,"plannedCapacityMwByTechnology":{},"recordCount":1,"recordIds":["wattlas-record-gemunit-g100001078844"],"sourceIds":["gem-global-integrated-power-tracker"],"technologies":["solar"],"technologyMixMw":{"solar":1.3},"unitCount":1,"unitIds":["gem-unit-G100001078844"]},"type":"Feature"},{"geometry":{"coordinates":[35.0657,32.2254],"type":"Point"},"id":"wattlas-plant-gemplant-l100001069061","properties":{"aliases":["--","Area B solar project VII"],"canonicalAnchor":"gemplant:L100001069061","canonicalCountryKey":"PS","capacityMw":1.3,"country":"PS","externalIds":{"gemPlant":"L100001069061","gemUnit":"G100001078847"},"geographyId":"PS-83478781B28849486138516","id":"wattlas-plant-gemplant-l100001069061","lifecycleCounts":{"operational":1},"locationPrecision":"exact","name":"Area B solar project VII","operatingCapacityCoverage":{"coveragePercent":100.0,"knownUnitCount":1,"method":"complete_unit_sum","provenance":{"evidenceCount":0,"recordIds":["wattlas-record-gemunit-g100001078847"],"sourceIds":["gem-global-integrated-power-tracker"],"sourceTypes":["research_verified"],"valueKind":"reported"},"totalUnitCount":1},"operatingCapacityMw":1.3,"operatingCapacityMwByTechnology":{"solar":1.3},"plannedCapacityCoverage":{"coveragePercent":0.0,"knownUnitCount":0,"method":"unavailable","totalUnitCount":0},"plannedCapacityMw":0.0,"plannedCapacityMwByTechnology":{},"recordCount":1,"recordIds":["wattlas-record-gemunit-g100001078847"],"sourceIds":["gem-global-integrated-power-tracker"],"technologies":["solar"],"technologyMixMw":{"solar":1.3},"unitCount":1,"unitIds":["gem-unit-G100001078847"]},"type":"Feature"},{"geometry":{"coordinates":[35.4843,31.8079],"type":"Point"},"id":"wattlas-plant-gemplant-l100001069066","properties":{"aliases":["--","Megilot Yam Hamelakh Regional Council Area C solar project I"],"canonicalAnchor":"gemplant:L100001069066","canonicalCountryKey":"PS","capacityMw":5.6,"country":"PS","externalIds":{"gemPlant":"L100001069066","gemUnit":"G100001078852"},"geographyId":"PS-83478781B28849486138516","id":"wattlas-plant-gemplant-l100001069066","lifecycleCounts":{"operational":1},"locationPrecision":"exact","name":"Megilot Yam Hamelakh Regional Council Area C solar project I","operatingCapacityCoverage":{"coveragePercent":100.0,"knownUnitCount":1,"method":"complete_unit_sum","provenance":{"evidenceCount":0,"recordIds":["wattlas-record-gemunit-g100001078852"],"sourceIds":["gem-global-integrated-power-tracker"],"sourceTypes":["research_verified"],"valueKind":"reported"},"totalUnitCount":1},"operatingCapacityMw":5.6,"operatingCapacityMwByTechnology":{"solar":5.6},"plannedCapacityCoverage":{"coveragePercent":0.0,"knownUnitCount":0,"method":"unavailable","totalUnitCount":0},"plannedCapacityMw":0.0,"plannedCapacityMwByTechnology":{},"recordCount":1,"recordIds":["wattlas-record-gemunit-g100001078852"],"sourceIds":["gem-global-integrated-power-tracker"],"technologies":["solar"],"technologyMixMw":{"solar":5.6},"unitCount":1,"unitIds":["gem-unit-G100001078852"]},"type":"Feature"},{"geometry":{"coordinates":[35.443,31.8293],"type":"Point"},"id":"wattlas-plant-gemplant-l100001069068","properties":{"aliases":["--","Megilot Yam Hamelakh Regional Council Area C solar project II"],"canonicalAnchor":"gemplant:L100001069068","canonicalCountryKey":"PS","capacityMw":3.8,"country":"PS","externalIds":{"gemPlant":"L100001069068","gemUnit":"G100001078854"},"geographyId":"PS-83478781B28849486138516","id":"wattlas-plant-gemplant-l100001069068","lifecycleCounts":{"operational":1},"locationPrecision":"exact","name":"Megilot Yam Hamelakh Regional Council Area C solar project II","operatingCapacityCoverage":{"coveragePercent":100.0,"knownUnitCount":1,"method":"complete_unit_sum","provenance":{"evidenceCount":0,"recordIds":["wattlas-record-gemunit-g100001078854"],"sourceIds":["gem-global-integrated-power-tracker"],"sourceTypes":["research_verified"],"valueKind":"reported"},"totalUnitCount":1},"operatingCapacityMw":3.8,"operatingCapacityMwByTechnology":{"solar":3.8},"plannedCapacityCoverage":{"coveragePercent":0.0,"knownUnitCount":0,"method":"unavailable","totalUnitCount":0},"plannedCapacityMw":0.0,"plannedCapacityMwByTechnology":{},"recordCount":1,"recordIds":["wattlas-record-gemunit-g100001078854"],"sourceIds":["gem-global-integrated-power-tracker"],"technologies":["solar"],"technologyMixMw":{"solar":3.8},"unitCount":1,"unitIds":["gem-unit-G100001078854"]},"type":"Feature"},{"geometry":{"coordinates":[35.0937,31.991],"type":"Point"},"id":"wattlas-plant-gemplant-l100001069069","properties":{"aliases":["--","Area C solar project VIII"],"canonicalAnchor":"gemplant:L100001069069","canonicalCountryKey":"PS","capacityMw":5.0,"country":"PS","externalIds":{"gemPlant":"L100001069069","gemUnit":"G100001078855"},"geographyId":"PS-83478781B28849486138516","id":"wattlas-plant-gemplant-l100001069069","lifecycleCounts":{"operational":1},"locationPrecision":"exact","name":"Area C solar project VIII","operatingCapacityCoverage":{"coveragePercent":100.0,"knownUnitCount":1,"method":"complete_unit_sum","provenance":{"evidenceCount":0,"recordIds":["wattlas-record-gemunit-g100001078855"],"sourceIds":["gem-global-integrated-power-tracker"],"sourceTypes":["research_verified"],"valueKind":"reported"},"totalUnitCount":1},"operatingCapacityMw":5.0,"operatingCapacityMwByTechnology":{"solar":5.0},"plannedCapacityCoverage":{"coveragePercent":0.0,"knownUnitCount":0,"method":"unavailable","totalUnitCount":0},"plannedCapacityMw":0.0,"plannedCapacityMwByTechnology":{},"recordCount":1,"recordIds":["wattlas-record-gemunit-g100001078855"],"sourceIds":["gem-global-integrated-power-tracker"],"technologies":["solar"],"technologyMixMw":{"solar":5.0},"unitCount":1,"unitIds":["gem-unit-G100001078855"]},"type":"Feature"},{"geometry":{"coordinates":[35.4911,32.0966],"type":"Point"},"id":"wattlas-plant-gemplant-l100001069070","properties":{"aliases":["--","Area C solar project IX"],"canonicalAnchor":"gemplant:L100001069070","canonicalCountryKey":"PS","capacityMw":1.6,"country":"PS","externalIds":{"gemPlant":"L100001069070","gemUnit":"G100001078856"},"geographyId":"PS-83478781B28849486138516","id":"wattlas-plant-gemplant-l100001069070","lifecycleCounts":{"operational":1},"locationPrecision":"exact","name":"Area C solar project IX","operatingCapacityCoverage":{"coveragePercent":100.0,"knownUnitCount":1,"method":"complete_unit_sum","provenance":{"evidenceCount":0,"recordIds":["wattlas-record-gemunit-g100001078856"],"sourceIds":["gem-global-integrated-power-tracker"],"sourceTypes":["research_verified"],"valueKind":"reported"},"totalUnitCount":1},"operatingCapacityMw":1.6,"operatingCapacityMwByTechnology":{"solar":1.6},"plannedCapacityCoverage":{"coveragePercent":0.0,"knownUnitCount":0,"method":"unavailable","totalUnitCount":0},"plannedCapacityMw":0.0,"plannedCapacityMwByTechnology":{},"recordCount":1,"recordIds":["wattlas-record-gemunit-g100001078856"],"sourceIds":["gem-global-integrated-power-tracker"],"technologies":["solar"],"technologyMixMw":{"solar":1.6},"unitCount":1,"unitIds":["gem-unit-G100001078856"]},"type":"Feature"},{"geometry":{"coordinates":[35.1186,31.5579],"type":"Point"},"id":"wattlas-plant-gemplant-l100001069073","properties":{"aliases":["--","Area C solar project X"],"canonicalAnchor":"gemplant:L100001069073","canonicalCountryKey":"PS","capacityMw":1.0,"country":"PS","externalIds":{"gemPlant":"L100001069073","gemUnit":"G100001078859"},"geographyId":"PS-83478781B28849486138516","id":"wattlas-plant-gemplant-l100001069073","lifecycleCounts":{"operational":1},"locationPrecision":"exact","name":"Area C solar project X","operatingCapacityCoverage":{"coveragePercent":100.0,"knownUnitCount":1,"method":"complete_unit_sum","provenance":{"evidenceCount":0,"recordIds":["wattlas-record-gemunit-g100001078859"],"sourceIds":["gem-global-integrated-power-tracker"],"sourceTypes":["research_verified"],"valueKind":"reported"},"totalUnitCount":1},"operatingCapacityMw":1.0,"operatingCapacityMwByTechnology":{"solar":1.0},"plannedCapacityCoverage":{"coveragePercent":0.0,"knownUnitCount":0,"method":"unavailable","totalUnitCount":0},"plannedCapacityMw":0.0,"plannedCapacityMwByTechnology":{},"recordCount":1,"recordIds":["wattlas-record-gemunit-g100001078859"],"sourceIds":["gem-global-integrated-power-tracker"],"technologies":["solar"],"technologyMixMw":{"solar":1.0},"unitCount":1,"unitIds":["gem-unit-G100001078859"]},"type":"Feature"},{"geometry":{"coordinates":[35.4448,31.9934],"type":"Point"},"id":"wattlas-plant-gemplant-l100001069074","properties":{"aliases":["--","Arvot Hayarden Regional Council Area C solar project VIII"],"canonicalAnchor":"gemplant:L100001069074","canonicalCountryKey":"PS","capacityMw":5.5,"country":"PS","externalIds":{"gemPlant":"L100001069074","gemUnit":"G100001078860"},"geographyId":"PS-83478781B28849486138516","id":"wattlas-plant-gemplant-l100001069074","lifecycleCounts":{"operational":1},"locationPrecision":"exact","name":"Arvot Hayarden Regional Council Area C solar project VIII","operatingCapacityCoverage":{"coveragePercent":100.0,"knownUnitCount":1,"method":"complete_unit_sum","provenance":{"evidenceCount":0,"recordIds":["wattlas-record-gemunit-g100001078860"],"sourceIds":["gem-global-integrated-power-tracker"],"sourceTypes":["research_verified"],"valueKind":"reported"},"totalUnitCount":1},"operatingCapacityMw":5.5,"operatingCapacityMwByTechnology":{"solar":5.5},"plannedCapacityCoverage":{"coveragePercent":0.0,"knownUnitCount":0,"method":"unavailable","totalUnitCount":0},"plannedCapacityMw":0.0,"plannedCapacityMwByTechnology":{},"recordCount":1,"recordIds":["wattlas-record-gemunit-g100001078860"],"sourceIds":["gem-global-integrated-power-tracker"],"technologies":["solar"],"technologyMixMw":{"solar":5.5},"unitCount":1,"unitIds":["gem-unit-G100001078860"]},"type":"Feature"},{"geometry":{"coordinates":[35.1134,32.1004],"type":"Point"},"id":"wattlas-plant-gemplant-l100001069075","properties":{"aliases":["--","Shomron Regional Council Area C solar project"],"canonicalAnchor":"gemplant:L100001069075","canonicalCountryKey":"PS","capacityMw":9.3,"country":"PS","externalIds":{"gemPlant":"L100001069075","gemUnit":"G100001078861"},"geographyId":"PS-83478781B28849486138516","id":"wattlas-plant-gemplant-l100001069075","lifecycleCounts":{"operational":1},"locationPrecision":"exact","name":"Shomron Regional Council Area C solar project","operatingCapacityCoverage":{"coveragePercent":100.0,"knownUnitCount":1,"method":"complete_unit_sum","provenance":{"evidenceCount":0,"recordIds":["wattlas-record-gemunit-g100001078861"],"sourceIds":["gem-global-integrated-power-tracker"],"sourceTypes":["research_verified"],"valueKind":"reported"},"totalUnitCount":1},"operatingCapacityMw":9.3,"operatingCapacityMwByTechnology":{"solar":9.3},"plannedCapacityCoverage":{"coveragePercent":0.0,"knownUnitCount":0,"method":"unavailable","totalUnitCount":0},"plannedCapacityMw":0.0,"plannedCapacityMwByTechnology":{},"recordCount":1,"recordIds":["wattlas-record-gemunit-g100001078861"],"sourceIds":["gem-global-integrated-power-tracker"],"technologies":["solar"],"technologyMixMw":{"solar":9.3},"unitCount":1,"unitIds":["gem-unit-G100001078861"]},"type":"Feature"},{"geometry":{"coordinates":[35.0631,31.6017],"type":"Point"},"id":"wattlas-plant-gemplant-l100001069076","properties":{"aliases":["--","Area B solar project VIII"],"canonicalAnchor":"gemplant:L100001069076","canonicalCountryKey":"PS","capacityMw":1.6,"country":"PS","externalIds":{"gemPlant":"L100001069076","gemUnit":"G100001078862"},"geographyId":"PS-83478781B28849486138516","id":"wattlas-plant-gemplant-l100001069076","lifecycleCounts":{"operational":1},"locationPrecision":"exact","name":"Area B solar project VIII","operatingCapacityCoverage":{"coveragePercent":100.0,"knownUnitCount":1,"method":"complete_unit_sum","provenance":{"evidenceCount":0,"recordIds":["wattlas-record-gemunit-g100001078862"],"sourceIds":["gem-global-integrated-power-tracker"],"sourceTypes":["research_verified"],"valueKind":"reported"},"totalUnitCount":1},"operatingCapacityMw":1.6,"operatingCapacityMwByTechnology":{"solar":1.6},"plannedCapacityCoverage":{"coveragePercent":0.0,"knownUnitCount":0,"method":"unavailable","totalUnitCount":0},"plannedCapacityMw":0.0,"plannedCapacityMwByTechnology":{},"recordCount":1,"recordIds":["wattlas-record-gemunit-g100001078862"],"sourceIds":["gem-global-integrated-power-tracker"],"technologies":["solar"],"technologyMixMw":{"solar":1.6},"unitCount":1,"unitIds":["gem-unit-G100001078862"]},"type":"Feature"},{"geometry":{"coordinates":[35.0987,31.4202],"type":"Point"},"id":"wattlas-plant-gemplant-l100001069079","properties":{"aliases":["--","Area A solar project XI"],"canonicalAnchor":"gemplant:L100001069079","canonicalCountryKey":"PS","capacityMw":1.3,"country":"PS","externalIds":{"gemPlant":"L100001069079","gemUnit":"G100001078865"},"geographyId":"PS-83478781B28849486138516","id":"wattlas-plant-gemplant-l100001069079","lifecycleCounts":{"operational":1},"locationPrecision":"exact","name":"Area A solar project XI","operatingCapacityCoverage":{"coveragePercent":100.0,"knownUnitCount":1,"method":"complete_unit_sum","provenance":{"evidenceCount":0,"recordIds":["wattlas-record-gemunit-g100001078865"],"sourceIds":["gem-global-integrated-power-tracker"],"sourceTypes":["research_verified"],"valueKind":"reported"},"totalUnitCount":1},"operatingCapacityMw":1.3,"operatingCapacityMwByTechnology":{"solar":1.3},"plannedCapacityCoverage":{"coveragePercent":0.0,"knownUnitCount":0,"method":"unavailable","totalUnitCount":0},"plannedCapacityMw":0.0,"plannedCapacityMwByTechnology":{},"recordCount":1,"recordIds":["wattlas-record-gemunit-g100001078865"],"sourceIds":["gem-global-integrated-power-tracker"],"technologies":["solar"],"technologyMixMw":{"solar":1.3},"unitCount":1,"unitIds":["gem-unit-G100001078865"]},"type":"Feature"},{"geometry":{"coordinates":[35.0845,32.3218],"type":"Point"},"id":"wattlas-plant-gemplant-l100001069080","properties":{"aliases":["--","Area B solar project IX"],"canonicalAnchor":"gemplant:L100001069080","canonicalCountryKey":"PS","capacityMw":2.2,"country":"PS","externalIds":{"gemPlant":"L100001069080","gemUnit":"G100001078866"},"geographyId":"PS-83478781B28849486138516","id":"wattlas-plant-gemplant-l100001069080","lifecycleCounts":{"operational":1},"locationPrecision":"exact","name":"Area B solar project IX","operatingCapacityCoverage":{"coveragePercent":100.0,"knownUnitCount":1,"method":"complete_unit_sum","provenance":{"evidenceCount":0,"recordIds":["wattlas-record-gemunit-g100001078866"],"sourceIds":["gem-global-integrated-power-tracker"],"sourceTypes":["research_verified"],"valueKind":"reported"},"totalUnitCount":1},"operatingCapacityMw":2.2,"operatingCapacityMwByTechnology":{"solar":2.2},"plannedCapacityCoverage":{"coveragePercent":0.0,"knownUnitCount":0,"method":"unavailable","totalUnitCount":0},"plannedCapacityMw":0.0,"plannedCapacityMwByTechnology":{},"recordCount":1,"recordIds":["wattlas-record-gemunit-g100001078866"],"sourceIds":["gem-global-integrated-power-tracker"],"technologies":["solar"],"technologyMixMw":{"solar":2.2},"unitCount":1,"unitIds":["gem-unit-G100001078866"]},"type":"Feature"},{"geometry":{"coordinates":[35.4184,31.9501],"type":"Point"},"id":"wattlas-plant-gemplant-l100001069083","properties":{"aliases":["--","Area C solar project XI"],"canonicalAnchor":"gemplant:L100001069083","canonicalCountryKey":"PS","capacityMw":2.2,"country":"PS","externalIds":{"gemPlant":"L100001069083","gemUnit":"G100001078869"},"geographyId":"PS-83478781B28849486138516","id":"wattlas-plant-gemplant-l100001069083","lifecycleCounts":{"operational":1},"locationPrecision":"exact","name":"Area C solar project XI","operatingCapacityCoverage":{"coveragePercent":100.0,"knownUnitCount":1,"method":"complete_unit_sum","provenance":{"evidenceCount":0,"recordIds":["wattlas-record-gemunit-g100001078869"],"sourceIds":["gem-global-integrated-power-tracker"],"sourceTypes":["research_verified"],"valueKind":"reported"},"totalUnitCount":1},"operatingCapacityMw":2.2,"operatingCapacityMwByTechnology":{"solar":2.2},"plannedCapacityCoverage":{"coveragePercent":0.0,"knownUnitCount":0,"method":"unavailable","totalUnitCount":0},"plannedCapacityMw":0.0,"plannedCapacityMwByTechnology":{},"recordCount":1,"recordIds":["wattlas-record-gemunit-g100001078869"],"sourceIds":["gem-global-integrated-power-tracker"],"technologies":["solar"],"technologyMixMw":{"solar":2.2},"unitCount":1,"unitIds":["gem-unit-G100001078869"]},"type":"Feature"},{"geometry":{"coordinates":[35.1733,31.4219],"type":"Point"},"id":"wattlas-plant-gemplant-l100001069086","properties":{"aliases":["--","Area C solar project XII"],"canonicalAnchor":"gemplant:L100001069086","canonicalCountryKey":"PS","capacityMw":1.2,"country":"PS","externalIds":{"gemPlant":"L100001069086","gemUnit":"G100001078872"},"geographyId":"PS-83478781B28849486138516","id":"wattlas-plant-gemplant-l100001069086","lifecycleCounts":{"operational":1},"locationPrecision":"exact","name":"Area C solar project XII","operatingCapacityCoverage":{"coveragePercent":100.0,"knownUnitCount":1,"method":"complete_unit_sum","provenance":{"evidenceCount":0,"recordIds":["wattlas-record-gemunit-g100001078872"],"sourceIds":["gem-global-integrated-power-tracker"],"sourceTypes":["research_verified"],"valueKind":"reported"},"totalUnitCount":1},"operatingCapacityMw":1.2,"operatingCapacityMwByTechnology":{"solar":1.2},"plannedCapacityCoverage":{"coveragePercent":0.0,"knownUnitCount":0,"method":"unavailable","totalUnitCount":0},"plannedCapacityMw":0.0,"plannedCapacityMwByTechnology":{},"recordCount":1,"recordIds":["wattlas-record-gemunit-g100001078872"],"sourceIds":["gem-global-integrated-power-tracker"],"technologies":["solar"],"technologyMixMw":{"solar":1.2},"unitCount":1,"unitIds":["gem-unit-G100001078872"]},"type":"Feature"},{"geometry":{"coordinates":[35.0954,31.474],"type":"Point"},"id":"wattlas-plant-gemplant-l100001069088","properties":{"aliases":["--","Area A solar project XII"],"canonicalAnchor":"gemplant:L100001069088","canonicalCountryKey":"PS","capacityMw":1.0,"country":"PS","externalIds":{"gemPlant":"L100001069088","gemUnit":"G100001078874"},"geographyId":"PS-83478781B28849486138516","id":"wattlas-plant-gemplant-l100001069088","lifecycleCounts":{"operational":1},"locationPrecision":"exact","name":"Area A solar project XII","operatingCapacityCoverage":{"coveragePercent":100.0,"knownUnitCount":1,"method":"complete_unit_sum","provenance":{"evidenceCount":0,"recordIds":["wattlas-record-gemunit-g100001078874"],"sourceIds":["gem-global-integrated-power-tracker"],"sourceTypes":["research_verified"],"valueKind":"reported"},"totalUnitCount":1},"operatingCapacityMw":1.0,"operatingCapacityMwByTechnology":{"solar":1.0},"plannedCapacityCoverage":{"coveragePercent":0.0,"knownUnitCount":0,"method":"unavailable","totalUnitCount":0},"plannedCapacityMw":0.0,"plannedCapacityMwByTechnology":{},"recordCount":1,"recordIds":["wattlas-record-gemunit-g100001078874"],"sourceIds":["gem-global-integrated-power-tracker"],"technologies":["solar"],"technologyMixMw":{"solar":1.0},"unitCount":1,"unitIds":["gem-unit-G100001078874"]},"type":"Feature"},{"geometry":{"coordinates":[35.1341,32.2515],"type":"Point"},"id":"wattlas-plant-gemplant-l100001069089","properties":{"aliases":["--","Area B solar project XI"],"canonicalAnchor":"gemplant:L100001069089","canonicalCountryKey":"PS","capacityMw":3.2,"country":"PS","externalIds":{"gemPlant":"L100001069089","gemUnit":"G100001078875"},"geographyId":"PS-83478781B28849486138516","id":"wattlas-plant-gemplant-l100001069089","lifecycleCounts":{"operational":1},"locationPrecision":"exact","name":"Area B solar project XI","operatingCapacityCoverage":{"coveragePercent":100.0,"knownUnitCount":1,"method":"complete_unit_sum","provenance":{"evidenceCount":0,"recordIds":["wattlas-record-gemunit-g100001078875"],"sourceIds":["gem-global-integrated-power-tracker"],"sourceTypes":["research_verified"],"valueKind":"reported"},"totalUnitCount":1},"operatingCapacityMw":3.2,"operatingCapacityMwByTechnology":{"solar":3.2},"plannedCapacityCoverage":{"coveragePercent":0.0,"knownUnitCount":0,"method":"unavailable","totalUnitCount":0},"plannedCapacityMw":0.0,"plannedCapacityMwByTechnology":{},"recordCount":1,"recordIds":["wattlas-record-gemunit-g100001078875"],"sourceIds":["gem-global-integrated-power-tracker"],"technologies":["solar"],"technologyMixMw":{"solar":3.2},"unitCount":1,"unitIds":["gem-unit-G100001078875"]},"type":"Feature"},{"geometry":{"coordinates":[35.1852,31.9598],"type":"Point"},"id":"wattlas-plant-gemplant-l100001069091","properties":{"aliases":["--","Area B solar project XII"],"canonicalAnchor":"gemplant:L100001069091","canonicalCountryKey":"PS","capacityMw":1.0,"country":"PS","externalIds":{"gemPlant":"L100001069091","gemUnit":"G100001078877"},"geographyId":"PS-83478781B28849486138516","id":"wattlas-plant-gemplant-l100001069091","lifecycleCounts":{"operational":1},"locationPrecision":"exact","name":"Area B solar project XII","operatingCapacityCoverage":{"coveragePercent":100.0,"knownUnitCount":1,"method":"complete_unit_sum","provenance":{"evidenceCount":0,"recordIds":["wattlas-record-gemunit-g100001078877"],"sourceIds":["gem-global-integrated-power-tracker"],"sourceTypes":["research_verified"],"valueKind":"reported"},"totalUnitCount":1},"operatingCapacityMw":1.0,"operatingCapacityMwByTechnology":{"solar":1.0},"plannedCapacityCoverage":{"coveragePercent":0.0,"knownUnitCount":0,"method":"unavailable","totalUnitCount":0},"plannedCapacityMw":0.0,"plannedCapacityMwByTechnology":{},"recordCount":1,"recordIds":["wattlas-record-gemunit-g100001078877"],"sourceIds":["gem-global-integrated-power-tracker"],"technologies":["solar"],"technologyMixMw":{"solar":1.0},"unitCount":1,"unitIds":["gem-unit-G100001078877"]},"type":"Feature"},{"geometry":{"coordinates":[35.3585,32.262],"type":"Point"},"id":"wattlas-plant-gemplant-l100001069095","properties":{"aliases":["--","Area B solar project XIII"],"canonicalAnchor":"gemplant:L100001069095","canonicalCountryKey":"PS","capacityMw":1.2,"country":"PS","externalIds":{"gemPlant":"L100001069095","gemUnit":"G100001078881"},"geographyId":"PS-83478781B28849486138516","id":"wattlas-plant-gemplant-l100001069095","lifecycleCounts":{"operational":1},"locationPrecision":"exact","name":"Area B solar project XIII","operatingCapacityCoverage":{"coveragePercent":100.0,"knownUnitCount":1,"method":"complete_unit_sum","provenance":{"evidenceCount":0,"recordIds":["wattlas-record-gemunit-g100001078881"],"sourceIds":["gem-global-integrated-power-tracker"],"sourceTypes":["research_verified"],"valueKind":"reported"},"totalUnitCount":1},"operatingCapacityMw":1.2,"operatingCapacityMwByTechnology":{"solar":1.2},"plannedCapacityCoverage":{"coveragePercent":0.0,"knownUnitCount":0,"method":"unavailable","totalUnitCount":0},"plannedCapacityMw":0.0,"plannedCapacityMwByTechnology":{},"recordCount":1,"recordIds":["wattlas-record-gemunit-g100001078881"],"sourceIds":["gem-global-integrated-power-tracker"],"technologies":["solar"],"technologyMixMw":{"solar":1.2},"unitCount":1,"unitIds":["gem-unit-G100001078881"]},"type":"Feature"},{"geometry":{"coordinates":[35.1665,31.4094],"type":"Point"},"id":"wattlas-plant-gemplant-l100001069096","properties":{"aliases":["--","Area C solar project XIII"],"canonicalAnchor":"gemplant:L100001069096","canonicalCountryKey":"PS","capacityMw":1.1,"country":"PS","externalIds":{"gemPlant":"L100001069096","gemUnit":"G100001078882"},"geographyId":"PS-83478781B28849486138516","id":"wattlas-plant-gemplant-l100001069096","lifecycleCounts":{"operational":1},"locationPrecision":"exact","name":"Area C solar project XIII","operatingCapacityCoverage":{"coveragePercent":100.0,"knownUnitCount":1,"method":"complete_unit_sum","provenance":{"evidenceCount":0,"recordIds":["wattlas-record-gemunit-g100001078882"],"sourceIds":["gem-global-integrated-power-tracker"],"sourceTypes":["research_verified"],"valueKind":"reported"},"totalUnitCount":1},"operatingCapacityMw":1.1,"operatingCapacityMwByTechnology":{"solar":1.1},"plannedCapacityCoverage":{"coveragePercent":0.0,"knownUnitCount":0,"method":"unavailable","totalUnitCount":0},"plannedCapacityMw":0.0,"plannedCapacityMwByTechnology":{},"recordCount":1,"recordIds":["wattlas-record-gemunit-g100001078882"],"sourceIds":["gem-global-integrated-power-tracker"],"technologies":["solar"],"technologyMixMw":{"solar":1.1},"unitCount":1,"unitIds":["gem-unit-G100001078882"]},"type":"Feature"},{"geometry":{"coordinates":[35.4055,32.3479],"type":"Point"},"id":"wattlas-plant-gemplant-l100001069099","properties":{"aliases":["--","Area A solar project XIII"],"canonicalAnchor":"gemplant:L100001069099","canonicalCountryKey":"PS","capacityMw":1.3,"country":"PS","externalIds":{"gemPlant":"L100001069099","gemUnit":"G100001078885"},"geographyId":"PS-83478781B28849486138516","id":"wattlas-plant-gemplant-l100001069099","lifecycleCounts":{"operational":1},"locationPrecision":"exact","name":"Area A solar project XIII","operatingCapacityCoverage":{"coveragePercent":100.0,"knownUnitCount":1,"method":"complete_unit_sum","provenance":{"evidenceCount":0,"recordIds":["wattlas-record-gemunit-g100001078885"],"sourceIds":["gem-global-integrated-power-tracker"],"sourceTypes":["research_verified"],"valueKind":"reported"},"totalUnitCount":1},"operatingCapacityMw":1.3,"operatingCapacityMwByTechnology":{"solar":1.3},"plannedCapacityCoverage":{"coveragePercent":0.0,"knownUnitCount":0,"method":"unavailable","totalUnitCount":0},"plannedCapacityMw":0.0,"plannedCapacityMwByTechnology":{},"recordCount":1,"recordIds":["wattlas-record-gemunit-g100001078885"],"sourceIds":["gem-global-integrated-power-tracker"],"technologies":["solar"],"technologyMixMw":{"solar":1.3},"unitCount":1,"unitIds":["gem-unit-G100001078885"]},"type":"Feature"},{"geometry":{"coordinates":[35.3864,32.2999],"type":"Point"},"id":"wattlas-plant-gemplant-l100001081772","properties":{"aliases":["--","Noor Tubas solar farm"],"canonicalAnchor":"gemplant:L100001081772","canonicalCountryKey":"PS","capacityMw":24.0,"country":"PS","externalIds":{"gemPlant":"L100001081772","gemUnit":"G100001092049"},"geographyId":"PS-83478781B28849486138516","id":"wattlas-plant-gemplant-l100001081772","lifecycleCounts":{"operational":1},"locationPrecision":"exact","name":"Noor Tubas solar farm","operatingCapacityCoverage":{"coveragePercent":100.0,"knownUnitCount":1,"method":"complete_unit_sum","provenance":{"evidenceCount":0,"recordIds":["wattlas-record-gemunit-g100001092049"],"sourceIds":["gem-global-integrated-power-tracker"],"sourceTypes":["research_verified"],"valueKind":"reported"},"totalUnitCount":1},"operatingCapacityMw":24.0,"operatingCapacityMwByTechnology":{"solar":24.0},"plannedCapacityCoverage":{"coveragePercent":0.0,"knownUnitCount":0,"method":"unavailable","totalUnitCount":0},"plannedCapacityMw":0.0,"plannedCapacityMwByTechnology":{},"recordCount":1,"recordIds":["wattlas-record-gemunit-g100001092049"],"sourceIds":["gem-global-integrated-power-tracker"],"technologies":["solar"],"technologyMixMw":{"solar":24.0},"unitCount":1,"unitIds":["gem-unit-G100001092049"]},"type":"Feature"},{"geometry":{"coordinates":[35.534044,32.342533],"type":"Point"},"id":"wattlas-plant-osm-way-542312618","properties":{"aliases":["מתקן פוטו-וולטאי שדמות מחולה"],"canonicalAnchor":"osm:way/542312618","canonicalCountryKey":"PS","capacityMw":0.0,"country":"PS","externalIds":{"osm":"way/542312618"},"geographyId":"PS-83478781B28849486138516","id":"wattlas-plant-osm-way-542312618","lifecycleCounts":{"operational":1},"locationPrecision":"exact","name":"מתקן פוטו-וולטאי שדמות מחולה","operatingCapacityCoverage":{"coveragePercent":0.0,"knownUnitCount":0,"method":"unavailable","totalUnitCount":0},"operatingCapacityMw":0.0,"operatingCapacityMwByTechnology":{},"plannedCapacityCoverage":{"coveragePercent":0.0,"knownUnitCount":0,"method":"unavailable","totalUnitCount":0},"plannedCapacityMw":0.0,"plannedCapacityMwByTechnology":{},"recordCount":1,"recordIds":["wattlas-record-osm-way-542312618"],"sourceIds":["openstreetmap-power"],"technologies":["solar"],"technologyMixMw":{"solar":0.0},"unitCount":0,"unitIds":[]},"type":"Feature"},{"geometry":{"coordinates":[35.473402,31.748401],"type":"Point"},"id":"wattlas-plant-osm-way-658588791","properties":{"aliases":["שדה שמש"],"canonicalAnchor":"osm:way/658588791","canonicalCountryKey":"PS","capacityMw":0.0,"country":"PS","externalIds":{"osm":"way/658588791"},"geographyId":"PS-83478781B28849486138516","id":"wattlas-plant-osm-way-658588791","lifecycleCounts":{"operational":1},"locationPrecision":"exact","name":"שדה שמש","operatingCapacityCoverage":{"coveragePercent":0.0,"knownUnitCount":0,"method":"unavailable","totalUnitCount":0},"operatingCapacityMw":0.0,"operatingCapacityMwByTechnology":{},"plannedCapacityCoverage":{"coveragePercent":0.0,"knownUnitCount":0,"method":"unavailable","totalUnitCount":0},"plannedCapacityMw":0.0,"plannedCapacityMwByTechnology":{},"recordCount":1,"recordIds":["wattlas-record-osm-way-658588791"],"sourceIds":["openstreetmap-power"],"technologies":["solar"],"technologyMixMw":{"solar":0.0},"unitCount":0,"unitIds":[]},"type":"Feature"},{"geometry":{"coordinates":[35.304017,32.3468],"type":"Point"},"id":"wattlas-plant-osm-way-898173711","properties":{"aliases":["Mapped power plant · OSM 898173711"],"canonicalAnchor":"osm:way/898173711","canonicalCountryKey":"PS","capacityMw":0.0,"country":"PS","externalIds":{"osm":"way/898173711"},"geographyId":"PS-83478781B28849486138516","id":"wattlas-plant-osm-way-898173711","lifecycleCounts":{"operational":1},"locationPrecision":"exact","name":"Mapped power plant · OSM 898173711","operatingCapacityCoverage":{"coveragePercent":0.0,"knownUnitCount":0,"method":"unavailable","totalUnitCount":0},"operatingCapacityMw":0.0,"operatingCapacityMwByTechnology":{},"plannedCapacityCoverage":{"coveragePercent":0.0,"knownUnitCount":0,"method":"unavailable","totalUnitCount":0},"plannedCapacityMw":0.0,"plannedCapacityMwByTechnology":{},"recordCount":1,"recordIds":["wattlas-record-osm-way-898173711"],"sourceIds":["openstreetmap-power"],"technologies":["solar"],"technologyMixMw":{"solar":0.0},"unitCount":0,"unitIds":[]},"type":"Feature"},{"geometry":{"coordinates":[35.213758,31.857896],"type":"Point"},"id":"wattlas-plant-osm-way-960894695","properties":{"aliases":["Atarot Power Station"],"canonicalAnchor":"osm:way/960894695","canonicalCountryKey":"PS","capacityMw":68.0,"country":"PS","externalIds":{"osm":"way/960894695"},"geographyId":"PS-83478781B28849486138516","id":"wattlas-plant-osm-way-960894695","lifecycleCounts":{"operational":1},"locationPrecision":"exact","name":"Atarot Power Station","operatingCapacityCoverage":{"coveragePercent":100.0,"knownUnitCount":0,"method":"plant_aggregate","provenance":{"evidenceCount":0,"recordIds":["wattlas-record-osm-way-960894695"],"sourceIds":["openstreetmap-power"],"sourceTypes":["community_mapped"],"valueKind":"reported"},"totalUnitCount":0},"operatingCapacityMw":68.0,"operatingCapacityMwByTechnology":{"other":68.0},"plannedCapacityCoverage":{"coveragePercent":0.0,"knownUnitCount":0,"method":"unavailable","totalUnitCount":0},"plannedCapacityMw":0.0,"plannedCapacityMwByTechnology":{},"recordCount":1,"recordIds":["wattlas-record-osm-way-960894695"],"sourceIds":["openstreetmap-power"],"technologies":["other"],"technologyMixMw":{"other":68.0},"unitCount":0,"unitIds":[]},"type":"Feature"},{"geometry":{"coordinates":[34.401944,31.455461],"type":"Point"},"id":"wattlas-plant-wikidata-q102394246","properties":{"aliases":["محطة توليد الكهرباء في غزة"],"canonicalAnchor":"wikidata:Q102394246","canonicalCountryKey":"PS","capacityMw":140.0,"country":"PS","externalIds":{"osm":"way/41305557","wikidata":"Q102394246"},"geographyId":"PS-83478781B7121896376882","id":"wattlas-plant-wikidata-q102394246","idAliases":["wattlas-plant-osm-way-41305557"],"lifecycleCounts":{"operational":1},"locationPrecision":"exact","name":"محطة توليد الكهرباء في غزة","operatingCapacityCoverage":{"coveragePercent":100.0,"knownUnitCount":0,"method":"plant_aggregate","provenance":{"evidenceCount":0,"recordIds":["wattlas-record-osm-way-41305557"],"sourceIds":["openstreetmap-power"],"sourceTypes":["community_mapped"],"valueKind":"reported"},"totalUnitCount":0},"operatingCapacityMw":140.0,"operatingCapacityMwByTechnology":{"other":140.0},"plannedCapacityCoverage":{"coveragePercent":0.0,"knownUnitCount":0,"method":"unavailable","totalUnitCount":0},"plannedCapacityMw":0.0,"plannedCapacityMwByTechnology":{},"recordCount":1,"recordIds":["wattlas-record-osm-way-41305557"],"sourceIds":["openstreetmap-power"],"technologies":["other"],"technologyMixMw":{"other":140.0},"unitCount":0,"unitIds":[]},"type":"Feature"}],"type":"FeatureCollection"}