{"features":[{"geometry":{"coordinates":[31.80487,-26.42761],"type":"Point"},"id":"wattlas-plant-gemplant-l100000104778","properties":{"aliases":["Lubhuku power station","Unit 1","Unit 2","Unit 3"],"canonicalAnchor":"gemplant:L100000104778","canonicalCountryKey":"SZ","capacityMw":300.0,"country":"SZ","externalIdAliases":{"gemUnit":["G100000114869","G100000114870","G100000114871"]},"externalIds":{"gemPlant":"L100000104778","gemUnit":"G100000114871"},"geographyId":"SZ-75366066B12234306804593","id":"wattlas-plant-gemplant-l100000104778","lifecycleCounts":{"announced":3},"locationPrecision":"exact","name":"Lubhuku power station","operatingCapacityCoverage":{"coveragePercent":0.0,"knownUnitCount":0,"method":"unavailable","totalUnitCount":0},"operatingCapacityMw":0.0,"operatingCapacityMwByTechnology":{},"plannedCapacityCoverage":{"coveragePercent":100.0,"knownUnitCount":3,"method":"complete_unit_sum","provenance":{"evidenceCount":0,"recordIds":["wattlas-record-gemunit-g100000114869","wattlas-record-gemunit-g100000114870","wattlas-record-gemunit-g100000114871"],"sourceIds":["gem-global-integrated-power-tracker"],"sourceTypes":["research_verified"],"valueKind":"reported"},"totalUnitCount":3},"plannedCapacityMw":300.0,"plannedCapacityMwByTechnology":{"coal":300.0},"recordCount":3,"recordIds":["wattlas-record-gemunit-g100000114869","wattlas-record-gemunit-g100000114870","wattlas-record-gemunit-g100000114871"],"sourceIds":["gem-global-integrated-power-tracker"],"technologies":["coal"],"technologyMixMw":{"coal":300.0},"unitCount":3,"unitIds":["gem-unit-G100000114869","gem-unit-G100000114870","gem-unit-G100000114871"]},"type":"Feature"},{"geometry":{"coordinates":[31.9079,-26.1766],"type":"Point"},"id":"wattlas-plant-gemplant-l100000200010","properties":{"aliases":["4.0","Simunye Sugar Cogeneration power station"],"canonicalAnchor":"gemplant:L100000200010","canonicalCountryKey":"SZ","capacityMw":30.0,"country":"SZ","externalIds":{"gemPlant":"L100000200010","gemUnit":"G100000200010"},"geographyId":"SZ-75366066B12234306804593","id":"wattlas-plant-gemplant-l100000200010","lifecycleCounts":{"operational":1},"locationPrecision":"exact","name":"Simunye Sugar Cogeneration power station","operatingCapacityCoverage":{"coveragePercent":100.0,"knownUnitCount":1,"method":"complete_unit_sum","provenance":{"evidenceCount":0,"recordIds":["wattlas-record-gemunit-g100000200010"],"sourceIds":["gem-global-integrated-power-tracker"],"sourceTypes":["research_verified"],"valueKind":"reported"},"totalUnitCount":1},"operatingCapacityMw":30.0,"operatingCapacityMwByTechnology":{"biomass":30.0},"plannedCapacityCoverage":{"coveragePercent":0.0,"knownUnitCount":0,"method":"unavailable","totalUnitCount":0},"plannedCapacityMw":0.0,"plannedCapacityMwByTechnology":{},"recordCount":1,"recordIds":["wattlas-record-gemunit-g100000200010"],"sourceIds":["gem-global-integrated-power-tracker"],"technologies":["biomass"],"technologyMixMw":{"biomass":30.0},"unitCount":1,"unitIds":["gem-unit-G100000200010"]},"type":"Feature"},{"geometry":{"coordinates":[31.9386,-26.7756],"type":"Point"},"id":"wattlas-plant-gemplant-l100000200013","properties":{"aliases":["1.0","Ubombo Sugar Mill power station"],"canonicalAnchor":"gemplant:L100000200013","canonicalCountryKey":"SZ","capacityMw":40.0,"country":"SZ","externalIds":{"gemPlant":"L100000200013","gemUnit":"G100000200014"},"geographyId":"SZ-75366066B12234306804593","id":"wattlas-plant-gemplant-l100000200013","lifecycleCounts":{"operational":1},"locationPrecision":"exact","name":"Ubombo Sugar Mill power station","operatingCapacityCoverage":{"coveragePercent":100.0,"knownUnitCount":1,"method":"complete_unit_sum","provenance":{"evidenceCount":0,"recordIds":["wattlas-record-gemunit-g100000200014"],"sourceIds":["gem-global-integrated-power-tracker"],"sourceTypes":["research_verified"],"valueKind":"reported"},"totalUnitCount":1},"operatingCapacityMw":40.0,"operatingCapacityMwByTechnology":{"biomass":40.0},"plannedCapacityCoverage":{"coveragePercent":0.0,"knownUnitCount":0,"method":"unavailable","totalUnitCount":0},"plannedCapacityMw":0.0,"plannedCapacityMwByTechnology":{},"recordCount":1,"recordIds":["wattlas-record-gemunit-g100000200014"],"sourceIds":["gem-global-integrated-power-tracker"],"technologies":["biomass"],"technologyMixMw":{"biomass":40.0},"unitCount":1,"unitIds":["gem-unit-G100000200014"]},"type":"Feature"},{"geometry":{"coordinates":[31.0081,-26.5317],"type":"Point"},"id":"wattlas-plant-gemplant-l100000200022","properties":{"aliases":["1.0","Usutu power station"],"canonicalAnchor":"gemplant:L100000200022","canonicalCountryKey":"SZ","capacityMw":0.0,"country":"SZ","externalIds":{"gemPlant":"L100000200022","gemUnit":"G100000200024"},"geographyId":"SZ-75366066B3567364273406","id":"wattlas-plant-gemplant-l100000200022","lifecycleCounts":{"paused":1},"locationPrecision":"exact","name":"Usutu power station","operatingCapacityCoverage":{"coveragePercent":0.0,"knownUnitCount":0,"method":"unavailable","totalUnitCount":0},"operatingCapacityMw":0.0,"operatingCapacityMwByTechnology":{},"plannedCapacityCoverage":{"coveragePercent":0.0,"knownUnitCount":0,"method":"unavailable","totalUnitCount":0},"plannedCapacityMw":0.0,"plannedCapacityMwByTechnology":{},"recordCount":1,"recordIds":["wattlas-record-gemunit-g100000200024"],"sourceIds":["gem-global-integrated-power-tracker"],"technologies":["biomass"],"technologyMixMw":{"biomass":0.0},"unitCount":1,"unitIds":["gem-unit-G100000200024"]},"type":"Feature"},{"geometry":{"coordinates":[31.1719,-26.6914],"type":"Point"},"id":"wattlas-plant-gemplant-l100000601573","properties":{"aliases":["Ngwempisi River hydroelectric plant"],"canonicalAnchor":"gemplant:L100000601573","canonicalCountryKey":"SZ","capacityMw":120.0,"country":"SZ","externalIds":{"gemPlant":"L100000601573","gemUnit":"G100000604667"},"geographyId":"SZ-75366066B3567364273406","id":"wattlas-plant-gemplant-l100000601573","lifecycleCounts":{"announced":1},"locationPrecision":"exact","name":"Ngwempisi River hydroelectric plant","operatingCapacityCoverage":{"coveragePercent":0.0,"knownUnitCount":0,"method":"unavailable","totalUnitCount":0},"operatingCapacityMw":0.0,"operatingCapacityMwByTechnology":{},"plannedCapacityCoverage":{"coveragePercent":100.0,"knownUnitCount":1,"method":"complete_unit_sum","provenance":{"evidenceCount":0,"recordIds":["wattlas-record-gemunit-g100000604667"],"sourceIds":["gem-global-integrated-power-tracker"],"sourceTypes":["research_verified"],"valueKind":"reported"},"totalUnitCount":1},"plannedCapacityMw":120.0,"plannedCapacityMwByTechnology":{"hydro":120.0},"recordCount":1,"recordIds":["wattlas-record-gemunit-g100000604667"],"sourceIds":["gem-global-integrated-power-tracker"],"technologies":["hydro"],"technologyMixMw":{"hydro":120.0},"unitCount":1,"unitIds":["gem-unit-G100000604667"]},"type":"Feature"},{"geometry":{"coordinates":[31.7246,-27.1138],"type":"Point"},"id":"wattlas-plant-gemplant-l100001019205","properties":{"aliases":["--","Lavumisa solar farm"],"canonicalAnchor":"gemplant:L100001019205","canonicalCountryKey":"SZ","capacityMw":10.0,"country":"SZ","externalIds":{"gemPlant":"L100001019205","gemUnit":"G100001021662"},"geographyId":"SZ-75366066B21527038718027","id":"wattlas-plant-gemplant-l100001019205","lifecycleCounts":{"operational":1},"locationPrecision":"exact","name":"Lavumisa solar farm","operatingCapacityCoverage":{"coveragePercent":100.0,"knownUnitCount":1,"method":"complete_unit_sum","provenance":{"evidenceCount":0,"recordIds":["wattlas-record-gemunit-g100001021662"],"sourceIds":["gem-global-integrated-power-tracker"],"sourceTypes":["research_verified"],"valueKind":"reported"},"totalUnitCount":1},"operatingCapacityMw":10.0,"operatingCapacityMwByTechnology":{"solar":10.0},"plannedCapacityCoverage":{"coveragePercent":0.0,"knownUnitCount":0,"method":"unavailable","totalUnitCount":0},"plannedCapacityMw":0.0,"plannedCapacityMwByTechnology":{},"recordCount":1,"recordIds":["wattlas-record-gemunit-g100001021662"],"sourceIds":["gem-global-integrated-power-tracker"],"technologies":["solar"],"technologyMixMw":{"solar":10.0},"unitCount":1,"unitIds":["gem-unit-G100001021662"]},"type":"Feature"},{"geometry":{"coordinates":[31.7662,-26.7354],"type":"Point"},"id":"wattlas-plant-gemplant-l100001020891","properties":{"aliases":["--","Inkhundla Siphofaneni solar project"],"canonicalAnchor":"gemplant:L100001020891","canonicalCountryKey":"SZ","capacityMw":1.8,"country":"SZ","externalIds":{"gemPlant":"L100001020891","gemUnit":"G100001023860"},"geographyId":"SZ-75366066B12234306804593","id":"wattlas-plant-gemplant-l100001020891","lifecycleCounts":{"operational":1},"locationPrecision":"exact","name":"Inkhundla Siphofaneni solar project","operatingCapacityCoverage":{"coveragePercent":100.0,"knownUnitCount":1,"method":"complete_unit_sum","provenance":{"evidenceCount":0,"recordIds":["wattlas-record-gemunit-g100001023860"],"sourceIds":["gem-global-integrated-power-tracker"],"sourceTypes":["research_verified"],"valueKind":"reported"},"totalUnitCount":1},"operatingCapacityMw":1.8,"operatingCapacityMwByTechnology":{"solar":1.8},"plannedCapacityCoverage":{"coveragePercent":0.0,"knownUnitCount":0,"method":"unavailable","totalUnitCount":0},"plannedCapacityMw":0.0,"plannedCapacityMwByTechnology":{},"recordCount":1,"recordIds":["wattlas-record-gemunit-g100001023860"],"sourceIds":["gem-global-integrated-power-tracker"],"technologies":["solar"],"technologyMixMw":{"solar":1.8},"unitCount":1,"unitIds":["gem-unit-G100001023860"]},"type":"Feature"},{"geometry":{"coordinates":[31.816977,-26.05249],"type":"Point"},"id":"wattlas-plant-gemplant-l100001047442","properties":{"aliases":["--","Mhlume Sugar cogeneration power station"],"canonicalAnchor":"gemplant:L100001047442","canonicalCountryKey":"SZ","capacityMw":18.5,"country":"SZ","externalIds":{"gemPlant":"L100001047442","gemUnit":"G100001053991"},"geographyId":"SZ-75366066B12234306804593","id":"wattlas-plant-gemplant-l100001047442","lifecycleCounts":{"announced":1},"locationPrecision":"exact","name":"Mhlume Sugar cogeneration power station","operatingCapacityCoverage":{"coveragePercent":0.0,"knownUnitCount":0,"method":"unavailable","totalUnitCount":0},"operatingCapacityMw":0.0,"operatingCapacityMwByTechnology":{},"plannedCapacityCoverage":{"coveragePercent":100.0,"knownUnitCount":1,"method":"complete_unit_sum","provenance":{"evidenceCount":0,"recordIds":["wattlas-record-gemunit-g100001053991"],"sourceIds":["gem-global-integrated-power-tracker"],"sourceTypes":["research_verified"],"valueKind":"reported"},"totalUnitCount":1},"plannedCapacityMw":18.5,"plannedCapacityMwByTechnology":{"biomass":18.5},"recordCount":1,"recordIds":["wattlas-record-gemunit-g100001053991"],"sourceIds":["gem-global-integrated-power-tracker"],"technologies":["biomass"],"technologyMixMw":{"biomass":18.5},"unitCount":1,"unitIds":["gem-unit-G100001053991"]},"type":"Feature"},{"geometry":{"coordinates":[31.008043,-26.531904],"type":"Point"},"id":"wattlas-plant-gemplant-l100001047444","properties":{"aliases":["--","Bhunya power plant"],"canonicalAnchor":"gemplant:L100001047444","canonicalCountryKey":"SZ","capacityMw":25.0,"country":"SZ","externalIds":{"gemPlant":"L100001047444","gemUnit":"G100001053993"},"geographyId":"SZ-75366066B3567364273406","id":"wattlas-plant-gemplant-l100001047444","lifecycleCounts":{"operational":1},"locationPrecision":"exact","name":"Bhunya power plant","operatingCapacityCoverage":{"coveragePercent":100.0,"knownUnitCount":1,"method":"complete_unit_sum","provenance":{"evidenceCount":0,"recordIds":["wattlas-record-gemunit-g100001053993"],"sourceIds":["gem-global-integrated-power-tracker"],"sourceTypes":["research_verified"],"valueKind":"reported"},"totalUnitCount":1},"operatingCapacityMw":25.0,"operatingCapacityMwByTechnology":{"biomass":25.0},"plannedCapacityCoverage":{"coveragePercent":0.0,"knownUnitCount":0,"method":"unavailable","totalUnitCount":0},"plannedCapacityMw":0.0,"plannedCapacityMwByTechnology":{},"recordCount":1,"recordIds":["wattlas-record-gemunit-g100001053993"],"sourceIds":["gem-global-integrated-power-tracker"],"technologies":["biomass"],"technologyMixMw":{"biomass":25.0},"unitCount":1,"unitIds":["gem-unit-G100001053993"]},"type":"Feature"},{"geometry":{"coordinates":[31.9293,-26.1367],"type":"Point"},"id":"wattlas-plant-gemplant-l100001064788","properties":{"aliases":["--","Inkhundla Mhlume solar project"],"canonicalAnchor":"gemplant:L100001064788","canonicalCountryKey":"SZ","capacityMw":1.3,"country":"SZ","externalIds":{"gemPlant":"L100001064788","gemUnit":"G100001074574"},"geographyId":"SZ-75366066B12234306804593","id":"wattlas-plant-gemplant-l100001064788","lifecycleCounts":{"operational":1},"locationPrecision":"exact","name":"Inkhundla Mhlume solar project","operatingCapacityCoverage":{"coveragePercent":100.0,"knownUnitCount":1,"method":"complete_unit_sum","provenance":{"evidenceCount":0,"recordIds":["wattlas-record-gemunit-g100001074574"],"sourceIds":["gem-global-integrated-power-tracker"],"sourceTypes":["research_verified"],"valueKind":"reported"},"totalUnitCount":1},"operatingCapacityMw":1.3,"operatingCapacityMwByTechnology":{"solar":1.3},"plannedCapacityCoverage":{"coveragePercent":0.0,"knownUnitCount":0,"method":"unavailable","totalUnitCount":0},"plannedCapacityMw":0.0,"plannedCapacityMwByTechnology":{},"recordCount":1,"recordIds":["wattlas-record-gemunit-g100001074574"],"sourceIds":["gem-global-integrated-power-tracker"],"technologies":["solar"],"technologyMixMw":{"solar":1.3},"unitCount":1,"unitIds":["gem-unit-G100001074574"]},"type":"Feature"},{"geometry":{"coordinates":[31.8233,-26.7899],"type":"Point"},"id":"wattlas-plant-gemplant-l100001064789","properties":{"aliases":["--","Inkhundla Nkilongo solar project"],"canonicalAnchor":"gemplant:L100001064789","canonicalCountryKey":"SZ","capacityMw":1.6,"country":"SZ","externalIds":{"gemPlant":"L100001064789","gemUnit":"G100001074575"},"geographyId":"SZ-75366066B12234306804593","id":"wattlas-plant-gemplant-l100001064789","lifecycleCounts":{"operational":1},"locationPrecision":"exact","name":"Inkhundla Nkilongo solar project","operatingCapacityCoverage":{"coveragePercent":100.0,"knownUnitCount":1,"method":"complete_unit_sum","provenance":{"evidenceCount":0,"recordIds":["wattlas-record-gemunit-g100001074575"],"sourceIds":["gem-global-integrated-power-tracker"],"sourceTypes":["research_verified"],"valueKind":"reported"},"totalUnitCount":1},"operatingCapacityMw":1.6,"operatingCapacityMwByTechnology":{"solar":1.6},"plannedCapacityCoverage":{"coveragePercent":0.0,"knownUnitCount":0,"method":"unavailable","totalUnitCount":0},"plannedCapacityMw":0.0,"plannedCapacityMwByTechnology":{},"recordCount":1,"recordIds":["wattlas-record-gemunit-g100001074575"],"sourceIds":["gem-global-integrated-power-tracker"],"technologies":["solar"],"technologyMixMw":{"solar":1.6},"unitCount":1,"unitIds":["gem-unit-G100001074575"]},"type":"Feature"},{"geometry":{"coordinates":[31.324073,-26.589446],"type":"Point"},"id":"wattlas-plant-osm-way-1080503203","properties":{"aliases":["Edwaleni Hydroelectric Power Station"],"canonicalAnchor":"osm:way/1080503203","canonicalCountryKey":"SZ","capacityMw":15.0,"country":"SZ","externalIds":{"osm":"way/1080503203"},"geographyId":"SZ-75366066B3567364273406","id":"wattlas-plant-osm-way-1080503203","lifecycleCounts":{"operational":1},"locationPrecision":"exact","name":"Edwaleni Hydroelectric Power Station","operatingCapacityCoverage":{"coveragePercent":100.0,"knownUnitCount":0,"method":"plant_aggregate","provenance":{"evidenceCount":0,"recordIds":["wattlas-record-osm-way-1080503203"],"sourceIds":["openstreetmap-power"],"sourceTypes":["community_mapped"],"valueKind":"reported"},"totalUnitCount":0},"operatingCapacityMw":15.0,"operatingCapacityMwByTechnology":{"hydro":15.0},"plannedCapacityCoverage":{"coveragePercent":0.0,"knownUnitCount":0,"method":"unavailable","totalUnitCount":0},"plannedCapacityMw":0.0,"plannedCapacityMwByTechnology":{},"recordCount":1,"recordIds":["wattlas-record-osm-way-1080503203"],"sourceIds":["openstreetmap-power"],"technologies":["hydro"],"technologyMixMw":{"hydro":15.0},"unitCount":0,"unitIds":[]},"type":"Feature"},{"geometry":{"coordinates":[31.323467,-26.589755],"type":"Point"},"id":"wattlas-plant-osm-way-1080503206","properties":{"aliases":["Edwaleni Diesel"],"canonicalAnchor":"osm:way/1080503206","canonicalCountryKey":"SZ","capacityMw":9.0,"country":"SZ","externalIds":{"osm":"way/1080503206"},"geographyId":"SZ-75366066B3567364273406","id":"wattlas-plant-osm-way-1080503206","lifecycleCounts":{"operational":1},"locationPrecision":"exact","name":"Edwaleni Diesel","operatingCapacityCoverage":{"coveragePercent":100.0,"knownUnitCount":0,"method":"plant_aggregate","provenance":{"evidenceCount":0,"recordIds":["wattlas-record-osm-way-1080503206"],"sourceIds":["openstreetmap-power"],"sourceTypes":["community_mapped"],"valueKind":"reported"},"totalUnitCount":0},"operatingCapacityMw":9.0,"operatingCapacityMwByTechnology":{"gas":9.0},"plannedCapacityCoverage":{"coveragePercent":0.0,"knownUnitCount":0,"method":"unavailable","totalUnitCount":0},"plannedCapacityMw":0.0,"plannedCapacityMwByTechnology":{},"recordCount":1,"recordIds":["wattlas-record-osm-way-1080503206"],"sourceIds":["openstreetmap-power"],"technologies":["gas"],"technologyMixMw":{"gas":9.0},"unitCount":0,"unitIds":[]},"type":"Feature"},{"geometry":{"coordinates":[31.76628,-26.735301],"type":"Point"},"id":"wattlas-plant-osm-way-1089841305","properties":{"aliases":["Tambuti Estate"],"canonicalAnchor":"osm:way/1089841305","canonicalCountryKey":"SZ","capacityMw":1.5,"country":"SZ","externalIds":{"osm":"way/1089841305"},"geographyId":"SZ-75366066B12234306804593","id":"wattlas-plant-osm-way-1089841305","lifecycleCounts":{"operational":1},"locationPrecision":"exact","name":"Tambuti Estate","operatingCapacityCoverage":{"coveragePercent":100.0,"knownUnitCount":0,"method":"plant_aggregate","provenance":{"evidenceCount":0,"recordIds":["wattlas-record-osm-way-1089841305"],"sourceIds":["openstreetmap-power"],"sourceTypes":["community_mapped"],"valueKind":"reported"},"totalUnitCount":0},"operatingCapacityMw":1.5,"operatingCapacityMwByTechnology":{"solar":1.5},"plannedCapacityCoverage":{"coveragePercent":0.0,"knownUnitCount":0,"method":"unavailable","totalUnitCount":0},"plannedCapacityMw":0.0,"plannedCapacityMwByTechnology":{},"recordCount":1,"recordIds":["wattlas-record-osm-way-1089841305"],"sourceIds":["openstreetmap-power"],"technologies":["solar"],"technologyMixMw":{"solar":1.5},"unitCount":0,"unitIds":[]},"type":"Feature"},{"geometry":{"coordinates":[31.724559,-27.117069],"type":"Point"},"id":"wattlas-plant-osm-way-1106557993","properties":{"aliases":["Lavumisa Solar Array"],"canonicalAnchor":"osm:way/1106557993","canonicalCountryKey":"SZ","capacityMw":10.0,"country":"SZ","externalIds":{"osm":"way/1106557993"},"geographyId":"SZ-75366066B21527038718027","id":"wattlas-plant-osm-way-1106557993","lifecycleCounts":{"operational":1},"locationPrecision":"exact","name":"Lavumisa Solar Array","operatingCapacityCoverage":{"coveragePercent":100.0,"knownUnitCount":0,"method":"plant_aggregate","provenance":{"evidenceCount":0,"recordIds":["wattlas-record-osm-way-1106557993"],"sourceIds":["openstreetmap-power"],"sourceTypes":["community_mapped"],"valueKind":"reported"},"totalUnitCount":0},"operatingCapacityMw":10.0,"operatingCapacityMwByTechnology":{"solar":10.0},"plannedCapacityCoverage":{"coveragePercent":0.0,"knownUnitCount":0,"method":"unavailable","totalUnitCount":0},"plannedCapacityMw":0.0,"plannedCapacityMwByTechnology":{},"recordCount":1,"recordIds":["wattlas-record-osm-way-1106557993"],"sourceIds":["openstreetmap-power"],"technologies":["solar"],"technologyMixMw":{"solar":10.0},"unitCount":0,"unitIds":[]},"type":"Feature"},{"geometry":{"coordinates":[31.298014,-26.517471],"type":"Point"},"id":"wattlas-plant-osm-way-1121023832","properties":{"aliases":["Eswatini Poultry Processors"],"canonicalAnchor":"osm:way/1121023832","canonicalCountryKey":"SZ","capacityMw":1.0,"country":"SZ","externalIds":{"osm":"way/1121023832"},"geographyId":"SZ-75366066B3567364273406","id":"wattlas-plant-osm-way-1121023832","lifecycleCounts":{"operational":1},"locationPrecision":"exact","name":"Eswatini Poultry Processors","operatingCapacityCoverage":{"coveragePercent":100.0,"knownUnitCount":0,"method":"plant_aggregate","provenance":{"evidenceCount":0,"recordIds":["wattlas-record-osm-way-1121023832"],"sourceIds":["openstreetmap-power"],"sourceTypes":["community_mapped"],"valueKind":"reported"},"totalUnitCount":0},"operatingCapacityMw":1.0,"operatingCapacityMwByTechnology":{"solar":1.0},"plannedCapacityCoverage":{"coveragePercent":0.0,"knownUnitCount":0,"method":"unavailable","totalUnitCount":0},"plannedCapacityMw":0.0,"plannedCapacityMwByTechnology":{},"recordCount":1,"recordIds":["wattlas-record-osm-way-1121023832"],"sourceIds":["openstreetmap-power"],"technologies":["solar"],"technologyMixMw":{"solar":1.0},"unitCount":0,"unitIds":[]},"type":"Feature"},{"geometry":{"coordinates":[31.361685,-26.501177],"type":"Point"},"id":"wattlas-plant-osm-way-1144438698","properties":{"aliases":["RFM Hospital Solar Farm"],"canonicalAnchor":"osm:way/1144438698","canonicalCountryKey":"SZ","capacityMw":1.0,"country":"SZ","externalIds":{"osm":"way/1144438698"},"geographyId":"SZ-75366066B3567364273406","id":"wattlas-plant-osm-way-1144438698","lifecycleCounts":{"operational":1},"locationPrecision":"exact","name":"RFM Hospital Solar Farm","operatingCapacityCoverage":{"coveragePercent":100.0,"knownUnitCount":0,"method":"plant_aggregate","provenance":{"evidenceCount":0,"recordIds":["wattlas-record-osm-way-1144438698"],"sourceIds":["openstreetmap-power"],"sourceTypes":["community_mapped"],"valueKind":"reported"},"totalUnitCount":0},"operatingCapacityMw":1.0,"operatingCapacityMwByTechnology":{"solar":1.0},"plannedCapacityCoverage":{"coveragePercent":0.0,"knownUnitCount":0,"method":"unavailable","totalUnitCount":0},"plannedCapacityMw":0.0,"plannedCapacityMwByTechnology":{},"recordCount":1,"recordIds":["wattlas-record-osm-way-1144438698"],"sourceIds":["openstreetmap-power"],"technologies":["solar"],"technologyMixMw":{"solar":1.0},"unitCount":0,"unitIds":[]},"type":"Feature"},{"geometry":{"coordinates":[31.166936,-27.094685],"type":"Point"},"id":"wattlas-plant-osm-way-1147379288","properties":{"aliases":["Nhlangano Sawmill"],"canonicalAnchor":"osm:way/1147379288","canonicalCountryKey":"SZ","capacityMw":1.0,"country":"SZ","externalIds":{"osm":"way/1147379288"},"geographyId":"SZ-75366066B21527038718027","id":"wattlas-plant-osm-way-1147379288","lifecycleCounts":{"operational":1},"locationPrecision":"exact","name":"Nhlangano Sawmill","operatingCapacityCoverage":{"coveragePercent":100.0,"knownUnitCount":0,"method":"plant_aggregate","provenance":{"evidenceCount":0,"recordIds":["wattlas-record-osm-way-1147379288"],"sourceIds":["openstreetmap-power"],"sourceTypes":["community_mapped"],"valueKind":"reported"},"totalUnitCount":0},"operatingCapacityMw":1.0,"operatingCapacityMwByTechnology":{"solar":1.0},"plannedCapacityCoverage":{"coveragePercent":0.0,"knownUnitCount":0,"method":"unavailable","totalUnitCount":0},"plannedCapacityMw":0.0,"plannedCapacityMwByTechnology":{},"recordCount":1,"recordIds":["wattlas-record-osm-way-1147379288"],"sourceIds":["openstreetmap-power"],"technologies":["solar"],"technologyMixMw":{"solar":1.0},"unitCount":0,"unitIds":[]},"type":"Feature"},{"geometry":{"coordinates":[31.928931,-26.136761],"type":"Point"},"id":"wattlas-plant-osm-way-1416681871","properties":{"aliases":["Tabankulu Estate"],"canonicalAnchor":"osm:way/1416681871","canonicalCountryKey":"SZ","capacityMw":1.56,"country":"SZ","externalIds":{"osm":"way/1416681871"},"geographyId":"SZ-75366066B12234306804593","id":"wattlas-plant-osm-way-1416681871","lifecycleCounts":{"operational":1},"locationPrecision":"exact","name":"Tabankulu Estate","operatingCapacityCoverage":{"coveragePercent":100.0,"knownUnitCount":0,"method":"plant_aggregate","provenance":{"evidenceCount":0,"recordIds":["wattlas-record-osm-way-1416681871"],"sourceIds":["openstreetmap-power"],"sourceTypes":["community_mapped"],"valueKind":"reported"},"totalUnitCount":0},"operatingCapacityMw":1.56,"operatingCapacityMwByTechnology":{"solar":1.56},"plannedCapacityCoverage":{"coveragePercent":0.0,"knownUnitCount":0,"method":"unavailable","totalUnitCount":0},"plannedCapacityMw":0.0,"plannedCapacityMwByTechnology":{},"recordCount":1,"recordIds":["wattlas-record-osm-way-1416681871"],"sourceIds":["openstreetmap-power"],"technologies":["solar"],"technologyMixMw":{"solar":1.56},"unitCount":0,"unitIds":[]},"type":"Feature"},{"geometry":{"coordinates":[31.286022,-26.514135],"type":"Point"},"id":"wattlas-plant-osm-way-1446254979","properties":{"aliases":["Mapped power plant · OSM 1446254979"],"canonicalAnchor":"osm:way/1446254979","canonicalCountryKey":"SZ","capacityMw":1.5,"country":"SZ","externalIds":{"osm":"way/1446254979"},"geographyId":"SZ-75366066B3567364273406","id":"wattlas-plant-osm-way-1446254979","lifecycleCounts":{"operational":1},"locationPrecision":"exact","name":"Mapped power plant · OSM 1446254979","operatingCapacityCoverage":{"coveragePercent":100.0,"knownUnitCount":0,"method":"plant_aggregate","provenance":{"evidenceCount":0,"recordIds":["wattlas-record-osm-way-1446254979"],"sourceIds":["openstreetmap-power"],"sourceTypes":["community_mapped"],"valueKind":"reported"},"totalUnitCount":0},"operatingCapacityMw":1.5,"operatingCapacityMwByTechnology":{"solar":1.5},"plannedCapacityCoverage":{"coveragePercent":0.0,"knownUnitCount":0,"method":"unavailable","totalUnitCount":0},"plannedCapacityMw":0.0,"plannedCapacityMwByTechnology":{},"recordCount":1,"recordIds":["wattlas-record-osm-way-1446254979"],"sourceIds":["openstreetmap-power"],"technologies":["solar"],"technologyMixMw":{"solar":1.5},"unitCount":0,"unitIds":[]},"type":"Feature"},{"geometry":{"coordinates":[31.867845,-26.824857],"type":"Point"},"id":"wattlas-plant-osm-way-1513984155","properties":{"aliases":["Bar-J Farm"],"canonicalAnchor":"osm:way/1513984155","canonicalCountryKey":"SZ","capacityMw":0.0,"country":"SZ","externalIds":{"osm":"way/1513984155"},"geographyId":"SZ-75366066B12234306804593","id":"wattlas-plant-osm-way-1513984155","lifecycleCounts":{"operational":1},"locationPrecision":"exact","name":"Bar-J Farm","operatingCapacityCoverage":{"coveragePercent":0.0,"knownUnitCount":0,"method":"unavailable","totalUnitCount":0},"operatingCapacityMw":0.0,"operatingCapacityMwByTechnology":{},"plannedCapacityCoverage":{"coveragePercent":0.0,"knownUnitCount":0,"method":"unavailable","totalUnitCount":0},"plannedCapacityMw":0.0,"plannedCapacityMwByTechnology":{},"recordCount":1,"recordIds":["wattlas-record-osm-way-1513984155"],"sourceIds":["openstreetmap-power"],"technologies":["solar"],"technologyMixMw":{"solar":0.0},"unitCount":0,"unitIds":[]},"type":"Feature"},{"geometry":{"coordinates":[31.394092,-26.654021],"type":"Point"},"id":"wattlas-plant-osm-way-1514488897","properties":{"aliases":["Lower Maguduza Hydropower Project"],"canonicalAnchor":"osm:way/1514488897","canonicalCountryKey":"SZ","capacityMw":13.5,"country":"SZ","externalIds":{"osm":"way/1514488897"},"geographyId":"SZ-75366066B3567364273406","id":"wattlas-plant-osm-way-1514488897","lifecycleCounts":{"operational":1},"locationPrecision":"exact","name":"Lower Maguduza Hydropower Project","operatingCapacityCoverage":{"coveragePercent":100.0,"knownUnitCount":0,"method":"plant_aggregate","provenance":{"evidenceCount":0,"recordIds":["wattlas-record-osm-way-1514488897"],"sourceIds":["openstreetmap-power"],"sourceTypes":["community_mapped"],"valueKind":"reported"},"totalUnitCount":0},"operatingCapacityMw":13.5,"operatingCapacityMwByTechnology":{"hydro":13.5},"plannedCapacityCoverage":{"coveragePercent":0.0,"knownUnitCount":0,"method":"unavailable","totalUnitCount":0},"plannedCapacityMw":0.0,"plannedCapacityMwByTechnology":{},"recordCount":1,"recordIds":["wattlas-record-osm-way-1514488897"],"sourceIds":["openstreetmap-power"],"technologies":["hydro"],"technologyMixMw":{"hydro":13.5},"unitCount":0,"unitIds":[]},"type":"Feature"},{"geometry":{"coordinates":[31.261582,-26.078552],"type":"Point"},"id":"wattlas-plant-osm-way-231633171","properties":{"aliases":["Maguga Power Station"],"canonicalAnchor":"osm:way/231633171","canonicalCountryKey":"SZ","capacityMw":19.0,"country":"SZ","externalIds":{"osm":"way/231633171"},"geographyId":"SZ-75366066B25905390127614","id":"wattlas-plant-osm-way-231633171","lifecycleCounts":{"operational":1},"locationPrecision":"exact","name":"Maguga Power Station","operatingCapacityCoverage":{"coveragePercent":100.0,"knownUnitCount":0,"method":"plant_aggregate","provenance":{"evidenceCount":0,"recordIds":["wattlas-record-osm-way-231633171"],"sourceIds":["openstreetmap-power"],"sourceTypes":["community_mapped"],"valueKind":"reported"},"totalUnitCount":0},"operatingCapacityMw":19.0,"operatingCapacityMwByTechnology":{"hydro":19.0},"plannedCapacityCoverage":{"coveragePercent":0.0,"knownUnitCount":0,"method":"unavailable","totalUnitCount":0},"plannedCapacityMw":0.0,"plannedCapacityMwByTechnology":{},"recordCount":1,"recordIds":["wattlas-record-osm-way-231633171"],"sourceIds":["openstreetmap-power"],"technologies":["hydro"],"technologyMixMw":{"hydro":19.0},"unitCount":0,"unitIds":[]},"type":"Feature"},{"geometry":{"coordinates":[31.353101,-26.615116],"type":"Point"},"id":"wattlas-plant-osm-way-248625098","properties":{"aliases":["Maguduza Hydroelectric Power Plant"],"canonicalAnchor":"osm:way/248625098","canonicalCountryKey":"SZ","capacityMw":5.6,"country":"SZ","externalIds":{"osm":"way/248625098"},"geographyId":"SZ-75366066B3567364273406","id":"wattlas-plant-osm-way-248625098","lifecycleCounts":{"operational":1},"locationPrecision":"exact","name":"Maguduza Hydroelectric Power Plant","operatingCapacityCoverage":{"coveragePercent":100.0,"knownUnitCount":0,"method":"plant_aggregate","provenance":{"evidenceCount":0,"recordIds":["wattlas-record-osm-way-248625098"],"sourceIds":["openstreetmap-power"],"sourceTypes":["community_mapped"],"valueKind":"reported"},"totalUnitCount":0},"operatingCapacityMw":5.6,"operatingCapacityMwByTechnology":{"hydro":5.6},"plannedCapacityCoverage":{"coveragePercent":0.0,"knownUnitCount":0,"method":"unavailable","totalUnitCount":0},"plannedCapacityMw":0.0,"plannedCapacityMwByTechnology":{},"recordCount":1,"recordIds":["wattlas-record-osm-way-248625098"],"sourceIds":["openstreetmap-power"],"technologies":["hydro"],"technologyMixMw":{"hydro":5.6},"unitCount":0,"unitIds":[]},"type":"Feature"},{"geometry":{"coordinates":[31.155233,-26.376327],"type":"Point"},"id":"wattlas-plant-osm-way-425301382","properties":{"aliases":["Ezulwini Hydropower Station"],"canonicalAnchor":"osm:way/425301382","canonicalCountryKey":"SZ","capacityMw":20.0,"country":"SZ","externalIds":{"osm":"way/425301382"},"geographyId":"SZ-75366066B25905390127614","id":"wattlas-plant-osm-way-425301382","lifecycleCounts":{"operational":1},"locationPrecision":"exact","name":"Ezulwini Hydropower Station","operatingCapacityCoverage":{"coveragePercent":100.0,"knownUnitCount":0,"method":"plant_aggregate","provenance":{"evidenceCount":0,"recordIds":["wattlas-record-osm-way-425301382"],"sourceIds":["openstreetmap-power"],"sourceTypes":["community_mapped"],"valueKind":"reported"},"totalUnitCount":0},"operatingCapacityMw":20.0,"operatingCapacityMwByTechnology":{"hydro":20.0},"plannedCapacityCoverage":{"coveragePercent":0.0,"knownUnitCount":0,"method":"unavailable","totalUnitCount":0},"plannedCapacityMw":0.0,"plannedCapacityMwByTechnology":{},"recordCount":1,"recordIds":["wattlas-record-osm-way-425301382"],"sourceIds":["openstreetmap-power"],"technologies":["hydro"],"technologyMixMw":{"hydro":20.0},"unitCount":0,"unitIds":[]},"type":"Feature"},{"geometry":{"coordinates":[31.893429,-26.843778],"type":"Point"},"id":"wattlas-plant-osm-way-431039502","properties":{"aliases":["Ubombo Hydro Power Station"],"canonicalAnchor":"osm:way/431039502","canonicalCountryKey":"SZ","capacityMw":1.305,"country":"SZ","externalIds":{"osm":"way/431039502"},"geographyId":"SZ-75366066B12234306804593","id":"wattlas-plant-osm-way-431039502","lifecycleCounts":{"operational":1},"locationPrecision":"exact","name":"Ubombo Hydro Power Station","operatingCapacityCoverage":{"coveragePercent":100.0,"knownUnitCount":0,"method":"plant_aggregate","provenance":{"evidenceCount":0,"recordIds":["wattlas-record-osm-way-431039502"],"sourceIds":["openstreetmap-power"],"sourceTypes":["community_mapped"],"valueKind":"reported"},"totalUnitCount":0},"operatingCapacityMw":1.305,"operatingCapacityMwByTechnology":{"hydro":1.305},"plannedCapacityCoverage":{"coveragePercent":0.0,"knownUnitCount":0,"method":"unavailable","totalUnitCount":0},"plannedCapacityMw":0.0,"plannedCapacityMwByTechnology":{},"recordCount":1,"recordIds":["wattlas-record-osm-way-431039502"],"sourceIds":["openstreetmap-power"],"technologies":["hydro"],"technologyMixMw":{"hydro":1.305},"unitCount":0,"unitIds":[]},"type":"Feature"}],"type":"FeatureCollection"}