{"features":[{"geometry":{"coordinates":[65.640553,37.930342],"type":"Point"},"id":"wattlas-plant-gemplant-l100000406919","properties":{"aliases":["1-1","2-1","Watan power station"],"canonicalAnchor":"gemplant:L100000406919","canonicalCountryKey":"TM","capacityMw":254.0,"country":"TM","externalIdAliases":{"gemUnit":["G100000407668","G100000407669"]},"externalIds":{"gemPlant":"L100000406919","gemUnit":"G100000407668"},"geographyId":"TM-27578892B29988598794089","id":"wattlas-plant-gemplant-l100000406919","lifecycleCounts":{"operational":2},"locationPrecision":"exact","name":"Watan power station","operatingCapacityCoverage":{"coveragePercent":100.0,"knownUnitCount":2,"method":"complete_unit_sum","provenance":{"evidenceCount":0,"recordIds":["wattlas-record-gemunit-g100000407668","wattlas-record-gemunit-g100000407669"],"sourceIds":["gem-global-integrated-power-tracker"],"sourceTypes":["research_verified"],"valueKind":"reported"},"totalUnitCount":2},"operatingCapacityMw":254.0,"operatingCapacityMwByTechnology":{"gas":254.0},"plannedCapacityCoverage":{"coveragePercent":0.0,"knownUnitCount":0,"method":"unavailable","totalUnitCount":0},"plannedCapacityMw":0.0,"plannedCapacityMwByTechnology":{},"recordCount":2,"recordIds":["wattlas-record-gemunit-g100000407668","wattlas-record-gemunit-g100000407669"],"sourceIds":["gem-global-integrated-power-tracker"],"technologies":["gas"],"technologyMixMw":{"gas":254.0},"unitCount":2,"unitIds":["gem-unit-G100000407668","gem-unit-G100000407669"]},"type":"Feature"},{"geometry":{"coordinates":[63.466095,38.976308],"type":"Point"},"id":"wattlas-plant-gemplant-l100000406920","properties":{"aliases":["1-1","1-2","1-3","1-4","2-1","2-2","2-3","2-4","5-1","6-1","Lebap power station"],"canonicalAnchor":"gemplant:L100000406920","canonicalCountryKey":"TM","capacityMw":1082.0,"country":"TM","externalIdAliases":{"gemUnit":["G100000407670","G100000407671","G100000407672","G100000407673","G100000407674","G100000407675","G100001063784","G100001063785","G100001063786","G100001063787"]},"externalIds":{"gemPlant":"L100000406920","gemUnit":"G100000407673"},"geographyId":"TM-27578892B29988598794089","id":"wattlas-plant-gemplant-l100000406920","lifecycleCounts":{"announced":4,"operational":6},"locationPrecision":"exact","name":"Lebap power station","operatingCapacityCoverage":{"coveragePercent":100.0,"knownUnitCount":6,"method":"complete_unit_sum","provenance":{"evidenceCount":0,"recordIds":["wattlas-record-gemunit-g100000407670","wattlas-record-gemunit-g100000407671","wattlas-record-gemunit-g100000407672","wattlas-record-gemunit-g100000407673","wattlas-record-gemunit-g100000407674","wattlas-record-gemunit-g100000407675"],"sourceIds":["gem-global-integrated-power-tracker"],"sourceTypes":["research_verified"],"valueKind":"reported"},"totalUnitCount":6},"operatingCapacityMw":582.0,"operatingCapacityMwByTechnology":{"gas":582.0},"plannedCapacityCoverage":{"coveragePercent":100.0,"knownUnitCount":4,"method":"complete_unit_sum","provenance":{"evidenceCount":0,"recordIds":["wattlas-record-gemunit-g100001063784","wattlas-record-gemunit-g100001063785","wattlas-record-gemunit-g100001063786","wattlas-record-gemunit-g100001063787"],"sourceIds":["gem-global-integrated-power-tracker"],"sourceTypes":["research_verified"],"valueKind":"reported"},"totalUnitCount":4},"plannedCapacityMw":500.0,"plannedCapacityMwByTechnology":{"gas":500.0},"recordCount":10,"recordIds":["wattlas-record-gemunit-g100000407670","wattlas-record-gemunit-g100000407671","wattlas-record-gemunit-g100000407672","wattlas-record-gemunit-g100000407673","wattlas-record-gemunit-g100000407674","wattlas-record-gemunit-g100000407675","wattlas-record-gemunit-g100001063784","wattlas-record-gemunit-g100001063785","wattlas-record-gemunit-g100001063786","wattlas-record-gemunit-g100001063787"],"sourceIds":["gem-global-integrated-power-tracker"],"technologies":["gas"],"technologyMixMw":{"gas":1082.0},"unitCount":10,"unitIds":["gem-unit-G100000407670","gem-unit-G100000407671","gem-unit-G100000407672","gem-unit-G100000407673","gem-unit-G100000407674","gem-unit-G100000407675","gem-unit-G100001063784","gem-unit-G100001063785","gem-unit-G100001063786","gem-unit-G100001063787"]},"type":"Feature"},{"geometry":{"coordinates":[52.927035,40.009874],"type":"Point"},"id":"wattlas-plant-gemplant-l100000406922","properties":{"aliases":["4-1","5-1","Turkmenbashi CHP power station"],"canonicalAnchor":"gemplant:L100000406922","canonicalCountryKey":"TM","capacityMw":420.0,"country":"TM","externalIdAliases":{"gemUnit":["G100000407676","G100000407677"]},"externalIds":{"gemPlant":"L100000406922","gemUnit":"G100000407676"},"geographyId":"TM-27578892B85944744725550","id":"wattlas-plant-gemplant-l100000406922","lifecycleCounts":{"operational":2},"locationPrecision":"exact","name":"Turkmenbashi CHP power station","operatingCapacityCoverage":{"coveragePercent":100.0,"knownUnitCount":2,"method":"complete_unit_sum","provenance":{"evidenceCount":0,"recordIds":["wattlas-record-gemunit-g100000407676","wattlas-record-gemunit-g100000407677"],"sourceIds":["gem-global-integrated-power-tracker"],"sourceTypes":["research_verified"],"valueKind":"reported"},"totalUnitCount":2},"operatingCapacityMw":420.0,"operatingCapacityMwByTechnology":{"gas":420.0},"plannedCapacityCoverage":{"coveragePercent":0.0,"knownUnitCount":0,"method":"unavailable","totalUnitCount":0},"plannedCapacityMw":0.0,"plannedCapacityMwByTechnology":{},"recordCount":2,"recordIds":["wattlas-record-gemunit-g100000407676","wattlas-record-gemunit-g100000407677"],"sourceIds":["gem-global-integrated-power-tracker"],"technologies":["gas"],"technologyMixMw":{"gas":420.0},"unitCount":2,"unitIds":["gem-unit-G100000407676","gem-unit-G100000407677"]},"type":"Feature"},{"geometry":{"coordinates":[62.855,39.4294],"type":"Point"},"id":"wattlas-plant-gemplant-l100000406923","properties":{"aliases":["1-1","2-1","Seydi CHP power station"],"canonicalAnchor":"gemplant:L100000406923","canonicalCountryKey":"TM","capacityMw":160.0,"country":"TM","externalIdAliases":{"gemUnit":["G100000407681","G100000407682"]},"externalIds":{"gemPlant":"L100000406923","gemUnit":"G100000407681"},"geographyId":"TM-27578892B29988598794089","id":"wattlas-plant-gemplant-l100000406923","lifecycleCounts":{"operational":2},"locationPrecision":"exact","name":"Seydi CHP power station","operatingCapacityCoverage":{"coveragePercent":100.0,"knownUnitCount":2,"method":"complete_unit_sum","provenance":{"evidenceCount":0,"recordIds":["wattlas-record-gemunit-g100000407681","wattlas-record-gemunit-g100000407682"],"sourceIds":["gem-global-integrated-power-tracker"],"sourceTypes":["research_verified"],"valueKind":"reported"},"totalUnitCount":2},"operatingCapacityMw":160.0,"operatingCapacityMwByTechnology":{"gas":160.0},"plannedCapacityCoverage":{"coveragePercent":0.0,"knownUnitCount":0,"method":"unavailable","totalUnitCount":0},"plannedCapacityMw":0.0,"plannedCapacityMwByTechnology":{},"recordCount":2,"recordIds":["wattlas-record-gemunit-g100000407681","wattlas-record-gemunit-g100000407682"],"sourceIds":["gem-global-integrated-power-tracker"],"technologies":["gas"],"technologyMixMw":{"gas":160.0},"unitCount":2,"unitIds":["gem-unit-G100000407681","gem-unit-G100000407682"]},"type":"Feature"},{"geometry":{"coordinates":[61.841215,37.550344],"type":"Point"},"id":"wattlas-plant-gemplant-l100000406924","properties":{"aliases":["1-1","2-1","3-1","4-1","5-1","6-1","7-1","8-1","CC1","CC2","Mary power station"],"canonicalAnchor":"gemplant:L100000406924","canonicalCountryKey":"TM","capacityMw":3259.0,"country":"TM","externalIdAliases":{"gemUnit":["G100000407683","G100000407684","G100000407685","G100000407686","G100000407687","G100000407688","G100000407689","G100000407690","G100000407691","G100000407692"]},"externalIds":{"gemPlant":"L100000406924","gemUnit":"G100000407683"},"geographyId":"TM-27578892B74829978216420","id":"wattlas-plant-gemplant-l100000406924","lifecycleCounts":{"operational":10},"locationPrecision":"exact","name":"Mary power station","operatingCapacityCoverage":{"coveragePercent":100.0,"knownUnitCount":10,"method":"complete_unit_sum","provenance":{"evidenceCount":0,"recordIds":["wattlas-record-gemunit-g100000407683","wattlas-record-gemunit-g100000407684","wattlas-record-gemunit-g100000407685","wattlas-record-gemunit-g100000407686","wattlas-record-gemunit-g100000407687","wattlas-record-gemunit-g100000407688","wattlas-record-gemunit-g100000407689","wattlas-record-gemunit-g100000407690","wattlas-record-gemunit-g100000407691","wattlas-record-gemunit-g100000407692"],"sourceIds":["gem-global-integrated-power-tracker"],"sourceTypes":["research_verified"],"valueKind":"reported"},"totalUnitCount":10},"operatingCapacityMw":3259.0,"operatingCapacityMwByTechnology":{"gas":3259.0},"plannedCapacityCoverage":{"coveragePercent":0.0,"knownUnitCount":0,"method":"unavailable","totalUnitCount":0},"plannedCapacityMw":0.0,"plannedCapacityMwByTechnology":{},"recordCount":10,"recordIds":["wattlas-record-gemunit-g100000407683","wattlas-record-gemunit-g100000407684","wattlas-record-gemunit-g100000407685","wattlas-record-gemunit-g100000407686","wattlas-record-gemunit-g100000407687","wattlas-record-gemunit-g100000407688","wattlas-record-gemunit-g100000407689","wattlas-record-gemunit-g100000407690","wattlas-record-gemunit-g100000407691","wattlas-record-gemunit-g100000407692"],"sourceIds":["gem-global-integrated-power-tracker"],"technologies":["gas"],"technologyMixMw":{"gas":3259.0},"unitCount":10,"unitIds":["gem-unit-G100000407683","gem-unit-G100000407684","gem-unit-G100000407685","gem-unit-G100000407686","gem-unit-G100000407687","gem-unit-G100000407688","gem-unit-G100000407689","gem-unit-G100000407690","gem-unit-G100000407691","gem-unit-G100000407692"]},"type":"Feature"},{"geometry":{"coordinates":[58.3937,38.1504],"type":"Point"},"id":"wattlas-plant-gemplant-l100000406925","properties":{"aliases":["1-1","1-2","1-3","1-4","2-1","2-2","2-3","2-4","Dervezin State power station"],"canonicalAnchor":"gemplant:L100000406925","canonicalCountryKey":"TM","capacityMw":504.0,"country":"TM","externalIdAliases":{"gemUnit":["G100000407693","G100000407694","G100000407695","G100000407696","G100001063794","G100001063795","G100001063796","G100001063797"]},"externalIds":{"gemPlant":"L100000406925","gemUnit":"G100001063797"},"geographyId":"TM-27578892B63269087941453","id":"wattlas-plant-gemplant-l100000406925","lifecycleCounts":{"announced":4,"operational":4},"locationPrecision":"exact","name":"Dervezin State power station","operatingCapacityCoverage":{"coveragePercent":100.0,"knownUnitCount":4,"method":"complete_unit_sum","provenance":{"evidenceCount":0,"recordIds":["wattlas-record-gemunit-g100000407693","wattlas-record-gemunit-g100000407694","wattlas-record-gemunit-g100000407695","wattlas-record-gemunit-g100000407696"],"sourceIds":["gem-global-integrated-power-tracker"],"sourceTypes":["research_verified"],"valueKind":"reported"},"totalUnitCount":4},"operatingCapacityMw":504.0,"operatingCapacityMwByTechnology":{"gas":504.0},"plannedCapacityCoverage":{"coveragePercent":100.0,"knownUnitCount":4,"method":"complete_unit_sum","provenance":{"evidenceCount":0,"recordIds":["wattlas-record-gemunit-g100001063794","wattlas-record-gemunit-g100001063795","wattlas-record-gemunit-g100001063796","wattlas-record-gemunit-g100001063797"],"sourceIds":["gem-global-integrated-power-tracker"],"sourceTypes":["research_verified"],"valueKind":"reported"},"totalUnitCount":4},"plannedCapacityMw":0.0,"plannedCapacityMwByTechnology":{"gas":0.0},"recordCount":8,"recordIds":["wattlas-record-gemunit-g100000407693","wattlas-record-gemunit-g100000407694","wattlas-record-gemunit-g100000407695","wattlas-record-gemunit-g100000407696","wattlas-record-gemunit-g100001063794","wattlas-record-gemunit-g100001063795","wattlas-record-gemunit-g100001063796","wattlas-record-gemunit-g100001063797"],"sourceIds":["gem-global-integrated-power-tracker"],"technologies":["gas"],"technologyMixMw":{"gas":504.0},"unitCount":8,"unitIds":["gem-unit-G100000407693","gem-unit-G100000407694","gem-unit-G100000407695","gem-unit-G100000407696","gem-unit-G100001063794","gem-unit-G100001063795","gem-unit-G100001063796","gem-unit-G100001063797"]},"type":"Feature"},{"geometry":{"coordinates":[59.912417,41.858484],"type":"Point"},"id":"wattlas-plant-gemplant-l100000406926","properties":{"aliases":["1-1","1-2","2-1","2-2","3-1","Dashoguz State power station"],"canonicalAnchor":"gemplant:L100000406926","canonicalCountryKey":"TM","capacityMw":254.0,"country":"TM","externalIdAliases":{"gemUnit":["G100000407697","G100000407698","G100000407699","G100001063799","G100001063800"]},"externalIds":{"gemPlant":"L100000406926","gemUnit":"G100000407697"},"geographyId":"TM-27578892B88292714467572","id":"wattlas-plant-gemplant-l100000406926","lifecycleCounts":{"announced":2,"cancelled":1,"operational":2},"locationPrecision":"exact","name":"Dashoguz State power station","operatingCapacityCoverage":{"coveragePercent":100.0,"knownUnitCount":2,"method":"complete_unit_sum","provenance":{"evidenceCount":0,"recordIds":["wattlas-record-gemunit-g100000407698","wattlas-record-gemunit-g100000407699"],"sourceIds":["gem-global-integrated-power-tracker"],"sourceTypes":["research_verified"],"valueKind":"reported"},"totalUnitCount":2},"operatingCapacityMw":254.0,"operatingCapacityMwByTechnology":{"gas":254.0},"plannedCapacityCoverage":{"coveragePercent":100.0,"knownUnitCount":2,"method":"complete_unit_sum","provenance":{"evidenceCount":0,"recordIds":["wattlas-record-gemunit-g100001063799","wattlas-record-gemunit-g100001063800"],"sourceIds":["gem-global-integrated-power-tracker"],"sourceTypes":["research_verified"],"valueKind":"reported"},"totalUnitCount":2},"plannedCapacityMw":0.0,"plannedCapacityMwByTechnology":{"gas":0.0},"recordCount":5,"recordIds":["wattlas-record-gemunit-g100000407697","wattlas-record-gemunit-g100000407698","wattlas-record-gemunit-g100000407699","wattlas-record-gemunit-g100001063799","wattlas-record-gemunit-g100001063800"],"sourceIds":["gem-global-integrated-power-tracker"],"technologies":["gas"],"technologyMixMw":{"gas":254.0},"unitCount":5,"unitIds":["gem-unit-G100000407697","gem-unit-G100000407698","gem-unit-G100000407699","gem-unit-G100001063799","gem-unit-G100001063800"]},"type":"Feature"},{"geometry":{"coordinates":[54.3273,39.5105],"type":"Point"},"id":"wattlas-plant-gemplant-l100000406927","properties":{"aliases":["1-3","2-3","Balkanabad power station"],"canonicalAnchor":"gemplant:L100000406927","canonicalCountryKey":"TM","capacityMw":254.0,"country":"TM","externalIdAliases":{"gemUnit":["G100000407702","G100000407703"]},"externalIds":{"gemPlant":"L100000406927","gemUnit":"G100000407702"},"geographyId":"TM-27578892B85944744725550","id":"wattlas-plant-gemplant-l100000406927","lifecycleCounts":{"operational":2},"locationPrecision":"exact","name":"Balkanabad power station","operatingCapacityCoverage":{"coveragePercent":100.0,"knownUnitCount":2,"method":"complete_unit_sum","provenance":{"evidenceCount":0,"recordIds":["wattlas-record-gemunit-g100000407702","wattlas-record-gemunit-g100000407703"],"sourceIds":["gem-global-integrated-power-tracker"],"sourceTypes":["research_verified"],"valueKind":"reported"},"totalUnitCount":2},"operatingCapacityMw":254.0,"operatingCapacityMwByTechnology":{"gas":254.0},"plannedCapacityCoverage":{"coveragePercent":0.0,"knownUnitCount":0,"method":"unavailable","totalUnitCount":0},"plannedCapacityMw":0.0,"plannedCapacityMwByTechnology":{},"recordCount":2,"recordIds":["wattlas-record-gemunit-g100000407702","wattlas-record-gemunit-g100000407703"],"sourceIds":["gem-global-integrated-power-tracker"],"technologies":["gas"],"technologyMixMw":{"gas":254.0},"unitCount":2,"unitIds":["gem-unit-G100000407702","gem-unit-G100000407703"]},"type":"Feature"},{"geometry":{"coordinates":[52.845721,40.011028],"type":"Point"},"id":"wattlas-plant-gemplant-l100000406928","properties":{"aliases":["1-1","2-1","Avazin power station"],"canonicalAnchor":"gemplant:L100000406928","canonicalCountryKey":"TM","capacityMw":254.0,"country":"TM","externalIdAliases":{"gemUnit":["G100000407705","G100000407706"]},"externalIds":{"gemPlant":"L100000406928","gemUnit":"G100000407705"},"geographyId":"TM-27578892B85944744725550","id":"wattlas-plant-gemplant-l100000406928","lifecycleCounts":{"operational":2},"locationPrecision":"exact","name":"Avazin power station","operatingCapacityCoverage":{"coveragePercent":100.0,"knownUnitCount":2,"method":"complete_unit_sum","provenance":{"evidenceCount":0,"recordIds":["wattlas-record-gemunit-g100000407705","wattlas-record-gemunit-g100000407706"],"sourceIds":["gem-global-integrated-power-tracker"],"sourceTypes":["research_verified"],"valueKind":"reported"},"totalUnitCount":2},"operatingCapacityMw":254.0,"operatingCapacityMwByTechnology":{"gas":254.0},"plannedCapacityCoverage":{"coveragePercent":0.0,"knownUnitCount":0,"method":"unavailable","totalUnitCount":0},"plannedCapacityMw":0.0,"plannedCapacityMwByTechnology":{},"recordCount":2,"recordIds":["wattlas-record-gemunit-g100000407705","wattlas-record-gemunit-g100000407706"],"sourceIds":["gem-global-integrated-power-tracker"],"technologies":["gas"],"technologyMixMw":{"gas":254.0},"unitCount":2,"unitIds":["gem-unit-G100000407705","gem-unit-G100000407706"]},"type":"Feature"},{"geometry":{"coordinates":[58.56243,37.94198],"type":"Point"},"id":"wattlas-plant-gemplant-l100000406929","properties":{"aliases":["1-1","1-2","1-3","1-4","2-1","2-2","2-3","2-4","Akhal power station"],"canonicalAnchor":"gemplant:L100000406929","canonicalCountryKey":"TM","capacityMw":506.0,"country":"TM","externalIdAliases":{"gemUnit":["G100000407707","G100000407708","G100000407710","G100000407711","G100001063789","G100001063790","G100001063791","G100001063792"]},"externalIds":{"gemPlant":"L100000406929","gemUnit":"G100001063792"},"geographyId":"TM-27578892B63269087941453","id":"wattlas-plant-gemplant-l100000406929","lifecycleCounts":{"announced":4,"operational":4},"locationPrecision":"exact","name":"Akhal power station","operatingCapacityCoverage":{"coveragePercent":100.0,"knownUnitCount":4,"method":"complete_unit_sum","provenance":{"evidenceCount":0,"recordIds":["wattlas-record-gemunit-g100000407707","wattlas-record-gemunit-g100000407708","wattlas-record-gemunit-g100000407710","wattlas-record-gemunit-g100000407711"],"sourceIds":["gem-global-integrated-power-tracker"],"sourceTypes":["research_verified"],"valueKind":"reported"},"totalUnitCount":4},"operatingCapacityMw":506.0,"operatingCapacityMwByTechnology":{"gas":506.0},"plannedCapacityCoverage":{"coveragePercent":100.0,"knownUnitCount":4,"method":"complete_unit_sum","provenance":{"evidenceCount":0,"recordIds":["wattlas-record-gemunit-g100001063789","wattlas-record-gemunit-g100001063790","wattlas-record-gemunit-g100001063791","wattlas-record-gemunit-g100001063792"],"sourceIds":["gem-global-integrated-power-tracker"],"sourceTypes":["research_verified"],"valueKind":"reported"},"totalUnitCount":4},"plannedCapacityMw":0.0,"plannedCapacityMwByTechnology":{"gas":0.0},"recordCount":8,"recordIds":["wattlas-record-gemunit-g100000407707","wattlas-record-gemunit-g100000407708","wattlas-record-gemunit-g100000407710","wattlas-record-gemunit-g100000407711","wattlas-record-gemunit-g100001063789","wattlas-record-gemunit-g100001063790","wattlas-record-gemunit-g100001063791","wattlas-record-gemunit-g100001063792"],"sourceIds":["gem-global-integrated-power-tracker"],"technologies":["gas"],"technologyMixMw":{"gas":506.0},"unitCount":8,"unitIds":["gem-unit-G100000407707","gem-unit-G100000407708","gem-unit-G100000407710","gem-unit-G100000407711","gem-unit-G100001063789","gem-unit-G100001063790","gem-unit-G100001063791","gem-unit-G100001063792"]},"type":"Feature"},{"geometry":{"coordinates":[58.383856,37.82868],"type":"Point"},"id":"wattlas-plant-gemplant-l100000406930","properties":{"aliases":["1-1","2-1","Ashgabat State power station"],"canonicalAnchor":"gemplant:L100000406930","canonicalCountryKey":"TM","capacityMw":254.0,"country":"TM","externalIdAliases":{"gemUnit":["G100000407713","G100000407714"]},"externalIds":{"gemPlant":"L100000406930","gemUnit":"G100000407713"},"geographyId":"TM-27578892B63269087941453","id":"wattlas-plant-gemplant-l100000406930","lifecycleCounts":{"operational":2},"locationPrecision":"exact","name":"Ashgabat State power station","operatingCapacityCoverage":{"coveragePercent":100.0,"knownUnitCount":2,"method":"complete_unit_sum","provenance":{"evidenceCount":0,"recordIds":["wattlas-record-gemunit-g100000407713","wattlas-record-gemunit-g100000407714"],"sourceIds":["gem-global-integrated-power-tracker"],"sourceTypes":["research_verified"],"valueKind":"reported"},"totalUnitCount":2},"operatingCapacityMw":254.0,"operatingCapacityMwByTechnology":{"gas":254.0},"plannedCapacityCoverage":{"coveragePercent":0.0,"knownUnitCount":0,"method":"unavailable","totalUnitCount":0},"plannedCapacityMw":0.0,"plannedCapacityMwByTechnology":{},"recordCount":2,"recordIds":["wattlas-record-gemunit-g100000407713","wattlas-record-gemunit-g100000407714"],"sourceIds":["gem-global-integrated-power-tracker"],"technologies":["gas"],"technologyMixMw":{"gas":254.0},"unitCount":2,"unitIds":["gem-unit-G100000407713","gem-unit-G100000407714"]},"type":"Feature"},{"geometry":{"coordinates":[58.165243,38.059377],"type":"Point"},"id":"wattlas-plant-gemplant-l100000406931","properties":{"aliases":["1-2","2-2","Abadan State power station"],"canonicalAnchor":"gemplant:L100000406931","canonicalCountryKey":"TM","capacityMw":246.0,"country":"TM","externalIdAliases":{"gemUnit":["G100000407715","G100000407717"]},"externalIds":{"gemPlant":"L100000406931","gemUnit":"G100000407715"},"geographyId":"TM-27578892B63269087941453","id":"wattlas-plant-gemplant-l100000406931","lifecycleCounts":{"operational":2},"locationPrecision":"exact","name":"Abadan State power station","operatingCapacityCoverage":{"coveragePercent":100.0,"knownUnitCount":2,"method":"complete_unit_sum","provenance":{"evidenceCount":0,"recordIds":["wattlas-record-gemunit-g100000407715","wattlas-record-gemunit-g100000407717"],"sourceIds":["gem-global-integrated-power-tracker"],"sourceTypes":["research_verified"],"valueKind":"reported"},"totalUnitCount":2},"operatingCapacityMw":246.0,"operatingCapacityMwByTechnology":{"gas":246.0},"plannedCapacityCoverage":{"coveragePercent":0.0,"knownUnitCount":0,"method":"unavailable","totalUnitCount":0},"plannedCapacityMw":0.0,"plannedCapacityMwByTechnology":{},"recordCount":2,"recordIds":["wattlas-record-gemunit-g100000407715","wattlas-record-gemunit-g100000407717"],"sourceIds":["gem-global-integrated-power-tracker"],"technologies":["gas"],"technologyMixMw":{"gas":246.0},"unitCount":2,"unitIds":["gem-unit-G100000407715","gem-unit-G100000407717"]},"type":"Feature"},{"geometry":{"coordinates":[52.96461,40.02169],"type":"Point"},"id":"wattlas-plant-gemplant-l100000408454","properties":{"aliases":["1-1","2-1","Turkmenbashi oil processing complex power station"],"canonicalAnchor":"gemplant:L100000408454","canonicalCountryKey":"TM","capacityMw":140.0,"country":"TM","externalIdAliases":{"gemUnit":["G100000411939","G100000411940"]},"externalIds":{"gemPlant":"L100000408454","gemUnit":"G100000411939"},"geographyId":"TM-27578892B85944744725550","id":"wattlas-plant-gemplant-l100000408454","lifecycleCounts":{"operational":2},"locationPrecision":"exact","name":"Turkmenbashi oil processing complex power station","operatingCapacityCoverage":{"coveragePercent":100.0,"knownUnitCount":2,"method":"complete_unit_sum","provenance":{"evidenceCount":0,"recordIds":["wattlas-record-gemunit-g100000411939","wattlas-record-gemunit-g100000411940"],"sourceIds":["gem-global-integrated-power-tracker"],"sourceTypes":["research_verified"],"valueKind":"reported"},"totalUnitCount":2},"operatingCapacityMw":140.0,"operatingCapacityMwByTechnology":{"gas":140.0},"plannedCapacityCoverage":{"coveragePercent":0.0,"knownUnitCount":0,"method":"unavailable","totalUnitCount":0},"plannedCapacityMw":0.0,"plannedCapacityMwByTechnology":{},"recordCount":2,"recordIds":["wattlas-record-gemunit-g100000411939","wattlas-record-gemunit-g100000411940"],"sourceIds":["gem-global-integrated-power-tracker"],"technologies":["gas"],"technologyMixMw":{"gas":140.0},"unitCount":2,"unitIds":["gem-unit-G100000411939","gem-unit-G100000411940"]},"type":"Feature"},{"geometry":{"coordinates":[61.4054,41.2132],"type":"Point"},"id":"wattlas-plant-gemplant-l100000604108","properties":{"aliases":["Tuyamuyun hydroelectric plant"],"canonicalAnchor":"gemplant:L100000604108","canonicalCountryKey":"TM","capacityMw":150.0,"country":"TM","externalIds":{"gemPlant":"L100000604108","gemUnit":"G100000604147"},"geographyId":"TM-27578892B29988598794089","id":"wattlas-plant-gemplant-l100000604108","lifecycleCounts":{"operational":1},"locationPrecision":"exact","name":"Tuyamuyun hydroelectric plant","operatingCapacityCoverage":{"coveragePercent":100.0,"knownUnitCount":1,"method":"complete_unit_sum","provenance":{"evidenceCount":0,"recordIds":["wattlas-record-gemunit-g100000604147"],"sourceIds":["gem-global-integrated-power-tracker"],"sourceTypes":["research_verified"],"valueKind":"reported"},"totalUnitCount":1},"operatingCapacityMw":150.0,"operatingCapacityMwByTechnology":{"hydro":150.0},"plannedCapacityCoverage":{"coveragePercent":0.0,"knownUnitCount":0,"method":"unavailable","totalUnitCount":0},"plannedCapacityMw":0.0,"plannedCapacityMwByTechnology":{},"recordCount":1,"recordIds":["wattlas-record-gemunit-g100000604147"],"sourceIds":["gem-global-integrated-power-tracker"],"technologies":["hydro"],"technologyMixMw":{"hydro":150.0},"unitCount":1,"unitIds":["gem-unit-G100000604147"]},"type":"Feature"},{"geometry":{"coordinates":[57.4899,38.3992],"type":"Point"},"id":"wattlas-plant-gemplant-l100001065153","properties":{"aliases":["--","Baherden District solar project"],"canonicalAnchor":"gemplant:L100001065153","canonicalCountryKey":"TM","capacityMw":2.8,"country":"TM","externalIds":{"gemPlant":"L100001065153","gemUnit":"G100001074939"},"geographyId":"TM-27578892B63269087941453","id":"wattlas-plant-gemplant-l100001065153","lifecycleCounts":{"operational":1},"locationPrecision":"exact","name":"Baherden District solar project","operatingCapacityCoverage":{"coveragePercent":100.0,"knownUnitCount":1,"method":"complete_unit_sum","provenance":{"evidenceCount":0,"recordIds":["wattlas-record-gemunit-g100001074939"],"sourceIds":["gem-global-integrated-power-tracker"],"sourceTypes":["research_verified"],"valueKind":"reported"},"totalUnitCount":1},"operatingCapacityMw":2.8,"operatingCapacityMwByTechnology":{"solar":2.8},"plannedCapacityCoverage":{"coveragePercent":0.0,"knownUnitCount":0,"method":"unavailable","totalUnitCount":0},"plannedCapacityMw":0.0,"plannedCapacityMwByTechnology":{},"recordCount":1,"recordIds":["wattlas-record-gemunit-g100001074939"],"sourceIds":["gem-global-integrated-power-tracker"],"technologies":["solar"],"technologyMixMw":{"solar":2.8},"unitCount":1,"unitIds":["gem-unit-G100001074939"]},"type":"Feature"},{"geometry":{"coordinates":[57.0902,40.1421],"type":"Point"},"id":"wattlas-plant-gemplant-l100001065154","properties":{"aliases":["--","Saparmurat Turkmenbashy District solar project"],"canonicalAnchor":"gemplant:L100001065154","canonicalCountryKey":"TM","capacityMw":6.2,"country":"TM","externalIds":{"gemPlant":"L100001065154","gemUnit":"G100001074940"},"geographyId":"TM-27578892B85944744725550","id":"wattlas-plant-gemplant-l100001065154","lifecycleCounts":{"operational":1},"locationPrecision":"exact","name":"Saparmurat Turkmenbashy District solar project","operatingCapacityCoverage":{"coveragePercent":100.0,"knownUnitCount":1,"method":"complete_unit_sum","provenance":{"evidenceCount":0,"recordIds":["wattlas-record-gemunit-g100001074940"],"sourceIds":["gem-global-integrated-power-tracker"],"sourceTypes":["research_verified"],"valueKind":"reported"},"totalUnitCount":1},"operatingCapacityMw":6.2,"operatingCapacityMwByTechnology":{"solar":6.2},"plannedCapacityCoverage":{"coveragePercent":0.0,"knownUnitCount":0,"method":"unavailable","totalUnitCount":0},"plannedCapacityMw":0.0,"plannedCapacityMwByTechnology":{},"recordCount":1,"recordIds":["wattlas-record-gemunit-g100001074940"],"sourceIds":["gem-global-integrated-power-tracker"],"technologies":["solar"],"technologyMixMw":{"solar":6.2},"unitCount":1,"unitIds":["gem-unit-G100001074940"]},"type":"Feature"},{"geometry":{"coordinates":[63.8756,39.22],"type":"Point"},"id":"wattlas-plant-gemplant-l100001065162","properties":{"aliases":["--","Olot District solar project"],"canonicalAnchor":"gemplant:L100001065162","canonicalCountryKey":"TM","capacityMw":2.3,"country":"TM","externalIds":{"gemPlant":"L100001065162","gemUnit":"G100001074948"},"geographyId":"TM-27578892B29988598794089","id":"wattlas-plant-gemplant-l100001065162","lifecycleCounts":{"operational":1},"locationPrecision":"exact","name":"Olot District solar project","operatingCapacityCoverage":{"coveragePercent":100.0,"knownUnitCount":1,"method":"complete_unit_sum","provenance":{"evidenceCount":0,"recordIds":["wattlas-record-gemunit-g100001074948"],"sourceIds":["gem-global-integrated-power-tracker"],"sourceTypes":["research_verified"],"valueKind":"reported"},"totalUnitCount":1},"operatingCapacityMw":2.3,"operatingCapacityMwByTechnology":{"solar":2.3},"plannedCapacityCoverage":{"coveragePercent":0.0,"knownUnitCount":0,"method":"unavailable","totalUnitCount":0},"plannedCapacityMw":0.0,"plannedCapacityMwByTechnology":{},"recordCount":1,"recordIds":["wattlas-record-gemunit-g100001074948"],"sourceIds":["gem-global-integrated-power-tracker"],"technologies":["solar"],"technologyMixMw":{"solar":2.3},"unitCount":1,"unitIds":["gem-unit-G100001074948"]},"type":"Feature"},{"geometry":{"coordinates":[64.6622,38.8009],"type":"Point"},"id":"wattlas-plant-gemplant-l100001065167","properties":{"aliases":["--","Qashqadaryo Region solar project III"],"canonicalAnchor":"gemplant:L100001065167","canonicalCountryKey":"TM","capacityMw":2.9,"country":"TM","externalIds":{"gemPlant":"L100001065167","gemUnit":"G100001074953"},"geographyId":"TM-27578892B29988598794089","id":"wattlas-plant-gemplant-l100001065167","lifecycleCounts":{"operational":1},"locationPrecision":"exact","name":"Qashqadaryo Region solar project III","operatingCapacityCoverage":{"coveragePercent":100.0,"knownUnitCount":1,"method":"complete_unit_sum","provenance":{"evidenceCount":0,"recordIds":["wattlas-record-gemunit-g100001074953"],"sourceIds":["gem-global-integrated-power-tracker"],"sourceTypes":["research_verified"],"valueKind":"reported"},"totalUnitCount":1},"operatingCapacityMw":2.9,"operatingCapacityMwByTechnology":{"solar":2.9},"plannedCapacityCoverage":{"coveragePercent":0.0,"knownUnitCount":0,"method":"unavailable","totalUnitCount":0},"plannedCapacityMw":0.0,"plannedCapacityMwByTechnology":{},"recordCount":1,"recordIds":["wattlas-record-gemunit-g100001074953"],"sourceIds":["gem-global-integrated-power-tracker"],"technologies":["solar"],"technologyMixMw":{"solar":2.9},"unitCount":1,"unitIds":["gem-unit-G100001074953"]},"type":"Feature"},{"geometry":{"coordinates":[65.640762,37.930502],"type":"Point"},"id":"wattlas-plant-osm-relation-8213439","properties":{"aliases":["Watan (Vatan) Power Plant"],"canonicalAnchor":"osm:relation/8213439","canonicalCountryKey":"TM","capacityMw":0.0,"country":"TM","externalIds":{"osm":"relation/8213439"},"geographyId":"TM-27578892B29988598794089","id":"wattlas-plant-osm-relation-8213439","lifecycleCounts":{"operational":1},"locationPrecision":"exact","name":"Watan (Vatan) Power Plant","operatingCapacityCoverage":{"coveragePercent":0.0,"knownUnitCount":0,"method":"unavailable","totalUnitCount":0},"operatingCapacityMw":0.0,"operatingCapacityMwByTechnology":{},"plannedCapacityCoverage":{"coveragePercent":0.0,"knownUnitCount":0,"method":"unavailable","totalUnitCount":0},"plannedCapacityMw":0.0,"plannedCapacityMwByTechnology":{},"recordCount":1,"recordIds":["wattlas-record-osm-relation-8213439"],"sourceIds":["openstreetmap-power"],"technologies":["gas"],"technologyMixMw":{"gas":0.0},"unitCount":0,"unitIds":[]},"type":"Feature"},{"geometry":{"coordinates":[58.563644,37.94177],"type":"Point"},"id":"wattlas-plant-osm-way-148279938","properties":{"aliases":["Ahal State Power Station"],"canonicalAnchor":"osm:way/148279938","canonicalCountryKey":"TM","capacityMw":648.0,"country":"TM","externalIds":{"osm":"way/148279938"},"geographyId":"TM-27578892B63269087941453","id":"wattlas-plant-osm-way-148279938","lifecycleCounts":{"operational":1},"locationPrecision":"exact","name":"Ahal State Power Station","operatingCapacityCoverage":{"coveragePercent":100.0,"knownUnitCount":0,"method":"plant_aggregate","provenance":{"evidenceCount":0,"recordIds":["wattlas-record-osm-way-148279938"],"sourceIds":["openstreetmap-power"],"sourceTypes":["community_mapped"],"valueKind":"reported"},"totalUnitCount":0},"operatingCapacityMw":648.0,"operatingCapacityMwByTechnology":{"gas":648.0},"plannedCapacityCoverage":{"coveragePercent":0.0,"knownUnitCount":0,"method":"unavailable","totalUnitCount":0},"plannedCapacityMw":0.0,"plannedCapacityMwByTechnology":{},"recordCount":1,"recordIds":["wattlas-record-osm-way-148279938"],"sourceIds":["openstreetmap-power"],"technologies":["gas"],"technologyMixMw":{"gas":648.0},"unitCount":0,"unitIds":[]},"type":"Feature"},{"geometry":{"coordinates":[59.913775,41.858428],"type":"Point"},"id":"wattlas-plant-osm-way-229820104","properties":{"aliases":["Daşoguz power plant"],"canonicalAnchor":"osm:way/229820104","canonicalCountryKey":"TM","capacityMw":254.2,"country":"TM","externalIds":{"osm":"way/229820104"},"geographyId":"TM-27578892B88292714467572","id":"wattlas-plant-osm-way-229820104","lifecycleCounts":{"operational":1},"locationPrecision":"exact","name":"Daşoguz power plant","operatingCapacityCoverage":{"coveragePercent":100.0,"knownUnitCount":0,"method":"plant_aggregate","provenance":{"evidenceCount":0,"recordIds":["wattlas-record-osm-way-229820104"],"sourceIds":["openstreetmap-power"],"sourceTypes":["community_mapped"],"valueKind":"reported"},"totalUnitCount":0},"operatingCapacityMw":254.2,"operatingCapacityMwByTechnology":{"gas":254.2},"plannedCapacityCoverage":{"coveragePercent":0.0,"knownUnitCount":0,"method":"unavailable","totalUnitCount":0},"plannedCapacityMw":0.0,"plannedCapacityMwByTechnology":{},"recordCount":1,"recordIds":["wattlas-record-osm-way-229820104"],"sourceIds":["openstreetmap-power"],"technologies":["gas"],"technologyMixMw":{"gas":254.2},"unitCount":0,"unitIds":[]},"type":"Feature"},{"geometry":{"coordinates":[52.959238,40.03219],"type":"Point"},"id":"wattlas-plant-osm-way-229820322","properties":{"aliases":["Turkmenbashi Refinery Power Station"],"canonicalAnchor":"osm:way/229820322","canonicalCountryKey":"TM","capacityMw":0.0,"country":"TM","externalIds":{"osm":"way/229820322"},"geographyId":"TM-27578892B85944744725550","id":"wattlas-plant-osm-way-229820322","lifecycleCounts":{"operational":1},"locationPrecision":"exact","name":"Turkmenbashi Refinery Power Station","operatingCapacityCoverage":{"coveragePercent":0.0,"knownUnitCount":0,"method":"unavailable","totalUnitCount":0},"operatingCapacityMw":0.0,"operatingCapacityMwByTechnology":{},"plannedCapacityCoverage":{"coveragePercent":0.0,"knownUnitCount":0,"method":"unavailable","totalUnitCount":0},"plannedCapacityMw":0.0,"plannedCapacityMwByTechnology":{},"recordCount":1,"recordIds":["wattlas-record-osm-way-229820322"],"sourceIds":["openstreetmap-power"],"technologies":["gas"],"technologyMixMw":{"gas":0.0},"unitCount":0,"unitIds":[]},"type":"Feature"},{"geometry":{"coordinates":[62.855721,39.430442],"type":"Point"},"id":"wattlas-plant-osm-way-246157356","properties":{"aliases":["Seydi Power Plant"],"canonicalAnchor":"osm:way/246157356","canonicalCountryKey":"TM","capacityMw":0.0,"country":"TM","externalIds":{"osm":"way/246157356"},"geographyId":"TM-27578892B29988598794089","id":"wattlas-plant-osm-way-246157356","lifecycleCounts":{"operational":1},"locationPrecision":"exact","name":"Seydi Power Plant","operatingCapacityCoverage":{"coveragePercent":0.0,"knownUnitCount":0,"method":"unavailable","totalUnitCount":0},"operatingCapacityMw":0.0,"operatingCapacityMwByTechnology":{},"plannedCapacityCoverage":{"coveragePercent":0.0,"knownUnitCount":0,"method":"unavailable","totalUnitCount":0},"plannedCapacityMw":0.0,"plannedCapacityMwByTechnology":{},"recordCount":1,"recordIds":["wattlas-record-osm-way-246157356"],"sourceIds":["openstreetmap-power"],"technologies":["oil"],"technologyMixMw":{"oil":0.0},"unitCount":0,"unitIds":[]},"type":"Feature"},{"geometry":{"coordinates":[61.839704,37.501023],"type":"Point"},"id":"wattlas-plant-osm-way-342715077","properties":{"aliases":["Mary Thermal Power Plant"],"canonicalAnchor":"osm:way/342715077","canonicalCountryKey":"TM","capacityMw":0.0,"country":"TM","externalIds":{"osm":"way/342715077"},"geographyId":"TM-27578892B74829978216420","id":"wattlas-plant-osm-way-342715077","lifecycleCounts":{"operational":1},"locationPrecision":"exact","name":"Mary Thermal Power Plant","operatingCapacityCoverage":{"coveragePercent":0.0,"knownUnitCount":0,"method":"unavailable","totalUnitCount":0},"operatingCapacityMw":0.0,"operatingCapacityMwByTechnology":{},"plannedCapacityCoverage":{"coveragePercent":0.0,"knownUnitCount":0,"method":"unavailable","totalUnitCount":0},"plannedCapacityMw":0.0,"plannedCapacityMwByTechnology":{},"recordCount":1,"recordIds":["wattlas-record-osm-way-342715077"],"sourceIds":["openstreetmap-power"],"technologies":["oil"],"technologyMixMw":{"oil":0.0},"unitCount":0,"unitIds":[]},"type":"Feature"},{"geometry":{"coordinates":[63.464912,38.97703],"type":"Point"},"id":"wattlas-plant-osm-way-484614733","properties":{"aliases":["Lebap power plant"],"canonicalAnchor":"osm:way/484614733","canonicalCountryKey":"TM","capacityMw":149.2,"country":"TM","externalIds":{"osm":"way/484614733"},"geographyId":"TM-27578892B29988598794089","id":"wattlas-plant-osm-way-484614733","lifecycleCounts":{"operational":1},"locationPrecision":"exact","name":"Lebap power plant","operatingCapacityCoverage":{"coveragePercent":100.0,"knownUnitCount":0,"method":"plant_aggregate","provenance":{"evidenceCount":0,"recordIds":["wattlas-record-osm-way-484614733"],"sourceIds":["openstreetmap-power"],"sourceTypes":["community_mapped"],"valueKind":"reported"},"totalUnitCount":0},"operatingCapacityMw":149.2,"operatingCapacityMwByTechnology":{"gas":149.2},"plannedCapacityCoverage":{"coveragePercent":0.0,"knownUnitCount":0,"method":"unavailable","totalUnitCount":0},"plannedCapacityMw":0.0,"plannedCapacityMwByTechnology":{},"recordCount":1,"recordIds":["wattlas-record-osm-way-484614733"],"sourceIds":["openstreetmap-power"],"technologies":["gas"],"technologyMixMw":{"gas":149.2},"unitCount":0,"unitIds":[]},"type":"Feature"},{"geometry":{"coordinates":[61.405587,41.213302],"type":"Point"},"id":"wattlas-plant-osm-way-505573524","properties":{"aliases":["Tu'yemoyin GES"],"canonicalAnchor":"osm:way/505573524","canonicalCountryKey":"TM","capacityMw":150.0,"country":"TM","externalIds":{"osm":"way/505573524","wikipedia":"ru:Туямуюнская ГЭС"},"geographyId":"TM-27578892B29988598794089","id":"wattlas-plant-osm-way-505573524","lifecycleCounts":{"operational":1},"locationPrecision":"exact","name":"Tu'yemoyin GES","operatingCapacityCoverage":{"coveragePercent":100.0,"knownUnitCount":0,"method":"plant_aggregate","provenance":{"evidenceCount":0,"recordIds":["wattlas-record-osm-way-505573524"],"sourceIds":["openstreetmap-power"],"sourceTypes":["community_mapped"],"valueKind":"reported"},"totalUnitCount":0},"operatingCapacityMw":150.0,"operatingCapacityMwByTechnology":{"hydro":150.0},"plannedCapacityCoverage":{"coveragePercent":0.0,"knownUnitCount":0,"method":"unavailable","totalUnitCount":0},"plannedCapacityMw":0.0,"plannedCapacityMwByTechnology":{},"recordCount":1,"recordIds":["wattlas-record-osm-way-505573524"],"sourceIds":["openstreetmap-power"],"technologies":["hydro"],"technologyMixMw":{"hydro":150.0},"unitCount":0,"unitIds":[]},"type":"Feature"},{"geometry":{"coordinates":[58.323047,37.975456],"type":"Point"},"id":"wattlas-plant-osm-way-518999597","properties":{"aliases":["Котельная"],"canonicalAnchor":"osm:way/518999597","canonicalCountryKey":"TM","capacityMw":0.0,"country":"TM","externalIds":{"osm":"way/518999597"},"geographyId":"TM-27578892B63269087941453","id":"wattlas-plant-osm-way-518999597","lifecycleCounts":{"operational":1},"locationPrecision":"exact","name":"Котельная","operatingCapacityCoverage":{"coveragePercent":0.0,"knownUnitCount":0,"method":"unavailable","totalUnitCount":0},"operatingCapacityMw":0.0,"operatingCapacityMwByTechnology":{},"plannedCapacityCoverage":{"coveragePercent":0.0,"knownUnitCount":0,"method":"unavailable","totalUnitCount":0},"plannedCapacityMw":0.0,"plannedCapacityMwByTechnology":{},"recordCount":1,"recordIds":["wattlas-record-osm-way-518999597"],"sourceIds":["openstreetmap-power"],"technologies":["gas"],"technologyMixMw":{"gas":0.0},"unitCount":0,"unitIds":[]},"type":"Feature"},{"geometry":{"coordinates":[58.393551,38.149748],"type":"Point"},"id":"wattlas-plant-osm-way-522702547","properties":{"aliases":["Derweze Döwlet Elektrik Stansiýasy"],"canonicalAnchor":"osm:way/522702547","canonicalCountryKey":"TM","capacityMw":504.4,"country":"TM","externalIds":{"osm":"way/522702547"},"geographyId":"TM-27578892B63269087941453","id":"wattlas-plant-osm-way-522702547","lifecycleCounts":{"operational":1},"locationPrecision":"exact","name":"Derweze Döwlet Elektrik Stansiýasy","operatingCapacityCoverage":{"coveragePercent":100.0,"knownUnitCount":0,"method":"plant_aggregate","provenance":{"evidenceCount":0,"recordIds":["wattlas-record-osm-way-522702547"],"sourceIds":["openstreetmap-power"],"sourceTypes":["community_mapped"],"valueKind":"reported"},"totalUnitCount":0},"operatingCapacityMw":504.4,"operatingCapacityMwByTechnology":{"gas":504.4},"plannedCapacityCoverage":{"coveragePercent":0.0,"knownUnitCount":0,"method":"unavailable","totalUnitCount":0},"plannedCapacityMw":0.0,"plannedCapacityMwByTechnology":{},"recordCount":1,"recordIds":["wattlas-record-osm-way-522702547"],"sourceIds":["openstreetmap-power"],"technologies":["gas"],"technologyMixMw":{"gas":504.4},"unitCount":0,"unitIds":[]},"type":"Feature"},{"geometry":{"coordinates":[61.844475,37.499267],"type":"Point"},"id":"wattlas-plant-osm-way-568258868","properties":{"aliases":["Mary-2 Basit Çevrim Elektrik Santrali"],"canonicalAnchor":"osm:way/568258868","canonicalCountryKey":"TM","capacityMw":146.7,"country":"TM","externalIds":{"osm":"way/568258868"},"geographyId":"TM-27578892B74829978216420","id":"wattlas-plant-osm-way-568258868","lifecycleCounts":{"operational":1},"locationPrecision":"exact","name":"Mary-2 Basit Çevrim Elektrik Santrali","operatingCapacityCoverage":{"coveragePercent":100.0,"knownUnitCount":0,"method":"plant_aggregate","provenance":{"evidenceCount":0,"recordIds":["wattlas-record-osm-way-568258868"],"sourceIds":["openstreetmap-power"],"sourceTypes":["community_mapped"],"valueKind":"reported"},"totalUnitCount":0},"operatingCapacityMw":146.7,"operatingCapacityMwByTechnology":{"gas":146.7},"plannedCapacityCoverage":{"coveragePercent":0.0,"knownUnitCount":0,"method":"unavailable","totalUnitCount":0},"plannedCapacityMw":0.0,"plannedCapacityMwByTechnology":{},"recordCount":1,"recordIds":["wattlas-record-osm-way-568258868"],"sourceIds":["openstreetmap-power"],"technologies":["gas"],"technologyMixMw":{"gas":146.7},"unitCount":0,"unitIds":[]},"type":"Feature"},{"geometry":{"coordinates":[61.84773,37.498559],"type":"Point"},"id":"wattlas-plant-osm-way-630670743","properties":{"aliases":["Mary Döwlet Elektrik Stansiaýasy"],"canonicalAnchor":"osm:way/630670743","canonicalCountryKey":"TM","capacityMw":1574.0,"country":"TM","externalIds":{"osm":"way/630670743"},"geographyId":"TM-27578892B74829978216420","id":"wattlas-plant-osm-way-630670743","lifecycleCounts":{"operational":1},"locationPrecision":"exact","name":"Mary Döwlet Elektrik Stansiaýasy","operatingCapacityCoverage":{"coveragePercent":100.0,"knownUnitCount":0,"method":"plant_aggregate","provenance":{"evidenceCount":0,"recordIds":["wattlas-record-osm-way-630670743"],"sourceIds":["openstreetmap-power"],"sourceTypes":["community_mapped"],"valueKind":"reported"},"totalUnitCount":0},"operatingCapacityMw":1574.0,"operatingCapacityMwByTechnology":{"gas":1574.0},"plannedCapacityCoverage":{"coveragePercent":0.0,"knownUnitCount":0,"method":"unavailable","totalUnitCount":0},"plannedCapacityMw":0.0,"plannedCapacityMwByTechnology":{},"recordCount":1,"recordIds":["wattlas-record-osm-way-630670743"],"sourceIds":["openstreetmap-power"],"technologies":["gas"],"technologyMixMw":{"gas":1574.0},"unitCount":0,"unitIds":[]},"type":"Feature"},{"geometry":{"coordinates":[52.990844,40.014304],"type":"Point"},"id":"wattlas-plant-osm-way-712434058","properties":{"aliases":["Котельная № 64"],"canonicalAnchor":"osm:way/712434058","canonicalCountryKey":"TM","capacityMw":0.0,"country":"TM","externalIds":{"osm":"way/712434058"},"geographyId":"TM-27578892B85944744725550","id":"wattlas-plant-osm-way-712434058","lifecycleCounts":{"operational":1},"locationPrecision":"exact","name":"Котельная № 64","operatingCapacityCoverage":{"coveragePercent":0.0,"knownUnitCount":0,"method":"unavailable","totalUnitCount":0},"operatingCapacityMw":0.0,"operatingCapacityMwByTechnology":{},"plannedCapacityCoverage":{"coveragePercent":0.0,"knownUnitCount":0,"method":"unavailable","totalUnitCount":0},"plannedCapacityMw":0.0,"plannedCapacityMwByTechnology":{},"recordCount":1,"recordIds":["wattlas-record-osm-way-712434058"],"sourceIds":["openstreetmap-power"],"technologies":["other"],"technologyMixMw":{"other":0.0},"unitCount":0,"unitIds":[]},"type":"Feature"},{"geometry":{"coordinates":[52.990517,40.012161],"type":"Point"},"id":"wattlas-plant-osm-way-712434378","properties":{"aliases":["Котельная № 33"],"canonicalAnchor":"osm:way/712434378","canonicalCountryKey":"TM","capacityMw":0.0,"country":"TM","externalIds":{"osm":"way/712434378"},"geographyId":"TM-27578892B85944744725550","id":"wattlas-plant-osm-way-712434378","lifecycleCounts":{"operational":1},"locationPrecision":"exact","name":"Котельная № 33","operatingCapacityCoverage":{"coveragePercent":0.0,"knownUnitCount":0,"method":"unavailable","totalUnitCount":0},"operatingCapacityMw":0.0,"operatingCapacityMwByTechnology":{},"plannedCapacityCoverage":{"coveragePercent":0.0,"knownUnitCount":0,"method":"unavailable","totalUnitCount":0},"plannedCapacityMw":0.0,"plannedCapacityMwByTechnology":{},"recordCount":1,"recordIds":["wattlas-record-osm-way-712434378"],"sourceIds":["openstreetmap-power"],"technologies":["other"],"technologyMixMw":{"other":0.0},"unitCount":0,"unitIds":[]},"type":"Feature"},{"geometry":{"coordinates":[52.988015,40.009547],"type":"Point"},"id":"wattlas-plant-osm-way-712439075","properties":{"aliases":["Котельная № 15"],"canonicalAnchor":"osm:way/712439075","canonicalCountryKey":"TM","capacityMw":0.0,"country":"TM","externalIds":{"osm":"way/712439075"},"geographyId":"TM-27578892B85944744725550","id":"wattlas-plant-osm-way-712439075","lifecycleCounts":{"operational":1},"locationPrecision":"exact","name":"Котельная № 15","operatingCapacityCoverage":{"coveragePercent":0.0,"knownUnitCount":0,"method":"unavailable","totalUnitCount":0},"operatingCapacityMw":0.0,"operatingCapacityMwByTechnology":{},"plannedCapacityCoverage":{"coveragePercent":0.0,"knownUnitCount":0,"method":"unavailable","totalUnitCount":0},"plannedCapacityMw":0.0,"plannedCapacityMwByTechnology":{},"recordCount":1,"recordIds":["wattlas-record-osm-way-712439075"],"sourceIds":["openstreetmap-power"],"technologies":["other"],"technologyMixMw":{"other":0.0},"unitCount":0,"unitIds":[]},"type":"Feature"},{"geometry":{"coordinates":[63.469414,38.974951],"type":"Point"},"id":"wattlas-plant-osm-way-794156949","properties":{"aliases":["Zerger Power Plant"],"canonicalAnchor":"osm:way/794156949","canonicalCountryKey":"TM","capacityMw":432.0,"country":"TM","externalIds":{"osm":"way/794156949"},"geographyId":"TM-27578892B29988598794089","id":"wattlas-plant-osm-way-794156949","lifecycleCounts":{"operational":1},"locationPrecision":"exact","name":"Zerger Power Plant","operatingCapacityCoverage":{"coveragePercent":100.0,"knownUnitCount":0,"method":"plant_aggregate","provenance":{"evidenceCount":0,"recordIds":["wattlas-record-osm-way-794156949"],"sourceIds":["openstreetmap-power"],"sourceTypes":["community_mapped"],"valueKind":"reported"},"totalUnitCount":0},"operatingCapacityMw":432.0,"operatingCapacityMwByTechnology":{"gas":432.0},"plannedCapacityCoverage":{"coveragePercent":0.0,"knownUnitCount":0,"method":"unavailable","totalUnitCount":0},"plannedCapacityMw":0.0,"plannedCapacityMwByTechnology":{},"recordCount":1,"recordIds":["wattlas-record-osm-way-794156949"],"sourceIds":["openstreetmap-power"],"technologies":["gas"],"technologyMixMw":{"gas":432.0},"unitCount":0,"unitIds":[]},"type":"Feature"},{"geometry":{"coordinates":[52.846353,40.011385],"type":"Point"},"id":"wattlas-plant-osm-way-969940009","properties":{"aliases":["Avaza Power Plant"],"canonicalAnchor":"osm:way/969940009","canonicalCountryKey":"TM","capacityMw":254.0,"country":"TM","externalIds":{"osm":"way/969940009"},"geographyId":"TM-27578892B85944744725550","id":"wattlas-plant-osm-way-969940009","lifecycleCounts":{"operational":1},"locationPrecision":"exact","name":"Avaza Power Plant","operatingCapacityCoverage":{"coveragePercent":100.0,"knownUnitCount":0,"method":"plant_aggregate","provenance":{"evidenceCount":0,"recordIds":["wattlas-record-osm-way-969940009"],"sourceIds":["openstreetmap-power"],"sourceTypes":["community_mapped"],"valueKind":"reported"},"totalUnitCount":0},"operatingCapacityMw":254.0,"operatingCapacityMwByTechnology":{"gas":254.0},"plannedCapacityCoverage":{"coveragePercent":0.0,"knownUnitCount":0,"method":"unavailable","totalUnitCount":0},"plannedCapacityMw":0.0,"plannedCapacityMwByTechnology":{},"recordCount":1,"recordIds":["wattlas-record-osm-way-969940009"],"sourceIds":["openstreetmap-power"],"technologies":["gas"],"technologyMixMw":{"gas":254.0},"unitCount":0,"unitIds":[]},"type":"Feature"},{"geometry":{"coordinates":[52.927864,40.010157],"type":"Point"},"id":"wattlas-plant-wikidata-q110259600","properties":{"aliases":["Теплоэлектростанция"],"canonicalAnchor":"wikidata:Q110259600","canonicalCountryKey":"TM","capacityMw":420.0,"country":"TM","externalIds":{"osm":"way/382276491","wikidata":"Q110259600"},"geographyId":"TM-27578892B85944744725550","id":"wattlas-plant-wikidata-q110259600","idAliases":["wattlas-plant-osm-way-382276491"],"lifecycleCounts":{"operational":1},"locationPrecision":"exact","name":"Теплоэлектростанция","operatingCapacityCoverage":{"coveragePercent":100.0,"knownUnitCount":0,"method":"plant_aggregate","provenance":{"evidenceCount":0,"recordIds":["wattlas-record-osm-way-382276491"],"sourceIds":["openstreetmap-power"],"sourceTypes":["community_mapped"],"valueKind":"reported"},"totalUnitCount":0},"operatingCapacityMw":420.0,"operatingCapacityMwByTechnology":{"gas":420.0},"plannedCapacityCoverage":{"coveragePercent":0.0,"knownUnitCount":0,"method":"unavailable","totalUnitCount":0},"plannedCapacityMw":0.0,"plannedCapacityMwByTechnology":{},"recordCount":1,"recordIds":["wattlas-record-osm-way-382276491"],"sourceIds":["openstreetmap-power"],"technologies":["gas"],"technologyMixMw":{"gas":420.0},"unitCount":0,"unitIds":[]},"type":"Feature"},{"geometry":{"coordinates":[58.164686,38.059258],"type":"Point"},"id":"wattlas-plant-wikidata-q110259602","properties":{"aliases":["Büzmeýin Döwlet Elektrik Stansiýasy"],"canonicalAnchor":"wikidata:Q110259602","canonicalCountryKey":"TM","capacityMw":371.0,"country":"TM","externalIds":{"osm":"way/229819518","wikidata":"Q110259602"},"geographyId":"TM-27578892B63269087941453","id":"wattlas-plant-wikidata-q110259602","idAliases":["wattlas-plant-osm-way-229819518"],"lifecycleCounts":{"operational":1},"locationPrecision":"exact","name":"Büzmeýin Döwlet Elektrik Stansiýasy","operatingCapacityCoverage":{"coveragePercent":100.0,"knownUnitCount":0,"method":"plant_aggregate","provenance":{"evidenceCount":0,"recordIds":["wattlas-record-osm-way-229819518"],"sourceIds":["openstreetmap-power"],"sourceTypes":["community_mapped"],"valueKind":"reported"},"totalUnitCount":0},"operatingCapacityMw":371.0,"operatingCapacityMwByTechnology":{"gas":371.0},"plannedCapacityCoverage":{"coveragePercent":0.0,"knownUnitCount":0,"method":"unavailable","totalUnitCount":0},"plannedCapacityMw":0.0,"plannedCapacityMwByTechnology":{},"recordCount":1,"recordIds":["wattlas-record-osm-way-229819518"],"sourceIds":["openstreetmap-power"],"technologies":["gas"],"technologyMixMw":{"gas":371.0},"unitCount":0,"unitIds":[]},"type":"Feature"},{"geometry":{"coordinates":[58.383072,37.827849],"type":"Point"},"id":"wattlas-plant-wikidata-q110259603","properties":{"aliases":["Mapped power plant · OSM 229819738"],"canonicalAnchor":"wikidata:Q110259603","canonicalCountryKey":"TM","capacityMw":254.0,"country":"TM","externalIds":{"osm":"way/229819738","wikidata":"Q110259603"},"geographyId":"TM-27578892B63269087941453","id":"wattlas-plant-wikidata-q110259603","idAliases":["wattlas-plant-osm-way-229819738"],"lifecycleCounts":{"operational":1},"locationPrecision":"exact","name":"Mapped power plant · OSM 229819738","operatingCapacityCoverage":{"coveragePercent":100.0,"knownUnitCount":0,"method":"plant_aggregate","provenance":{"evidenceCount":0,"recordIds":["wattlas-record-osm-way-229819738"],"sourceIds":["openstreetmap-power"],"sourceTypes":["community_mapped"],"valueKind":"reported"},"totalUnitCount":0},"operatingCapacityMw":254.0,"operatingCapacityMwByTechnology":{"gas":254.0},"plannedCapacityCoverage":{"coveragePercent":0.0,"knownUnitCount":0,"method":"unavailable","totalUnitCount":0},"plannedCapacityMw":0.0,"plannedCapacityMwByTechnology":{},"recordCount":1,"recordIds":["wattlas-record-osm-way-229819738"],"sourceIds":["openstreetmap-power"],"technologies":["gas"],"technologyMixMw":{"gas":254.0},"unitCount":0,"unitIds":[]},"type":"Feature"},{"geometry":{"coordinates":[54.326914,39.510734],"type":"Point"},"id":"wattlas-plant-wikidata-q110259604","properties":{"aliases":["Balkanabat Power Plant"],"canonicalAnchor":"wikidata:Q110259604","canonicalCountryKey":"TM","capacityMw":428.2,"country":"TM","externalIds":{"osm":"way/229818683","wikidata":"Q110259604"},"geographyId":"TM-27578892B85944744725550","id":"wattlas-plant-wikidata-q110259604","idAliases":["wattlas-plant-osm-way-229818683"],"lifecycleCounts":{"operational":1},"locationPrecision":"exact","name":"Balkanabat Power Plant","operatingCapacityCoverage":{"coveragePercent":100.0,"knownUnitCount":0,"method":"plant_aggregate","provenance":{"evidenceCount":0,"recordIds":["wattlas-record-osm-way-229818683"],"sourceIds":["openstreetmap-power"],"sourceTypes":["community_mapped"],"valueKind":"reported"},"totalUnitCount":0},"operatingCapacityMw":428.2,"operatingCapacityMwByTechnology":{"gas":428.2},"plannedCapacityCoverage":{"coveragePercent":0.0,"knownUnitCount":0,"method":"unavailable","totalUnitCount":0},"plannedCapacityMw":0.0,"plannedCapacityMwByTechnology":{},"recordCount":1,"recordIds":["wattlas-record-osm-way-229818683"],"sourceIds":["openstreetmap-power"],"technologies":["gas"],"technologyMixMw":{"gas":428.2},"unitCount":0,"unitIds":[]},"type":"Feature"}],"type":"FeatureCollection"}