{"features":[{"geometry":{"coordinates":[-61.47379,10.147188],"type":"Point"},"id":"wattlas-plant-gemplant-l100000406615","properties":{"aliases":["1-1","Penal power station"],"canonicalAnchor":"gemplant:L100000406615","canonicalCountryKey":"TT","capacityMw":234.0,"country":"TT","externalIds":{"gemPlant":"L100000406615","gemUnit":"G100000406640"},"geographyId":"TT-22272344B69788286970028","id":"wattlas-plant-gemplant-l100000406615","lifecycleCounts":{"operational":1},"locationPrecision":"exact","name":"Penal power station","operatingCapacityCoverage":{"coveragePercent":100.0,"knownUnitCount":1,"method":"complete_unit_sum","provenance":{"evidenceCount":0,"recordIds":["wattlas-record-gemunit-g100000406640"],"sourceIds":["gem-global-integrated-power-tracker"],"sourceTypes":["research_verified"],"valueKind":"reported"},"totalUnitCount":1},"operatingCapacityMw":234.0,"operatingCapacityMwByTechnology":{"gas":234.0},"plannedCapacityCoverage":{"coveragePercent":0.0,"knownUnitCount":0,"method":"unavailable","totalUnitCount":0},"plannedCapacityMw":0.0,"plannedCapacityMwByTechnology":{},"recordCount":1,"recordIds":["wattlas-record-gemunit-g100000406640"],"sourceIds":["gem-global-integrated-power-tracker"],"technologies":["gas"],"technologyMixMw":{"gas":234.0},"unitCount":1,"unitIds":["gem-unit-G100000406640"]},"type":"Feature"},{"geometry":{"coordinates":[-61.461059,10.4038],"type":"Point"},"id":"wattlas-plant-gemplant-l100000406620","properties":{"aliases":["1-1","2-1","3-1","Trinity power station"],"canonicalAnchor":"gemplant:L100000406620","canonicalCountryKey":"TT","capacityMw":225.0,"country":"TT","externalIdAliases":{"gemUnit":["G100000406629","G100000411233","G100000411234"]},"externalIds":{"gemPlant":"L100000406620","gemUnit":"G100000411233"},"geographyId":"TT-22272344B56641681440639","id":"wattlas-plant-gemplant-l100000406620","lifecycleCounts":{"operational":3},"locationPrecision":"exact","name":"Trinity power station","operatingCapacityCoverage":{"coveragePercent":100.0,"knownUnitCount":3,"method":"complete_unit_sum","provenance":{"evidenceCount":0,"recordIds":["wattlas-record-gemunit-g100000406629","wattlas-record-gemunit-g100000411233","wattlas-record-gemunit-g100000411234"],"sourceIds":["gem-global-integrated-power-tracker"],"sourceTypes":["research_verified"],"valueKind":"reported"},"totalUnitCount":3},"operatingCapacityMw":225.0,"operatingCapacityMwByTechnology":{"gas":225.0},"plannedCapacityCoverage":{"coveragePercent":0.0,"knownUnitCount":0,"method":"unavailable","totalUnitCount":0},"plannedCapacityMw":0.0,"plannedCapacityMwByTechnology":{},"recordCount":3,"recordIds":["wattlas-record-gemunit-g100000406629","wattlas-record-gemunit-g100000411233","wattlas-record-gemunit-g100000411234"],"sourceIds":["gem-global-integrated-power-tracker"],"technologies":["gas"],"technologyMixMw":{"gas":225.0},"unitCount":3,"unitIds":["gem-unit-G100000406629","gem-unit-G100000411233","gem-unit-G100000411234"]},"type":"Feature"},{"geometry":{"coordinates":[-61.47531,10.14766],"type":"Point"},"id":"wattlas-plant-osm-way-165759252","properties":{"aliases":["Penal PowerGen Plant"],"canonicalAnchor":"osm:way/165759252","canonicalCountryKey":"TT","capacityMw":0.0,"country":"TT","externalIds":{"osm":"way/165759252"},"geographyId":"TT-22272344B69788286970028","id":"wattlas-plant-osm-way-165759252","lifecycleCounts":{"operational":1},"locationPrecision":"exact","name":"Penal PowerGen Plant","operatingCapacityCoverage":{"coveragePercent":0.0,"knownUnitCount":0,"method":"unavailable","totalUnitCount":0},"operatingCapacityMw":0.0,"operatingCapacityMwByTechnology":{},"plannedCapacityCoverage":{"coveragePercent":0.0,"knownUnitCount":0,"method":"unavailable","totalUnitCount":0},"plannedCapacityMw":0.0,"plannedCapacityMwByTechnology":{},"recordCount":1,"recordIds":["wattlas-record-osm-way-165759252"],"sourceIds":["openstreetmap-power"],"technologies":["gas"],"technologyMixMw":{"gas":0.0},"unitCount":0,"unitIds":[]},"type":"Feature"},{"geometry":{"coordinates":[-61.341929,10.603774],"type":"Point"},"id":"wattlas-plant-osm-way-815671844","properties":{"aliases":["Piarco International Airport Solar Park"],"canonicalAnchor":"osm:way/815671844","canonicalCountryKey":"TT","capacityMw":0.0,"country":"TT","externalIds":{"osm":"way/815671844"},"geographyId":"TT-22272344B26544115797749","id":"wattlas-plant-osm-way-815671844","lifecycleCounts":{"operational":1},"locationPrecision":"exact","name":"Piarco International Airport Solar Park","operatingCapacityCoverage":{"coveragePercent":0.0,"knownUnitCount":0,"method":"unavailable","totalUnitCount":0},"operatingCapacityMw":0.0,"operatingCapacityMwByTechnology":{},"plannedCapacityCoverage":{"coveragePercent":0.0,"knownUnitCount":0,"method":"unavailable","totalUnitCount":0},"plannedCapacityMw":0.0,"plannedCapacityMwByTechnology":{},"recordCount":1,"recordIds":["wattlas-record-osm-way-815671844"],"sourceIds":["openstreetmap-power"],"technologies":["solar"],"technologyMixMw":{"solar":0.0},"unitCount":0,"unitIds":[]},"type":"Feature"}],"type":"FeatureCollection"}